"Station Name","CAMPBELL RIVER A"
"Province","BRITISH COLUMBIA"
"Current Station Operator","NAV Canada"
"Latitude","49.95"
"Longitude","-125.27"
"Elevation","108.80"
"Climate Identifier","1021270"
"WMO Identifier",""
"TC Identifier","YBL"
"All times are specified in Local Standard Time (LST). Add 1 hour to adjust for Daylight Saving Time where and when it is observed."

"Legend"
"E","Estimated"
"M","Missing"
"NA","Not Available"

"Date/Time","Year","Month","Day","Time","Temp (°C)","Temp Flag","Dew Point Temp (°C)","Dew Point Temp Flag","Rel Hum (%)","Rel Hum Flag","Wind Dir (10s deg)","Wind Dir Flag","Wind Spd (km/h)","Wind Spd Flag","Visibility (km)","Visibility Flag","Stn Press (kPa)","Stn Press Flag","Hmdx","Hmdx Flag","Wind Chill","Wind Chill Flag","Weather"
"2018-10-01 00:00","2018","10","01","00:00","9.3","","9.0","","98","","32","","11","","","M","99.24","","","","","","NA"
"2018-10-01 01:00","2018","10","01","01:00","9.2","","8.9","","98","","31","","5","","","M","99.28","","","","","","NA"
"2018-10-01 02:00","2018","10","01","02:00","8.8","","8.2","","96","","33","","9","","","M","99.29","","","","","","NA"
"2018-10-01 03:00","2018","10","01","03:00","8.9","","8.5","","97","","25","","2","","","M","99.32","","","","","","NA"
"2018-10-01 04:00","2018","10","01","04:00","8.9","","8.6","","98","","28","","4","","","M","99.34","","","","","","NA"
"2018-10-01 05:00","2018","10","01","05:00","9.0","","8.7","","98","","29","","2","","","M","99.35","","","","","","NA"
"2018-10-01 06:00","2018","10","01","06:00","9.3","","8.9","","98","","30","","6","","","M","99.39","","","","","","NA"
"2018-10-01 07:00","2018","10","01","07:00","9.5","","9.1","","98","","1","","5","","","M","99.44","","","","","","NA"
"2018-10-01 08:00","2018","10","01","08:00","9.9","","9.3","","96","","31","","7","","","M","99.48","","","","","","NA"
"2018-10-01 09:00","2018","10","01","09:00","10.5","","9.5","","93","","32","","8","","","M","99.52","","","","","","NA"
"2018-10-01 10:00","2018","10","01","10:00","11.3","","8.5","","83","","3","","7","","","M","99.56","","","","","","NA"
"2018-10-01 11:00","2018","10","01","11:00","11.7","","8.4","","80","","34","","7","","","M","99.61","","","","","","NA"
"2018-10-01 12:00","2018","10","01","12:00","12.1","","8.2","","77","","4","","7","","","M","99.61","","","","","","NA"
"2018-10-01 13:00","2018","10","01","13:00","12.4","","8.3","","76","","33","","5","","","M","99.61","","","","","","NA"
"2018-10-01 14:00","2018","10","01","14:00","12.4","","8.6","","77","","6","","6","","","M","99.58","","","","","","NA"
"2018-10-01 15:00","2018","10","01","15:00","12.7","","8.6","","76","","11","","5","","","M","99.56","","","","","","NA"
"2018-10-01 16:00","2018","10","01","16:00","12.3","","7.8","","74","","8","","7","","","M","99.57","","","","","","NA"
"2018-10-01 17:00","2018","10","01","17:00","11.9","","8.3","","78","","14","","5","","","M","99.57","","","","","","NA"
"2018-10-01 18:00","2018","10","01","18:00","11.1","","10.0","","93","","25","","1","","","M","99.58","","","","","","NA"
"2018-10-01 19:00","2018","10","01","19:00","10.7","","9.7","","94","","5","","2","","","M","99.57","","","","","","NA"
"2018-10-01 20:00","2018","10","01","20:00","10.3","","9.8","","97","","25","","1","","","M","99.56","","","","","","NA"
"2018-10-01 21:00","2018","10","01","21:00","10.1","","9.7","","97","","34","","4","","","M","99.55","","","","","","NA"
"2018-10-01 22:00","2018","10","01","22:00","10.0","","9.4","","96","","31","","7","","","M","99.54","","","","","","NA"
"2018-10-01 23:00","2018","10","01","23:00","9.8","","9.2","","96","","36","","5","","","M","99.51","","","","","","NA"
"2018-10-02 00:00","2018","10","02","00:00","9.8","","9.3","","97","","32","","5","","","M","99.49","","","","","","NA"
"2018-10-02 01:00","2018","10","02","01:00","9.7","","9.3","","97","","13","","4","","","M","99.44","","","","","","NA"
"2018-10-02 02:00","2018","10","02","02:00","9.7","","9.1","","96","","10","","2","","","M","99.41","","","","","","NA"
"2018-10-02 03:00","2018","10","02","03:00","9.6","","9.1","","97","","32","","4","","","M","99.36","","","","","","NA"
"2018-10-02 04:00","2018","10","02","04:00","9.4","","8.7","","96","","32","","6","","","M","99.29","","","","","","NA"
"2018-10-02 05:00","2018","10","02","05:00","9.2","","8.3","","94","","36","","4","","","M","99.21","","","","","","NA"
"2018-10-02 06:00","2018","10","02","06:00","9.1","","7.2","","88","","35","","16","","","M","99.21","","","","","","NA"
"2018-10-02 07:00","2018","10","02","07:00","7.6","","5.6","","87","","30","","17","","","M","99.24","","","","","","NA"
"2018-10-02 08:00","2018","10","02","08:00","7.2","","6.3","","94","","16","","1","","","M","99.21","","","","","","NA"
"2018-10-02 09:00","2018","10","02","09:00","8.9","","7.4","","90","","29","","5","","","M","99.21","","","","","","NA"
"2018-10-02 10:00","2018","10","02","10:00","10.2","","6.6","","78","","1","","17","","","M","99.25","","","","","","NA"
"2018-10-02 11:00","2018","10","02","11:00","8.5","","4.6","","76","","33","","22","","","M","99.34","","","","","","NA"
"2018-10-02 12:00","2018","10","02","12:00","9.7","","3.3","","64","","31","","21","","","M","99.43","","","","","","NA"
"2018-10-02 13:00","2018","10","02","13:00","11.4","","2.2","","53","","29","","23","","","M","99.46","","","","","","NA"
"2018-10-02 14:00","2018","10","02","14:00","11.7","","0.5","","46","","31","","26","","","M","99.54","","","","","","NA"
"2018-10-02 15:00","2018","10","02","15:00","12.1","","-0.8","","41","","34","","26","","","M","99.63","","","","","","NA"
"2018-10-02 16:00","2018","10","02","16:00","11.9","","-1.0","","41","","32","","14","","","M","99.69","","","","","","NA"
"2018-10-02 17:00","2018","10","02","17:00","10.8","","-0.1","","47","","31","","13","","","M","99.74","","","","","","NA"
"2018-10-02 18:00","2018","10","02","18:00","5.7","","2.4","","80","","27","","5","","","M","99.82","","","","","","NA"
"2018-10-02 19:00","2018","10","02","19:00","2.8","","1.3","","90","","31","","13","","","M","99.90","","","","","","NA"
"2018-10-02 20:00","2018","10","02","20:00","1.7","","0.4","","91","","31","","9","","","M","99.99","","","","","","NA"
"2018-10-02 21:00","2018","10","02","21:00","1.3","","-0.3","","89","","33","","9","","","M","100.09","","","","","","NA"
"2018-10-02 22:00","2018","10","02","22:00","0.5","","-0.6","","92","","32","","10","","","M","100.20","","","","","","NA"
"2018-10-02 23:00","2018","10","02","23:00","1.4","","0.6","","94","","29","","7","","","M","100.26","","","","","","NA"
"2018-10-03 00:00","2018","10","03","00:00","0.0","","-0.6","","96","","28","","4","","","M","100.31","","","","-1","","NA"
"2018-10-03 01:00","2018","10","03","01:00","-0.5","","-1.1","","96","","25","","5","","","M","100.37","","","","-2","","NA"
"2018-10-03 02:00","2018","10","03","02:00","-0.8","","-1.3","","96","","31","","5","","","M","100.43","","","","-2","","NA"
"2018-10-03 03:00","2018","10","03","03:00","-1.9","","-2.5","","96","","32","","7","","","M","100.43","","","","-5","","NA"
"2018-10-03 04:00","2018","10","03","04:00","-1.9","","-2.5","","96","","31","","6","","","M","100.49","","","","-4","","NA"
"2018-10-03 05:00","2018","10","03","05:00","-1.2","","-1.8","","96","","30","","4","","","M","100.50","","","","-3","","NA"
"2018-10-03 06:00","2018","10","03","06:00","0.2","","-0.4","","96","","31","","7","","","M","100.51","","","","","","NA"
"2018-10-03 07:00","2018","10","03","07:00","1.4","","0.7","","95","","31","","7","","","M","100.54","","","","","","NA"
"2018-10-03 08:00","2018","10","03","08:00","2.9","","1.7","","92","","31","","3","","","M","100.54","","","","","","NA"
"2018-10-03 09:00","2018","10","03","09:00","4.8","","2.8","","87","","30","","3","","","M","100.59","","","","","","NA"
"2018-10-03 10:00","2018","10","03","10:00","6.5","","2.3","","74","","28","","7","","","M","100.58","","","","","","NA"
"2018-10-03 11:00","2018","10","03","11:00","8.4","","3.4","","71","","16","","3","","","M","100.53","","","","","","NA"
"2018-10-03 12:00","2018","10","03","12:00","9.3","","3.3","","66","","6","","10","","","M","100.47","","","","","","NA"
"2018-10-03 13:00","2018","10","03","13:00","9.2","","2.3","","62","","9","","12","","","M","100.40","","","","","","NA"
"2018-10-03 14:00","2018","10","03","14:00","9.5","","3.0","","64","","12","","10","","","M","100.33","","","","","","NA"
"2018-10-03 15:00","2018","10","03","15:00","9.6","","3.2","","64","","8","","8","","","M","100.31","","","","","","NA"
"2018-10-03 16:00","2018","10","03","16:00","9.9","","2.4","","59","","6","","5","","","M","100.31","","","","","","NA"
"2018-10-03 17:00","2018","10","03","17:00","9.2","","2.4","","62","","8","","6","","","M","100.27","","","","","","NA"
"2018-10-03 18:00","2018","10","03","18:00","5.9","","4.3","","89","","30","","3","","","M","100.27","","","","","","NA"
"2018-10-03 19:00","2018","10","03","19:00","5.1","","4.3","","95","","25","","3","","","M","100.25","","","","","","NA"
"2018-10-03 20:00","2018","10","03","20:00","4.5","","3.9","","96","","31","","2","","","M","100.24","","","","","","NA"
"2018-10-03 21:00","2018","10","03","21:00","3.9","","3.3","","96","","27","","2","","","M","100.20","","","","","","NA"
"2018-10-03 22:00","2018","10","03","22:00","3.1","","2.6","","96","","30","","6","","","M","100.20","","","","","","NA"
"2018-10-03 23:00","2018","10","03","23:00","2.7","","2.2","","97","","30","","5","","","M","100.18","","","","","","NA"
"2018-10-04 00:00","2018","10","04","00:00","1.9","","1.4","","97","","30","","3","","","M","100.21","","","","","","NA"
"2018-10-04 01:00","2018","10","04","01:00","0.4","","-0.1","","97","","24","","4","","","M","100.21","","","","","","NA"
"2018-10-04 02:00","2018","10","04","02:00","-1.2","","-1.7","","97","","27","","3","","","M","100.20","","","","-2","","NA"
"2018-10-04 03:00","2018","10","04","03:00","-0.9","","-1.3","","97","","30","","4","","","M","100.19","","","","-2","","NA"
"2018-10-04 04:00","2018","10","04","04:00","-1.6","","-2.0","","97","","26","","3","","","M","100.19","","","","-3","","NA"
"2018-10-04 05:00","2018","10","04","05:00","-2.3","","-2.8","","96","","31","","5","","","M","100.20","","","","-4","","NA"
"2018-10-04 06:00","2018","10","04","06:00","-2.0","","-2.5","","96","","27","","5","","","M","100.22","","","","-4","","NA"
"2018-10-04 07:00","2018","10","04","07:00","-1.8","","-2.3","","96","","29","","4","","","M","100.29","","","","-3","","NA"
"2018-10-04 08:00","2018","10","04","08:00","2.8","","2.4","","97","","27","","5","","","M","100.33","","","","","","NA"
"2018-10-04 09:00","2018","10","04","09:00","7.0","","3.7","","80","","32","","4","","","M","100.32","","","","","","NA"
"2018-10-04 10:00","2018","10","04","10:00","9.3","","3.7","","68","","3","","3","","","M","100.33","","","","","","NA"
"2018-10-04 11:00","2018","10","04","11:00","10.8","","4.0","","63","","12","","12","","","M","100.35","","","","","","NA"
"2018-10-04 12:00","2018","10","04","12:00","11.9","","3.2","","55","","18","","4","","","M","100.35","","","","","","NA"
"2018-10-04 13:00","2018","10","04","13:00","12.2","","1.3","","47","","11","","12","","","M","100.31","","","","","","NA"
"2018-10-04 14:00","2018","10","04","14:00","12.9","","0.2","","42","","12","","10","","","M","100.33","","","","","","NA"
"2018-10-04 15:00","2018","10","04","15:00","12.9","","-2.3","","34","","10","","8","","","M","100.35","","","","","","NA"
"2018-10-04 16:00","2018","10","04","16:00","12.8","","-1.1","","38","","10","","7","","","M","100.33","","","","","","NA"
"2018-10-04 17:00","2018","10","04","17:00","9.4","","2.3","","61","","14","","7","","","M","100.37","","","","","","NA"
"2018-10-04 18:00","2018","10","04","18:00","5.3","","3.2","","86","","30","","1","","","M","100.41","","","","","","NA"
"2018-10-04 19:00","2018","10","04","19:00","3.9","","2.2","","89","","31","","4","","","M","100.39","","","","","","NA"
"2018-10-04 20:00","2018","10","04","20:00","2.4","","1.7","","95","","31","","5","","","M","100.43","","","","","","NA"
"2018-10-04 21:00","2018","10","04","21:00","1.7","","1.1","","96","","31","","4","","","M","100.45","","","","","","NA"
"2018-10-04 22:00","2018","10","04","22:00","1.4","","0.9","","96","","29","","4","","","M","100.47","","","","","","NA"
"2018-10-04 23:00","2018","10","04","23:00","1.7","","1.2","","96","","30","","4","","","M","100.48","","","","","","NA"
"2018-10-05 00:00","2018","10","05","00:00","2.1","","1.6","","96","","30","","5","","","M","100.45","","","","","","NA"
"2018-10-05 01:00","2018","10","05","01:00","3.7","","3.0","","96","","31","","5","","","M","100.47","","","","","","NA"
"2018-10-05 02:00","2018","10","05","02:00","4.6","","3.9","","95","","28","","3","","","M","100.46","","","","","","NA"
"2018-10-05 03:00","2018","10","05","03:00","5.0","","4.3","","95","","31","","7","","","M","100.45","","","","","","NA"
"2018-10-05 04:00","2018","10","05","04:00","5.3","","4.6","","96","","30","","3","","","M","100.43","","","","","","NA"
"2018-10-05 05:00","2018","10","05","05:00","5.4","","4.8","","96","","32","","3","","","M","100.40","","","","","","NA"
"2018-10-05 06:00","2018","10","05","06:00","5.2","","4.8","","97","","25","","4","","","M","100.39","","","","","","NA"
"2018-10-05 07:00","2018","10","05","07:00","5.4","","5.1","","98","","31","","4","","","M","100.40","","","","","","NA"
"2018-10-05 08:00","2018","10","05","08:00","6.3","","6.0","","98","","33","","3","","","M","100.39","","","","","","NA"
"2018-10-05 09:00","2018","10","05","09:00","7.0","","6.1","","94","","4","","8","","","M","100.40","","","","","","NA"
"2018-10-05 10:00","2018","10","05","10:00","7.6","","6.8","","95","","7","","5","","","M","100.38","","","","","","NA"
"2018-10-05 11:00","2018","10","05","11:00","7.5","","6.8","","95","","8","","6","","","M","100.38","","","","","","NA"
"2018-10-05 12:00","2018","10","05","12:00","7.7","","7.0","","95","","0","","1","","","M","100.36","","","","","","NA"
"2018-10-05 13:00","2018","10","05","13:00","8.1","","7.6","","97","","4","","6","","","M","100.33","","","","","","NA"
"2018-10-05 14:00","2018","10","05","14:00","8.8","","7.9","","94","","15","","4","","","M","100.29","","","","","","NA"
"2018-10-05 15:00","2018","10","05","15:00","9.2","","7.5","","89","","36","","5","","","M","100.28","","","","","","NA"
"2018-10-05 16:00","2018","10","05","16:00","9.4","","8.0","","91","","31","","9","","","M","100.31","","","","","","NA"
"2018-10-05 17:00","2018","10","05","17:00","9.2","","8.3","","94","","28","","5","","","M","100.30","","","","","","NA"
"2018-10-05 18:00","2018","10","05","18:00","8.8","","7.8","","93","","28","","5","","","M","100.29","","","","","","NA"
"2018-10-05 19:00","2018","10","05","19:00","6.8","","6.4","","97","","31","","7","","","M","100.29","","","","","","NA"
"2018-10-05 20:00","2018","10","05","20:00","4.0","","3.6","","98","","31","","5","","","M","100.32","","","","","","NA"
"2018-10-05 21:00","2018","10","05","21:00","3.7","","3.4","","98","","29","","4","","","M","100.33","","","","","","NA"
"2018-10-05 22:00","2018","10","05","22:00","2.2","","1.8","","98","","32","","9","","","M","100.36","","","","","","NA"
"2018-10-05 23:00","2018","10","05","23:00","3.9","","3.6","","98","","31","","10","","","M","100.40","","","","","","NA"
"2018-10-06 00:00","2018","10","06","00:00","2.8","","2.4","","98","","31","","8","","","M","100.44","","","","","","NA"
"2018-10-06 01:00","2018","10","06","01:00","3.8","","3.5","","98","","30","","9","","","M","100.46","","","","","","NA"
"2018-10-06 02:00","2018","10","06","02:00","3.6","","3.3","","98","","31","","10","","","M","100.50","","","","","","NA"
"2018-10-06 03:00","2018","10","06","03:00","4.4","","4.0","","97","","29","","8","","","M","100.51","","","","","","NA"
"2018-10-06 04:00","2018","10","06","04:00","3.6","","3.0","","96","","30","","7","","","M","100.56","","","","","","NA"
"2018-10-06 05:00","2018","10","06","05:00","2.5","","2.1","","97","","30","","7","","","M","100.61","","","","","","NA"
"2018-10-06 06:00","2018","10","06","06:00","2.6","","2.1","","97","","32","","6","","","M","100.64","","","","","","NA"
"2018-10-06 07:00","2018","10","06","07:00","2.0","","1.6","","98","","32","","10","","","M","100.68","","","","","","NA"
"2018-10-06 08:00","2018","10","06","08:00","7.0","","5.4","","89","","35","","1","","","M","100.74","","","","","","NA"
"2018-10-06 09:00","2018","10","06","09:00","9.7","","6.8","","82","","31","","13","","","M","100.77","","","","","","NA"
"2018-10-06 10:00","2018","10","06","10:00","11.2","","7.2","","76","","32","","15","","","M","100.80","","","","","","NA"
"2018-10-06 11:00","2018","10","06","11:00","12.6","","7.0","","68","","31","","14","","","M","100.82","","","","","","NA"
"2018-10-06 12:00","2018","10","06","12:00","13.5","","6.3","","62","","29","","3","","","M","100.78","","","","","","NA"
"2018-10-06 13:00","2018","10","06","13:00","14.2","","6.5","","60","","6","","9","","","M","100.79","","","","","","NA"
"2018-10-06 14:00","2018","10","06","14:00","14.3","","7.3","","63","","8","","10","","","M","100.82","","","","","","NA"
"2018-10-06 15:00","2018","10","06","15:00","13.7","","7.2","","65","","11","","9","","","M","100.82","","","","","","NA"
"2018-10-06 16:00","2018","10","06","16:00","13.2","","6.3","","63","","9","","7","","","M","100.86","","","","","","NA"
"2018-10-06 17:00","2018","10","06","17:00","11.4","","8.6","","82","","19","","4","","","M","100.86","","","","","","NA"
"2018-10-06 18:00","2018","10","06","18:00","10.0","","8.9","","93","","33","","3","","","M","100.85","","","","","","NA"
"2018-10-06 19:00","2018","10","06","19:00","8.6","","8.0","","96","","29","","3","","","M","100.87","","","","","","NA"
"2018-10-06 20:00","2018","10","06","20:00","8.3","","7.9","","97","","25","","3","","","M","100.87","","","","","","NA"
"2018-10-06 21:00","2018","10","06","21:00","8.2","","7.7","","96","","28","","1","","","M","100.87","","","","","","NA"
"2018-10-06 22:00","2018","10","06","22:00","8.0","","7.6","","97","","","","0","","","M","100.89","","","","","","NA"
"2018-10-06 23:00","2018","10","06","23:00","8.0","","7.7","","98","","28","","1","","","M","100.90","","","","","","NA"
"2018-10-07 00:00","2018","10","07","00:00","8.2","","7.8","","97","","30","","3","","","M","100.86","","","","","","NA"
"2018-10-07 01:00","2018","10","07","01:00","8.0","","7.6","","98","","30","","3","","","M","100.85","","","","","","NA"
"2018-10-07 02:00","2018","10","07","02:00","8.0","","7.7","","98","","28","","1","","","M","100.87","","","","","","NA"
"2018-10-07 03:00","2018","10","07","03:00","7.9","","7.7","","98","","25","","3","","","M","100.84","","","","","","NA"
"2018-10-07 04:00","2018","10","07","04:00","8.2","","7.9","","98","","33","","3","","","M","100.79","","","","","","NA"
"2018-10-07 05:00","2018","10","07","05:00","8.6","","8.4","","98","","20","","1","","","M","100.79","","","","","","NA"
"2018-10-07 06:00","2018","10","07","06:00","9.1","","8.9","","98","","14","","10","","","M","100.76","","","","","","NA"
"2018-10-07 07:00","2018","10","07","07:00","9.2","","9.0","","98","","12","","14","","","M","100.76","","","","","","NA"
"2018-10-07 08:00","2018","10","07","08:00","9.3","","8.9","","98","","13","","13","","","M","100.80","","","","","","NA"
"2018-10-07 09:00","2018","10","07","09:00","9.5","","9.1","","97","","13","","14","","","M","100.81","","","","","","NA"
"2018-10-07 10:00","2018","10","07","10:00","10.0","","9.5","","96","","11","","14","","","M","100.79","","","","","","NA"
"2018-10-07 11:00","2018","10","07","11:00","9.8","","9.3","","96","","11","","12","","","M","100.80","","","","","","NA"
"2018-10-07 12:00","2018","10","07","12:00","9.6","","9.2","","97","","11","","23","","","M","100.82","","","","","","NA"
"2018-10-07 13:00","2018","10","07","13:00","9.8","","9.3","","97","","11","","21","","","M","100.80","","","","","","NA"
"2018-10-07 14:00","2018","10","07","14:00","10.0","","9.2","","95","","12","","19","","","M","100.79","","","","","","NA"
"2018-10-07 15:00","2018","10","07","15:00","9.6","","8.8","","95","","12","","17","","","M","100.77","","","","","","NA"
"2018-10-07 16:00","2018","10","07","16:00","9.5","","9.0","","96","","11","","12","","","M","100.74","","","","","","NA"
"2018-10-07 17:00","2018","10","07","17:00","9.4","","9.0","","97","","9","","8","","","M","100.72","","","","","","NA"
"2018-10-07 18:00","2018","10","07","18:00","9.6","","9.3","","98","","9","","10","","","M","100.70","","","","","","NA"
"2018-10-07 19:00","2018","10","07","19:00","9.4","","9.1","","98","","8","","7","","","M","100.69","","","","","","NA"
"2018-10-07 20:00","2018","10","07","20:00","9.3","","9.1","","98","","9","","5","","","M","100.68","","","","","","NA"
"2018-10-07 21:00","2018","10","07","21:00","9.3","","9.0","","98","","10","","5","","","M","100.66","","","","","","NA"
"2018-10-07 22:00","2018","10","07","22:00","9.3","","9.0","","98","","8","","5","","","M","100.62","","","","","","NA"
"2018-10-07 23:00","2018","10","07","23:00","9.3","","9.0","","98","","10","","7","","","M","100.60","","","","","","NA"
"2018-10-08 00:00","2018","10","08","00:00","9.3","","9.1","","98","","10","","4","","","M","100.61","","","","","","NA"
"2018-10-08 01:00","2018","10","08","01:00","9.1","","8.8","","98","","11","","4","","","M","100.61","","","","","","NA"
"2018-10-08 02:00","2018","10","08","02:00","9.0","","8.7","","98","","12","","6","","","M","100.53","","","","","","NA"
"2018-10-08 03:00","2018","10","08","03:00","9.0","","8.8","","98","","12","","5","","","M","100.48","","","","","","NA"
"2018-10-08 04:00","2018","10","08","04:00","9.0","","8.7","","98","","12","","4","","","M","100.44","","","","","","NA"
"2018-10-08 05:00","2018","10","08","05:00","9.0","","8.8","","98","","7","","3","","","M","100.44","","","","","","NA"
"2018-10-08 06:00","2018","10","08","06:00","9.0","","8.8","","98","","12","","4","","","M","100.40","","","","","","NA"
"2018-10-08 07:00","2018","10","08","07:00","9.1","","8.9","","99","","9","","6","","","M","100.39","","","","","","NA"
"2018-10-08 08:00","2018","10","08","08:00","9.3","","9.1","","99","","10","","6","","","M","100.37","","","","","","NA"
"2018-10-08 09:00","2018","10","08","09:00","9.5","","9.3","","98","","11","","5","","","M","100.36","","","","","","NA"
"2018-10-08 10:00","2018","10","08","10:00","9.8","","9.5","","98","","7","","8","","","M","100.31","","","","","","NA"
"2018-10-08 11:00","2018","10","08","11:00","9.8","","9.6","","98","","6","","10","","","M","100.30","","","","","","NA"
"2018-10-08 12:00","2018","10","08","12:00","9.9","","9.7","","98","","7","","10","","","M","100.28","","","","","","NA"
"2018-10-08 13:00","2018","10","08","13:00","10.1","","9.8","","98","","6","","8","","","M","100.27","","","","","","NA"
"2018-10-08 14:00","2018","10","08","14:00","10.2","","9.8","","98","","7","","5","","","M","100.21","","","","","","NA"
"2018-10-08 15:00","2018","10","08","15:00","10.6","","9.8","","95","","7","","5","","","M","100.14","","","","","","NA"
"2018-10-08 16:00","2018","10","08","16:00","10.8","","9.7","","93","","11","","3","","","M","100.09","","","","","","NA"
"2018-10-08 17:00","2018","10","08","17:00","10.8","","10.1","","95","","24","","1","","","M","100.03","","","","","","NA"
"2018-10-08 18:00","2018","10","08","18:00","10.4","","10.1","","98","","26","","2","","","M","100.03","","","","","","NA"
"2018-10-08 19:00","2018","10","08","19:00","10.3","","10.0","","98","","19","","3","","","M","99.96","","","","","","NA"
"2018-10-08 20:00","2018","10","08","20:00","10.0","","9.8","","99","","6","","4","","","M","99.91","","","","","","NA"
"2018-10-08 21:00","2018","10","08","21:00","9.8","","9.6","","99","","23","","7","","","M","99.86","","","","","","NA"
"2018-10-08 22:00","2018","10","08","22:00","9.8","","9.5","","99","","24","","9","","","M","99.85","","","","","","NA"
"2018-10-08 23:00","2018","10","08","23:00","8.1","","7.9","","98","","28","","3","","","M","99.84","","","","","","NA"
"2018-10-09 00:00","2018","10","09","00:00","6.3","","6.0","","98","","26","","3","","","M","99.85","","","","","","NA"
"2018-10-09 01:00","2018","10","09","01:00","9.0","","8.9","","99","","30","","15","","","M","99.89","","","","","","NA"
"2018-10-09 02:00","2018","10","09","02:00","9.6","","7.4","","86","","29","","23","","","M","99.87","","","","","","NA"
"2018-10-09 03:00","2018","10","09","03:00","9.3","","7.0","","85","","30","","14","","","M","99.90","","","","","","NA"
"2018-10-09 04:00","2018","10","09","04:00","9.3","","6.9","","85","","29","","10","","","M","99.97","","","","","","NA"
"2018-10-09 05:00","2018","10","09","05:00","9.6","","6.9","","83","","28","","16","","","M","100.00","","","","","","NA"
"2018-10-09 06:00","2018","10","09","06:00","8.9","","6.7","","86","","30","","16","","","M","100.04","","","","","","NA"
"2018-10-09 07:00","2018","10","09","07:00","9.2","","6.9","","86","","30","","11","","","M","100.12","","","","","","NA"
"2018-10-09 08:00","2018","10","09","08:00","10.8","","7.8","","82","","31","","21","","","M","100.14","","","","","","NA"
"2018-10-09 09:00","2018","10","09","09:00","12.3","","8.0","","75","","31","","16","","","M","100.24","","","","","","NA"
"2018-10-09 10:00","2018","10","09","10:00","13.7","","8.2","","69","","30","","17","","","M","100.29","","","","","","NA"
"2018-10-09 11:00","2018","10","09","11:00","15.4","","8.3","","63","","30","","14","","","M","100.31","","","","","","NA"
"2018-10-09 12:00","2018","10","09","12:00","16.3","","8.2","","58","","32","","11","","","M","100.30","","","","","","NA"
"2018-10-09 13:00","2018","10","09","13:00","17.3","","7.4","","52","","30","","17","","","M","100.27","","","","","","NA"
"2018-10-09 14:00","2018","10","09","14:00","17.8","","8.3","","53","","28","","12","","","M","100.25","","","","","","NA"
"2018-10-09 15:00","2018","10","09","15:00","17.9","","7.6","","50","","30","","12","","","M","100.22","","","","","","NA"
"2018-10-09 16:00","2018","10","09","16:00","16.8","","9.0","","60","","36","","8","","","M","100.20","","","","","","NA"
"2018-10-09 17:00","2018","10","09","17:00","13.1","","9.7","","80","","33","","8","","","M","100.21","","","","","","NA"
"2018-10-09 18:00","2018","10","09","18:00","11.3","","9.0","","85","","30","","9","","","M","100.27","","","","","","NA"
"2018-10-09 19:00","2018","10","09","19:00","10.2","","7.7","","85","","32","","7","","","M","100.29","","","","","","NA"
"2018-10-09 20:00","2018","10","09","20:00","9.7","","7.7","","88","","31","","12","","","M","100.31","","","","","","NA"
"2018-10-09 21:00","2018","10","09","21:00","9.2","","7.6","","90","","31","","10","","","M","100.32","","","","","","NA"
"2018-10-09 22:00","2018","10","09","22:00","9.8","","7.5","","85","","29","","10","","","M","100.34","","","","","","NA"
"2018-10-09 23:00","2018","10","09","23:00","9.0","","7.5","","90","","30","","8","","","M","100.35","","","","","","NA"
"2018-10-10 00:00","2018","10","10","00:00","9.2","","7.5","","89","","30","","13","","","M","100.38","","","","","","NA"
"2018-10-10 01:00","2018","10","10","01:00","9.1","","7.5","","90","","30","","10","","","M","100.43","","","","","","NA"
"2018-10-10 02:00","2018","10","10","02:00","7.4","","6.9","","96","","27","","8","","","M","100.43","","","","","","NA"
"2018-10-10 03:00","2018","10","10","03:00","5.9","","5.0","","94","","29","","8","","","M","100.44","","","","","","NA"
"2018-10-10 04:00","2018","10","10","04:00","5.8","","5.5","","98","","28","","7","","","M","100.43","","","","","","NA"
"2018-10-10 05:00","2018","10","10","05:00","5.8","","5.5","","98","","27","","8","","","M","100.41","","","","","","NA"
"2018-10-10 06:00","2018","10","10","06:00","6.0","","5.1","","94","","27","","8","","","M","100.42","","","","","","NA"
"2018-10-10 07:00","2018","10","10","07:00","4.4","","4.0","","97","","29","","8","","","M","100.46","","","","","","NA"
"2018-10-10 08:00","2018","10","10","08:00","9.2","","7.1","","87","","29","","8","","","M","100.51","","","","","","NA"
"2018-10-10 09:00","2018","10","10","09:00","10.8","","6.8","","76","","30","","13","","","M","100.52","","","","","","NA"
"2018-10-10 10:00","2018","10","10","10:00","11.5","","6.4","","71","","29","","10","","","M","100.51","","","","","","NA"
"2018-10-10 11:00","2018","10","10","11:00","13.1","","7.3","","68","","32","","10","","","M","100.52","","","","","","NA"
"2018-10-10 12:00","2018","10","10","12:00","12.5","","7.3","","71","","7","","8","","","M","100.51","","","","","","NA"
"2018-10-10 13:00","2018","10","10","13:00","14.0","","7.6","","65","","10","","13","","","M","100.47","","","","","","NA"
"2018-10-10 14:00","2018","10","10","14:00","14.1","","7.6","","65","","6","","8","","","M","100.43","","","","","","NA"
"2018-10-10 15:00","2018","10","10","15:00","14.3","","7.6","","64","","8","","8","","","M","100.43","","","","","","NA"
"2018-10-10 16:00","2018","10","10","16:00","14.3","","8.1","","66","","7","","5","","","M","100.44","","","","","","NA"
"2018-10-10 17:00","2018","10","10","17:00","11.1","","8.7","","85","","17","","1","","","M","100.48","","","","","","NA"
"2018-10-10 18:00","2018","10","10","18:00","8.4","","7.8","","96","","29","","2","","","M","100.44","","","","","","NA"
"2018-10-10 19:00","2018","10","10","19:00","7.4","","7.1","","98","","28","","1","","","M","100.48","","","","","","NA"
"2018-10-10 20:00","2018","10","10","20:00","5.5","","5.3","","98","","27","","4","","","M","100.51","","","","","","NA"
"2018-10-10 21:00","2018","10","10","21:00","5.1","","4.9","","98","","30","","4","","","M","100.55","","","","","","NA"
"2018-10-10 22:00","2018","10","10","22:00","4.2","","3.9","","98","","29","","2","","","M","100.58","","","","","","NA"
"2018-10-10 23:00","2018","10","10","23:00","3.2","","2.9","","98","","26","","3","","","M","100.63","","","","","","NA"
"2018-10-11 00:00","2018","10","11","00:00","2.7","","2.6","","99","","30","","4","","","M","100.67","","","","","","NA"
"2018-10-11 01:00","2018","10","11","01:00","2.8","","2.6","","99","","25","","5","","","M","100.69","","","","","","NA"
"2018-10-11 02:00","2018","10","11","02:00","2.2","","2.0","","99","","30","","5","","","M","100.71","","","","","","NA"
"2018-10-11 03:00","2018","10","11","03:00","2.0","","1.8","","99","","28","","2","","","M","100.68","","","","","","NA"
"2018-10-11 04:00","2018","10","11","04:00","1.3","","1.2","","99","","31","","3","","","M","100.72","","","","","","NA"
"2018-10-11 05:00","2018","10","11","05:00","1.2","","0.9","","98","","29","","3","","","M","100.70","","","","","","NA"
"2018-10-11 06:00","2018","10","11","06:00","1.2","","1.0","","99","","26","","3","","","M","100.73","","","","","","NA"
"2018-10-11 07:00","2018","10","11","07:00","1.4","","1.2","","99","","27","","3","","","M","100.76","","","","","","NA"
"2018-10-11 08:00","2018","10","11","08:00","3.5","","3.3","","99","","30","","4","","","M","100.74","","","","","","NA"
"2018-10-11 09:00","2018","10","11","09:00","6.6","","6.6","","100","","29","","3","","","M","100.78","","","","","","NA"
"2018-10-11 10:00","2018","10","11","10:00","8.6","","8.2","","97","","7","","5","","","M","100.80","","","","","","NA"
"2018-10-11 11:00","2018","10","11","11:00","10.4","","8.4","","87","","10","","3","","","M","100.80","","","","","","NA"
"2018-10-11 12:00","2018","10","11","12:00","11.7","","7.4","","75","","10","","4","","","M","100.77","","","","","","NA"
"2018-10-11 13:00","2018","10","11","13:00","12.0","","7.0","","71","","11","","9","","","M","100.72","","","","","","NA"
"2018-10-11 14:00","2018","10","11","14:00","11.6","","6.9","","73","","10","","11","","","M","100.70","","","","","","NA"
"2018-10-11 15:00","2018","10","11","15:00","10.6","","7.9","","83","","8","","11","","","M","100.69","","","","","","NA"
"2018-10-11 16:00","2018","10","11","16:00","9.1","","7.9","","92","","10","","7","","","M","100.68","","","","","","NA"
"2018-10-11 17:00","2018","10","11","17:00","9.1","","8.4","","96","","11","","5","","","M","100.64","","","","","","NA"
"2018-10-11 18:00","2018","10","11","18:00","8.8","","8.4","","97","","10","","7","","","M","100.61","","","","","","NA"
"2018-10-11 19:00","2018","10","11","19:00","9.0","","8.5","","97","","7","","4","","","M","100.63","","","","","","NA"
"2018-10-11 20:00","2018","10","11","20:00","9.0","","8.6","","97","","27","","3","","","M","100.64","","","","","","NA"
"2018-10-11 21:00","2018","10","11","21:00","9.1","","8.7","","97","","33","","2","","","M","100.65","","","","","","NA"
"2018-10-11 22:00","2018","10","11","22:00","8.9","","8.6","","98","","14","","2","","","M","100.61","","","","","","NA"
"2018-10-11 23:00","2018","10","11","23:00","8.9","","8.6","","98","","30","","5","","","M","100.66","","","","","","NA"
"2018-10-12 00:00","2018","10","12","00:00","8.6","","8.4","","98","","30","","8","","","M","100.70","","","","","","NA"
"2018-10-12 01:00","2018","10","12","01:00","8.7","","8.5","","98","","29","","3","","","M","100.70","","","","","","NA"
"2018-10-12 02:00","2018","10","12","02:00","8.8","","8.6","","98","","34","","4","","","M","100.70","","","","","","NA"
"2018-10-12 03:00","2018","10","12","03:00","9.0","","8.7","","98","","27","","5","","","M","100.73","","","","","","NA"
"2018-10-12 04:00","2018","10","12","04:00","9.1","","8.9","","99","","28","","5","","","M","100.73","","","","","","NA"
"2018-10-12 05:00","2018","10","12","05:00","9.2","","9.0","","99","","29","","8","","","M","100.75","","","","","","NA"
"2018-10-12 06:00","2018","10","12","06:00","8.6","","8.1","","97","","28","","8","","","M","100.76","","","","","","NA"
"2018-10-12 07:00","2018","10","12","07:00","6.6","","6.3","","98","","36","","3","","","M","100.78","","","","","","NA"
"2018-10-12 08:00","2018","10","12","08:00","10.1","","8.6","","90","","32","","9","","","M","100.80","","","","","","NA"
"2018-10-12 09:00","2018","10","12","09:00","12.3","","8.3","","77","","31","","13","","","M","100.81","","","","","","NA"
"2018-10-12 10:00","2018","10","12","10:00","13.9","","6.9","","62","","31","","17","","","M","100.80","","","","","","NA"
"2018-10-12 11:00","2018","10","12","11:00","15.5","","5.2","","50","","33","","23","","","M","100.77","","","","","","NA"
"2018-10-12 12:00","2018","10","12","12:00","16.7","","4.6","","44","","32","","23","","","M","100.73","","","","","","NA"
"2018-10-12 13:00","2018","10","12","13:00","17.0","","4.4","","43","","33","","21","","","M","100.70","","","","","","NA"
"2018-10-12 14:00","2018","10","12","14:00","16.9","","3.3","","40","","32","","29","","","M","100.67","","","","","","NA"
"2018-10-12 15:00","2018","10","12","15:00","16.3","","3.0","","41","","35","","25","","","M","100.68","","","","","","NA"
"2018-10-12 16:00","2018","10","12","16:00","15.5","","2.6","","42","","32","","39","","","M","100.65","","","","","","NA"
"2018-10-12 17:00","2018","10","12","17:00","13.5","","3.2","","49","","33","","18","","","M","100.70","","","","","","NA"
"2018-10-12 18:00","2018","10","12","18:00","12.0","","2.8","","53","","31","","25","","","M","100.74","","","","","","NA"
"2018-10-12 19:00","2018","10","12","19:00","10.5","","3.2","","60","","30","","13","","","M","100.82","","","","","","NA"
"2018-10-12 20:00","2018","10","12","20:00","9.4","","3.6","","67","","28","","8","","","M","100.85","","","","","","NA"
"2018-10-12 21:00","2018","10","12","21:00","8.8","","3.6","","70","","27","","8","","","M","100.93","","","","","","NA"
"2018-10-12 22:00","2018","10","12","22:00","5.8","","3.4","","84","","29","","6","","","M","100.99","","","","","","NA"
"2018-10-12 23:00","2018","10","12","23:00","8.3","","4.4","","76","","28","","10","","","M","101.05","","","","","","NA"
"2018-10-13 00:00","2018","10","13","00:00","8.2","","5.0","","80","","28","","13","","","M","101.11","","","","","","NA"
"2018-10-13 01:00","2018","10","13","01:00","8.2","","5.2","","81","","28","","14","","","M","101.15","","","","","","NA"
"2018-10-13 02:00","2018","10","13","02:00","8.0","","5.4","","84","","29","","17","","","M","101.20","","","","","","NA"
"2018-10-13 03:00","2018","10","13","03:00","7.3","","5.2","","86","","30","","14","","","M","101.21","","","","","","NA"
"2018-10-13 04:00","2018","10","13","04:00","7.3","","4.8","","84","","29","","13","","","M","101.23","","","","","","NA"
"2018-10-13 05:00","2018","10","13","05:00","7.2","","3.7","","78","","30","","17","","","M","101.25","","","","","","NA"
"2018-10-13 06:00","2018","10","13","06:00","7.0","","3.7","","80","","31","","21","","","M","101.28","","","","","","NA"
"2018-10-13 07:00","2018","10","13","07:00","6.2","","3.4","","82","","31","","14","","","M","101.31","","","","","","NA"
"2018-10-13 08:00","2018","10","13","08:00","8.6","","3.6","","71","","31","","11","","","M","101.35","","","","","","NA"
"2018-10-13 09:00","2018","10","13","09:00","10.9","","3.9","","62","","31","","14","","","M","101.43","","","","","","NA"
"2018-10-13 10:00","2018","10","13","10:00","12.7","","4.0","","55","","33","","9","","","M","101.43","","","","","","NA"
"2018-10-13 11:00","2018","10","13","11:00","14.4","","2.6","","45","","31","","12","","","M","101.43","","","","","","NA"
"2018-10-13 12:00","2018","10","13","12:00","15.4","","4.1","","47","","34","","1","","","M","101.39","","","","","","NA"
"2018-10-13 13:00","2018","10","13","13:00","15.9","","5.0","","48","","5","","9","","","M","101.39","","","","","","NA"
"2018-10-13 14:00","2018","10","13","14:00","16.5","","4.6","","45","","6","","8","","","M","101.37","","","","","","NA"
"2018-10-13 15:00","2018","10","13","15:00","16.0","","4.2","","45","","12","","7","","","M","101.36","","","","","","NA"
"2018-10-13 16:00","2018","10","13","16:00","15.4","","5.8","","52","","15","","4","","","M","101.35","","","","","","NA"
"2018-10-13 17:00","2018","10","13","17:00","9.7","","5.9","","77","","9","","3","","","M","101.36","","","","","","NA"
"2018-10-13 18:00","2018","10","13","18:00","8.0","","6.7","","91","","26","","3","","","M","101.40","","","","","","NA"
"2018-10-13 19:00","2018","10","13","19:00","7.3","","6.3","","94","","30","","2","","","M","101.41","","","","","","NA"
"2018-10-13 20:00","2018","10","13","20:00","4.9","","4.4","","97","","30","","7","","","M","101.46","","","","","","NA"
"2018-10-13 21:00","2018","10","13","21:00","3.2","","2.7","","97","","26","","4","","","M","101.49","","","","","","NA"
"2018-10-13 22:00","2018","10","13","22:00","3.1","","2.8","","98","","25","","5","","","M","101.51","","","","","","NA"
"2018-10-13 23:00","2018","10","13","23:00","2.5","","2.1","","97","","25","","4","","","M","101.54","","","","","","NA"
"2018-10-14 00:00","2018","10","14","00:00","1.7","","1.3","","98","","30","","4","","","M","101.56","","","","","","NA"
"2018-10-14 01:00","2018","10","14","01:00","0.1","","-0.2","","97","","30","","4","","","M","101.59","","","","","","NA"
"2018-10-14 02:00","2018","10","14","02:00","0.4","","0.0","","98","","30","","7","","","M","101.60","","","","","","NA"
"2018-10-14 03:00","2018","10","14","03:00","-0.7","","-1.1","","97","","30","","4","","","M","101.63","","","","-2","","NA"
"2018-10-14 04:00","2018","10","14","04:00","0.2","","-0.2","","98","","27","","4","","","M","101.63","","","","","","NA"
"2018-10-14 05:00","2018","10","14","05:00","-0.2","","-0.5","","98","","29","","3","","","M","101.64","","","","-1","","NA"
"2018-10-14 06:00","2018","10","14","06:00","-0.9","","-1.3","","97","","31","","4","","","M","101.63","","","","-2","","NA"
"2018-10-14 07:00","2018","10","14","07:00","-1.6","","-1.9","","97","","30","","6","","","M","101.66","","","","-4","","NA"
"2018-10-14 08:00","2018","10","14","08:00","2.1","","1.8","","98","","31","","6","","","M","101.69","","","","","","NA"
"2018-10-14 09:00","2018","10","14","09:00","8.0","","5.4","","83","","30","","3","","","M","101.71","","","","","","NA"
"2018-10-14 10:00","2018","10","14","10:00","11.1","","4.2","","62","","12","","2","","","M","101.72","","","","","","NA"
"2018-10-14 11:00","2018","10","14","11:00","12.5","","3.9","","56","","5","","4","","","M","101.72","","","","","","NA"
"2018-10-14 12:00","2018","10","14","12:00","13.9","","5.2","","56","","13","","10","","","M","101.70","","","","","","NA"
"2018-10-14 13:00","2018","10","14","13:00","14.0","","4.5","","53","","8","","9","","","M","101.68","","","","","","NA"
"2018-10-14 14:00","2018","10","14","14:00","14.3","","4.3","","51","","5","","8","","","M","101.64","","","","","","NA"
"2018-10-14 15:00","2018","10","14","15:00","14.6","","3.5","","47","","8","","7","","","M","101.62","","","","","","NA"
"2018-10-14 16:00","2018","10","14","16:00","13.9","","3.1","","48","","7","","5","","","M","101.59","","","","","","NA"
"2018-10-14 17:00","2018","10","14","17:00","9.4","","5.5","","77","","11","","1","","","M","101.57","","","","","","NA"
"2018-10-14 18:00","2018","10","14","18:00","6.9","","5.7","","92","","31","","5","","","M","101.58","","","","","","NA"
"2018-10-14 19:00","2018","10","14","19:00","5.3","","4.9","","97","","30","","4","","","M","101.57","","","","","","NA"
"2018-10-14 20:00","2018","10","14","20:00","4.5","","4.1","","97","","29","","4","","","M","101.57","","","","","","NA"
"2018-10-14 21:00","2018","10","14","21:00","2.3","","1.9","","97","","25","","4","","","M","101.58","","","","","","NA"
"2018-10-14 22:00","2018","10","14","22:00","2.2","","1.9","","98","","30","","4","","","M","101.60","","","","","","NA"
"2018-10-14 23:00","2018","10","14","23:00","2.0","","1.6","","98","","28","","4","","","M","101.62","","","","","","NA"
"2018-10-15 00:00","2018","10","15","00:00","0.8","","0.4","","98","","31","","7","","","M","101.61","","","","","","NA"
"2018-10-15 01:00","2018","10","15","01:00","1.0","","0.6","","98","","30","","5","","","M","101.62","","","","","","NA"
"2018-10-15 02:00","2018","10","15","02:00","0.9","","0.6","","98","","25","","4","","","M","101.63","","","","","","NA"
"2018-10-15 03:00","2018","10","15","03:00","0.0","","-0.4","","98","","30","","6","","","M","101.62","","","","-2","","NA"
"2018-10-15 04:00","2018","10","15","04:00","-1.4","","-1.8","","97","","29","","5","","","M","101.64","","","","-3","","NA"
"2018-10-15 05:00","2018","10","15","05:00","-1.5","","-1.9","","97","","30","","5","","","M","101.63","","","","-3","","NA"
"2018-10-15 06:00","2018","10","15","06:00","-0.8","","-1.2","","97","","30","","4","","","M","101.63","","","","-2","","NA"
"2018-10-15 07:00","2018","10","15","07:00","-1.6","","-2.0","","97","","31","","4","","","M","101.62","","","","-3","","NA"
"2018-10-15 08:00","2018","10","15","08:00","1.4","","1.1","","98","","31","","7","","","M","101.63","","","","","","NA"
"2018-10-15 09:00","2018","10","15","09:00","7.7","","5.1","","84","","32","","3","","","M","101.66","","","","","","NA"
"2018-10-15 10:00","2018","10","15","10:00","11.1","","4.2","","62","","5","","1","","","M","101.66","","","","","","NA"
"2018-10-15 11:00","2018","10","15","11:00","13.3","","3.5","","51","","9","","4","","","M","101.64","","","","","","NA"
"2018-10-15 12:00","2018","10","15","12:00","14.0","","5.9","","58","","9","","8","","","M","101.60","","","","","","NA"
"2018-10-15 13:00","2018","10","15","13:00","14.9","","5.0","","51","","5","","5","","","M","101.55","","","","","","NA"
"2018-10-15 14:00","2018","10","15","14:00","15.9","","4.8","","47","","13","","5","","","M","101.51","","","","","","NA"
"2018-10-15 15:00","2018","10","15","15:00","16.4","","5.4","","48","","7","","5","","","M","101.46","","","","","","NA"
"2018-10-15 16:00","2018","10","15","16:00","15.6","","4.6","","48","","8","","7","","","M","101.41","","","","","","NA"
"2018-10-15 17:00","2018","10","15","17:00","9.3","","5.9","","79","","18","","2","","","M","101.39","","","","","","NA"
"2018-10-15 18:00","2018","10","15","18:00","8.1","","6.7","","91","","30","","5","","","M","101.38","","","","","","NA"
"2018-10-15 19:00","2018","10","15","19:00","5.2","","4.5","","95","","30","","4","","","M","101.40","","","","","","NA"
"2018-10-15 20:00","2018","10","15","20:00","4.2","","3.8","","97","","30","","5","","","M","101.41","","","","","","NA"
"2018-10-15 21:00","2018","10","15","21:00","3.9","","3.6","","98","","27","","3","","","M","101.42","","","","","","NA"
"2018-10-15 22:00","2018","10","15","22:00","2.5","","2.2","","98","","30","","5","","","M","101.44","","","","","","NA"
"2018-10-15 23:00","2018","10","15","23:00","2.5","","2.1","","98","","28","","3","","","M","101.47","","","","","","NA"
"2018-10-16 00:00","2018","10","16","00:00","0.2","","-0.2","","97","","30","","4","","","M","101.47","","","","","","NA"
"2018-10-16 01:00","2018","10","16","01:00","-0.5","","-0.9","","97","","29","","4","","","M","101.47","","","","-2","","NA"
"2018-10-16 02:00","2018","10","16","02:00","-0.3","","-0.6","","98","","31","","7","","","M","101.47","","","","-3","","NA"
"2018-10-16 03:00","2018","10","16","03:00","-1.3","","-1.7","","97","","30","","5","","","M","101.46","","","","-3","","NA"
"2018-10-16 04:00","2018","10","16","04:00","-0.9","","-1.3","","97","","27","","4","","","M","101.44","","","","-2","","NA"
"2018-10-16 05:00","2018","10","16","05:00","-0.2","","-0.6","","98","","28","","3","","","M","101.45","","","","-1","","NA"
"2018-10-16 06:00","2018","10","16","06:00","-1.4","","-1.8","","97","","31","","4","","","M","101.45","","","","-3","","NA"
"2018-10-16 07:00","2018","10","16","07:00","-0.4","","-0.7","","98","","30","","5","","","M","101.45","","","","-2","","NA"
"2018-10-16 08:00","2018","10","16","08:00","2.2","","1.9","","98","","29","","4","","","M","101.48","","","","","","NA"
"2018-10-16 09:00","2018","10","16","09:00","8.3","","6.5","","89","","32","","4","","","M","101.46","","","","","","NA"
"2018-10-16 10:00","2018","10","16","10:00","13.1","","5.4","","59","","34","","4","","","M","101.44","","","","","","NA"
"2018-10-16 11:00","2018","10","16","11:00","15.5","","5.2","","50","","3","","1","","","M","101.43","","","","","","NA"
"2018-10-16 12:00","2018","10","16","12:00","16.8","","5.2","","46","","14","","4","","","M","101.38","","","","","","NA"
"2018-10-16 13:00","2018","10","16","13:00","17.7","","6.6","","48","","9","","8","","","M","101.31","","","","","","NA"
"2018-10-16 14:00","2018","10","16","14:00","18.3","","5.0","","41","","8","","7","","","M","101.24","","","","","","NA"
"2018-10-16 15:00","2018","10","16","15:00","18.6","","4.5","","39","","8","","7","","","M","101.18","","","","","","NA"
"2018-10-16 16:00","2018","10","16","16:00","16.8","","6.4","","50","","11","","3","","","M","101.14","","","","","","NA"
"2018-10-16 17:00","2018","10","16","17:00","10.6","","6.6","","76","","8","","1","","","M","101.11","","","","","","NA"
"2018-10-16 18:00","2018","10","16","18:00","8.7","","6.8","","88","","30","","4","","","M","101.11","","","","","","NA"
"2018-10-16 19:00","2018","10","16","19:00","6.9","","6.2","","95","","27","","4","","","M","101.10","","","","","","NA"
"2018-10-16 20:00","2018","10","16","20:00","5.7","","5.3","","97","","29","","4","","","M","101.11","","","","","","NA"
"2018-10-16 21:00","2018","10","16","21:00","4.5","","4.1","","97","","29","","3","","","M","101.10","","","","","","NA"
"2018-10-16 22:00","2018","10","16","22:00","2.4","","2.1","","97","","30","","5","","","M","101.11","","","","","","NA"
"2018-10-16 23:00","2018","10","16","23:00","2.5","","2.2","","98","","31","","8","","","M","101.10","","","","","","NA"
"2018-10-17 00:00","2018","10","17","00:00","2.4","","2.0","","98","","30","","4","","","M","101.08","","","","","","NA"
"2018-10-17 01:00","2018","10","17","01:00","2.4","","2.1","","98","","25","","4","","","M","101.08","","","","","","NA"
"2018-10-17 02:00","2018","10","17","02:00","0.6","","0.3","","98","","31","","6","","","M","101.07","","","","","","NA"
"2018-10-17 03:00","2018","10","17","03:00","1.1","","0.8","","98","","30","","5","","","M","101.06","","","","","","NA"
"2018-10-17 04:00","2018","10","17","04:00","0.4","","0.1","","98","","29","","4","","","M","101.04","","","","","","NA"
"2018-10-17 05:00","2018","10","17","05:00","0.5","","0.2","","98","","29","","5","","","M","101.02","","","","","","NA"
"2018-10-17 06:00","2018","10","17","06:00","1.4","","1.1","","98","","28","","3","","","M","101.00","","","","","","NA"
"2018-10-17 07:00","2018","10","17","07:00","0.8","","0.6","","98","","30","","4","","","M","100.97","","","","","","NA"
"2018-10-17 08:00","2018","10","17","08:00","4.6","","4.4","","98","","31","","7","","","M","100.99","","","","","","NA"
"2018-10-17 09:00","2018","10","17","09:00","5.2","","4.9","","98","","30","","4","","","M","100.99","","","","","","NA"
"2018-10-17 10:00","2018","10","17","10:00","10.0","","7.9","","87","","33","","1","","","M","100.97","","","","","","NA"
"2018-10-17 11:00","2018","10","17","11:00","13.4","","5.9","","60","","9","","1","","","M","100.94","","","","","","NA"
"2018-10-17 12:00","2018","10","17","12:00","15.6","","6.8","","56","","7","","3","","","M","100.88","","","","","","NA"
"2018-10-17 13:00","2018","10","17","13:00","16.1","","6.6","","53","","7","","8","","","M","100.81","","","","","","NA"
"2018-10-17 14:00","2018","10","17","14:00","16.0","","6.0","","51","","9","","6","","","M","100.73","","","","","","NA"
"2018-10-17 15:00","2018","10","17","15:00","15.7","","5.3","","50","","10","","7","","","M","100.71","","","","","","NA"
"2018-10-17 16:00","2018","10","17","16:00","15.8","","6.4","","53","","10","","3","","","M","100.67","","","","","","NA"
"2018-10-17 17:00","2018","10","17","17:00","9.7","","7.3","","85","","9","","2","","","M","100.62","","","","","","NA"
"2018-10-17 18:00","2018","10","17","18:00","8.0","","6.8","","92","","31","","9","","","M","100.62","","","","","","NA"
"2018-10-17 19:00","2018","10","17","19:00","6.5","","5.9","","96","","27","","3","","","M","100.65","","","","","","NA"
"2018-10-17 20:00","2018","10","17","20:00","5.3","","4.9","","97","","30","","4","","","M","100.66","","","","","","NA"
"2018-10-17 21:00","2018","10","17","21:00","4.7","","4.4","","98","","31","","7","","","M","100.69","","","","","","NA"
"2018-10-17 22:00","2018","10","17","22:00","3.8","","3.4","","98","","29","","4","","","M","100.69","","","","","","NA"
"2018-10-17 23:00","2018","10","17","23:00","4.3","","4.1","","98","","30","","2","","","M","100.68","","","","","","NA"
"2018-10-18 00:00","2018","10","18","00:00","3.5","","3.2","","98","","31","","7","","","M","100.71","","","","","","NA"
"2018-10-18 01:00","2018","10","18","01:00","1.6","","1.3","","98","","29","","6","","","M","100.74","","","","","","NA"
"2018-10-18 02:00","2018","10","18","02:00","1.9","","1.6","","98","","30","","4","","","M","100.73","","","","","","NA"
"2018-10-18 03:00","2018","10","18","03:00","1.0","","0.7","","98","","29","","7","","","M","100.73","","","","","","NA"
"2018-10-18 04:00","2018","10","18","04:00","0.8","","0.6","","98","","31","","8","","","M","100.77","","","","","","NA"
"2018-10-18 05:00","2018","10","18","05:00","2.2","","2.0","","99","","28","","4","","","M","100.79","","","","","","NA"
"2018-10-18 06:00","2018","10","18","06:00","3.6","","3.4","","99","","31","","2","","","M","100.80","","","","","","NA"
"2018-10-18 07:00","2018","10","18","07:00","3.7","","3.5","","99","","31","","4","","","M","100.80","","","","","","NA"
"2018-10-18 08:00","2018","10","18","08:00","5.2","","5.1","","99","","32","","6","","","M","100.85","","","","","","NA"
"2018-10-18 09:00","2018","10","18","09:00","9.8","","7.8","","87","","30","","1","","","M","100.87","","","","","","NA"
"2018-10-18 10:00","2018","10","18","10:00","13.3","","8.2","","71","","9","","4","","","M","100.92","","","","","","NA"
"2018-10-18 11:00","2018","10","18","11:00","14.5","","8.1","","65","","10","","5","","","M","100.93","","","","","","NA"
"2018-10-18 12:00","2018","10","18","12:00","15.1","","7.6","","61","","9","","5","","","M","100.89","","","","","","NA"
"2018-10-18 13:00","2018","10","18","13:00","15.9","","7.5","","57","","5","","6","","","M","100.90","","","","","","NA"
"2018-10-18 14:00","2018","10","18","14:00","15.3","","6.6","","56","","7","","8","","","M","100.89","","","","","","NA"
"2018-10-18 15:00","2018","10","18","15:00","15.4","","5.8","","53","","9","","4","","","M","100.88","","","","","","NA"
"2018-10-18 16:00","2018","10","18","16:00","14.8","","6.0","","56","","9","","7","","","M","100.88","","","","","","NA"
"2018-10-18 17:00","2018","10","18","17:00","10.9","","8.1","","82","","14","","2","","","M","100.89","","","","","","NA"
"2018-10-18 18:00","2018","10","18","18:00","8.1","","7.2","","94","","30","","4","","","M","100.90","","","","","","NA"
"2018-10-18 19:00","2018","10","18","19:00","7.0","","6.6","","97","","32","","5","","","M","100.95","","","","","","NA"
"2018-10-18 20:00","2018","10","18","20:00","4.8","","4.2","","96","","31","","7","","","M","100.96","","","","","","NA"
"2018-10-18 21:00","2018","10","18","21:00","5.8","","5.5","","98","","28","","3","","","M","100.98","","","","","","NA"
"2018-10-18 22:00","2018","10","18","22:00","5.4","","5.0","","98","","30","","5","","","M","101.01","","","","","","NA"
"2018-10-18 23:00","2018","10","18","23:00","4.2","","3.9","","98","","28","","3","","","M","101.05","","","","","","NA"
"2018-10-19 00:00","2018","10","19","00:00","4.6","","4.4","","98","","30","","3","","","M","101.08","","","","","","NA"
"2018-10-19 01:00","2018","10","19","01:00","3.3","","3.1","","99","","31","","6","","","M","101.07","","","","","","NA"
"2018-10-19 02:00","2018","10","19","02:00","2.4","","2.1","","98","","29","","3","","","M","101.10","","","","","","NA"
"2018-10-19 03:00","2018","10","19","03:00","0.9","","0.7","","98","","30","","4","","","M","101.11","","","","","","NA"
"2018-10-19 04:00","2018","10","19","04:00","0.8","","0.5","","98","","29","","6","","","M","101.14","","","","","","NA"
"2018-10-19 05:00","2018","10","19","05:00","1.2","","0.9","","98","","29","","4","","","M","101.16","","","","","","NA"
"2018-10-19 06:00","2018","10","19","06:00","-0.1","","-0.3","","99","","30","","5","","","M","101.18","","","","-2","","NA"
"2018-10-19 07:00","2018","10","19","07:00","0.6","","0.3","","98","","31","","5","","","M","101.19","","","","","","NA"
"2018-10-19 08:00","2018","10","19","08:00","2.1","","2.0","","99","","29","","5","","","M","101.24","","","","","","NA"
"2018-10-19 09:00","2018","10","19","09:00","7.9","","7.7","","98","","31","","2","","","M","101.26","","","","","","NA"
"2018-10-19 10:00","2018","10","19","10:00","11.1","","8.1","","82","","8","","4","","","M","101.24","","","","","","NA"
"2018-10-19 11:00","2018","10","19","11:00","12.2","","8.4","","78","","9","","6","","","M","101.24","","","","","","NA"
"2018-10-19 12:00","2018","10","19","12:00","13.1","","8.3","","72","","3","","8","","","M","101.22","","","","","","NA"
"2018-10-19 13:00","2018","10","19","13:00","13.1","","7.8","","70","","7","","9","","","M","101.17","","","","","","NA"
"2018-10-19 14:00","2018","10","19","14:00","13.5","","8.1","","69","","10","","7","","","M","101.15","","","","","","NA"
"2018-10-19 15:00","2018","10","19","15:00","14.0","","7.7","","66","","12","","6","","","M","101.13","","","","","","NA"
"2018-10-19 16:00","2018","10","19","16:00","12.8","","7.2","","69","","10","","9","","","M","101.08","","","","","","NA"
"2018-10-19 17:00","2018","10","19","17:00","9.4","","7.8","","89","","13","","3","","","M","101.04","","","","","","NA"
"2018-10-19 18:00","2018","10","19","18:00","6.7","","6.2","","97","","31","","6","","","M","101.06","","","","","","NA"
"2018-10-19 19:00","2018","10","19","19:00","6.0","","5.5","","97","","29","","4","","","M","101.08","","","","","","NA"
"2018-10-19 20:00","2018","10","19","20:00","4.0","","3.5","","97","","29","","4","","","M","101.09","","","","","","NA"
"2018-10-19 21:00","2018","10","19","21:00","4.2","","4.0","","98","","29","","3","","","M","101.11","","","","","","NA"
"2018-10-19 22:00","2018","10","19","22:00","3.6","","3.4","","99","","27","","5","","","M","101.13","","","","","","NA"
"2018-10-19 23:00","2018","10","19","23:00","3.5","","3.3","","98","","30","","7","","","M","101.15","","","","","","NA"
"2018-10-20 00:00","2018","10","20","00:00","3.5","","3.3","","99","","26","","4","","","M","101.17","","","","","","NA"
"2018-10-20 01:00","2018","10","20","01:00","4.2","","4.0","","99","","33","","3","","","M","101.17","","","","","","NA"
"2018-10-20 02:00","2018","10","20","02:00","3.5","","3.2","","98","","32","","3","","","M","101.19","","","","","","NA"
"2018-10-20 03:00","2018","10","20","03:00","4.5","","4.3","","99","","27","","4","","","M","101.16","","","","","","NA"
"2018-10-20 04:00","2018","10","20","04:00","5.2","","5.0","","99","","24","","3","","","M","101.17","","","","","","NA"
"2018-10-20 05:00","2018","10","20","05:00","5.8","","5.6","","99","","29","","5","","","M","101.15","","","","","","NA"
"2018-10-20 06:00","2018","10","20","06:00","4.9","","4.7","","99","","30","","3","","","M","101.12","","","","","","NA"
"2018-10-20 07:00","2018","10","20","07:00","3.4","","3.1","","98","","27","","3","","","M","101.11","","","","","","NA"
"2018-10-20 08:00","2018","10","20","08:00","6.4","","6.2","","99","","29","","3","","","M","101.14","","","","","","NA"
"2018-10-20 09:00","2018","10","20","09:00","11.5","","9.1","","85","","30","","7","","","M","101.13","","","","","","NA"
"2018-10-20 10:00","2018","10","20","10:00","13.7","","9.5","","76","","34","","7","","","M","101.10","","","","","","NA"
"2018-10-20 11:00","2018","10","20","11:00","15.2","","8.7","","65","","33","","14","","","M","101.04","","","","","","NA"
"2018-10-20 12:00","2018","10","20","12:00","16.2","","8.7","","61","","30","","15","","","M","100.99","","","","","","NA"
"2018-10-20 13:00","2018","10","20","13:00","17.1","","8.6","","57","","34","","17","","","M","100.90","","","","","","NA"
"2018-10-20 14:00","2018","10","20","14:00","16.8","","8.8","","59","","1","","9","","","M","100.82","","","","","","NA"
"2018-10-20 15:00","2018","10","20","15:00","16.5","","8.8","","60","","1","","8","","","M","100.75","","","","","","NA"
"2018-10-20 16:00","2018","10","20","16:00","15.5","","8.7","","64","","34","","7","","","M","100.69","","","","","","NA"
"2018-10-20 17:00","2018","10","20","17:00","12.5","","8.9","","79","","31","","9","","","M","100.67","","","","","","NA"
"2018-10-20 18:00","2018","10","20","18:00","8.7","","8.2","","97","","32","","6","","","M","100.65","","","","","","NA"
"2018-10-20 19:00","2018","10","20","19:00","7.4","","6.0","","91","","28","","9","","","M","100.65","","","","","","NA"
"2018-10-20 20:00","2018","10","20","20:00","9.5","","6.7","","83","","28","","10","","","M","100.64","","","","","","NA"
"2018-10-20 21:00","2018","10","20","21:00","8.1","","6.1","","87","","30","","10","","","M","100.63","","","","","","NA"
"2018-10-20 22:00","2018","10","20","22:00","6.1","","4.8","","92","","30","","10","","","M","100.63","","","","","","NA"
"2018-10-20 23:00","2018","10","20","23:00","8.4","","6.0","","85","","29","","9","","","M","100.60","","","","","","NA"
"2018-10-21 00:00","2018","10","21","00:00","7.5","","6.0","","90","","31","","16","","","M","100.57","","","","","","NA"
"2018-10-21 01:00","2018","10","21","01:00","7.5","","5.9","","90","","29","","9","","","M","100.54","","","","","","NA"
"2018-10-21 02:00","2018","10","21","02:00","4.9","","3.8","","92","","31","","9","","","M","100.51","","","","","","NA"
"2018-10-21 03:00","2018","10","21","03:00","4.3","","3.3","","93","","32","","10","","","M","100.49","","","","","","NA"
"2018-10-21 04:00","2018","10","21","04:00","6.0","","4.3","","89","","30","","9","","","M","100.44","","","","","","NA"
"2018-10-21 05:00","2018","10","21","05:00","4.2","","3.5","","95","","27","","7","","","M","100.43","","","","","","NA"
"2018-10-21 06:00","2018","10","21","06:00","2.5","","2.1","","97","","27","","6","","","M","100.41","","","","","","NA"
"2018-10-21 07:00","2018","10","21","07:00","1.5","","1.1","","97","","26","","8","","","M","100.43","","","","","","NA"
"2018-10-21 08:00","2018","10","21","08:00","3.8","","3.5","","98","","30","","3","","","M","100.44","","","","","","NA"
"2018-10-21 09:00","2018","10","21","09:00","9.4","","5.5","","76","","30","","4","","","M","100.47","","","","","","NA"
"2018-10-21 10:00","2018","10","21","10:00","12.5","","5.1","","61","","25","","4","","","M","100.44","","","","","","NA"
"2018-10-21 11:00","2018","10","21","11:00","14.1","","5.0","","54","","10","","4","","","M","100.41","","","","","","NA"
"2018-10-21 12:00","2018","10","21","12:00","15.8","","4.5","","46","","4","","3","","","M","100.36","","","","","","NA"
"2018-10-21 13:00","2018","10","21","13:00","16.6","","7.1","","53","","12","","8","","","M","100.31","","","","","","NA"
"2018-10-21 14:00","2018","10","21","14:00","16.1","","5.9","","50","","7","","5","","","M","100.27","","","","","","NA"
"2018-10-21 15:00","2018","10","21","15:00","17.0","","5.8","","47","","9","","5","","","M","100.23","","","","","","NA"
"2018-10-21 16:00","2018","10","21","16:00","13.5","","7.6","","67","","14","","5","","","M","100.21","","","","","","NA"
"2018-10-21 17:00","2018","10","21","17:00","10.3","","7.9","","85","","34","","1","","","M","100.20","","","","","","NA"
"2018-10-21 18:00","2018","10","21","18:00","9.3","","8.4","","94","","30","","3","","","M","100.20","","","","","","NA"
"2018-10-21 19:00","2018","10","21","19:00","7.1","","6.7","","97","","26","","3","","","M","100.22","","","","","","NA"
"2018-10-21 20:00","2018","10","21","20:00","5.5","","5.2","","98","","29","","2","","","M","100.24","","","","","","NA"
"2018-10-21 21:00","2018","10","21","21:00","3.9","","3.6","","98","","30","","3","","","M","100.27","","","","","","NA"
"2018-10-21 22:00","2018","10","21","22:00","3.4","","3.2","","99","","31","","5","","","M","100.27","","","","","","NA"
"2018-10-21 23:00","2018","10","21","23:00","2.0","","1.7","","98","","30","","5","","","M","100.27","","","","","","NA"
"2018-10-22 00:00","2018","10","22","00:00","1.9","","1.7","","98","","29","","4","","","M","100.29","","","","","","NA"
"2018-10-22 01:00","2018","10","22","01:00","1.4","","1.3","","99","","30","","3","","","M","100.30","","","","","","NA"
"2018-10-22 02:00","2018","10","22","02:00","1.7","","1.5","","99","","30","","7","","","M","100.30","","","","","","NA"
"2018-10-22 03:00","2018","10","22","03:00","1.5","","1.3","","99","","29","","4","","","M","100.27","","","","","","NA"
"2018-10-22 04:00","2018","10","22","04:00","0.6","","0.4","","98","","27","","3","","","M","100.25","","","","","","NA"
"2018-10-22 05:00","2018","10","22","05:00","0.1","","-0.2","","98","","29","","4","","","M","100.24","","","","","","NA"
"2018-10-22 06:00","2018","10","22","06:00","-0.7","","-1.0","","98","","29","","3","","","M","100.24","","","","-2","","NA"
"2018-10-22 07:00","2018","10","22","07:00","-0.5","","-0.8","","98","","29","","4","","","M","100.27","","","","-2","","NA"
"2018-10-22 08:00","2018","10","22","08:00","1.2","","1.0","","98","","30","","5","","","M","100.29","","","","","","NA"
"2018-10-22 09:00","2018","10","22","09:00","7.2","","6.9","","98","","29","","3","","","M","100.27","","","","","","NA"
"2018-10-22 10:00","2018","10","22","10:00","10.8","","6.4","","74","","16","","3","","","M","100.26","","","","","","NA"
"2018-10-22 11:00","2018","10","22","11:00","12.5","","6.8","","68","","11","","6","","","M","100.19","","","","","","NA"
"2018-10-22 12:00","2018","10","22","12:00","13.1","","6.7","","65","","7","","7","","","M","100.14","","","","","","NA"
"2018-10-22 13:00","2018","10","22","13:00","12.8","","6.3","","64","","6","","10","","","M","100.07","","","","","","NA"
"2018-10-22 14:00","2018","10","22","14:00","12.2","","6.4","","67","","7","","7","","","M","100.01","","","","","","NA"
"2018-10-22 15:00","2018","10","22","15:00","12.4","","7.0","","69","","6","","5","","","M","99.96","","","","","","NA"
"2018-10-22 16:00","2018","10","22","16:00","12.2","","6.9","","70","","8","","6","","","M","99.91","","","","","","NA"
"2018-10-22 17:00","2018","10","22","17:00","8.2","","7.1","","93","","8","","3","","","M","99.90","","","","","","NA"
"2018-10-22 18:00","2018","10","22","18:00","6.3","","5.9","","97","","30","","4","","","M","99.89","","","","","","NA"
"2018-10-22 19:00","2018","10","22","19:00","4.5","","4.2","","98","","28","","4","","","M","99.88","","","","","","NA"
"2018-10-22 20:00","2018","10","22","20:00","3.2","","3.0","","98","","32","","5","","","M","99.87","","","","","","NA"
"2018-10-22 21:00","2018","10","22","21:00","2.6","","2.4","","99","","29","","4","","","M","99.86","","","","","","NA"
"2018-10-22 22:00","2018","10","22","22:00","2.2","","2.0","","99","","30","","5","","","M","99.84","","","","","","NA"
"2018-10-22 23:00","2018","10","22","23:00","1.4","","1.3","","99","","29","","4","","","M","99.81","","","","","","NA"
"2018-10-23 00:00","2018","10","23","00:00","1.0","","0.8","","99","","28","","3","","","M","99.81","","","","","","NA"
"2018-10-23 01:00","2018","10","23","01:00","-0.2","","-0.5","","98","","29","","5","","","M","99.78","","","","-2","","NA"
"2018-10-23 02:00","2018","10","23","02:00","0.0","","-0.3","","98","","30","","3","","","M","99.74","","","","-1","","NA"
"2018-10-23 03:00","2018","10","23","03:00","-0.4","","-0.6","","98","","30","","4","","","M","99.70","","","","-2","","NA"
"2018-10-23 04:00","2018","10","23","04:00","-0.6","","-0.8","","98","","27","","2","","","M","99.66","","","","-1","","NA"
"2018-10-23 05:00","2018","10","23","05:00","-1.2","","-1.5","","98","","32","","4","","","M","99.66","","","","-3","","NA"
"2018-10-23 06:00","2018","10","23","06:00","0.3","","0.1","","99","","28","","8","","","M","99.66","","","","","","NA"
"2018-10-23 07:00","2018","10","23","07:00","2.0","","1.8","","99","","26","","3","","","M","99.68","","","","","","NA"
"2018-10-23 08:00","2018","10","23","08:00","3.6","","3.5","","99","","31","","3","","","M","99.70","","","","","","NA"
"2018-10-23 09:00","2018","10","23","09:00","5.1","","5.1","","100","","35","","2","","","M","99.74","","","","","","NA"
"2018-10-23 10:00","2018","10","23","10:00","6.3","","6.3","","100","","31","","2","","","M","99.75","","","","","","NA"
"2018-10-23 11:00","2018","10","23","11:00","6.2","","6.2","","100","","31","","7","","","M","99.78","","","","","","NA"
"2018-10-23 12:00","2018","10","23","12:00","7.2","","7.2","","100","","28","","7","","","M","99.70","","","","","","NA"
"2018-10-23 13:00","2018","10","23","13:00","7.7","","7.7","","100","","24","","5","","","M","99.71","","","","","","NA"
"2018-10-23 14:00","2018","10","23","14:00","8.7","","8.7","","100","","30","","7","","","M","99.69","","","","","","NA"
"2018-10-23 15:00","2018","10","23","15:00","9.1","","9.0","","100","","30","","7","","","M","99.73","","","","","","NA"
"2018-10-23 16:00","2018","10","23","16:00","9.2","","9.0","","99","","30","","3","","","M","99.76","","","","","","NA"
"2018-10-23 17:00","2018","10","23","17:00","9.8","","9.5","","98","","12","","23","","","M","99.80","","","","","","NA"
"2018-10-23 18:00","2018","10","23","18:00","9.8","","9.4","","98","","11","","10","","","M","99.84","","","","","","NA"
"2018-10-23 19:00","2018","10","23","19:00","9.4","","8.9","","97","","13","","5","","","M","99.90","","","","","","NA"
"2018-10-23 20:00","2018","10","23","20:00","9.8","","9.2","","96","","14","","9","","","M","99.98","","","","","","NA"
"2018-10-23 21:00","2018","10","23","21:00","10.1","","9.5","","96","","12","","13","","","M","100.04","","","","","","NA"
"2018-10-23 22:00","2018","10","23","22:00","9.9","","9.7","","99","","14","","3","","","M","100.08","","","","","","NA"
"2018-10-23 23:00","2018","10","23","23:00","8.5","","8.4","","99","","28","","2","","","M","100.12","","","","","","NA"
"2018-10-24 00:00","2018","10","24","00:00","8.3","","8.2","","99","","23","","5","","","M","100.18","","","","","","NA"
"2018-10-24 01:00","2018","10","24","01:00","6.8","","6.7","","99","","29","","3","","","M","100.24","","","","","","NA"
"2018-10-24 02:00","2018","10","24","02:00","5.4","","5.3","","99","","31","","6","","","M","100.28","","","","","","NA"
"2018-10-24 03:00","2018","10","24","03:00","6.8","","6.7","","100","","25","","7","","","M","100.32","","","","","","NA"
"2018-10-24 04:00","2018","10","24","04:00","7.0","","6.9","","100","","25","","8","","","M","100.30","","","","","","NA"
"2018-10-24 05:00","2018","10","24","05:00","6.8","","6.7","","99","","24","","5","","","M","100.30","","","","","","NA"
"2018-10-24 06:00","2018","10","24","06:00","6.9","","6.7","","98","","24","","5","","","M","100.31","","","","","","NA"
"2018-10-24 07:00","2018","10","24","07:00","7.1","","6.9","","98","","25","","4","","","M","100.32","","","","","","NA"
"2018-10-24 08:00","2018","10","24","08:00","7.6","","7.3","","98","","31","","3","","","M","100.32","","","","","","NA"
"2018-10-24 09:00","2018","10","24","09:00","8.4","","7.6","","95","","34","","1","","","M","100.32","","","","","","NA"
"2018-10-24 10:00","2018","10","24","10:00","9.1","","8.3","","95","","11","","7","","","M","100.30","","","","","","NA"
"2018-10-24 11:00","2018","10","24","11:00","11.0","","10.3","","95","","11","","11","","","M","100.23","","","","","","NA"
"2018-10-24 12:00","2018","10","24","12:00","11.7","","8.8","","82","","11","","22","","","M","100.21","","","","","","NA"
"2018-10-24 13:00","2018","10","24","13:00","11.9","","8.9","","81","","12","","25","","","M","100.17","","","","","","NA"
"2018-10-24 14:00","2018","10","24","14:00","11.7","","9.4","","85","","13","","18","","","M","100.13","","","","","","NA"
"2018-10-24 15:00","2018","10","24","15:00","11.0","","8.8","","86","","12","","19","","","M","100.06","","","","","","NA"
"2018-10-24 16:00","2018","10","24","16:00","10.7","","9.5","","93","","12","","17","","","M","100.02","","","","","","NA"
"2018-10-24 17:00","2018","10","24","17:00","10.4","","9.5","","94","","10","","13","","","M","100.02","","","","","","NA"
"2018-10-24 18:00","2018","10","24","18:00","10.3","","9.0","","92","","10","","13","","","M","99.96","","","","","","NA"
"2018-10-24 19:00","2018","10","24","19:00","10.7","","9.1","","90","","13","","29","","","M","99.97","","","","","","NA"
"2018-10-24 20:00","2018","10","24","20:00","10.4","","9.4","","93","","14","","25","","","M","99.98","","","","","","NA"
"2018-10-24 21:00","2018","10","24","21:00","10.4","","9.6","","95","","14","","22","","","M","100.01","","","","","","NA"
"2018-10-24 22:00","2018","10","24","22:00","10.6","","9.8","","95","","13","","27","","","M","100.03","","","","","","NA"
"2018-10-24 23:00","2018","10","24","23:00","10.7","","9.8","","94","","12","","27","","","M","100.03","","","","","","NA"
"2018-10-25 00:00","2018","10","25","00:00","10.5","","9.9","","96","","13","","20","","","M","100.02","","","","","","NA"
"2018-10-25 01:00","2018","10","25","01:00","10.6","","10.1","","97","","14","","20","","","M","100.01","","","","","","NA"
"2018-10-25 02:00","2018","10","25","02:00","10.7","","10.1","","96","","14","","25","","","M","100.03","","","","","","NA"
"2018-10-25 03:00","2018","10","25","03:00","10.7","","10.2","","97","","13","","26","","","M","100.00","","","","","","NA"
"2018-10-25 04:00","2018","10","25","04:00","10.7","","10.1","","96","","13","","19","","","M","99.98","","","","","","NA"
"2018-10-25 05:00","2018","10","25","05:00","10.6","","10.1","","96","","14","","20","","","M","99.97","","","","","","NA"
"2018-10-25 06:00","2018","10","25","06:00","10.7","","10.1","","96","","15","","16","","","M","100.01","","","","","","NA"
"2018-10-25 07:00","2018","10","25","07:00","10.7","","10.1","","96","","15","","10","","","M","100.04","","","","","","NA"
"2018-10-25 08:00","2018","10","25","08:00","10.7","","10.3","","98","","15","","7","","","M","100.08","","","","","","NA"
"2018-10-25 09:00","2018","10","25","09:00","11.0","","10.7","","98","","12","","4","","","M","100.14","","","","","","NA"
"2018-10-25 10:00","2018","10","25","10:00","11.3","","9.8","","91","","32","","1","","","M","100.21","","","","","","NA"
"2018-10-25 11:00","2018","10","25","11:00","11.4","","10.3","","93","","28","","3","","","M","100.24","","","","","","NA"
"2018-10-25 12:00","2018","10","25","12:00","11.7","","10.1","","90","","33","","4","","","M","100.23","","","","","","NA"
"2018-10-25 13:00","2018","10","25","13:00","12.2","","10.8","","91","","5","","7","","","M","100.21","","","","","","NA"
"2018-10-25 14:00","2018","10","25","14:00","12.2","","10.5","","89","","4","","3","","","M","100.21","","","","","","NA"
"2018-10-25 15:00","2018","10","25","15:00","11.6","","10.7","","94","","5","","5","","","M","100.20","","","","","","NA"
"2018-10-25 16:00","2018","10","25","16:00","11.4","","10.5","","94","","9","","7","","","M","100.17","","","","","","NA"
"2018-10-25 17:00","2018","10","25","17:00","10.5","","10.1","","98","","11","","6","","","M","100.17","","","","","","NA"
"2018-10-25 18:00","2018","10","25","18:00","10.3","","10.2","","99","","12","","5","","","M","100.13","","","","","","NA"
"2018-10-25 19:00","2018","10","25","19:00","10.4","","10.2","","99","","12","","9","","","M","100.08","","","","","","NA"
"2018-10-25 20:00","2018","10","25","20:00","10.4","","10.3","","99","","11","","14","","","M","100.00","","","","","","NA"
"2018-10-25 21:00","2018","10","25","21:00","10.4","","10.2","","99","","9","","9","","","M","99.93","","","","","","NA"
"2018-10-25 22:00","2018","10","25","22:00","10.7","","10.5","","99","","11","","16","","","M","99.85","","","","","","NA"
"2018-10-25 23:00","2018","10","25","23:00","10.8","","10.6","","99","","12","","19","","","M","99.73","","","","","","NA"
"2018-10-26 00:00","2018","10","26","00:00","10.7","","10.5","","99","","12","","19","","","M","99.61","","","","","","NA"
"2018-10-26 01:00","2018","10","26","01:00","10.7","","10.6","","99","","12","","22","","","M","99.47","","","","","","NA"
"2018-10-26 02:00","2018","10","26","02:00","11.2","","10.8","","97","","12","","25","","","M","99.40","","","","","","NA"
"2018-10-26 03:00","2018","10","26","03:00","11.3","","10.9","","97","","13","","21","","","M","99.37","","","","","","NA"
"2018-10-26 04:00","2018","10","26","04:00","11.3","","10.9","","97","","12","","23","","","M","99.28","","","","","","NA"
"2018-10-26 05:00","2018","10","26","05:00","11.3","","11.0","","98","","15","","19","","","M","99.38","","","","","","NA"
"2018-10-26 06:00","2018","10","26","06:00","11.2","","10.9","","98","","14","","11","","","M","99.45","","","","","","NA"
"2018-10-26 07:00","2018","10","26","07:00","10.8","","10.4","","97","","16","","5","","","M","99.57","","","","","","NA"
"2018-10-26 08:00","2018","10","26","08:00","10.2","","10.0","","99","","5","","2","","","M","99.69","","","","","","NA"
"2018-10-26 09:00","2018","10","26","09:00","10.9","","10.7","","99","","34","","7","","","M","99.81","","","","","","NA"
"2018-10-26 10:00","2018","10","26","10:00","12.2","","10.8","","91","","34","","4","","","M","99.92","","","","","","NA"
"2018-10-26 11:00","2018","10","26","11:00","14.8","","11.8","","82","","11","","5","","","M","100.02","","","","","","NA"
"2018-10-26 12:00","2018","10","26","12:00","14.9","","10.1","","73","","36","","13","","","M","100.14","","","","","","NA"
"2018-10-26 13:00","2018","10","26","13:00","15.4","","9.4","","67","","1","","14","","","M","100.16","","","","","","NA"
"2018-10-26 14:00","2018","10","26","14:00","16.2","","4.8","","46","","28","","14","","","M","100.23","","","","","","NA"
"2018-10-26 15:00","2018","10","26","15:00","14.8","","6.8","","58","","8","","9","","","M","100.29","","","","","","NA"
"2018-10-26 16:00","2018","10","26","16:00","14.0","","5.5","","56","","6","","11","","","M","100.35","","","","","","NA"
"2018-10-26 17:00","2018","10","26","17:00","10.8","","6.7","","76","","23","","5","","","M","100.35","","","","","","NA"
"2018-10-26 18:00","2018","10","26","18:00","7.7","","6.9","","95","","25","","4","","","M","100.47","","","","","","NA"
"2018-10-26 19:00","2018","10","26","19:00","6.1","","5.6","","96","","31","","4","","","M","100.48","","","","","","NA"
"2018-10-26 20:00","2018","10","26","20:00","5.8","","5.5","","98","","27","","5","","","M","100.55","","","","","","NA"
"2018-10-26 21:00","2018","10","26","21:00","5.1","","4.8","","98","","30","","4","","","M","100.58","","","","","","NA"
"2018-10-26 22:00","2018","10","26","22:00","4.1","","3.8","","98","","19","","2","","","M","100.63","","","","","","NA"
"2018-10-26 23:00","2018","10","26","23:00","2.7","","2.5","","98","","28","","3","","","M","100.67","","","","","","NA"
"2018-10-27 00:00","2018","10","27","00:00","2.5","","2.3","","98","","27","","3","","","M","100.69","","","","","","NA"
"2018-10-27 01:00","2018","10","27","01:00","1.4","","1.2","","98","","29","","5","","","M","100.70","","","","","","NA"
"2018-10-27 02:00","2018","10","27","02:00","0.8","","0.6","","99","","30","","5","","","M","100.71","","","","","","NA"
"2018-10-27 03:00","2018","10","27","03:00","-0.1","","-0.3","","99","","29","","5","","","M","100.72","","","","-2","","NA"
"2018-10-27 04:00","2018","10","27","04:00","-0.5","","-0.7","","98","","29","","3","","","M","100.71","","","","-1","","NA"
"2018-10-27 05:00","2018","10","27","05:00","-0.1","","-0.3","","99","","24","","4","","","M","100.71","","","","-1","","NA"
"2018-10-27 06:00","2018","10","27","06:00","-1.0","","-1.2","","98","","29","","3","","","M","100.70","","","","-2","","NA"
"2018-10-27 07:00","2018","10","27","07:00","-0.8","","-1.0","","98","","28","","4","","","M","100.68","","","","-2","","NA"
"2018-10-27 08:00","2018","10","27","08:00","0.7","","0.5","","99","","31","","6","","","M","100.64","","","","","","NA"
"2018-10-27 09:00","2018","10","27","09:00","3.4","","3.3","","99","","31","","4","","","M","100.61","","","","","","NA"
"2018-10-27 10:00","2018","10","27","10:00","5.9","","5.8","","99","","8","","3","","","M","100.58","","","","","","NA"
"2018-10-27 11:00","2018","10","27","11:00","6.9","","6.8","","99","","9","","8","","","M","100.46","","","","","","NA"
"2018-10-27 12:00","2018","10","27","12:00","7.7","","7.6","","99","","10","","9","","","M","100.30","","","","","","NA"
"2018-10-27 13:00","2018","10","27","13:00","8.6","","8.0","","96","","10","","8","","","M","100.10","","","","","","NA"
"2018-10-27 14:00","2018","10","27","14:00","8.7","","7.5","","92","","13","","12","","","M","100.03","","","","","","NA"
"2018-10-27 15:00","2018","10","27","15:00","8.7","","7.6","","93","","9","","17","","","M","99.79","","","","","","NA"
"2018-10-27 16:00","2018","10","27","16:00","9.1","","7.6","","90","","12","","19","","","M","99.65","","","","","","NA"
"2018-10-27 17:00","2018","10","27","17:00","8.9","","6.9","","87","","12","","13","","","M","99.55","","","","","","NA"
"2018-10-27 18:00","2018","10","27","18:00","8.3","","7.4","","94","","10","","17","","","M","99.39","","","","","","NA"
"2018-10-27 19:00","2018","10","27","19:00","8.4","","7.8","","96","","13","","32","","","M","99.26","","","","","","NA"
"2018-10-27 20:00","2018","10","27","20:00","8.7","","8.0","","95","","14","","32","","","M","99.14","","","","","","NA"
"2018-10-27 21:00","2018","10","27","21:00","9.0","","7.9","","93","","14","","32","","","M","99.06","","","","","","NA"
"2018-10-27 22:00","2018","10","27","22:00","8.9","","7.8","","93","","14","","34","","","M","98.97","","","","","","NA"
"2018-10-27 23:00","2018","10","27","23:00","9.0","","8.0","","93","","13","","31","","","M","98.93","","","","","","NA"
"2018-10-28 00:00","2018","10","28","00:00","9.1","","8.4","","95","","12","","21","","","M","98.94","","","","","","NA"
"2018-10-28 01:00","2018","10","28","01:00","9.1","","8.6","","96","","14","","13","","","M","98.98","","","","","","NA"
"2018-10-28 02:00","2018","10","28","02:00","9.1","","8.5","","96","","13","","16","","","M","98.98","","","","","","NA"
"2018-10-28 03:00","2018","10","28","03:00","9.1","","8.6","","97","","11","","5","","","M","99.01","","","","","","NA"
"2018-10-28 04:00","2018","10","28","04:00","8.5","","8.3","","99","","30","","5","","","M","99.10","","","","","","NA"
"2018-10-28 05:00","2018","10","28","05:00","8.6","","8.3","","98","","32","","9","","","M","99.22","","","","","","NA"
"2018-10-28 06:00","2018","10","28","06:00","7.9","","7.5","","97","","14","","3","","","M","99.19","","","","","","NA"
"2018-10-28 07:00","2018","10","28","07:00","7.1","","6.9","","99","","30","","10","","","M","99.26","","","","","","NA"
"2018-10-28 08:00","2018","10","28","08:00","7.8","","7.6","","99","","10","","4","","","M","99.32","","","","","","NA"
"2018-10-28 09:00","2018","10","28","09:00","8.1","","7.9","","99","","28","","3","","","M","99.40","","","","","","NA"
"2018-10-28 10:00","2018","10","28","10:00","9.1","","8.7","","97","","29","","5","","","M","99.47","","","","","","NA"
"2018-10-28 11:00","2018","10","28","11:00","10.3","","8.7","","90","","31","","6","","","M","99.59","","","","","","NA"
"2018-10-28 12:00","2018","10","28","12:00","10.8","","8.4","","85","","9","","9","","","M","99.65","","","","","","NA"
"2018-10-28 13:00","2018","10","28","13:00","10.8","","7.7","","81","","11","","5","","","M","99.68","","","","","","NA"
"2018-10-28 14:00","2018","10","28","14:00","10.6","","7.7","","82","","12","","17","","","M","99.72","","","","","","NA"
"2018-10-28 15:00","2018","10","28","15:00","10.9","","8.1","","83","","13","","9","","","M","99.74","","","","","","NA"
"2018-10-28 16:00","2018","10","28","16:00","10.3","","7.8","","84","","11","","11","","","M","99.75","","","","","","NA"
"2018-10-28 17:00","2018","10","28","17:00","9.7","","7.0","","83","","10","","10","","","M","99.76","","","","","","NA"
"2018-10-28 18:00","2018","10","28","18:00","8.9","","6.1","","82","","13","","12","","","M","99.84","","","","","","NA"
"2018-10-28 19:00","2018","10","28","19:00","8.6","","6.8","","88","","11","","1","","","M","99.89","","","","","","NA"
"2018-10-28 20:00","2018","10","28","20:00","8.2","","7.3","","94","","15","","5","","","M","99.95","","","","","","NA"
"2018-10-28 21:00","2018","10","28","21:00","6.9","","6.4","","96","","0","","1","","","M","99.97","","","","","","NA"
"2018-10-28 22:00","2018","10","28","22:00","5.2","","5.1","","99","","31","","5","","","M","100.00","","","","","","NA"
"2018-10-28 23:00","2018","10","28","23:00","4.8","","4.6","","99","","28","","4","","","M","100.02","","","","","","NA"
"2018-10-29 00:00","2018","10","29","00:00","2.5","","2.4","","99","","32","","8","","","M","100.04","","","","","","NA"
"2018-10-29 01:00","2018","10","29","01:00","2.6","","2.4","","99","","30","","5","","","M","100.09","","","","","","NA"
"2018-10-29 02:00","2018","10","29","02:00","1.8","","1.6","","99","","33","","6","","","M","100.15","","","","","","NA"
"2018-10-29 03:00","2018","10","29","03:00","2.2","","2.1","","99","","25","","3","","","M","100.17","","","","","","NA"
"2018-10-29 04:00","2018","10","29","04:00","2.8","","2.7","","99","","32","","6","","","M","100.22","","","","","","NA"
"2018-10-29 05:00","2018","10","29","05:00","4.1","","4.0","","99","","31","","4","","","M","100.28","","","","","","NA"
"2018-10-29 06:00","2018","10","29","06:00","5.0","","4.9","","99","","26","","3","","","M","100.33","","","","","","NA"
"2018-10-29 07:00","2018","10","29","07:00","5.8","","5.6","","99","","16","","5","","","M","100.37","","","","","","NA"
"2018-10-29 08:00","2018","10","29","08:00","5.8","","5.6","","99","","25","","1","","","M","100.46","","","","","","NA"
"2018-10-29 09:00","2018","10","29","09:00","7.7","","6.7","","94","","17","","5","","","M","100.53","","","","","","NA"
"2018-10-29 10:00","2018","10","29","10:00","8.9","","6.8","","86","","15","","10","","","M","100.60","","","","","","NA"
"2018-10-29 11:00","2018","10","29","11:00","10.1","","6.8","","80","","12","","9","","","M","100.65","","","","","","NA"
"2018-10-29 12:00","2018","10","29","12:00","10.1","","6.7","","79","","4","","5","","","M","100.69","","","","","","NA"
"2018-10-29 13:00","2018","10","29","13:00","10.8","","7.3","","79","","11","","12","","","M","100.71","","","","","","NA"
"2018-10-29 14:00","2018","10","29","14:00","10.7","","7.4","","80","","11","","17","","","M","100.75","","","","","","NA"
"2018-10-29 15:00","2018","10","29","15:00","10.3","","7.8","","84","","13","","15","","","M","100.79","","","","","","NA"
"2018-10-29 16:00","2018","10","29","16:00","9.8","","8.2","","90","","10","","7","","","M","100.83","","","","","","NA"
"2018-10-29 17:00","2018","10","29","17:00","9.3","","8.5","","95","","10","","8","","","M","100.86","","","","","","NA"
"2018-10-29 18:00","2018","10","29","18:00","8.6","","8.3","","97","","9","","4","","","M","100.91","","","","","","NA"
"2018-10-29 19:00","2018","10","29","19:00","9.0","","8.4","","96","","12","","9","","","M","100.95","","","","","","NA"
"2018-10-29 20:00","2018","10","29","20:00","8.0","","7.7","","98","","18","","1","","","M","100.97","","","","","","NA"
"2018-10-29 21:00","2018","10","29","21:00","6.7","","6.5","","99","","35","","3","","","M","101.04","","","","","","NA"
"2018-10-29 22:00","2018","10","29","22:00","6.5","","6.3","","99","","24","","6","","","M","101.06","","","","","","NA"
"2018-10-29 23:00","2018","10","29","23:00","6.8","","6.7","","99","","34","","5","","","M","101.09","","","","","","NA"
"2018-10-30 00:00","2018","10","30","00:00","7.0","","6.9","","99","","31","","4","","","M","101.11","","","","","","NA"
"2018-10-30 01:00","2018","10","30","01:00","7.1","","7.1","","100","","30","","5","","","M","101.13","","","","","","NA"
"2018-10-30 02:00","2018","10","30","02:00","7.1","","7.0","","99","","30","","2","","","M","101.16","","","","","","NA"
"2018-10-30 03:00","2018","10","30","03:00","7.1","","7.0","","99","","24","","4","","","M","101.19","","","","","","NA"
"2018-10-30 04:00","2018","10","30","04:00","7.2","","7.0","","99","","17","","2","","","M","101.20","","","","","","NA"
"2018-10-30 05:00","2018","10","30","05:00","7.0","","6.7","","98","","24","","3","","","M","101.20","","","","","","NA"
"2018-10-30 06:00","2018","10","30","06:00","6.8","","6.6","","99","","23","","1","","","M","101.25","","","","","","NA"
"2018-10-30 07:00","2018","10","30","07:00","6.4","","6.2","","99","","29","","4","","","M","101.23","","","","","","NA"
"2018-10-30 08:00","2018","10","30","08:00","6.7","","6.5","","99","","29","","3","","","M","101.26","","","","","","NA"
"2018-10-30 09:00","2018","10","30","09:00","7.2","","7.1","","99","","23","","3","","","M","101.29","","","","","","NA"
"2018-10-30 10:00","2018","10","30","10:00","8.9","","7.4","","90","","11","","8","","","M","101.25","","","","","","NA"
"2018-10-30 11:00","2018","10","30","11:00","9.9","","6.6","","80","","13","","12","","","M","101.24","","","","","","NA"
"2018-10-30 12:00","2018","10","30","12:00","9.6","","7.1","","84","","11","","14","","","M","101.19","","","","","","NA"
"2018-10-30 13:00","2018","10","30","13:00","9.7","","7.5","","86","","10","","16","","","M","101.12","","","","","","NA"
"2018-10-30 14:00","2018","10","30","14:00","9.7","","7.5","","86","","10","","14","","","M","101.05","","","","","","NA"
"2018-10-30 15:00","2018","10","30","15:00","9.5","","7.6","","88","","11","","12","","","M","100.95","","","","","","NA"
"2018-10-30 16:00","2018","10","30","16:00","8.6","","7.8","","95","","12","","21","","","M","100.84","","","","","","NA"
"2018-10-30 17:00","2018","10","30","17:00","8.4","","7.9","","96","","12","","26","","","M","100.73","","","","","","NA"
"2018-10-30 18:00","2018","10","30","18:00","8.6","","8.2","","97","","12","","22","","","M","100.64","","","","","","NA"
"2018-10-30 19:00","2018","10","30","19:00","9.0","","8.5","","97","","13","","32","","","M","100.53","","","","","","NA"
"2018-10-30 20:00","2018","10","30","20:00","9.1","","8.7","","97","","12","","38","","","M","100.47","","","","","","NA"
"2018-10-30 21:00","2018","10","30","21:00","9.1","","8.7","","97","","12","","27","","","M","100.44","","","","","","NA"
"2018-10-30 22:00","2018","10","30","22:00","9.0","","8.5","","97","","13","","35","","","M","100.40","","","","","","NA"
"2018-10-30 23:00","2018","10","30","23:00","8.8","","8.1","","95","","13","","26","","","M","100.36","","","","","","NA"
"2018-10-31 00:00","2018","10","31","00:00","8.2","","7.8","","97","","11","","19","","","M","100.40","","","","","","NA"
"2018-10-31 01:00","2018","10","31","01:00","8.4","","8.2","","98","","12","","22","","","M","100.32","","","","","","NA"
"2018-10-31 02:00","2018","10","31","02:00","8.2","","8.1","","99","","12","","21","","","M","100.23","","","","","","NA"
"2018-10-31 03:00","2018","10","31","03:00","8.0","","7.8","","99","","11","","20","","","M","100.20","","","","","","NA"
"2018-10-31 04:00","2018","10","31","04:00","8.1","","7.9","","99","","11","","18","","","M","100.18","","","","","","NA"
"2018-10-31 05:00","2018","10","31","05:00","8.2","","8.0","","98","","12","","14","","","M","100.16","","","","","","NA"
"2018-10-31 06:00","2018","10","31","06:00","8.4","","8.2","","99","","11","","16","","","M","100.14","","","","","","NA"
"2018-10-31 07:00","2018","10","31","07:00","8.8","","8.6","","99","","11","","15","","","M","100.18","","","","","","NA"
"2018-10-31 08:00","2018","10","31","08:00","8.4","","8.3","","99","","10","","10","","","M","100.24","","","","","","NA"
"2018-10-31 09:00","2018","10","31","09:00","8.1","","7.9","","99","","6","","9","","","M","100.29","","","","","","NA"
"2018-10-31 10:00","2018","10","31","10:00","8.2","","8.1","","99","","5","","6","","","M","100.33","","","","","","NA"
"2018-10-31 11:00","2018","10","31","11:00","8.3","","8.2","","99","","3","","8","","","M","100.39","","","","","","NA"
"2018-10-31 12:00","2018","10","31","12:00","8.6","","8.4","","98","","3","","6","","","M","100.40","","","","","","NA"
"2018-10-31 13:00","2018","10","31","13:00","9.1","","8.8","","98","","6","","3","","","M","100.42","","","","","","NA"
"2018-10-31 14:00","2018","10","31","14:00","9.1","","8.9","","98","","8","","9","","","M","100.45","","","","","","NA"
"2018-10-31 15:00","2018","10","31","15:00","9.0","","8.9","","99","","4","","7","","","M","100.50","","","","","","NA"
"2018-10-31 16:00","2018","10","31","16:00","9.0","","8.9","","99","","4","","4","","","M","100.51","","","","","","NA"
"2018-10-31 17:00","2018","10","31","17:00","9.0","","8.9","","100","","5","","3","","","M","100.53","","","","","","NA"
"2018-10-31 18:00","2018","10","31","18:00","9.0","","8.9","","100","","35","","3","","","M","100.58","","","","","","NA"
"2018-10-31 19:00","2018","10","31","19:00","8.9","","8.9","","100","","4","","2","","","M","100.57","","","","","","NA"
"2018-10-31 20:00","2018","10","31","20:00","8.9","","8.9","","100","","8","","3","","","M","100.60","","","","","","NA"
"2018-10-31 21:00","2018","10","31","21:00","8.9","","8.9","","100","","0","","1","","","M","100.60","","","","","","NA"
"2018-10-31 22:00","2018","10","31","22:00","9.0","","9.0","","100","","2","","3","","","M","100.61","","","","","","NA"
"2018-10-31 23:00","2018","10","31","23:00","9.0","","9.0","","100","","15","","3","","","M","100.64","","","","","","NA"
