"Station Name","CAMPBELL RIVER A"
"Province","BRITISH COLUMBIA"
"Current Station Operator","NAV Canada"
"Latitude","49.95"
"Longitude","-125.27"
"Elevation","108.80"
"Climate Identifier","1021270"
"WMO Identifier",""
"TC Identifier","YBL"
"All times are specified in Local Standard Time (LST). Add 1 hour to adjust for Daylight Saving Time where and when it is observed."

"Legend"
"E","Estimated"
"M","Missing"
"NA","Not Available"

"Date/Time","Year","Month","Day","Time","Temp (°C)","Temp Flag","Dew Point Temp (°C)","Dew Point Temp Flag","Rel Hum (%)","Rel Hum Flag","Wind Dir (10s deg)","Wind Dir Flag","Wind Spd (km/h)","Wind Spd Flag","Visibility (km)","Visibility Flag","Stn Press (kPa)","Stn Press Flag","Hmdx","Hmdx Flag","Wind Chill","Wind Chill Flag","Weather"
"2018-11-01 00:00","2018","11","01","00:00","9.0","","9.0","","100","","12","","4","","","M","100.60","","","","","","NA"
"2018-11-01 01:00","2018","11","01","01:00","9.0","","9.0","","100","","19","","4","","","M","100.64","","","","","","NA"
"2018-11-01 02:00","2018","11","01","02:00","9.0","","9.0","","100","","14","","4","","","M","100.60","","","","","","NA"
"2018-11-01 03:00","2018","11","01","03:00","9.0","","9.0","","100","","12","","5","","","M","100.52","","","","","","NA"
"2018-11-01 04:00","2018","11","01","04:00","9.0","","9.0","","100","","11","","6","","","M","100.44","","","","","","NA"
"2018-11-01 05:00","2018","11","01","05:00","9.1","","9.1","","100","","11","","12","","","M","100.36","","","","","","NA"
"2018-11-01 06:00","2018","11","01","06:00","9.2","","9.2","","100","","14","","9","","","M","100.36","","","","","","NA"
"2018-11-01 07:00","2018","11","01","07:00","9.3","","9.3","","100","","10","","16","","","M","100.31","","","","","","NA"
"2018-11-01 08:00","2018","11","01","08:00","9.5","","9.5","","100","","12","","12","","","M","100.29","","","","","","NA"
"2018-11-01 09:00","2018","11","01","09:00","9.7","","9.7","","100","","12","","14","","","M","100.26","","","","","","NA"
"2018-11-01 10:00","2018","11","01","10:00","9.9","","9.9","","100","","12","","14","","","M","100.21","","","","","","NA"
"2018-11-01 11:00","2018","11","01","11:00","10.0","","10.0","","100","","11","","10","","","M","100.18","","","","","","NA"
"2018-11-01 12:00","2018","11","01","12:00","10.2","","10.2","","100","","11","","8","","","M","100.12","","","","","","NA"
"2018-11-01 13:00","2018","11","01","13:00","10.4","","10.4","","100","","12","","13","","","M","100.07","","","","","","NA"
"2018-11-01 14:00","2018","11","01","14:00","10.5","","10.5","","100","","10","","13","","","M","99.96","","","","","","NA"
"2018-11-01 15:00","2018","11","01","15:00","10.7","","10.7","","100","","10","","5","","","M","99.87","","","","","","NA"
"2018-11-01 16:00","2018","11","01","16:00","10.7","","10.7","","100","","11","","10","","","M","99.80","","","","","","NA"
"2018-11-01 17:00","2018","11","01","17:00","10.8","","10.8","","100","","9","","8","","","M","99.71","","","","","","NA"
"2018-11-01 18:00","2018","11","01","18:00","11.3","","11.3","","100","","9","","9","","","M","99.56","","","","","","NA"
"2018-11-01 19:00","2018","11","01","19:00","11.3","","11.3","","100","","5","","7","","","M","99.48","","","","","","NA"
"2018-11-01 20:00","2018","11","01","20:00","11.2","","11.2","","100","","36","","4","","","M","99.35","","","","","","NA"
"2018-11-01 21:00","2018","11","01","21:00","11.1","","11.1","","100","","32","","4","","","M","99.30","","","","","","NA"
"2018-11-01 22:00","2018","11","01","22:00","11.2","","11.2","","100","","31","","9","","","M","99.38","","","","","","NA"
"2018-11-01 23:00","2018","11","01","23:00","11.4","","11.4","","100","","32","","15","","","M","99.48","","","","","","NA"
"2018-11-02 00:00","2018","11","02","00:00","11.1","","11.1","","100","","24","","2","","","M","99.51","","","","","","NA"
"2018-11-02 01:00","2018","11","02","01:00","10.4","","10.3","","100","","25","","4","","","M","99.59","","","","","","NA"
"2018-11-02 02:00","2018","11","02","02:00","9.1","","9.1","","100","","18","","3","","","M","99.63","","","","","","NA"
"2018-11-02 03:00","2018","11","02","03:00","7.9","","7.9","","100","","","","0","","","M","99.65","","","","","","NA"
"2018-11-02 04:00","2018","11","02","04:00","8.1","","8.1","","100","","29","","5","","","M","99.74","","","","","","NA"
"2018-11-02 05:00","2018","11","02","05:00","7.5","","7.4","","100","","31","","4","","","M","99.88","","","","","","NA"
"2018-11-02 06:00","2018","11","02","06:00","8.6","","8.6","","100","","29","","10","","","M","99.99","","","","","","NA"
"2018-11-02 07:00","2018","11","02","07:00","6.8","","6.8","","100","","25","","3","","","M","100.05","","","","","","NA"
"2018-11-02 08:00","2018","11","02","08:00","7.9","","7.9","","100","","11","","3","","","M","100.18","","","","","","NA"
"2018-11-02 09:00","2018","11","02","09:00","10.3","","10.3","","100","","24","","4","","","M","100.28","","","","","","NA"
"2018-11-02 10:00","2018","11","02","10:00","12.7","","9.9","","83","","32","","10","","","M","100.37","","","","","","NA"
"2018-11-02 11:00","2018","11","02","11:00","13.3","","7.9","","69","","32","","15","","","M","100.46","","","","","","NA"
"2018-11-02 12:00","2018","11","02","12:00","13.2","","8.1","","71","","9","","9","","","M","100.53","","","","","","NA"
"2018-11-02 13:00","2018","11","02","13:00","14.0","","7.8","","66","","32","","11","","","M","100.60","","","","","","NA"
"2018-11-02 14:00","2018","11","02","14:00","13.1","","7.6","","69","","36","","9","","","M","100.73","","","","","","NA"
"2018-11-02 15:00","2018","11","02","15:00","13.0","","7.9","","71","","29","","8","","","M","100.80","","","","","","NA"
"2018-11-02 16:00","2018","11","02","16:00","11.8","","7.4","","74","","4","","5","","","M","100.86","","","","","","NA"
"2018-11-02 17:00","2018","11","02","17:00","9.4","","8.5","","93","","25","","5","","","M","100.88","","","","","","NA"
"2018-11-02 18:00","2018","11","02","18:00","8.7","","7.9","","95","","27","","4","","","M","100.98","","","","","","NA"
"2018-11-02 19:00","2018","11","02","19:00","8.4","","7.8","","96","","28","","3","","","M","100.96","","","","","","NA"
"2018-11-02 20:00","2018","11","02","20:00","7.8","","7.5","","98","","20","","3","","","M","101.01","","","","","","NA"
"2018-11-02 21:00","2018","11","02","21:00","7.7","","7.5","","99","","30","","1","","","M","100.99","","","","","","NA"
"2018-11-02 22:00","2018","11","02","22:00","7.5","","7.3","","99","","30","","4","","","M","101.04","","","","","","NA"
"2018-11-02 23:00","2018","11","02","23:00","7.3","","7.1","","99","","28","","4","","","M","101.02","","","","","","NA"
"2018-11-03 00:00","2018","11","03","00:00","7.5","","7.3","","99","","28","","5","","","M","101.06","","","","","","NA"
"2018-11-03 01:00","2018","11","03","01:00","7.1","","7.0","","99","","","","0","","","M","100.91","","","","","","NA"
"2018-11-03 02:00","2018","11","03","02:00","7.2","","7.2","","99","","30","","2","","","M","100.91","","","","","","NA"
"2018-11-03 03:00","2018","11","03","03:00","7.4","","7.3","","99","","23","","5","","","M","100.94","","","","","","NA"
"2018-11-03 04:00","2018","11","03","04:00","7.3","","7.2","","100","","29","","1","","","M","100.90","","","","","","NA"
"2018-11-03 05:00","2018","11","03","05:00","7.4","","7.4","","100","","28","","2","","","M","100.86","","","","","","NA"
"2018-11-03 06:00","2018","11","03","06:00","7.6","","7.6","","100","","30","","7","","","M","100.82","","","","","","NA"
"2018-11-03 07:00","2018","11","03","07:00","8.0","","7.9","","100","","","","0","","","M","100.74","","","","","","NA"
"2018-11-03 08:00","2018","11","03","08:00","8.4","","8.4","","100","","1","","1","","","M","100.74","","","","","","NA"
"2018-11-03 09:00","2018","11","03","09:00","8.9","","8.7","","98","","10","","7","","","M","100.67","","","","","","NA"
"2018-11-03 10:00","2018","11","03","10:00","9.6","","9.3","","98","","10","","14","","","M","100.60","","","","","","NA"
"2018-11-03 11:00","2018","11","03","11:00","9.9","","9.5","","97","","12","","14","","","M","100.58","","","","","","NA"
"2018-11-03 12:00","2018","11","03","12:00","10.1","","9.5","","96","","12","","19","","","M","100.51","","","","","","NA"
"2018-11-03 13:00","2018","11","03","13:00","10.5","","9.6","","94","","13","","22","","","M","100.38","","","","","","NA"
"2018-11-03 14:00","2018","11","03","14:00","10.5","","9.8","","96","","12","","18","","","M","100.21","","","","","","NA"
"2018-11-03 15:00","2018","11","03","15:00","10.5","","9.7","","94","","12","","23","","","M","100.02","","","","","","NA"
"2018-11-03 16:00","2018","11","03","16:00","10.1","","9.7","","98","","11","","18","","","M","99.90","","","","","","NA"
"2018-11-03 17:00","2018","11","03","17:00","10.0","","9.7","","98","","12","","30","","","M","99.73","","","","","","NA"
"2018-11-03 18:00","2018","11","03","18:00","10.2","","9.9","","98","","13","","26","","","M","99.54","","","","","","NA"
"2018-11-03 19:00","2018","11","03","19:00","10.3","","10.1","","99","","11","","18","","","M","99.33","","","","","","NA"
"2018-11-03 20:00","2018","11","03","20:00","10.3","","10.0","","98","","13","","29","","","M","99.21","","","","","","NA"
"2018-11-03 21:00","2018","11","03","21:00","10.4","","10.1","","98","","12","","18","","","M","99.07","","","","","","NA"
"2018-11-03 22:00","2018","11","03","22:00","10.7","","10.3","","98","","14","","17","","","M","99.01","","","","","","NA"
"2018-11-03 23:00","2018","11","03","23:00","10.5","","10.2","","98","","14","","7","","","M","98.94","","","","","","NA"
"2018-11-04 00:00","2018","11","04","00:00","10.6","","10.4","","99","","33","","16","","","M","99.07","","","","","","NA"
"2018-11-04 01:00","2018","11","04","01:00","10.5","","10.2","","98","","23","","5","","","M","99.19","","","","","","NA"
"2018-11-04 02:00","2018","11","04","02:00","9.7","","9.6","","99","","26","","7","","","M","99.26","","","","","","NA"
"2018-11-04 03:00","2018","11","04","03:00","9.4","","9.2","","99","","30","","10","","","M","99.35","","","","","","NA"
"2018-11-04 04:00","2018","11","04","04:00","9.0","","8.5","","97","","26","","8","","","M","99.45","","","","","","NA"
"2018-11-04 05:00","2018","11","04","05:00","7.5","","7.1","","97","","4","","5","","","M","99.55","","","","","","NA"
"2018-11-04 06:00","2018","11","04","06:00","6.7","","5.2","","91","","30","","5","","","M","99.60","","","","","","NA"
"2018-11-04 07:00","2018","11","04","07:00","6.3","","6.1","","99","","25","","11","","","M","99.66","","","","","","NA"
"2018-11-04 08:00","2018","11","04","08:00","6.3","","5.3","","94","","36","","4","","","M","99.76","","","","","","NA"
"2018-11-04 09:00","2018","11","04","09:00","9.6","","6.6","","81","","32","","7","","","M","99.84","","","","","","NA"
"2018-11-04 10:00","2018","11","04","10:00","11.3","","7.6","","78","","1","","4","","","M","99.93","","","","","","NA"
"2018-11-04 11:00","2018","11","04","11:00","12.7","","5.9","","63","","32","","7","","","M","99.98","","","","","","NA"
"2018-11-04 12:00","2018","11","04","12:00","12.8","","6.6","","66","","4","","8","","","M","100.01","","","","","","NA"
"2018-11-04 13:00","2018","11","04","13:00","12.6","","6.3","","65","","3","","6","","","M","100.03","","","","","","NA"
"2018-11-04 14:00","2018","11","04","14:00","12.2","","7.0","","70","","16","","8","","","M","100.07","","","","","","NA"
"2018-11-04 15:00","2018","11","04","15:00","12.5","","6.7","","68","","8","","4","","","M","100.07","","","","","","NA"
"2018-11-04 16:00","2018","11","04","16:00","11.5","","7.4","","76","","16","","9","","","M","100.07","","","","","","NA"
"2018-11-04 17:00","2018","11","04","17:00","8.9","","7.8","","93","","18","","4","","","M","100.09","","","","","","NA"
"2018-11-04 18:00","2018","11","04","18:00","8.8","","8.2","","96","","29","","5","","","M","100.11","","","","","","NA"
"2018-11-04 19:00","2018","11","04","19:00","8.1","","7.8","","98","","23","","4","","","M","100.10","","","","","","NA"
"2018-11-04 20:00","2018","11","04","20:00","6.0","","5.8","","99","","31","","3","","","M","100.09","","","","","","NA"
"2018-11-04 21:00","2018","11","04","21:00","4.8","","4.6","","99","","","","0","","","M","100.08","","","","","","NA"
"2018-11-04 22:00","2018","11","04","22:00","4.9","","4.8","","99","","32","","8","","","M","100.13","","","","","","NA"
"2018-11-04 23:00","2018","11","04","23:00","5.3","","5.2","","99","","32","","5","","","M","100.13","","","","","","NA"
"2018-11-05 00:00","2018","11","05","00:00","4.3","","4.2","","99","","30","","5","","","M","100.13","","","","","","NA"
"2018-11-05 01:00","2018","11","05","01:00","4.9","","4.8","","99","","30","","6","","","M","100.14","","","","","","NA"
"2018-11-05 02:00","2018","11","05","02:00","5.6","","5.5","","100","","31","","4","","","M","100.17","","","","","","NA"
"2018-11-05 03:00","2018","11","05","03:00","6.0","","6.0","","100","","30","","3","","","M","100.15","","","","","","NA"
"2018-11-05 04:00","2018","11","05","04:00","6.0","","5.9","","100","","28","","4","","","M","100.16","","","","","","NA"
"2018-11-05 05:00","2018","11","05","05:00","6.0","","6.0","","100","","28","","4","","","M","100.19","","","","","","NA"
"2018-11-05 06:00","2018","11","05","06:00","4.3","","4.2","","99","","20","","2","","","M","100.16","","","","","","NA"
"2018-11-05 07:00","2018","11","05","07:00","4.8","","4.7","","100","","32","","7","","","M","100.15","","","","","","NA"
"2018-11-05 08:00","2018","11","05","08:00","5.4","","5.3","","100","","28","","2","","","M","100.13","","","","","","NA"
"2018-11-05 09:00","2018","11","05","09:00","6.4","","6.3","","100","","31","","7","","","M","100.19","","","","","","NA"
"2018-11-05 10:00","2018","11","05","10:00","7.4","","7.3","","100","","27","","4","","","M","100.26","","","","","","NA"
"2018-11-05 11:00","2018","11","05","11:00","8.9","","8.6","","98","","5","","4","","","M","100.23","","","","","","NA"
"2018-11-05 12:00","2018","11","05","12:00","9.4","","8.8","","96","","5","","7","","","M","100.26","","","","","","NA"
"2018-11-05 13:00","2018","11","05","13:00","9.2","","7.9","","91","","8","","4","","","M","100.26","","","","","","NA"
"2018-11-05 14:00","2018","11","05","14:00","9.4","","7.6","","88","","10","","4","","","M","100.26","","","","","","NA"
"2018-11-05 15:00","2018","11","05","15:00","10.2","","8.0","","86","","7","","9","","","M","100.26","","","","","","NA"
"2018-11-05 16:00","2018","11","05","16:00","8.6","","7.4","","92","","13","","3","","","M","100.29","","","","","","NA"
"2018-11-05 17:00","2018","11","05","17:00","6.7","","6.5","","99","","25","","4","","","M","100.29","","","","","","NA"
"2018-11-05 18:00","2018","11","05","18:00","7.2","","7.0","","99","","31","","13","","","M","100.34","","","","","","NA"
"2018-11-05 19:00","2018","11","05","19:00","8.2","","7.8","","97","","1","","3","","","M","100.39","","","","","","NA"
"2018-11-05 20:00","2018","11","05","20:00","7.7","","7.5","","99","","22","","7","","","M","100.43","","","","","","NA"
"2018-11-05 21:00","2018","11","05","21:00","6.3","","6.2","","99","","24","","3","","","M","100.47","","","","","","NA"
"2018-11-05 22:00","2018","11","05","22:00","5.1","","5.0","","99","","32","","5","","","M","100.50","","","","","","NA"
"2018-11-05 23:00","2018","11","05","23:00","4.0","","3.8","","99","","26","","4","","","M","100.56","","","","","","NA"
"2018-11-06 00:00","2018","11","06","00:00","4.0","","3.9","","99","","26","","4","","","M","100.61","","","","","","NA"
"2018-11-06 01:00","2018","11","06","01:00","3.4","","3.3","","99","","30","","3","","","M","100.66","","","","","","NA"
"2018-11-06 02:00","2018","11","06","02:00","2.4","","2.4","","100","","31","","6","","","M","100.70","","","","","","NA"
"2018-11-06 03:00","2018","11","06","03:00","3.9","","3.8","","100","","29","","7","","","M","100.74","","","","","","NA"
"2018-11-06 04:00","2018","11","06","04:00","3.5","","3.4","","99","","31","","6","","","M","100.74","","","","","","NA"
"2018-11-06 05:00","2018","11","06","05:00","2.2","","2.1","","99","","31","","7","","","M","100.78","","","","","","NA"
"2018-11-06 06:00","2018","11","06","06:00","1.2","","1.1","","99","","28","","4","","","M","100.79","","","","","","NA"
"2018-11-06 07:00","2018","11","06","07:00","0.7","","0.6","","99","","27","","4","","","M","100.82","","","","","","NA"
"2018-11-06 08:00","2018","11","06","08:00","0.2","","0.1","","99","","27","","4","","","M","100.85","","","","","","NA"
"2018-11-06 09:00","2018","11","06","09:00","4.3","","4.2","","100","","25","","8","","","M","100.88","","","","","","NA"
"2018-11-06 10:00","2018","11","06","10:00","8.4","","5.8","","83","","33","","9","","","M","100.91","","","","","","NA"
"2018-11-06 11:00","2018","11","06","11:00","9.6","","5.3","","75","","31","","12","","","M","100.94","","","","","","NA"
"2018-11-06 12:00","2018","11","06","12:00","10.7","","5.0","","68","","33","","15","","","M","100.94","","","","","","NA"
"2018-11-06 13:00","2018","11","06","13:00","10.1","","5.3","","72","","2","","5","","","M","100.95","","","","","","NA"
"2018-11-06 14:00","2018","11","06","14:00","10.3","","4.4","","67","","36","","6","","","M","100.96","","","","","","NA"
"2018-11-06 15:00","2018","11","06","15:00","9.6","","7.0","","84","","21","","2","","","M","100.97","","","","","","NA"
"2018-11-06 16:00","2018","11","06","16:00","9.3","","5.0","","74","","31","","7","","","M","100.98","","","","","","NA"
"2018-11-06 17:00","2018","11","06","17:00","6.7","","4.4","","85","","27","","9","","","M","101.00","","","","","","NA"
"2018-11-06 18:00","2018","11","06","18:00","6.3","","3.5","","82","","28","","11","","","M","101.03","","","","","","NA"
"2018-11-06 19:00","2018","11","06","19:00","5.7","","3.0","","83","","28","","12","","","M","101.07","","","","","","NA"
"2018-11-06 20:00","2018","11","06","20:00","5.1","","2.4","","83","","28","","10","","","M","101.11","","","","","","NA"
"2018-11-06 21:00","2018","11","06","21:00","2.1","","0.8","","91","","26","","5","","","M","101.17","","","","","","NA"
"2018-11-06 22:00","2018","11","06","22:00","2.1","","0.5","","89","","29","","9","","","M","101.22","","","","","","NA"
"2018-11-06 23:00","2018","11","06","23:00","1.7","","-0.2","","87","","29","","6","","","M","101.28","","","","","","NA"
"2018-11-07 00:00","2018","11","07","00:00","3.5","","1.8","","89","","29","","10","","","M","101.32","","","","","","NA"
"2018-11-07 01:00","2018","11","07","01:00","4.2","","1.9","","85","","29","","14","","","M","101.37","","","","","","NA"
"2018-11-07 02:00","2018","11","07","02:00","3.8","","1.9","","87","","30","","11","","","M","101.41","","","","","","NA"
"2018-11-07 03:00","2018","11","07","03:00","4.1","","2.2","","87","","30","","15","","","M","101.46","","","","","","NA"
"2018-11-07 04:00","2018","11","07","04:00","1.9","","1.2","","95","","31","","9","","","M","101.45","","","","","","NA"
"2018-11-07 05:00","2018","11","07","05:00","0.9","","0.2","","95","","32","","12","","","M","101.51","","","","","","NA"
"2018-11-07 06:00","2018","11","07","06:00","0.0","","-0.5","","97","","30","","7","","","M","101.54","","","","-2","","NA"
"2018-11-07 07:00","2018","11","07","07:00","-0.8","","-1.2","","97","","29","","6","","","M","101.57","","","","-3","","NA"
"2018-11-07 08:00","2018","11","07","08:00","-0.5","","-0.7","","98","","26","","3","","","M","101.65","","","","-1","","NA"
"2018-11-07 09:00","2018","11","07","09:00","2.4","","2.2","","99","","26","","5","","","M","101.72","","","","","","NA"
"2018-11-07 10:00","2018","11","07","10:00","6.1","","2.9","","80","","33","","7","","","M","101.77","","","","","","NA"
"2018-11-07 11:00","2018","11","07","11:00","8.4","","2.3","","65","","4","","8","","","M","101.80","","","","","","NA"
"2018-11-07 12:00","2018","11","07","12:00","9.3","","2.3","","61","","12","","4","","","M","101.79","","","","","","NA"
"2018-11-07 13:00","2018","11","07","13:00","8.8","","3.3","","68","","10","","9","","","M","101.77","","","","","","NA"
"2018-11-07 14:00","2018","11","07","14:00","9.3","","2.9","","64","","9","","7","","","M","101.78","","","","","","NA"
"2018-11-07 15:00","2018","11","07","15:00","8.9","","3.9","","71","","13","","3","","","M","101.79","","","","","","NA"
"2018-11-07 16:00","2018","11","07","16:00","6.1","","4.4","","88","","14","","5","","","M","101.81","","","","","","NA"
"2018-11-07 17:00","2018","11","07","17:00","3.5","","3.1","","97","","31","","3","","","M","101.81","","","","","","NA"
"2018-11-07 18:00","2018","11","07","18:00","3.1","","3.0","","99","","31","","3","","","M","101.83","","","","","","NA"
"2018-11-07 19:00","2018","11","07","19:00","1.0","","0.8","","99","","29","","4","","","M","101.89","","","","","","NA"
"2018-11-07 20:00","2018","11","07","20:00","0.4","","0.3","","99","","30","","2","","","M","101.94","","","","","","NA"
"2018-11-07 21:00","2018","11","07","21:00","-0.2","","-0.4","","99","","30","","3","","","M","101.99","","","","-1","","NA"
"2018-11-07 22:00","2018","11","07","22:00","-1.8","","-2.0","","99","","30","","5","","","M","102.02","","","","-4","","NA"
"2018-11-07 23:00","2018","11","07","23:00","-1.4","","-1.6","","99","","27","","2","","","M","102.07","","","","-2","","NA"
"2018-11-08 00:00","2018","11","08","00:00","-1.2","","-1.5","","98","","30","","4","","","M","102.09","","","","-3","","NA"
"2018-11-08 01:00","2018","11","08","01:00","-2.3","","-2.6","","98","","33","","7","","","M","102.13","","","","-5","","NA"
"2018-11-08 02:00","2018","11","08","02:00","-2.0","","-2.4","","98","","29","","2","","","M","102.18","","","","-3","","NA"
"2018-11-08 03:00","2018","11","08","03:00","-1.5","","-1.8","","98","","29","","4","","","M","102.19","","","","-3","","NA"
"2018-11-08 04:00","2018","11","08","04:00","-2.5","","-2.9","","97","","28","","3","","","M","102.19","","","","-4","","NA"
"2018-11-08 05:00","2018","11","08","05:00","-2.5","","-2.9","","97","","25","","4","","","M","102.19","","","","-4","","NA"
"2018-11-08 06:00","2018","11","08","06:00","-1.8","","-2.2","","98","","25","","4","","","M","102.20","","","","-3","","NA"
"2018-11-08 07:00","2018","11","08","07:00","-1.1","","-1.4","","98","","29","","4","","","M","102.21","","","","-2","","NA"
"2018-11-08 08:00","2018","11","08","08:00","-0.4","","-0.6","","99","","31","","7","","","M","102.23","","","","-3","","NA"
"2018-11-08 09:00","2018","11","08","09:00","0.3","","0.2","","99","","32","","7","","","M","102.26","","","","","","NA"
"2018-11-08 10:00","2018","11","08","10:00","1.9","","1.8","","99","","29","","4","","","M","102.25","","","","","","NA"
"2018-11-08 11:00","2018","11","08","11:00","3.5","","3.3","","99","","34","","4","","","M","102.25","","","","","","NA"
"2018-11-08 12:00","2018","11","08","12:00","4.0","","3.8","","98","","32","","4","","","M","102.24","","","","","","NA"
"2018-11-08 13:00","2018","11","08","13:00","5.0","","3.7","","91","","9","","5","","","M","102.19","","","","","","NA"
"2018-11-08 14:00","2018","11","08","14:00","5.5","","3.9","","90","","8","","7","","","M","102.13","","","","","","NA"
"2018-11-08 15:00","2018","11","08","15:00","5.6","","3.8","","88","","8","","5","","","M","102.10","","","","","","NA"
"2018-11-08 16:00","2018","11","08","16:00","5.8","","3.3","","84","","9","","2","","","M","102.09","","","","","","NA"
"2018-11-08 17:00","2018","11","08","17:00","5.1","","4.0","","92","","30","","4","","","M","102.04","","","","","","NA"
"2018-11-08 18:00","2018","11","08","18:00","5.0","","3.8","","92","","16","","3","","","M","102.01","","","","","","NA"
"2018-11-08 19:00","2018","11","08","19:00","5.4","","3.2","","86","","15","","4","","","M","102.00","","","","","","NA"
"2018-11-08 20:00","2018","11","08","20:00","4.8","","4.0","","94","","34","","2","","","M","101.98","","","","","","NA"
"2018-11-08 21:00","2018","11","08","21:00","4.5","","4.1","","97","","29","","4","","","M","101.95","","","","","","NA"
"2018-11-08 22:00","2018","11","08","22:00","4.5","","4.1","","98","","30","","3","","","M","101.89","","","","","","NA"
"2018-11-08 23:00","2018","11","08","23:00","4.5","","4.2","","98","","30","","6","","","M","101.83","","","","","","NA"
"2018-11-09 00:00","2018","11","09","00:00","4.5","","4.2","","98","","31","","7","","","M","101.80","","","","","","NA"
"2018-11-09 01:00","2018","11","09","01:00","4.6","","4.4","","99","","35","","2","","","M","101.69","","","","","","NA"
"2018-11-09 02:00","2018","11","09","02:00","4.6","","4.5","","99","","31","","4","","","M","101.62","","","","","","NA"
"2018-11-09 03:00","2018","11","09","03:00","4.7","","4.6","","99","","6","","3","","","M","101.48","","","","","","NA"
"2018-11-09 04:00","2018","11","09","04:00","4.8","","4.6","","99","","30","","5","","","M","101.45","","","","","","NA"
"2018-11-09 05:00","2018","11","09","05:00","4.7","","4.6","","99","","29","","2","","","M","101.39","","","","","","NA"
"2018-11-09 06:00","2018","11","09","06:00","4.8","","4.7","","99","","35","","3","","","M","101.32","","","","","","NA"
"2018-11-09 07:00","2018","11","09","07:00","4.8","","4.7","","99","","31","","5","","","M","101.28","","","","","","NA"
"2018-11-09 08:00","2018","11","09","08:00","4.8","","4.6","","98","","28","","3","","","M","101.33","","","","","","NA"
"2018-11-09 09:00","2018","11","09","09:00","5.2","","5.0","","99","","30","","7","","","M","101.35","","","","","","NA"
"2018-11-09 10:00","2018","11","09","10:00","5.7","","5.2","","97","","2","","3","","","M","101.33","","","","","","NA"
"2018-11-09 11:00","2018","11","09","11:00","6.4","","4.9","","90","","26","","3","","","M","101.33","","","","","","NA"
"2018-11-09 12:00","2018","11","09","12:00","6.9","","5.4","","90","","3","","3","","","M","101.32","","","","","","NA"
"2018-11-09 13:00","2018","11","09","13:00","8.7","","6.3","","84","","30","","7","","","M","101.25","","","","","","NA"
"2018-11-09 14:00","2018","11","09","14:00","7.5","","5.9","","90","","10","","9","","","M","101.23","","","","","","NA"
"2018-11-09 15:00","2018","11","09","15:00","7.5","","5.8","","89","","10","","2","","","M","101.22","","","","","","NA"
"2018-11-09 16:00","2018","11","09","16:00","5.9","","4.9","","93","","20","","4","","","M","101.20","","","","","","NA"
"2018-11-09 17:00","2018","11","09","17:00","4.9","","4.7","","98","","8","","2","","","M","101.19","","","","","","NA"
"2018-11-09 18:00","2018","11","09","18:00","3.1","","2.8","","98","","26","","4","","","M","101.20","","","","","","NA"
"2018-11-09 19:00","2018","11","09","19:00","2.4","","2.2","","99","","31","","8","","","M","101.22","","","","","","NA"
"2018-11-09 20:00","2018","11","09","20:00","1.1","","0.9","","99","","30","","5","","","M","101.26","","","","","","NA"
"2018-11-09 21:00","2018","11","09","21:00","1.2","","1.1","","99","","28","","4","","","M","101.29","","","","","","NA"
"2018-11-09 22:00","2018","11","09","22:00","0.1","","-0.1","","99","","30","","5","","","M","101.32","","","","","","NA"
"2018-11-09 23:00","2018","11","09","23:00","0.7","","0.6","","99","","28","","3","","","M","101.35","","","","","","NA"
"2018-11-10 00:00","2018","11","10","00:00","0.7","","0.6","","99","","23","","9","","","M","101.38","","","","","","NA"
"2018-11-10 01:00","2018","11","10","01:00","0.6","","0.5","","99","","29","","5","","","M","101.41","","","","","","NA"
"2018-11-10 02:00","2018","11","10","02:00","0.5","","0.3","","99","","31","","4","","","M","101.46","","","","","","NA"
"2018-11-10 03:00","2018","11","10","03:00","1.4","","1.3","","99","","27","","3","","","M","101.51","","","","","","NA"
"2018-11-10 04:00","2018","11","10","04:00","1.8","","1.7","","99","","32","","7","","","M","101.51","","","","","","NA"
"2018-11-10 05:00","2018","11","10","05:00","2.7","","2.5","","99","","32","","7","","","M","101.57","","","","","","NA"
"2018-11-10 06:00","2018","11","10","06:00","2.7","","2.6","","99","","28","","3","","","M","101.60","","","","","","NA"
"2018-11-10 07:00","2018","11","10","07:00","2.8","","2.7","","99","","30","","3","","","M","101.62","","","","","","NA"
"2018-11-10 08:00","2018","11","10","08:00","3.1","","2.9","","99","","30","","3","","","M","101.70","","","","","","NA"
"2018-11-10 09:00","2018","11","10","09:00","4.5","","4.4","","99","","29","","4","","","M","101.79","","","","","","NA"
"2018-11-10 10:00","2018","11","10","10:00","6.2","","4.2","","87","","31","","7","","","M","101.85","","","","","","NA"
"2018-11-10 11:00","2018","11","10","11:00","7.2","","4.1","","80","","8","","3","","","M","101.82","","","","","","NA"
"2018-11-10 12:00","2018","11","10","12:00","7.9","","3.2","","72","","4","","4","","","M","101.83","","","","","","NA"
"2018-11-10 13:00","2018","11","10","13:00","8.2","","2.9","","69","","32","","2","","","M","101.81","","","","","","NA"
"2018-11-10 14:00","2018","11","10","14:00","7.8","","4.4","","79","","6","","7","","","M","101.80","","","","","","NA"
"2018-11-10 15:00","2018","11","10","15:00","7.6","","4.9","","83","","14","","5","","","M","101.79","","","","","","NA"
"2018-11-10 16:00","2018","11","10","16:00","7.3","","5.0","","85","","11","","4","","","M","101.78","","","","","","NA"
"2018-11-10 17:00","2018","11","10","17:00","6.7","","5.4","","92","","28","","4","","","M","101.81","","","","","","NA"
"2018-11-10 18:00","2018","11","10","18:00","6.3","","5.4","","94","","28","","2","","","M","101.80","","","","","","NA"
"2018-11-10 19:00","2018","11","10","19:00","6.1","","3.8","","85","","28","","5","","","M","101.84","","","","","","NA"
"2018-11-10 20:00","2018","11","10","20:00","6.4","","2.4","","76","","28","","10","","","M","101.89","","","","","","NA"
"2018-11-10 21:00","2018","11","10","21:00","5.7","","3.5","","86","","31","","4","","","M","101.89","","","","","","NA"
"2018-11-10 22:00","2018","11","10","22:00","5.6","","3.2","","85","","1","","1","","","M","101.91","","","","","","NA"
"2018-11-10 23:00","2018","11","10","23:00","5.6","","2.9","","83","","29","","3","","","M","101.92","","","","","","NA"
"2018-11-11 00:00","2018","11","11","00:00","5.0","","3.6","","91","","19","","1","","","M","101.90","","","","","","NA"
"2018-11-11 01:00","2018","11","11","01:00","5.0","","3.7","","91","","31","","2","","","M","101.90","","","","","","NA"
"2018-11-11 02:00","2018","11","11","02:00","5.2","","3.3","","88","","30","","4","","","M","101.90","","","","","","NA"
"2018-11-11 03:00","2018","11","11","03:00","4.8","","3.5","","91","","27","","3","","","M","101.91","","","","","","NA"
"2018-11-11 04:00","2018","11","11","04:00","4.7","","3.5","","92","","27","","2","","","M","101.90","","","","","","NA"
"2018-11-11 05:00","2018","11","11","05:00","4.6","","3.2","","91","","33","","3","","","M","101.91","","","","","","NA"
"2018-11-11 06:00","2018","11","11","06:00","4.4","","3.4","","93","","26","","2","","","M","101.91","","","","","","NA"
"2018-11-11 07:00","2018","11","11","07:00","4.3","","3.6","","95","","24","","3","","","M","101.92","","","","","","NA"
"2018-11-11 08:00","2018","11","11","08:00","4.4","","3.3","","93","","24","","7","","","M","101.96","","","","","","NA"
"2018-11-11 09:00","2018","11","11","09:00","4.9","","1.5","","79","","23","","4","","","M","102.00","","","","","","NA"
"2018-11-11 10:00","2018","11","11","10:00","5.3","","1.7","","77","","28","","3","","","M","101.99","","","","","","NA"
"2018-11-11 11:00","2018","11","11","11:00","5.8","","1.9","","76","","34","","5","","","M","102.02","","","","","","NA"
"2018-11-11 12:00","2018","11","11","12:00","6.1","","1.4","","72","","34","","4","","","M","102.05","","","","","","NA"
"2018-11-11 13:00","2018","11","11","13:00","6.3","","1.6","","72","","27","","4","","","M","102.02","","","","","","NA"
"2018-11-11 14:00","2018","11","11","14:00","6.8","","1.8","","70","","2","","3","","","M","102.00","","","","","","NA"
"2018-11-11 15:00","2018","11","11","15:00","6.9","","3.1","","77","","28","","3","","","M","101.97","","","","","","NA"
"2018-11-11 16:00","2018","11","11","16:00","5.4","","3.7","","89","","22","","3","","","M","101.92","","","","","","NA"
"2018-11-11 17:00","2018","11","11","17:00","4.0","","3.2","","95","","27","","4","","","M","101.91","","","","","","NA"
"2018-11-11 18:00","2018","11","11","18:00","3.1","","2.7","","97","","30","","3","","","M","101.94","","","","","","NA"
"2018-11-11 19:00","2018","11","11","19:00","2.0","","1.6","","97","","25","","3","","","M","101.93","","","","","","NA"
"2018-11-11 20:00","2018","11","11","20:00","1.4","","1.1","","98","","30","","4","","","M","101.93","","","","","","NA"
"2018-11-11 21:00","2018","11","11","21:00","1.1","","0.9","","98","","25","","3","","","M","101.93","","","","","","NA"
"2018-11-11 22:00","2018","11","11","22:00","1.0","","0.8","","99","","26","","2","","","M","101.95","","","","","","NA"
"2018-11-11 23:00","2018","11","11","23:00","0.9","","0.7","","99","","29","","3","","","M","101.96","","","","","","NA"
"2018-11-12 00:00","2018","11","12","00:00","-0.5","","-0.7","","99","","32","","5","","","M","101.94","","","","-2","","NA"
"2018-11-12 01:00","2018","11","12","01:00","-0.4","","-0.6","","99","","26","","4","","","M","101.93","","","","-2","","NA"
"2018-11-12 02:00","2018","11","12","02:00","-1.3","","-1.5","","98","","31","","5","","","M","101.91","","","","-3","","NA"
"2018-11-12 03:00","2018","11","12","03:00","-1.5","","-1.7","","98","","28","","4","","","M","101.91","","","","-3","","NA"
"2018-11-12 04:00","2018","11","12","04:00","-1.6","","-1.9","","98","","27","","3","","","M","101.89","","","","-3","","NA"
"2018-11-12 05:00","2018","11","12","05:00","-1.3","","-1.6","","98","","32","","8","","","M","101.88","","","","-4","","NA"
"2018-11-12 06:00","2018","11","12","06:00","-1.0","","-1.3","","98","","30","","4","","","M","101.87","","","","-2","","NA"
"2018-11-12 07:00","2018","11","12","07:00","-0.8","","-1.1","","98","","28","","5","","","M","101.83","","","","-2","","NA"
"2018-11-12 08:00","2018","11","12","08:00","-1.5","","-1.8","","98","","31","","4","","","M","101.81","","","","-3","","NA"
"2018-11-12 09:00","2018","11","12","09:00","0.2","","-0.1","","98","","28","","4","","","M","101.80","","","","","","NA"
"2018-11-12 10:00","2018","11","12","10:00","4.2","","3.2","","94","","36","","4","","","M","101.77","","","","","","NA"
"2018-11-12 11:00","2018","11","12","11:00","5.8","","2.8","","81","","15","","4","","","M","101.76","","","","","","NA"
"2018-11-12 12:00","2018","11","12","12:00","6.1","","3.6","","84","","10","","5","","","M","101.71","","","","","","NA"
"2018-11-12 13:00","2018","11","12","13:00","6.9","","3.7","","80","","17","","3","","","M","101.66","","","","","","NA"
"2018-11-12 14:00","2018","11","12","14:00","6.8","","4.2","","83","","7","","5","","","M","101.65","","","","","","NA"
"2018-11-12 15:00","2018","11","12","15:00","6.5","","4.2","","85","","11","","6","","","M","101.57","","","","","","NA"
"2018-11-12 16:00","2018","11","12","16:00","5.7","","4.4","","91","","15","","3","","","M","101.56","","","","","","NA"
"2018-11-12 17:00","2018","11","12","17:00","3.3","","2.9","","98","","30","","5","","","M","101.55","","","","","","NA"
"2018-11-12 18:00","2018","11","12","18:00","2.4","","2.1","","99","","24","","3","","","M","101.52","","","","","","NA"
"2018-11-12 19:00","2018","11","12","19:00","1.5","","1.3","","99","","30","","3","","","M","101.52","","","","","","NA"
"2018-11-12 20:00","2018","11","12","20:00","1.6","","1.4","","99","","30","","5","","","M","101.50","","","","","","NA"
"2018-11-12 21:00","2018","11","12","21:00","2.1","","2.0","","99","","32","","4","","","M","101.49","","","","","","NA"
"2018-11-12 22:00","2018","11","12","22:00","2.3","","2.1","","99","","23","","3","","","M","101.48","","","","","","NA"
"2018-11-12 23:00","2018","11","12","23:00","3.0","","2.8","","99","","0","","1","","","M","101.45","","","","","","NA"
"2018-11-13 00:00","2018","11","13","00:00","3.4","","3.2","","99","","30","","4","","","M","101.42","","","","","","NA"
"2018-11-13 01:00","2018","11","13","01:00","3.5","","3.3","","99","","28","","1","","","M","101.40","","","","","","NA"
"2018-11-13 02:00","2018","11","13","02:00","3.8","","3.6","","99","","33","","4","","","M","101.35","","","","","","NA"
"2018-11-13 03:00","2018","11","13","03:00","3.6","","3.4","","99","","31","","3","","","M","101.38","","","","","","NA"
"2018-11-13 04:00","2018","11","13","04:00","2.9","","2.8","","99","","13","","3","","","M","101.30","","","","","","NA"
"2018-11-13 05:00","2018","11","13","05:00","3.1","","2.9","","99","","31","","1","","","M","101.29","","","","","","NA"
"2018-11-13 06:00","2018","11","13","06:00","0.3","","0.1","","99","","26","","4","","","M","101.27","","","","","","NA"
"2018-11-13 07:00","2018","11","13","07:00","0.6","","0.4","","99","","30","","5","","","M","101.27","","","","","","NA"
"2018-11-13 08:00","2018","11","13","08:00","1.1","","0.9","","99","","32","","11","","","M","101.27","","","","","","NA"
"2018-11-13 09:00","2018","11","13","09:00","3.0","","3.0","","99","","32","","4","","","M","101.23","","","","","","NA"
"2018-11-13 10:00","2018","11","13","10:00","4.0","","4.0","","99","","28","","4","","","M","101.26","","","","","","NA"
"2018-11-13 11:00","2018","11","13","11:00","5.5","","5.4","","99","","29","","4","","","M","101.24","","","","","","NA"
"2018-11-13 12:00","2018","11","13","12:00","7.1","","5.6","","90","","6","","4","","","M","101.19","","","","","","NA"
"2018-11-13 13:00","2018","11","13","13:00","8.1","","4.9","","80","","11","","14","","","M","101.13","","","","","","NA"
"2018-11-13 14:00","2018","11","13","14:00","8.9","","4.9","","76","","11","","18","","","M","101.07","","","","","","NA"
"2018-11-13 15:00","2018","11","13","15:00","8.5","","4.0","","73","","11","","16","","","M","101.04","","","","","","NA"
"2018-11-13 16:00","2018","11","13","16:00","7.3","","6.0","","91","","13","","10","","","M","101.02","","","","","","NA"
"2018-11-13 17:00","2018","11","13","17:00","6.8","","5.5","","92","","11","","18","","","M","100.99","","","","","","NA"
"2018-11-13 18:00","2018","11","13","18:00","7.1","","6.2","","94","","10","","12","","","M","100.96","","","","","","NA"
"2018-11-13 19:00","2018","11","13","19:00","7.0","","6.1","","94","","12","","14","","","M","100.94","","","","","","NA"
"2018-11-13 20:00","2018","11","13","20:00","7.1","","6.7","","97","","12","","26","","","M","100.83","","","","","","NA"
"2018-11-13 21:00","2018","11","13","21:00","7.2","","6.7","","96","","11","","13","","","M","100.88","","","","","","NA"
"2018-11-13 22:00","2018","11","13","22:00","7.4","","7.0","","97","","12","","14","","","M","100.91","","","","","","NA"
"2018-11-13 23:00","2018","11","13","23:00","7.6","","7.2","","98","","12","","19","","","M","100.91","","","","","","NA"
"2018-11-14 00:00","2018","11","14","00:00","7.5","","7.0","","97","","12","","20","","","M","100.90","","","","","","NA"
"2018-11-14 01:00","2018","11","14","01:00","7.5","","7.1","","97","","11","","23","","","M","100.84","","","","","","NA"
"2018-11-14 02:00","2018","11","14","02:00","7.5","","7.2","","98","","12","","18","","","M","100.76","","","","","","NA"
"2018-11-14 03:00","2018","11","14","03:00","7.5","","7.2","","98","","13","","23","","","M","100.66","","","","","","NA"
"2018-11-14 04:00","2018","11","14","04:00","7.5","","7.1","","97","","13","","21","","","M","100.48","","","","","","NA"
"2018-11-14 05:00","2018","11","14","05:00","7.7","","7.2","","97","","14","","25","","","M","100.40","","","","","","NA"
"2018-11-14 06:00","2018","11","14","06:00","7.5","","7.0","","97","","14","","26","","","M","100.31","","","","","","NA"
"2018-11-14 07:00","2018","11","14","07:00","7.6","","7.1","","97","","14","","21","","","M","100.34","","","","","","NA"
"2018-11-14 08:00","2018","11","14","08:00","7.6","","7.1","","97","","14","","13","","","M","100.45","","","","","","NA"
"2018-11-14 09:00","2018","11","14","09:00","7.9","","7.6","","98","","12","","3","","","M","100.62","","","","","","NA"
"2018-11-14 10:00","2018","11","14","10:00","8.3","","7.8","","96","","13","","5","","","M","100.72","","","","","","NA"
"2018-11-14 11:00","2018","11","14","11:00","8.6","","7.9","","95","","14","","5","","","M","100.86","","","","","","NA"
"2018-11-14 12:00","2018","11","14","12:00","9.3","","8.2","","92","","15","","3","","","M","100.94","","","","","","NA"
"2018-11-14 13:00","2018","11","14","13:00","10.0","","8.3","","89","","30","","4","","","M","100.99","","","","","","NA"
"2018-11-14 14:00","2018","11","14","14:00","10.1","","8.6","","90","","34","","4","","","M","101.05","","","","","","NA"
"2018-11-14 15:00","2018","11","14","15:00","9.7","","9.0","","95","","28","","2","","","M","101.10","","","","","","NA"
"2018-11-14 16:00","2018","11","14","16:00","8.7","","8.4","","98","","14","","2","","","M","101.16","","","","","","NA"
"2018-11-14 17:00","2018","11","14","17:00","7.2","","7.0","","99","","26","","1","","","M","101.19","","","","","","NA"
"2018-11-14 18:00","2018","11","14","18:00","5.7","","5.6","","99","","29","","4","","","M","101.24","","","","","","NA"
"2018-11-14 19:00","2018","11","14","19:00","5.6","","5.5","","100","","24","","3","","","M","101.29","","","","","","NA"
"2018-11-14 20:00","2018","11","14","20:00","5.9","","5.9","","100","","28","","3","","","M","101.31","","","","","","NA"
"2018-11-14 21:00","2018","11","14","21:00","6.8","","6.8","","100","","27","","6","","","M","101.36","","","","","","NA"
"2018-11-14 22:00","2018","11","14","22:00","6.9","","6.9","","100","","30","","6","","","M","101.40","","","","","","NA"
"2018-11-14 23:00","2018","11","14","23:00","7.0","","7.0","","100","","0","","1","","","M","101.39","","","","","","NA"
"2018-11-15 00:00","2018","11","15","00:00","7.2","","7.2","","99","","14","","2","","","M","101.38","","","","","","NA"
"2018-11-15 01:00","2018","11","15","01:00","7.1","","7.0","","99","","14","","3","","","M","101.38","","","","","","NA"
"2018-11-15 02:00","2018","11","15","02:00","7.1","","6.9","","99","","29","","1","","","M","101.35","","","","","","NA"
"2018-11-15 03:00","2018","11","15","03:00","7.3","","7.2","","99","","17","","2","","","M","101.32","","","","","","NA"
"2018-11-15 04:00","2018","11","15","04:00","7.1","","7.0","","100","","33","","7","","","M","101.29","","","","","","NA"
"2018-11-15 05:00","2018","11","15","05:00","7.1","","7.1","","100","","30","","7","","","M","101.26","","","","","","NA"
"2018-11-15 06:00","2018","11","15","06:00","7.3","","7.2","","100","","23","","1","","","M","101.17","","","","","","NA"
"2018-11-15 07:00","2018","11","15","07:00","7.3","","7.3","","100","","24","","2","","","M","101.11","","","","","","NA"
"2018-11-15 08:00","2018","11","15","08:00","7.4","","7.4","","100","","31","","5","","","M","101.07","","","","","","NA"
"2018-11-15 09:00","2018","11","15","09:00","7.9","","7.9","","100","","14","","5","","","M","101.03","","","","","","NA"
"2018-11-15 10:00","2018","11","15","10:00","8.5","","8.5","","100","","13","","5","","","M","100.97","","","","","","NA"
"2018-11-15 11:00","2018","11","15","11:00","9.1","","8.9","","99","","11","","13","","","M","100.97","","","","","","NA"
"2018-11-15 12:00","2018","11","15","12:00","9.1","","8.8","","98","","11","","15","","","M","100.87","","","","","","NA"
"2018-11-15 13:00","2018","11","15","13:00","9.0","","8.6","","97","","10","","10","","","M","100.86","","","","","","NA"
"2018-11-15 14:00","2018","11","15","14:00","9.0","","8.7","","98","","11","","16","","","M","100.80","","","","","","NA"
"2018-11-15 15:00","2018","11","15","15:00","9.1","","8.9","","99","","9","","12","","","M","100.73","","","","","","NA"
"2018-11-15 16:00","2018","11","15","16:00","9.0","","8.8","","99","","11","","9","","","M","100.73","","","","","","NA"
"2018-11-15 17:00","2018","11","15","17:00","9.1","","8.9","","99","","7","","4","","","M","100.76","","","","","","NA"
"2018-11-15 18:00","2018","11","15","18:00","8.9","","8.7","","99","","30","","5","","","M","100.81","","","","","","NA"
"2018-11-15 19:00","2018","11","15","19:00","8.9","","8.8","","99","","29","","4","","","M","100.87","","","","","","NA"
"2018-11-15 20:00","2018","11","15","20:00","8.9","","8.8","","99","","23","","5","","","M","100.87","","","","","","NA"
"2018-11-15 21:00","2018","11","15","21:00","8.8","","8.6","","99","","24","","5","","","M","100.87","","","","","","NA"
"2018-11-15 22:00","2018","11","15","22:00","7.9","","7.6","","98","","2","","3","","","M","100.92","","","","","","NA"
"2018-11-15 23:00","2018","11","15","23:00","6.5","","6.4","","99","","25","","5","","","M","100.98","","","","","","NA"
"2018-11-16 00:00","2018","11","16","00:00","5.9","","5.8","","99","","32","","4","","","M","101.01","","","","","","NA"
"2018-11-16 01:00","2018","11","16","01:00","5.8","","5.8","","100","","30","","6","","","M","101.04","","","","","","NA"
"2018-11-16 02:00","2018","11","16","02:00","5.2","","5.1","","100","","31","","5","","","M","101.07","","","","","","NA"
"2018-11-16 03:00","2018","11","16","03:00","3.7","","3.6","","99","","27","","5","","","M","101.09","","","","","","NA"
"2018-11-16 04:00","2018","11","16","04:00","5.5","","5.5","","100","","29","","8","","","M","101.11","","","","","","NA"
"2018-11-16 05:00","2018","11","16","05:00","3.0","","2.8","","99","","28","","5","","","M","101.13","","","","","","NA"
"2018-11-16 06:00","2018","11","16","06:00","3.4","","3.3","","99","","29","","7","","","M","101.15","","","","","","NA"
"2018-11-16 07:00","2018","11","16","07:00","4.6","","4.5","","100","","30","","8","","","M","101.17","","","","","","NA"
"2018-11-16 08:00","2018","11","16","08:00","1.8","","1.7","","99","","30","","5","","","M","101.21","","","","","","NA"
"2018-11-16 09:00","2018","11","16","09:00","5.3","","5.3","","100","","32","","8","","","M","101.26","","","","","","NA"
"2018-11-16 10:00","2018","11","16","10:00","8.0","","6.7","","92","","33","","9","","","M","101.28","","","","","","NA"
"2018-11-16 11:00","2018","11","16","11:00","9.0","","6.6","","85","","36","","4","","","M","101.32","","","","","","NA"
"2018-11-16 12:00","2018","11","16","12:00","9.1","","5.7","","79","","35","","8","","","M","101.32","","","","","","NA"
"2018-11-16 13:00","2018","11","16","13:00","9.6","","5.9","","77","","33","","8","","","M","101.31","","","","","","NA"
"2018-11-16 14:00","2018","11","16","14:00","10.3","","5.6","","72","","1","","6","","","M","101.29","","","","","","NA"
"2018-11-16 15:00","2018","11","16","15:00","9.7","","5.0","","72","","3","","7","","","M","101.31","","","","","","NA"
"2018-11-16 16:00","2018","11","16","16:00","7.2","","5.5","","89","","32","","4","","","M","101.31","","","","","","NA"
"2018-11-16 17:00","2018","11","16","17:00","4.8","","4.5","","98","","25","","3","","","M","101.33","","","","","","NA"
"2018-11-16 18:00","2018","11","16","18:00","2.5","","2.2","","98","","31","","5","","","M","101.35","","","","","","NA"
"2018-11-16 19:00","2018","11","16","19:00","1.9","","1.8","","99","","30","","5","","","M","101.38","","","","","","NA"
"2018-11-16 20:00","2018","11","16","20:00","0.5","","0.4","","99","","29","","4","","","M","101.40","","","","","","NA"
"2018-11-16 21:00","2018","11","16","21:00","0.3","","0.1","","99","","26","","4","","","M","101.43","","","","","","NA"
"2018-11-16 22:00","2018","11","16","22:00","-0.9","","-1.0","","99","","30","","7","","","M","101.45","","","","-3","","NA"
"2018-11-16 23:00","2018","11","16","23:00","-1.0","","-1.1","","99","","28","","5","","","M","101.49","","","","-3","","NA"
"2018-11-17 00:00","2018","11","17","00:00","-1.4","","-1.6","","99","","27","","2","","","M","101.52","","","","-2","","NA"
"2018-11-17 01:00","2018","11","17","01:00","-2.2","","-2.4","","99","","30","","4","","","M","101.52","","","","-4","","NA"
"2018-11-17 02:00","2018","11","17","02:00","-2.8","","-3.0","","98","","30","","4","","","M","101.53","","","","-4","","NA"
"2018-11-17 03:00","2018","11","17","03:00","-2.4","","-2.9","","97","","29","","3","","","M","101.52","","","","-4","","NA"
"2018-11-17 04:00","2018","11","17","04:00","-2.6","","-3.1","","97","","27","","3","","","M","101.50","","","","-4","","NA"
"2018-11-17 05:00","2018","11","17","05:00","-1.7","","-2.0","","98","","25","","3","","","M","101.50","","","","-3","","NA"
"2018-11-17 06:00","2018","11","17","06:00","-3.7","","-4.1","","97","","28","","3","","","M","101.50","","","","-5","","NA"
"2018-11-17 07:00","2018","11","17","07:00","-2.0","","-2.3","","97","","27","","3","","","M","101.53","","","","-3","","NA"
"2018-11-17 08:00","2018","11","17","08:00","-3.2","","-3.7","","97","","30","","3","","","M","101.53","","","","-4","","NA"
"2018-11-17 09:00","2018","11","17","09:00","-0.5","","-0.8","","98","","0","","1","","","M","101.57","","","","-1","","NA"
"2018-11-17 10:00","2018","11","17","10:00","2.6","","2.2","","97","","0","","1","","","M","101.56","","","","","","NA"
"2018-11-17 11:00","2018","11","17","11:00","4.9","","2.1","","82","","13","","5","","","M","101.56","","","","","","NA"
"2018-11-17 12:00","2018","11","17","12:00","6.3","","2.5","","76","","9","","4","","","M","101.51","","","","","","NA"
"2018-11-17 13:00","2018","11","17","13:00","6.8","","2.9","","76","","10","","4","","","M","101.48","","","","","","NA"
"2018-11-17 14:00","2018","11","17","14:00","6.6","","2.0","","73","","11","","6","","","M","101.46","","","","","","NA"
"2018-11-17 15:00","2018","11","17","15:00","6.7","","2.7","","75","","16","","6","","","M","101.41","","","","","","NA"
"2018-11-17 16:00","2018","11","17","16:00","3.6","","2.6","","93","","14","","5","","","M","101.38","","","","","","NA"
"2018-11-17 17:00","2018","11","17","17:00","1.1","","0.8","","97","","0","","1","","","M","101.37","","","","","","NA"
"2018-11-17 18:00","2018","11","17","18:00","0.0","","-0.2","","98","","27","","2","","","M","101.34","","","","-1","","NA"
"2018-11-17 19:00","2018","11","17","19:00","-1.4","","-1.6","","98","","30","","5","","","M","101.31","","","","-3","","NA"
"2018-11-17 20:00","2018","11","17","20:00","-1.2","","-1.4","","98","","30","","5","","","M","101.29","","","","-3","","NA"
"2018-11-17 21:00","2018","11","17","21:00","-1.1","","-1.3","","99","","30","","6","","","M","101.28","","","","-3","","NA"
"2018-11-17 22:00","2018","11","17","22:00","-2.1","","-2.3","","98","","30","","5","","","M","101.27","","","","-4","","NA"
"2018-11-17 23:00","2018","11","17","23:00","-2.6","","-2.9","","98","","31","","5","","","M","101.23","","","","-5","","NA"
"2018-11-18 00:00","2018","11","18","00:00","-1.9","","-2.2","","98","","25","","1","","","M","101.22","","","","-2","","NA"
"2018-11-18 01:00","2018","11","18","01:00","-1.9","","-2.3","","98","","28","","3","","","M","101.23","","","","-3","","NA"
"2018-11-18 02:00","2018","11","18","02:00","-2.0","","-2.3","","98","","30","","3","","","M","101.17","","","","-3","","NA"
"2018-11-18 03:00","2018","11","18","03:00","-2.5","","-2.9","","97","","27","","3","","","M","101.16","","","","-4","","NA"
"2018-11-18 04:00","2018","11","18","04:00","-2.6","","-3.1","","97","","27","","3","","","M","101.13","","","","-4","","NA"
"2018-11-18 05:00","2018","11","18","05:00","-2.5","","-2.9","","97","","30","","1","","","M","101.12","","","","-3","","NA"
"2018-11-18 06:00","2018","11","18","06:00","-3.3","","-3.7","","97","","25","","2","","","M","101.14","","","","-4","","NA"
"2018-11-18 07:00","2018","11","18","07:00","-3.0","","-3.5","","96","","30","","6","","","M","101.09","","","","-5","","NA"
"2018-11-18 08:00","2018","11","18","08:00","-3.0","","-3.4","","97","","25","","3","","","M","101.11","","","","-4","","NA"
"2018-11-18 09:00","2018","11","18","09:00","-1.5","","-1.9","","97","","33","","3","","","M","101.11","","","","-3","","NA"
"2018-11-18 10:00","2018","11","18","10:00","2.1","","1.8","","98","","18","","3","","","M","101.11","","","","","","NA"
"2018-11-18 11:00","2018","11","18","11:00","3.3","","1.4","","87","","13","","7","","","M","101.11","","","","","","NA"
"2018-11-18 12:00","2018","11","18","12:00","3.0","","1.9","","93","","11","","8","","","M","101.05","","","","","","NA"
"2018-11-18 13:00","2018","11","18","13:00","3.7","","2.2","","90","","11","","7","","","M","101.01","","","","","","NA"
"2018-11-18 14:00","2018","11","18","14:00","4.5","","2.7","","88","","13","","7","","","M","100.96","","","","","","NA"
"2018-11-18 15:00","2018","11","18","15:00","4.7","","2.4","","85","","15","","5","","","M","100.94","","","","","","NA"
"2018-11-18 16:00","2018","11","18","16:00","3.0","","2.0","","93","","14","","4","","","M","100.92","","","","","","NA"
"2018-11-18 17:00","2018","11","18","17:00","0.4","","0.1","","98","","33","","3","","","M","100.92","","","","","","NA"
"2018-11-18 18:00","2018","11","18","18:00","-1.1","","-1.3","","98","","30","","4","","","M","100.90","","","","-2","","NA"
"2018-11-18 19:00","2018","11","18","19:00","-0.9","","-1.1","","99","","29","","4","","","M","100.92","","","","-2","","NA"
"2018-11-18 20:00","2018","11","18","20:00","-0.1","","-0.3","","99","","29","","3","","","M","100.93","","","","-1","","NA"
"2018-11-18 21:00","2018","11","18","21:00","0.5","","0.3","","99","","29","","4","","","M","100.93","","","","","","NA"
"2018-11-18 22:00","2018","11","18","22:00","0.9","","0.8","","99","","31","","6","","","M","100.94","","","","","","NA"
"2018-11-18 23:00","2018","11","18","23:00","1.1","","1.0","","99","","26","","5","","","M","100.94","","","","","","NA"
"2018-11-19 00:00","2018","11","19","00:00","0.9","","0.8","","99","","29","","5","","","M","100.94","","","","","","NA"
"2018-11-19 01:00","2018","11","19","01:00","1.1","","0.9","","99","","26","","3","","","M","100.94","","","","","","NA"
"2018-11-19 02:00","2018","11","19","02:00","1.2","","1.1","","99","","31","","4","","","M","100.92","","","","","","NA"
"2018-11-19 03:00","2018","11","19","03:00","1.1","","1.1","","100","","25","","6","","","M","100.91","","","","","","NA"
"2018-11-19 04:00","2018","11","19","04:00","1.0","","1.0","","100","","25","","4","","","M","100.86","","","","","","NA"
"2018-11-19 05:00","2018","11","19","05:00","0.9","","0.9","","100","","24","","9","","","M","100.85","","","","","","NA"
"2018-11-19 06:00","2018","11","19","06:00","0.8","","0.7","","100","","25","","8","","","M","100.87","","","","","","NA"
"2018-11-19 07:00","2018","11","19","07:00","0.7","","0.6","","100","","24","","8","","","M","100.85","","","","","","NA"
"2018-11-19 08:00","2018","11","19","08:00","1.1","","1.0","","100","","25","","8","","","M","100.85","","","","","","NA"
"2018-11-19 09:00","2018","11","19","09:00","1.8","","1.8","","100","","31","","4","","","M","100.89","","","","","","NA"
"2018-11-19 10:00","2018","11","19","10:00","2.4","","2.3","","99","","28","","2","","","M","100.89","","","","","","NA"
"2018-11-19 11:00","2018","11","19","11:00","3.3","","2.9","","97","","11","","2","","","M","100.88","","","","","","NA"
"2018-11-19 12:00","2018","11","19","12:00","4.1","","2.3","","88","","17","","3","","","M","100.82","","","","","","NA"
"2018-11-19 13:00","2018","11","19","13:00","4.0","","2.1","","88","","13","","5","","","M","100.76","","","","","","NA"
"2018-11-19 14:00","2018","11","19","14:00","4.1","","1.8","","85","","13","","6","","","M","100.69","","","","","","NA"
"2018-11-19 15:00","2018","11","19","15:00","3.7","","1.8","","88","","10","","7","","","M","100.64","","","","","","NA"
"2018-11-19 16:00","2018","11","19","16:00","3.1","","1.5","","89","","11","","4","","","M","100.62","","","","","","NA"
"2018-11-19 17:00","2018","11","19","17:00","2.5","","1.7","","95","","9","","3","","","M","100.58","","","","","","NA"
"2018-11-19 18:00","2018","11","19","18:00","1.9","","1.5","","98","","27","","3","","","M","100.54","","","","","","NA"
"2018-11-19 19:00","2018","11","19","19:00","1.0","","0.8","","98","","25","","6","","","M","100.52","","","","","","NA"
"2018-11-19 20:00","2018","11","19","20:00","1.0","","0.8","","98","","25","","2","","","M","100.52","","","","","","NA"
"2018-11-19 21:00","2018","11","19","21:00","1.3","","1.1","","99","","31","","4","","","M","100.51","","","","","","NA"
"2018-11-19 22:00","2018","11","19","22:00","2.0","","1.8","","99","","26","","2","","","M","100.51","","","","","","NA"
"2018-11-19 23:00","2018","11","19","23:00","2.2","","2.1","","99","","31","","1","","","M","100.50","","","","","","NA"
"2018-11-20 00:00","2018","11","20","00:00","2.4","","2.2","","99","","25","","7","","","M","100.49","","","","","","NA"
"2018-11-20 01:00","2018","11","20","01:00","2.5","","2.2","","98","","26","","4","","","M","100.44","","","","","","NA"
"2018-11-20 02:00","2018","11","20","02:00","2.6","","2.3","","98","","25","","3","","","M","100.41","","","","","","NA"
"2018-11-20 03:00","2018","11","20","03:00","2.4","","2.0","","98","","29","","3","","","M","100.38","","","","","","NA"
"2018-11-20 04:00","2018","11","20","04:00","1.9","","1.7","","98","","34","","4","","","M","100.30","","","","","","NA"
"2018-11-20 05:00","2018","11","20","05:00","2.1","","1.9","","99","","26","","6","","","M","100.29","","","","","","NA"
"2018-11-20 06:00","2018","11","20","06:00","2.6","","2.4","","99","","29","","3","","","M","100.25","","","","","","NA"
"2018-11-20 07:00","2018","11","20","07:00","2.7","","2.3","","98","","33","","1","","","M","100.23","","","","","","NA"
"2018-11-20 08:00","2018","11","20","08:00","2.7","","2.4","","97","","30","","2","","","M","100.22","","","","","","NA"
"2018-11-20 09:00","2018","11","20","09:00","3.6","","3.1","","97","","26","","2","","","M","100.23","","","","","","NA"
"2018-11-20 10:00","2018","11","20","10:00","4.2","","3.7","","96","","3","","1","","","M","100.21","","","","","","NA"
"2018-11-20 11:00","2018","11","20","11:00","4.9","","3.7","","92","","17","","3","","","M","100.19","","","","","","NA"
"2018-11-20 12:00","2018","11","20","12:00","5.0","","4.0","","94","","31","","5","","","M","100.12","","","","","","NA"
"2018-11-20 13:00","2018","11","20","13:00","5.4","","4.4","","93","","32","","4","","","M","100.06","","","","","","NA"
"2018-11-20 14:00","2018","11","20","14:00","5.9","","4.8","","92","","10","","5","","","M","99.99","","","","","","NA"
"2018-11-20 15:00","2018","11","20","15:00","5.9","","5.0","","94","","10","","4","","","M","99.92","","","","","","NA"
"2018-11-20 16:00","2018","11","20","16:00","5.6","","4.8","","95","","22","","2","","","M","99.88","","","","","","NA"
"2018-11-20 17:00","2018","11","20","17:00","5.4","","4.9","","96","","32","","4","","","M","99.83","","","","","","NA"
"2018-11-20 18:00","2018","11","20","18:00","5.0","","4.6","","97","","31","","5","","","M","99.81","","","","","","NA"
"2018-11-20 19:00","2018","11","20","19:00","4.8","","4.6","","98","","25","","2","","","M","99.78","","","","","","NA"
"2018-11-20 20:00","2018","11","20","20:00","5.1","","4.8","","98","","30","","2","","","M","99.74","","","","","","NA"
"2018-11-20 21:00","2018","11","20","21:00","5.1","","4.9","","98","","0","","1","","","M","99.71","","","","","","NA"
"2018-11-20 22:00","2018","11","20","22:00","4.6","","4.4","","98","","16","","2","","","M","99.69","","","","","","NA"
"2018-11-20 23:00","2018","11","20","23:00","4.4","","4.2","","99","","22","","3","","","M","99.62","","","","","","NA"
"2018-11-21 00:00","2018","11","21","00:00","3.2","","3.0","","99","","15","","3","","","M","99.58","","","","","","NA"
"2018-11-21 01:00","2018","11","21","01:00","3.3","","3.2","","99","","35","","3","","","M","99.51","","","","","","NA"
"2018-11-21 02:00","2018","11","21","02:00","4.2","","4.1","","100","","14","","9","","","M","99.43","","","","","","NA"
"2018-11-21 03:00","2018","11","21","03:00","5.9","","5.8","","100","","14","","9","","","M","99.40","","","","","","NA"
"2018-11-21 04:00","2018","11","21","04:00","5.8","","4.5","","92","","13","","10","","","M","99.32","","","","","","NA"
"2018-11-21 05:00","2018","11","21","05:00","5.9","","4.9","","93","","10","","10","","","M","99.26","","","","","","NA"
"2018-11-21 06:00","2018","11","21","06:00","6.3","","5.3","","93","","14","","8","","","M","99.21","","","","","","NA"
"2018-11-21 07:00","2018","11","21","07:00","6.3","","5.3","","94","","14","","15","","","M","99.13","","","","","","NA"
"2018-11-21 08:00","2018","11","21","08:00","6.7","","5.2","","90","","15","","16","","","M","99.14","","","","","","NA"
"2018-11-21 09:00","2018","11","21","09:00","6.7","","5.7","","94","","12","","21","","","M","99.05","","","","","","NA"
"2018-11-21 10:00","2018","11","21","10:00","7.3","","5.8","","90","","12","","23","","","M","99.03","","","","","","NA"
"2018-11-21 11:00","2018","11","21","11:00","8.2","","7.0","","92","","14","","12","","","M","99.05","","","","","","NA"
"2018-11-21 12:00","2018","11","21","12:00","8.4","","7.0","","91","","15","","18","","","M","99.01","","","","","","NA"
"2018-11-21 13:00","2018","11","21","13:00","8.8","","7.3","","90","","15","","10","","","M","99.09","","","","","","NA"
"2018-11-21 14:00","2018","11","21","14:00","9.6","","7.4","","86","","15","","13","","","M","99.11","","","","","","NA"
"2018-11-21 15:00","2018","11","21","15:00","9.1","","7.4","","89","","15","","9","","","M","99.11","","","","","","NA"
"2018-11-21 16:00","2018","11","21","16:00","8.8","","7.5","","92","","14","","2","","","M","99.15","","","","","","NA"
"2018-11-21 17:00","2018","11","21","17:00","7.7","","7.4","","98","","24","","6","","","M","99.16","","","","","","NA"
"2018-11-21 18:00","2018","11","21","18:00","5.8","","5.6","","99","","","","0","","","M","99.18","","","","","","NA"
"2018-11-21 19:00","2018","11","21","19:00","6.8","","6.8","","99","","25","","7","","","M","99.20","","","","","","NA"
"2018-11-21 20:00","2018","11","21","20:00","6.5","","6.4","","99","","0","","1","","","M","99.17","","","","","","NA"
"2018-11-21 21:00","2018","11","21","21:00","6.3","","6.2","","99","","24","","3","","","M","99.17","","","","","","NA"
"2018-11-21 22:00","2018","11","21","22:00","6.4","","6.3","","99","","33","","4","","","M","99.14","","","","","","NA"
"2018-11-21 23:00","2018","11","21","23:00","5.8","","5.7","","99","","11","","6","","","M","99.12","","","","","","NA"
"2018-11-22 00:00","2018","11","22","00:00","4.6","","4.5","","99","","25","","5","","","M","99.06","","","","","","NA"
"2018-11-22 01:00","2018","11","22","01:00","5.1","","5.0","","99","","26","","6","","","M","99.01","","","","","","NA"
"2018-11-22 02:00","2018","11","22","02:00","3.6","","3.5","","99","","30","","5","","","M","98.97","","","","","","NA"
"2018-11-22 03:00","2018","11","22","03:00","3.5","","3.4","","99","","28","","5","","","M","98.92","","","","","","NA"
"2018-11-22 04:00","2018","11","22","04:00","4.0","","4.0","","99","","27","","4","","","M","98.88","","","","","","NA"
"2018-11-22 05:00","2018","11","22","05:00","4.3","","4.2","","99","","32","","4","","","M","98.83","","","","","","NA"
"2018-11-22 06:00","2018","11","22","06:00","4.4","","3.8","","96","","31","","3","","","M","98.80","","","","","","NA"
"2018-11-22 07:00","2018","11","22","07:00","4.2","","3.9","","98","","17","","1","","","M","98.78","","","","","","NA"
"2018-11-22 08:00","2018","11","22","08:00","4.5","","4.2","","99","","11","","5","","","M","98.73","","","","","","NA"
"2018-11-22 09:00","2018","11","22","09:00","5.8","","5.5","","98","","11","","9","","","M","98.70","","","","","","NA"
"2018-11-22 10:00","2018","11","22","10:00","6.8","","5.8","","93","","10","","14","","","M","98.64","","","","","","NA"
"2018-11-22 11:00","2018","11","22","11:00","7.0","","6.5","","97","","14","","15","","","M","98.56","","","","","","NA"
"2018-11-22 12:00","2018","11","22","12:00","7.8","","7.0","","95","","12","","29","","","M","98.44","","","","","","NA"
"2018-11-22 13:00","2018","11","22","13:00","7.9","","7.2","","96","","14","","37","","","M","98.32","","","","","","NA"
"2018-11-22 14:00","2018","11","22","14:00","7.8","","7.0","","95","","13","","26","","","M","98.30","","","","","","NA"
"2018-11-22 15:00","2018","11","22","15:00","7.8","","7.0","","95","","14","","26","","","M","98.25","","","","","","NA"
"2018-11-22 16:00","2018","11","22","16:00","7.5","","6.5","","94","","12","","13","","","M","98.24","","","","","","NA"
"2018-11-22 17:00","2018","11","22","17:00","6.4","","5.9","","97","","21","","4","","","M","98.28","","","","","","NA"
"2018-11-22 18:00","2018","11","22","18:00","5.2","","4.2","","93","","16","","7","","","M","98.34","","","","","","NA"
"2018-11-22 19:00","2018","11","22","19:00","3.5","","3.3","","98","","20","","1","","","M","98.40","","","","","","NA"
"2018-11-22 20:00","2018","11","22","20:00","3.3","","3.2","","99","","26","","4","","","M","98.44","","","","","","NA"
"2018-11-22 21:00","2018","11","22","21:00","3.1","","2.9","","99","","0","","1","","","M","98.49","","","","","","NA"
"2018-11-22 22:00","2018","11","22","22:00","2.9","","2.7","","99","","28","","4","","","M","98.52","","","","","","NA"
"2018-11-22 23:00","2018","11","22","23:00","3.6","","3.5","","99","","9","","3","","","M","98.55","","","","","","NA"
"2018-11-23 00:00","2018","11","23","00:00","2.5","","2.4","","99","","31","","9","","","M","98.60","","","","","","NA"
"2018-11-23 01:00","2018","11","23","01:00","3.2","","3.0","","99","","27","","2","","","M","98.63","","","","","","NA"
"2018-11-23 02:00","2018","11","23","02:00","3.3","","3.2","","99","","32","","12","","","M","98.70","","","","","","NA"
"2018-11-23 03:00","2018","11","23","03:00","3.8","","3.7","","99","","29","","7","","","M","98.77","","","","","","NA"
"2018-11-23 04:00","2018","11","23","04:00","3.9","","3.7","","99","","27","","5","","","M","98.79","","","","","","NA"
"2018-11-23 05:00","2018","11","23","05:00","3.5","","3.4","","99","","18","","1","","","M","98.81","","","","","","NA"
"2018-11-23 06:00","2018","11","23","06:00","3.2","","3.0","","99","","31","","8","","","M","98.83","","","","","","NA"
"2018-11-23 07:00","2018","11","23","07:00","3.2","","3.1","","99","","25","","3","","","M","98.82","","","","","","NA"
"2018-11-23 08:00","2018","11","23","08:00","2.4","","2.2","","99","","25","","3","","","M","98.87","","","","","","NA"
"2018-11-23 09:00","2018","11","23","09:00","3.8","","3.7","","99","","31","","3","","","M","98.88","","","","","","NA"
"2018-11-23 10:00","2018","11","23","10:00","5.2","","5.1","","99","","28","","6","","","M","98.90","","","","","","NA"
"2018-11-23 11:00","2018","11","23","11:00","6.5","","5.7","","95","","30","","11","","","M","98.92","","","","","","NA"
"2018-11-23 12:00","2018","11","23","12:00","6.6","","5.2","","91","","31","","11","","","M","98.95","","","","","","NA"
"2018-11-23 13:00","2018","11","23","13:00","6.7","","5.2","","90","","32","","15","","","M","98.98","","","","","","NA"
"2018-11-23 14:00","2018","11","23","14:00","6.9","","5.5","","91","","30","","10","","","M","99.05","","","","","","NA"
"2018-11-23 15:00","2018","11","23","15:00","5.6","","4.4","","91","","30","","12","","","M","99.13","","","","","","NA"
"2018-11-23 16:00","2018","11","23","16:00","5.5","","4.4","","93","","28","","8","","","M","99.21","","","","","","NA"
"2018-11-23 17:00","2018","11","23","17:00","4.4","","3.8","","96","","30","","11","","","M","99.28","","","","","","NA"
"2018-11-23 18:00","2018","11","23","18:00","3.5","","3.1","","97","","29","","8","","","M","99.37","","","","","","NA"
"2018-11-23 19:00","2018","11","23","19:00","2.8","","2.0","","94","","","M","","M","","M","99.45","","","","","","NA"
"2018-11-23 20:00","2018","11","23","20:00","2.7","","2.4","","98","","29","","7","","","M","99.52","","","","","","NA"
"2018-11-23 21:00","2018","11","23","21:00","2.1","","1.5","","96","","29","","8","","","M","99.63","","","","","","NA"
"2018-11-23 22:00","2018","11","23","22:00","0.7","","0.2","","97","","28","","5","","","M","99.73","","","","","","NA"
"2018-11-23 23:00","2018","11","23","23:00","0.7","","0.4","","98","","25","","12","","","M","99.82","","","","","","NA"
"2018-11-24 00:00","2018","11","24","00:00","-0.5","","-0.7","","98","","30","","3","","","M","99.93","","","","-1","","NA"
"2018-11-24 01:00","2018","11","24","01:00","-1.0","","-1.2","","99","","28","","2","","","M","100.04","","","","-2","","NA"
"2018-11-24 02:00","2018","11","24","02:00","-1.5","","-1.8","","98","","25","","8","","","M","100.13","","","","-5","","NA"
"2018-11-24 03:00","2018","11","24","03:00","-1.3","","-1.5","","99","","32","","9","","","M","100.22","","","","-5","","NA"
"2018-11-24 04:00","2018","11","24","04:00","-0.1","","-0.3","","98","","31","","4","","","M","100.29","","","","-1","","NA"
"2018-11-24 05:00","2018","11","24","05:00","0.1","","-0.1","","99","","29","","5","","","M","100.36","","","","","","NA"
"2018-11-24 06:00","2018","11","24","06:00","0.4","","0.2","","99","","28","","4","","","M","100.42","","","","","","NA"
"2018-11-24 07:00","2018","11","24","07:00","0.3","","0.1","","99","","27","","2","","","M","100.47","","","","","","NA"
"2018-11-24 08:00","2018","11","24","08:00","0.7","","0.6","","99","","18","","3","","","M","100.55","","","","","","NA"
"2018-11-24 09:00","2018","11","24","09:00","1.6","","1.5","","99","","30","","6","","","M","100.59","","","","","","NA"
"2018-11-24 10:00","2018","11","24","10:00","3.6","","3.4","","99","","29","","3","","","M","100.65","","","","","","NA"
"2018-11-24 11:00","2018","11","24","11:00","5.0","","4.5","","96","","7","","4","","","M","100.67","","","","","","NA"
"2018-11-24 12:00","2018","11","24","12:00","5.8","","3.9","","88","","10","","10","","","M","100.66","","","","","","NA"
"2018-11-24 13:00","2018","11","24","13:00","6.4","","4.1","","85","","11","","11","","","M","100.68","","","","","","NA"
"2018-11-24 14:00","2018","11","24","14:00","6.1","","4.0","","86","","12","","10","","","M","100.70","","","","","","NA"
"2018-11-24 15:00","2018","11","24","15:00","5.5","","4.7","","95","","12","","8","","","M","100.70","","","","","","NA"
"2018-11-24 16:00","2018","11","24","16:00","5.4","","4.8","","95","","8","","8","","","M","100.70","","","","","","NA"
"2018-11-24 17:00","2018","11","24","17:00","5.3","","4.7","","96","","11","","8","","","M","100.71","","","","","","NA"
"2018-11-24 18:00","2018","11","24","18:00","5.3","","4.6","","95","","11","","10","","","M","100.72","","","","","","NA"
"2018-11-24 19:00","2018","11","24","19:00","5.5","","4.7","","94","","10","","7","","","M","100.72","","","","","","NA"
"2018-11-24 20:00","2018","11","24","20:00","5.7","","5.2","","97","","10","","13","","","M","100.71","","","","","","NA"
"2018-11-24 21:00","2018","11","24","21:00","5.8","","5.4","","97","","11","","9","","","M","100.76","","","","","","NA"
"2018-11-24 22:00","2018","11","24","22:00","6.0","","5.6","","98","","13","","14","","","M","100.73","","","","","","NA"
"2018-11-24 23:00","2018","11","24","23:00","6.2","","5.8","","97","","14","","15","","","M","100.77","","","","","","NA"
"2018-11-25 00:00","2018","11","25","00:00","6.2","","5.7","","96","","13","","16","","","M","100.80","","","","","","NA"
"2018-11-25 01:00","2018","11","25","01:00","6.5","","5.8","","96","","13","","21","","","M","100.76","","","","","","NA"
"2018-11-25 02:00","2018","11","25","02:00","6.3","","5.6","","95","","13","","19","","","M","100.73","","","","","","NA"
"2018-11-25 03:00","2018","11","25","03:00","6.2","","5.6","","96","","15","","13","","","M","100.75","","","","","","NA"
"2018-11-25 04:00","2018","11","25","04:00","6.0","","5.4","","96","","14","","17","","","M","100.73","","","","","","NA"
"2018-11-25 05:00","2018","11","25","05:00","6.2","","5.5","","95","","12","","18","","","M","100.73","","","","","","NA"
"2018-11-25 06:00","2018","11","25","06:00","6.2","","5.0","","92","","13","","21","","","M","100.69","","","","","","NA"
"2018-11-25 07:00","2018","11","25","07:00","6.0","","5.1","","94","","14","","15","","","M","100.69","","","","","","NA"
"2018-11-25 08:00","2018","11","25","08:00","6.0","","5.1","","93","","13","","14","","","M","100.69","","","","","","NA"
"2018-11-25 09:00","2018","11","25","09:00","6.0","","5.3","","95","","13","","17","","","M","100.67","","","","","","NA"
"2018-11-25 10:00","2018","11","25","10:00","6.1","","5.1","","93","","12","","15","","","M","100.68","","","","","","NA"
"2018-11-25 11:00","2018","11","25","11:00","6.2","","4.9","","91","","13","","17","","","M","100.69","","","","","","NA"
"2018-11-25 12:00","2018","11","25","12:00","6.2","","4.9","","92","","12","","21","","","M","100.62","","","","","","NA"
"2018-11-25 13:00","2018","11","25","13:00","6.1","","5.2","","94","","13","","24","","","M","100.59","","","","","","NA"
"2018-11-25 14:00","2018","11","25","14:00","6.0","","5.2","","94","","13","","14","","","M","100.55","","","","","","NA"
"2018-11-25 15:00","2018","11","25","15:00","6.0","","5.1","","94","","13","","22","","","M","100.52","","","","","","NA"
"2018-11-25 16:00","2018","11","25","16:00","6.0","","5.0","","93","","13","","20","","","M","100.50","","","","","","NA"
"2018-11-25 17:00","2018","11","25","17:00","6.0","","5.1","","94","","13","","20","","","M","100.49","","","","","","NA"
"2018-11-25 18:00","2018","11","25","18:00","5.7","","4.8","","94","","14","","14","","","M","100.48","","","","","","NA"
"2018-11-25 19:00","2018","11","25","19:00","5.6","","4.7","","94","","12","","15","","","M","100.42","","","","","","NA"
"2018-11-25 20:00","2018","11","25","20:00","5.8","","4.8","","93","","13","","22","","","M","100.32","","","","","","NA"
"2018-11-25 21:00","2018","11","25","21:00","5.9","","5.0","","94","","14","","28","","","M","100.27","","","","","","NA"
"2018-11-25 22:00","2018","11","25","22:00","6.3","","5.4","","94","","14","","26","","","M","100.17","","","","","","NA"
"2018-11-25 23:00","2018","11","25","23:00","6.5","","5.6","","93","","13","","29","","","M","100.09","","","","","","NA"
"2018-11-26 00:00","2018","11","26","00:00","6.7","","5.7","","93","","14","","37","","","M","99.97","","","","","","NA"
"2018-11-26 01:00","2018","11","26","01:00","6.9","","5.8","","93","","13","","39","","","M","99.88","","","","","","NA"
"2018-11-26 02:00","2018","11","26","02:00","6.9","","5.8","","93","","14","","36","","","M","99.78","","","","","","NA"
"2018-11-26 03:00","2018","11","26","03:00","6.9","","5.9","","93","","13","","36","","","M","99.72","","","","","","NA"
"2018-11-26 04:00","2018","11","26","04:00","7.2","","6.1","","92","","13","","41","","","M","99.62","","","","","","NA"
"2018-11-26 05:00","2018","11","26","05:00","7.2","","6.3","","95","","13","","27","","","M","99.55","","","","","","NA"
"2018-11-26 06:00","2018","11","26","06:00","7.4","","6.7","","95","","14","","23","","","M","99.50","","","","","","NA"
"2018-11-26 07:00","2018","11","26","07:00","7.6","","7.0","","96","","14","","25","","","M","99.45","","","","","","NA"
"2018-11-26 08:00","2018","11","26","08:00","7.8","","7.1","","96","","13","","28","","","M","99.36","","","","","","NA"
"2018-11-26 09:00","2018","11","26","09:00","7.9","","7.3","","96","","13","","26","","","M","99.34","","","","","","NA"
"2018-11-26 10:00","2018","11","26","10:00","8.3","","7.7","","96","","13","","28","","","M","99.25","","","","","","NA"
"2018-11-26 11:00","2018","11","26","11:00","8.6","","8.1","","96","","12","","22","","","M","99.23","","","","","","NA"
"2018-11-26 12:00","2018","11","26","12:00","8.8","","8.3","","97","","14","","24","","","M","99.12","","","","","","NA"
"2018-11-26 13:00","2018","11","26","13:00","9.1","","8.5","","96","","13","","25","","","M","99.03","","","","","","NA"
"2018-11-26 14:00","2018","11","26","14:00","9.0","","8.4","","96","","15","","11","","","M","99.08","","","","","","NA"
"2018-11-26 15:00","2018","11","26","15:00","8.9","","8.6","","98","","12","","14","","","M","98.99","","","","","","NA"
"2018-11-26 16:00","2018","11","26","16:00","9.2","","8.8","","98","","13","","17","","","M","98.95","","","","","","NA"
"2018-11-26 17:00","2018","11","26","17:00","9.3","","9.1","","99","","12","","15","","","M","98.96","","","","","","NA"
"2018-11-26 18:00","2018","11","26","18:00","9.7","","9.5","","99","","12","","17","","","M","98.91","","","","","","NA"
"2018-11-26 19:00","2018","11","26","19:00","9.8","","9.6","","99","","13","","21","","","M","98.92","","","","","","NA"
"2018-11-26 20:00","2018","11","26","20:00","9.8","","9.7","","99","","13","","24","","","M","98.84","","","","","","NA"
"2018-11-26 21:00","2018","11","26","21:00","9.7","","9.6","","99","","12","","19","","","M","98.79","","","","","","NA"
"2018-11-26 22:00","2018","11","26","22:00","9.7","","9.6","","100","","11","","16","","","M","98.72","","","","","","NA"
"2018-11-26 23:00","2018","11","26","23:00","9.6","","9.5","","100","","12","","21","","","M","98.59","","","","","","NA"
"2018-11-27 00:00","2018","11","27","00:00","9.7","","9.6","","100","","13","","20","","","M","98.49","","","","","","NA"
"2018-11-27 01:00","2018","11","27","01:00","9.7","","9.5","","99","","14","","13","","","M","98.39","","","","","","NA"
"2018-11-27 02:00","2018","11","27","02:00","9.7","","9.4","","98","","13","","22","","","M","98.33","","","","","","NA"
"2018-11-27 03:00","2018","11","27","03:00","9.8","","9.6","","98","","12","","14","","","M","98.21","","","","","","NA"
"2018-11-27 04:00","2018","11","27","04:00","9.8","","9.5","","98","","17","","10","","","M","98.26","","","","","","NA"
"2018-11-27 05:00","2018","11","27","05:00","9.9","","9.5","","97","","14","","16","","","M","98.18","","","","","","NA"
"2018-11-27 06:00","2018","11","27","06:00","9.7","","9.3","","98","","12","","8","","","M","98.25","","","","","","NA"
"2018-11-27 07:00","2018","11","27","07:00","9.5","","9.2","","98","","21","","4","","","M","98.35","","","","","","NA"
"2018-11-27 08:00","2018","11","27","08:00","8.8","","8.7","","99","","14","","9","","","M","98.41","","","","","","NA"
"2018-11-27 09:00","2018","11","27","09:00","9.2","","8.8","","97","","9","","1","","","M","98.52","","","","","","NA"
"2018-11-27 10:00","2018","11","27","10:00","11.1","","8.5","","84","","14","","17","","","M","98.59","","","","","","NA"
"2018-11-27 11:00","2018","11","27","11:00","11.3","","9.3","","87","","19","","3","","","M","98.69","","","","","","NA"
"2018-11-27 12:00","2018","11","27","12:00","12.2","","9.6","","84","","14","","11","","","M","98.72","","","","","","NA"
"2018-11-27 13:00","2018","11","27","13:00","12.0","","6.6","","69","","15","","8","","","M","98.76","","","","","","NA"
"2018-11-27 14:00","2018","11","27","14:00","11.9","","6.4","","69","","15","","15","","","M","98.78","","","","","","NA"
"2018-11-27 15:00","2018","11","27","15:00","11.2","","6.7","","73","","12","","11","","","M","98.79","","","","","","NA"
"2018-11-27 16:00","2018","11","27","16:00","8.8","","6.8","","87","","13","","3","","","M","98.80","","","","","","NA"
"2018-11-27 17:00","2018","11","27","17:00","7.8","","7.0","","95","","15","","5","","","M","98.85","","","","","","NA"
"2018-11-27 18:00","2018","11","27","18:00","8.1","","7.0","","93","","17","","5","","","M","98.90","","","","","","NA"
"2018-11-27 19:00","2018","11","27","19:00","7.6","","7.2","","97","","16","","3","","","M","98.88","","","","","","NA"
"2018-11-27 20:00","2018","11","27","20:00","5.0","","4.8","","98","","34","","2","","","M","98.92","","","","","","NA"
"2018-11-27 21:00","2018","11","27","21:00","4.8","","4.7","","99","","0","","1","","","M","98.98","","","","","","NA"
"2018-11-27 22:00","2018","11","27","22:00","3.9","","3.8","","99","","26","","6","","","M","99.02","","","","","","NA"
"2018-11-27 23:00","2018","11","27","23:00","3.5","","3.4","","99","","30","","4","","","M","99.07","","","","","","NA"
"2018-11-28 00:00","2018","11","28","00:00","3.6","","3.5","","99","","29","","2","","","M","99.14","","","","","","NA"
"2018-11-28 01:00","2018","11","28","01:00","3.0","","2.8","","99","","19","","5","","","M","99.12","","","","","","NA"
"2018-11-28 02:00","2018","11","28","02:00","2.9","","2.9","","99","","33","","6","","","M","99.16","","","","","","NA"
"2018-11-28 03:00","2018","11","28","03:00","3.2","","3.2","","100","","27","","4","","","M","99.21","","","","","","NA"
"2018-11-28 04:00","2018","11","28","04:00","2.0","","1.9","","99","","30","","4","","","M","99.23","","","","","","NA"
"2018-11-28 05:00","2018","11","28","05:00","1.2","","1.1","","99","","33","","9","","","M","99.24","","","","","","NA"
"2018-11-28 06:00","2018","11","28","06:00","0.7","","0.6","","99","","25","","8","","","M","99.24","","","","","","NA"
"2018-11-28 07:00","2018","11","28","07:00","-0.6","","-0.8","","99","","32","","7","","","M","99.26","","","","-3","","NA"
"2018-11-28 08:00","2018","11","28","08:00","-1.1","","-1.2","","99","","32","","7","","","M","99.28","","","","-4","","NA"
"2018-11-28 09:00","2018","11","28","09:00","0.6","","0.5","","99","","30","","8","","","M","99.33","","","","","","NA"
"2018-11-28 10:00","2018","11","28","10:00","4.5","","4.5","","100","","29","","5","","","M","99.36","","","","","","NA"
"2018-11-28 11:00","2018","11","28","11:00","6.9","","6.2","","95","","30","","4","","","M","99.34","","","","","","NA"
"2018-11-28 12:00","2018","11","28","12:00","7.5","","5.4","","86","","13","","2","","","M","99.32","","","","","","NA"
"2018-11-28 13:00","2018","11","28","13:00","7.5","","5.7","","89","","30","","3","","","M","99.28","","","","","","NA"
"2018-11-28 14:00","2018","11","28","14:00","8.9","","6.1","","82","","0","","1","","","M","99.25","","","","","","NA"
"2018-11-28 15:00","2018","11","28","15:00","8.0","","6.3","","89","","9","","4","","","M","99.26","","","","","","NA"
"2018-11-28 16:00","2018","11","28","16:00","5.9","","5.5","","98","","32","","5","","","M","99.28","","","","","","NA"
"2018-11-28 17:00","2018","11","28","17:00","5.2","","5.0","","99","","26","","3","","","M","99.28","","","","","","NA"
"2018-11-28 18:00","2018","11","28","18:00","5.1","","5.0","","99","","31","","3","","","M","99.28","","","","","","NA"
"2018-11-28 19:00","2018","11","28","19:00","4.9","","4.8","","99","","29","","4","","","M","99.30","","","","","","NA"
"2018-11-28 20:00","2018","11","28","20:00","5.3","","5.2","","99","","31","","5","","","M","99.32","","","","","","NA"
"2018-11-28 21:00","2018","11","28","21:00","5.3","","5.3","","99","","29","","2","","","M","99.35","","","","","","NA"
"2018-11-28 22:00","2018","11","28","22:00","5.3","","5.2","","99","","25","","2","","","M","99.36","","","","","","NA"
"2018-11-28 23:00","2018","11","28","23:00","5.4","","5.3","","99","","25","","3","","","M","99.34","","","","","","NA"
"2018-11-29 00:00","2018","11","29","00:00","5.4","","5.3","","99","","33","","4","","","M","99.34","","","","","","NA"
"2018-11-29 01:00","2018","11","29","01:00","5.6","","5.5","","99","","28","","4","","","M","99.33","","","","","","NA"
"2018-11-29 02:00","2018","11","29","02:00","5.8","","5.7","","99","","25","","4","","","M","99.32","","","","","","NA"
"2018-11-29 03:00","2018","11","29","03:00","6.0","","5.9","","100","","32","","5","","","M","99.33","","","","","","NA"
"2018-11-29 04:00","2018","11","29","04:00","5.9","","5.8","","99","","28","","5","","","M","99.30","","","","","","NA"
"2018-11-29 05:00","2018","11","29","05:00","5.5","","5.4","","99","","32","","5","","","M","99.29","","","","","","NA"
"2018-11-29 06:00","2018","11","29","06:00","5.5","","5.4","","99","","26","","2","","","M","99.28","","","","","","NA"
"2018-11-29 07:00","2018","11","29","07:00","5.0","","4.9","","99","","31","","3","","","M","99.30","","","","","","NA"
"2018-11-29 08:00","2018","11","29","08:00","4.3","","4.3","","99","","27","","3","","","M","99.31","","","","","","NA"
"2018-11-29 09:00","2018","11","29","09:00","4.9","","4.8","","99","","34","","3","","","M","99.33","","","","","","NA"
"2018-11-29 10:00","2018","11","29","10:00","6.2","","6.0","","98","","35","","5","","","M","99.37","","","","","","NA"
"2018-11-29 11:00","2018","11","29","11:00","7.0","","6.0","","94","","33","","8","","","M","99.37","","","","","","NA"
"2018-11-29 12:00","2018","11","29","12:00","7.0","","5.6","","91","","32","","3","","","M","99.35","","","","","","NA"
"2018-11-29 13:00","2018","11","29","13:00","7.4","","6.4","","93","","1","","4","","","M","99.30","","","","","","NA"
"2018-11-29 14:00","2018","11","29","14:00","7.5","","6.2","","91","","32","","5","","","M","99.28","","","","","","NA"
"2018-11-29 15:00","2018","11","29","15:00","7.4","","6.5","","94","","27","","3","","","M","99.25","","","","","","NA"
"2018-11-29 16:00","2018","11","29","16:00","6.0","","5.7","","98","","29","","3","","","M","99.24","","","","","","NA"
"2018-11-29 17:00","2018","11","29","17:00","3.9","","3.7","","99","","31","","3","","","M","99.23","","","","","","NA"
"2018-11-29 18:00","2018","11","29","18:00","3.7","","3.6","","99","","27","","4","","","M","99.22","","","","","","NA"
"2018-11-29 19:00","2018","11","29","19:00","2.4","","2.3","","99","","26","","3","","","M","99.21","","","","","","NA"
"2018-11-29 20:00","2018","11","29","20:00","2.3","","2.2","","99","","28","","5","","","M","99.22","","","","","","NA"
"2018-11-29 21:00","2018","11","29","21:00","1.7","","1.6","","99","","27","","4","","","M","99.24","","","","","","NA"
"2018-11-29 22:00","2018","11","29","22:00","1.6","","1.5","","99","","26","","5","","","M","99.25","","","","","","NA"
"2018-11-29 23:00","2018","11","29","23:00","1.2","","1.1","","99","","29","","5","","","M","99.24","","","","","","NA"
"2018-11-30 00:00","2018","11","30","00:00","2.7","","2.6","","99","","27","","9","","","M","99.25","","","","","","NA"
"2018-11-30 01:00","2018","11","30","01:00","1.9","","1.8","","99","","31","","2","","","M","99.25","","","","","","NA"
"2018-11-30 02:00","2018","11","30","02:00","1.9","","1.8","","99","","30","","4","","","M","99.24","","","","","","NA"
"2018-11-30 03:00","2018","11","30","03:00","2.3","","2.2","","99","","30","","4","","","M","99.23","","","","","","NA"
"2018-11-30 04:00","2018","11","30","04:00","0.8","","0.6","","99","","24","","2","","","M","99.22","","","","","","NA"
"2018-11-30 05:00","2018","11","30","05:00","1.6","","1.5","","99","","12","","3","","","M","99.23","","","","","","NA"
"2018-11-30 06:00","2018","11","30","06:00","1.9","","1.8","","99","","31","","3","","","M","99.24","","","","","","NA"
"2018-11-30 07:00","2018","11","30","07:00","2.3","","2.1","","99","","31","","3","","","M","99.28","","","","","","NA"
"2018-11-30 08:00","2018","11","30","08:00","2.3","","2.2","","99","","31","","7","","","M","99.29","","","","","","NA"
"2018-11-30 09:00","2018","11","30","09:00","2.9","","2.8","","99","","30","","3","","","M","99.34","","","","","","NA"
"2018-11-30 10:00","2018","11","30","10:00","4.6","","4.3","","98","","33","","4","","","M","99.38","","","","","","NA"
"2018-11-30 11:00","2018","11","30","11:00","5.2","","3.8","","91","","35","","7","","","M","99.40","","","","","","NA"
"2018-11-30 12:00","2018","11","30","12:00","5.6","","3.8","","88","","5","","6","","","M","99.38","","","","","","NA"
"2018-11-30 13:00","2018","11","30","13:00","6.0","","3.7","","85","","7","","3","","","M","99.37","","","","","","NA"
"2018-11-30 14:00","2018","11","30","14:00","6.1","","3.8","","85","","6","","8","","","M","99.36","","","","","","NA"
"2018-11-30 15:00","2018","11","30","15:00","6.0","","4.0","","87","","3","","4","","","M","99.37","","","","","","NA"
"2018-11-30 16:00","2018","11","30","16:00","5.5","","4.4","","92","","33","","7","","","M","99.40","","","","","","NA"
"2018-11-30 17:00","2018","11","30","17:00","5.2","","4.4","","94","","34","","3","","","M","99.43","","","","","","NA"
"2018-11-30 18:00","2018","11","30","18:00","4.9","","4.4","","97","","27","","5","","","M","99.44","","","","","","NA"
"2018-11-30 19:00","2018","11","30","19:00","4.5","","4.2","","98","","31","","7","","","M","99.47","","","","","","NA"
"2018-11-30 20:00","2018","11","30","20:00","3.1","","2.9","","98","","25","","5","","","M","99.52","","","","","","NA"
"2018-11-30 21:00","2018","11","30","21:00","2.7","","2.5","","99","","4","","3","","","M","99.55","","","","","","NA"
"2018-11-30 22:00","2018","11","30","22:00","1.7","","1.5","","99","","29","","3","","","M","99.58","","","","","","NA"
"2018-11-30 23:00","2018","11","30","23:00","0.9","","0.7","","99","","27","","6","","","M","99.63","","","","","","NA"
