"Station Name","CAMPBELL RIVER A"
"Province","BRITISH COLUMBIA"
"Current Station Operator","NAV Canada"
"Latitude","49.95"
"Longitude","-125.27"
"Elevation","108.80"
"Climate Identifier","1021270"
"WMO Identifier",""
"TC Identifier","YBL"
"All times are specified in Local Standard Time (LST). Add 1 hour to adjust for Daylight Saving Time where and when it is observed."

"Legend"
"E","Estimated"
"M","Missing"
"NA","Not Available"

"Date/Time","Year","Month","Day","Time","Temp (°C)","Temp Flag","Dew Point Temp (°C)","Dew Point Temp Flag","Rel Hum (%)","Rel Hum Flag","Wind Dir (10s deg)","Wind Dir Flag","Wind Spd (km/h)","Wind Spd Flag","Visibility (km)","Visibility Flag","Stn Press (kPa)","Stn Press Flag","Hmdx","Hmdx Flag","Wind Chill","Wind Chill Flag","Weather"
"2019-01-01 00:00","2019","01","01","00:00","0.5","","0.2","","97","","29","","1","","","M","101.76","","","","","","NA"
"2019-01-01 01:00","2019","01","01","01:00","-0.2","","-0.5","","98","","29","","3","","","M","101.77","","","","-1","","NA"
"2019-01-01 02:00","2019","01","01","02:00","0.1","","-0.1","","98","","31","","4","","","M","101.78","","","","","","NA"
"2019-01-01 03:00","2019","01","01","03:00","0.1","","-0.1","","98","","29","","3","","","M","101.73","","","","","","NA"
"2019-01-01 04:00","2019","01","01","04:00","0.2","","0.0","","98","","32","","7","","","M","101.72","","","","","","NA"
"2019-01-01 05:00","2019","01","01","05:00","0.5","","0.2","","98","","31","","4","","","M","101.67","","","","","","NA"
"2019-01-01 06:00","2019","01","01","06:00","0.8","","0.6","","98","","28","","3","","","M","101.70","","","","","","NA"
"2019-01-01 07:00","2019","01","01","07:00","1.1","","0.9","","98","","30","","3","","","M","101.72","","","","","","NA"
"2019-01-01 08:00","2019","01","01","08:00","1.1","","0.8","","98","","30","","3","","","M","101.77","","","","","","NA"
"2019-01-01 09:00","2019","01","01","09:00","1.2","","1.0","","98","","0","","1","","","M","101.79","","","","","","NA"
"2019-01-01 10:00","2019","01","01","10:00","1.8","","1.6","","99","","30","","4","","","M","101.79","","","","","","NA"
"2019-01-01 11:00","2019","01","01","11:00","2.5","","2.3","","99","","30","","3","","","M","101.77","","","","","","NA"
"2019-01-01 12:00","2019","01","01","12:00","2.7","","2.5","","98","","6","","3","","","M","101.67","","","","","","NA"
"2019-01-01 13:00","2019","01","01","13:00","3.1","","2.6","","96","","6","","6","","","M","101.61","","","","","","NA"
"2019-01-01 14:00","2019","01","01","14:00","3.3","","2.6","","95","","7","","7","","","M","101.56","","","","","","NA"
"2019-01-01 15:00","2019","01","01","15:00","3.2","","2.5","","95","","10","","10","","","M","101.52","","","","","","NA"
"2019-01-01 16:00","2019","01","01","16:00","3.4","","2.5","","94","","10","","7","","","M","101.49","","","","","","NA"
"2019-01-01 17:00","2019","01","01","17:00","2.8","","2.1","","95","","14","","3","","","M","101.50","","","","","","NA"
"2019-01-01 18:00","2019","01","01","18:00","3.0","","1.5","","90","","13","","4","","","M","101.42","","","","","","NA"
"2019-01-01 19:00","2019","01","01","19:00","2.5","","1.9","","96","","14","","2","","","M","101.38","","","","","","NA"
"2019-01-01 20:00","2019","01","01","20:00","2.8","","1.9","","94","","15","","2","","","M","101.32","","","","","","NA"
"2019-01-01 21:00","2019","01","01","21:00","2.5","","2.0","","97","","10","","5","","","M","101.25","","","","","","NA"
"2019-01-01 22:00","2019","01","01","22:00","3.0","","1.8","","92","","13","","8","","","M","101.20","","","","","","NA"
"2019-01-01 23:00","2019","01","01","23:00","3.1","","1.5","","89","","13","","6","","","M","101.15","","","","","","NA"
"2019-01-02 00:00","2019","01","02","00:00","3.2","","1.4","","88","","13","","9","","","M","101.08","","","","","","NA"
"2019-01-02 01:00","2019","01","02","01:00","3.3","","1.4","","88","","14","","12","","","M","101.01","","","","","","NA"
"2019-01-02 02:00","2019","01","02","02:00","3.5","","1.4","","86","","14","","13","","","M","100.96","","","","","","NA"
"2019-01-02 03:00","2019","01","02","03:00","3.8","","1.4","","84","","14","","14","","","M","100.94","","","","","","NA"
"2019-01-02 04:00","2019","01","02","04:00","4.0","","1.2","","82","","13","","17","","","M","100.79","","","","","","NA"
"2019-01-02 05:00","2019","01","02","05:00","4.4","","1.4","","81","","12","","25","","","M","100.67","","","","","","NA"
"2019-01-02 06:00","2019","01","02","06:00","4.6","","1.7","","81","","12","","27","","","M","100.68","","","","","","NA"
"2019-01-02 07:00","2019","01","02","07:00","4.2","","1.4","","82","","12","","22","","","M","100.59","","","","","","NA"
"2019-01-02 08:00","2019","01","02","08:00","4.0","","1.6","","85","","13","","27","","","M","100.52","","","","","","NA"
"2019-01-02 09:00","2019","01","02","09:00","3.9","","2.2","","89","","12","","31","","","M","100.42","","","","","","NA"
"2019-01-02 10:00","2019","01","02","10:00","3.9","","2.6","","91","","13","","19","","","M","100.43","","","","","","NA"
"2019-01-02 11:00","2019","01","02","11:00","3.7","","2.6","","93","","13","","23","","","M","100.37","","","","","","NA"
"2019-01-02 12:00","2019","01","02","12:00","3.9","","2.6","","91","","13","","35","","","M","100.27","","","","","","NA"
"2019-01-02 13:00","2019","01","02","13:00","3.6","","2.3","","91","","13","","38","","","M","100.13","","","","","","NA"
"2019-01-02 14:00","2019","01","02","14:00","3.4","","2.2","","92","","13","","39","","","M","100.05","","","","","","NA"
"2019-01-02 15:00","2019","01","02","15:00","3.1","","1.9","","92","","13","","29","","","M","99.99","","","","","","NA"
"2019-01-02 16:00","2019","01","02","16:00","3.2","","2.1","","93","","13","","35","","","M","99.96","","","","","","NA"
"2019-01-02 17:00","2019","01","02","17:00","3.3","","2.2","","92","","12","","29","","","M","99.91","","","","","","NA"
"2019-01-02 18:00","2019","01","02","18:00","3.4","","2.4","","93","","13","","34","","","M","99.88","","","","","","NA"
"2019-01-02 19:00","2019","01","02","19:00","3.6","","2.5","","93","","13","","29","","","M","99.85","","","","","","NA"
"2019-01-02 20:00","2019","01","02","20:00","3.7","","2.9","","94","","12","","25","","","M","99.75","","","","","","NA"
"2019-01-02 21:00","2019","01","02","21:00","4.0","","3.1","","94","","12","","25","","","M","99.68","","","","","","NA"
"2019-01-02 22:00","2019","01","02","22:00","4.2","","3.5","","95","","12","","28","","","M","99.63","","","","","","NA"
"2019-01-02 23:00","2019","01","02","23:00","4.4","","3.8","","96","","12","","26","","","M","99.54","","","","","","NA"
"2019-01-03 00:00","2019","01","03","00:00","4.6","","4.1","","96","","13","","22","","","M","99.44","","","","","","NA"
"2019-01-03 01:00","2019","01","03","01:00","4.6","","4.3","","98","","14","","16","","","M","99.38","","","","","","NA"
"2019-01-03 02:00","2019","01","03","02:00","4.6","","4.2","","97","","14","","18","","","M","99.33","","","","","","NA"
"2019-01-03 03:00","2019","01","03","03:00","4.8","","4.4","","97","","13","","21","","","M","99.27","","","","","","NA"
"2019-01-03 04:00","2019","01","03","04:00","5.1","","4.7","","98","","13","","14","","","M","99.19","","","","","","NA"
"2019-01-03 05:00","2019","01","03","05:00","5.3","","4.9","","97","","12","","20","","","M","99.04","","","","","","NA"
"2019-01-03 06:00","2019","01","03","06:00","5.7","","5.4","","98","","12","","20","","","M","98.94","","","","","","NA"
"2019-01-03 07:00","2019","01","03","07:00","6.2","","5.8","","98","","13","","16","","","M","98.88","","","","","","NA"
"2019-01-03 08:00","2019","01","03","08:00","6.5","","6.1","","97","","13","","19","","","M","98.82","","","","","","NA"
"2019-01-03 09:00","2019","01","03","09:00","7.0","","6.6","","97","","12","","21","","","M","98.77","","","","","","NA"
"2019-01-03 10:00","2019","01","03","10:00","7.4","","7.0","","97","","14","","19","","","M","98.78","","","","","","NA"
"2019-01-03 11:00","2019","01","03","11:00","7.8","","7.4","","97","","14","","13","","","M","98.84","","","","","","NA"
"2019-01-03 12:00","2019","01","03","12:00","8.4","","8.1","","98","","16","","11","","","M","98.76","","","","","","NA"
"2019-01-03 13:00","2019","01","03","13:00","9.1","","8.4","","96","","20","","4","","","M","98.83","","","","","","NA"
"2019-01-03 14:00","2019","01","03","14:00","9.1","","8.6","","97","","13","","9","","","M","98.81","","","","","","NA"
"2019-01-03 15:00","2019","01","03","15:00","9.2","","8.6","","96","","15","","9","","","M","98.77","","","","","","NA"
"2019-01-03 16:00","2019","01","03","16:00","8.4","","8.1","","98","","29","","3","","","M","98.81","","","","","","NA"
"2019-01-03 17:00","2019","01","03","17:00","7.7","","7.5","","99","","29","","3","","","M","98.84","","","","","","NA"
"2019-01-03 18:00","2019","01","03","18:00","7.9","","7.2","","96","","6","","3","","","M","98.80","","","","","","NA"
"2019-01-03 19:00","2019","01","03","19:00","7.5","","7.3","","99","","35","","2","","","M","98.70","","","","","","NA"
"2019-01-03 20:00","2019","01","03","20:00","7.4","","7.3","","99","","17","","6","","","M","98.65","","","","","","NA"
"2019-01-03 21:00","2019","01","03","21:00","7.5","","7.3","","99","","14","","20","","","M","98.59","","","","","","NA"
"2019-01-03 22:00","2019","01","03","22:00","7.0","","6.7","","98","","16","","10","","","M","98.56","","","","","","NA"
"2019-01-03 23:00","2019","01","03","23:00","6.1","","5.2","","94","","14","","11","","","M","98.56","","","","","","NA"
"2019-01-04 00:00","2019","01","04","00:00","4.9","","4.2","","96","","12","","6","","","M","98.51","","","","","","NA"
"2019-01-04 01:00","2019","01","04","01:00","4.7","","4.2","","96","","15","","7","","","M","98.54","","","","","","NA"
"2019-01-04 02:00","2019","01","04","02:00","5.6","","4.5","","92","","12","","14","","","M","98.56","","","","","","NA"
"2019-01-04 03:00","2019","01","04","03:00","5.4","","4.9","","97","","14","","15","","","M","98.53","","","","","","NA"
"2019-01-04 04:00","2019","01","04","04:00","5.7","","5.2","","97","","13","","15","","","M","98.50","","","","","","NA"
"2019-01-04 05:00","2019","01","04","05:00","6.1","","5.5","","96","","13","","17","","","M","98.49","","","","","","NA"
"2019-01-04 06:00","2019","01","04","06:00","6.4","","5.9","","97","","14","","18","","","M","98.49","","","","","","NA"
"2019-01-04 07:00","2019","01","04","07:00","6.3","","5.7","","96","","15","","13","","","M","98.59","","","","","","NA"
"2019-01-04 08:00","2019","01","04","08:00","5.9","","5.5","","97","","14","","10","","","M","98.65","","","","","","NA"
"2019-01-04 09:00","2019","01","04","09:00","6.3","","5.4","","94","","14","","18","","","M","98.73","","","","","","NA"
"2019-01-04 10:00","2019","01","04","10:00","6.6","","6.1","","96","","13","","18","","","M","98.81","","","","","","NA"
"2019-01-04 11:00","2019","01","04","11:00","7.8","","6.9","","94","","14","","18","","","M","98.90","","","","","","NA"
"2019-01-04 12:00","2019","01","04","12:00","8.3","","7.2","","93","","15","","14","","","M","98.89","","","","","","NA"
"2019-01-04 13:00","2019","01","04","13:00","9.9","","5.8","","76","","13","","20","","","M","98.91","","","","","","NA"
"2019-01-04 14:00","2019","01","04","14:00","9.3","","3.9","","69","","14","","19","","","M","98.99","","","","","","NA"
"2019-01-04 15:00","2019","01","04","15:00","9.2","","3.1","","66","","14","","17","","","M","99.05","","","","","","NA"
"2019-01-04 16:00","2019","01","04","16:00","7.6","","2.9","","72","","14","","13","","","M","99.13","","","","","","NA"
"2019-01-04 17:00","2019","01","04","17:00","5.8","","2.4","","79","","12","","11","","","M","99.21","","","","","","NA"
"2019-01-04 18:00","2019","01","04","18:00","6.9","","3.1","","77","","16","","13","","","M","99.27","","","","","","NA"
"2019-01-04 19:00","2019","01","04","19:00","6.1","","3.2","","81","","13","","8","","","M","99.35","","","","","","NA"
"2019-01-04 20:00","2019","01","04","20:00","6.6","","3.6","","81","","13","","15","","","M","99.40","","","","","","NA"
"2019-01-04 21:00","2019","01","04","21:00","6.7","","4.1","","83","","12","","15","","","M","99.42","","","","","","NA"
"2019-01-04 22:00","2019","01","04","22:00","6.5","","4.1","","85","","12","","12","","","M","99.44","","","","","","NA"
"2019-01-04 23:00","2019","01","04","23:00","6.5","","4.9","","89","","11","","16","","","M","99.39","","","","","","NA"
"2019-01-05 00:00","2019","01","05","00:00","6.5","","4.5","","87","","11","","13","","","M","99.39","","","","","","NA"
"2019-01-05 01:00","2019","01","05","01:00","6.2","","4.5","","89","","14","","12","","","M","99.34","","","","","","NA"
"2019-01-05 02:00","2019","01","05","02:00","2.8","","2.2","","95","","30","","6","","","M","99.32","","","","","","NA"
"2019-01-05 03:00","2019","01","05","03:00","5.5","","4.4","","92","","11","","5","","","M","99.30","","","","","","NA"
"2019-01-05 04:00","2019","01","05","04:00","6.0","","4.3","","89","","13","","11","","","M","99.21","","","","","","NA"
"2019-01-05 05:00","2019","01","05","05:00","5.3","","4.2","","92","","2","","2","","","M","99.09","","","","","","NA"
"2019-01-05 06:00","2019","01","05","06:00","5.7","","4.7","","93","","14","","8","","","M","99.02","","","","","","NA"
"2019-01-05 07:00","2019","01","05","07:00","6.1","","4.8","","91","","9","","9","","","M","98.93","","","","","","NA"
"2019-01-05 08:00","2019","01","05","08:00","6.0","","5.5","","97","","12","","6","","","M","98.89","","","","","","NA"
"2019-01-05 09:00","2019","01","05","09:00","6.2","","6.0","","99","","9","","9","","","M","98.78","","","","","","NA"
"2019-01-05 10:00","2019","01","05","10:00","6.1","","5.8","","98","","10","","11","","","M","98.70","","","","","","NA"
"2019-01-05 11:00","2019","01","05","11:00","6.2","","5.6","","96","","12","","16","","","M","98.64","","","","","","NA"
"2019-01-05 12:00","2019","01","05","12:00","6.2","","5.2","","94","","11","","11","","","M","98.50","","","","","","NA"
"2019-01-05 13:00","2019","01","05","13:00","6.4","","5.3","","93","","10","","9","","","M","98.34","","","","","","NA"
"2019-01-05 14:00","2019","01","05","14:00","6.3","","5.0","","92","","8","","9","","","M","98.18","","","","","","NA"
"2019-01-05 15:00","2019","01","05","15:00","5.9","","5.1","","94","","10","","8","","","M","98.08","","","","","","NA"
"2019-01-05 16:00","2019","01","05","16:00","5.8","","5.1","","96","","9","","8","","","M","97.97","","","","","","NA"
"2019-01-05 17:00","2019","01","05","17:00","5.8","","5.4","","97","","10","","11","","","M","97.86","","","","","","NA"
"2019-01-05 18:00","2019","01","05","18:00","5.5","","5.1","","97","","10","","6","","","M","97.77","","","","","","NA"
"2019-01-05 19:00","2019","01","05","19:00","5.3","","5.0","","97","","7","","7","","","M","97.69","","","","","","NA"
"2019-01-05 20:00","2019","01","05","20:00","5.6","","5.3","","98","","10","","7","","","M","97.62","","","","","","NA"
"2019-01-05 21:00","2019","01","05","21:00","5.9","","5.1","","95","","12","","24","","","M","97.55","","","","","","NA"
"2019-01-05 22:00","2019","01","05","22:00","5.6","","5.1","","96","","13","","18","","","M","97.46","","","","","","NA"
"2019-01-05 23:00","2019","01","05","23:00","5.9","","5.4","","97","","13","","21","","","M","97.40","","","","","","NA"
"2019-01-06 00:00","2019","01","06","00:00","5.8","","5.2","","96","","13","","18","","","M","97.31","","","","","","NA"
"2019-01-06 01:00","2019","01","06","01:00","5.9","","5.3","","96","","13","","15","","","M","97.27","","","","","","NA"
"2019-01-06 02:00","2019","01","06","02:00","5.7","","5.1","","96","","12","","14","","","M","97.27","","","","","","NA"
"2019-01-06 03:00","2019","01","06","03:00","5.4","","4.8","","96","","13","","11","","","M","97.29","","","","","","NA"
"2019-01-06 04:00","2019","01","06","04:00","5.1","","4.4","","96","","29","","9","","","M","97.37","","","","","","NA"
"2019-01-06 05:00","2019","01","06","05:00","4.6","","4.2","","97","","29","","3","","","M","97.43","","","","","","NA"
"2019-01-06 06:00","2019","01","06","06:00","3.7","","2.2","","90","","30","","7","","","M","97.62","","","","","","NA"
"2019-01-06 07:00","2019","01","06","07:00","2.9","","1.8","","93","","29","","8","","","M","97.87","","","","","","NA"
"2019-01-06 08:00","2019","01","06","08:00","2.0","","1.6","","97","","25","","2","","","M","98.02","","","","","","NA"
"2019-01-06 09:00","2019","01","06","09:00","2.5","","0.3","","85","","28","","8","","","M","98.18","","","","","","NA"
"2019-01-06 10:00","2019","01","06","10:00","3.1","","1.2","","87","","32","","5","","","M","98.28","","","","","","NA"
"2019-01-06 11:00","2019","01","06","11:00","4.8","","0.5","","73","","33","","7","","","M","98.36","","","","","","NA"
"2019-01-06 12:00","2019","01","06","12:00","5.3","","1.0","","73","","10","","12","","","M","98.39","","","","","","NA"
"2019-01-06 13:00","2019","01","06","13:00","6.2","","-0.3","","63","","9","","6","","","M","98.43","","","","","","NA"
"2019-01-06 14:00","2019","01","06","14:00","6.7","","0.3","","64","","5","","3","","","M","98.44","","","","","","NA"
"2019-01-06 15:00","2019","01","06","15:00","6.8","","-0.5","","60","","14","","2","","","M","98.48","","","","","","NA"
"2019-01-06 16:00","2019","01","06","16:00","2.7","","0.1","","83","","16","","5","","","M","98.54","","","","","","NA"
"2019-01-06 17:00","2019","01","06","17:00","1.3","","0.6","","95","","19","","2","","","M","98.58","","","","","","NA"
"2019-01-06 18:00","2019","01","06","18:00","0.6","","0.1","","96","","36","","5","","","M","98.64","","","","","","NA"
"2019-01-06 19:00","2019","01","06","19:00","0.6","","0.1","","97","","25","","8","","","M","98.69","","","","","","NA"
"2019-01-06 20:00","2019","01","06","20:00","0.7","","-0.1","","94","","29","","3","","","M","98.77","","","","","","NA"
"2019-01-06 21:00","2019","01","06","21:00","0.4","","-0.1","","96","","30","","8","","","M","98.83","","","","","","NA"
"2019-01-06 22:00","2019","01","06","22:00","1.7","","0.0","","88","","30","","9","","","M","98.90","","","","","","NA"
"2019-01-06 23:00","2019","01","06","23:00","1.8","","-1.4","","79","","28","","13","","","M","98.98","","","","","","NA"
"2019-01-07 00:00","2019","01","07","00:00","1.2","","-1.3","","83","","30","","9","","","M","99.08","","","","","","NA"
"2019-01-07 01:00","2019","01","07","01:00","2.0","","-1.0","","81","","30","","14","","","M","99.18","","","","","","NA"
"2019-01-07 02:00","2019","01","07","02:00","0.9","","-0.7","","89","","34","","13","","","M","99.32","","","","","","NA"
"2019-01-07 03:00","2019","01","07","03:00","-0.5","","-1.8","","91","","29","","6","","","M","99.45","","","","-3","","NA"
"2019-01-07 04:00","2019","01","07","04:00","0.8","","-1.7","","83","","30","","11","","","M","99.57","","","","","","NA"
"2019-01-07 05:00","2019","01","07","05:00","-0.9","","-2.0","","92","","30","","9","","","M","99.68","","","","-4","","NA"
"2019-01-07 06:00","2019","01","07","06:00","0.8","","-4.3","","69","","30","","13","","","M","99.83","","","","","","NA"
"2019-01-07 07:00","2019","01","07","07:00","0.1","","-5.1","","68","","27","","9","","","M","99.95","","","","","","NA"
"2019-01-07 08:00","2019","01","07","08:00","0.4","","-6.3","","61","","29","","9","","","M","100.09","","","","","","NA"
"2019-01-07 09:00","2019","01","07","09:00","1.4","","-6.5","","56","","28","","11","","","M","100.24","","","","","","NA"
"2019-01-07 10:00","2019","01","07","10:00","2.7","","-6.1","","53","","29","","9","","","M","100.36","","","","","","NA"
"2019-01-07 11:00","2019","01","07","11:00","3.9","","-6.7","","46","","26","","11","","","M","100.50","","","","","","NA"
"2019-01-07 12:00","2019","01","07","12:00","4.6","","-8.5","","38","","29","","13","","","M","100.57","","","","","","NA"
"2019-01-07 13:00","2019","01","07","13:00","4.6","","-7.2","","42","","34","","16","","","M","100.66","","","","","","NA"
"2019-01-07 14:00","2019","01","07","14:00","5.0","","-8.4","","37","","31","","10","","","M","100.77","","","","","","NA"
"2019-01-07 15:00","2019","01","07","15:00","4.5","","-8.8","","37","","3","","8","","","M","100.83","","","","","","NA"
"2019-01-07 16:00","2019","01","07","16:00","2.4","","-6.0","","54","","6","","3","","","M","100.93","","","","","","NA"
"2019-01-07 17:00","2019","01","07","17:00","-1.6","","-3.8","","86","","28","","3","","","M","100.98","","","","-3","","NA"
"2019-01-07 18:00","2019","01","07","18:00","-2.2","","-3.7","","89","","29","","3","","","M","101.03","","","","-3","","NA"
"2019-01-07 19:00","2019","01","07","19:00","-3.0","","-4.1","","93","","31","","7","","","M","101.07","","","","-6","","NA"
"2019-01-07 20:00","2019","01","07","20:00","-3.0","","-3.9","","94","","25","","4","","","M","101.15","","","","-5","","NA"
"2019-01-07 21:00","2019","01","07","21:00","-3.4","","-4.3","","94","","29","","4","","","M","101.15","","","","-5","","NA"
"2019-01-07 22:00","2019","01","07","22:00","-4.1","","-5.0","","93","","30","","5","","","M","101.12","","","","-6","","NA"
"2019-01-07 23:00","2019","01","07","23:00","-3.4","","-4.2","","94","","33","","4","","","M","101.12","","","","-5","","NA"
"2019-01-08 00:00","2019","01","08","00:00","-2.9","","-3.7","","94","","32","","6","","","M","101.08","","","","-5","","NA"
"2019-01-08 01:00","2019","01","08","01:00","-3.0","","-3.8","","95","","28","","3","","","M","101.00","","","","-4","","NA"
"2019-01-08 02:00","2019","01","08","02:00","-3.2","","-4.0","","94","","31","","4","","","M","100.97","","","","-5","","NA"
"2019-01-08 03:00","2019","01","08","03:00","-2.5","","-3.2","","95","","30","","4","","","M","100.90","","","","-4","","NA"
"2019-01-08 04:00","2019","01","08","04:00","-2.0","","-2.6","","96","","27","","4","","","M","100.84","","","","-3","","NA"
"2019-01-08 05:00","2019","01","08","05:00","-1.8","","-2.4","","96","","0","","1","","","M","100.74","","","","-2","","NA"
"2019-01-08 06:00","2019","01","08","06:00","-1.3","","-2.0","","95","","25","","4","","","M","100.65","","","","-3","","NA"
"2019-01-08 07:00","2019","01","08","07:00","-1.2","","-1.9","","95","","24","","4","","","M","100.57","","","","-3","","NA"
"2019-01-08 08:00","2019","01","08","08:00","-1.1","","-1.8","","95","","27","","1","","","M","100.48","","","","-1","","NA"
"2019-01-08 09:00","2019","01","08","09:00","-0.7","","-2.1","","90","","29","","5","","","M","100.51","","","","-2","","NA"
"2019-01-08 10:00","2019","01","08","10:00","-0.4","","-1.1","","95","","13","","9","","","M","100.50","","","","-4","","NA"
"2019-01-08 11:00","2019","01","08","11:00","0.0","","-0.6","","96","","14","","12","","","M","100.45","","","","-4","","NA"
"2019-01-08 12:00","2019","01","08","12:00","0.0","","-0.7","","95","","14","","12","","","M","100.31","","","","-4","","NA"
"2019-01-08 13:00","2019","01","08","13:00","-0.1","","-0.6","","96","","13","","15","","","M","100.17","","","","-5","","NA"
"2019-01-08 14:00","2019","01","08","14:00","0.0","","-0.5","","97","","12","","11","","","M","100.05","","","","-4","","NA"
"2019-01-08 15:00","2019","01","08","15:00","-0.1","","-0.4","","98","","11","","9","","","M","99.97","","","","-3","","NA"
"2019-01-08 16:00","2019","01","08","16:00","-0.1","","-0.3","","98","","10","","9","","","M","99.88","","","","-3","","NA"
"2019-01-08 17:00","2019","01","08","17:00","-0.1","","-0.3","","99","","10","","10","","","M","99.80","","","","-3","","NA"
"2019-01-08 18:00","2019","01","08","18:00","0.0","","-0.2","","99","","10","","10","","","M","99.74","","","","-3","","NA"
"2019-01-08 19:00","2019","01","08","19:00","-0.1","","-0.2","","99","","8","","9","","","M","99.65","","","","-3","","NA"
"2019-01-08 20:00","2019","01","08","20:00","-0.1","","-0.2","","99","","9","","8","","","M","99.62","","","","-3","","NA"
"2019-01-08 21:00","2019","01","08","21:00","0.0","","-0.2","","99","","10","","10","","","M","99.59","","","","-3","","NA"
"2019-01-08 22:00","2019","01","08","22:00","0.0","","-0.1","","99","","10","","11","","","M","99.53","","","","-4","","NA"
"2019-01-08 23:00","2019","01","08","23:00","0.1","","0.0","","99","","9","","8","","","M","99.50","","","","","","NA"
"2019-01-09 00:00","2019","01","09","00:00","0.0","","-0.1","","99","","9","","6","","","M","99.42","","","","-2","","NA"
"2019-01-09 01:00","2019","01","09","01:00","0.2","","0.0","","99","","5","","3","","","M","99.32","","","","","","NA"
"2019-01-09 02:00","2019","01","09","02:00","0.0","","-0.1","","99","","23","","4","","","M","99.28","","","","-1","","NA"
"2019-01-09 03:00","2019","01","09","03:00","0.1","","0.0","","99","","23","","6","","","M","99.23","","","","","","NA"
"2019-01-09 04:00","2019","01","09","04:00","0.2","","0.0","","99","","31","","2","","","M","99.17","","","","","","NA"
"2019-01-09 05:00","2019","01","09","05:00","0.1","","0.0","","99","","29","","2","","","M","99.09","","","","","","NA"
"2019-01-09 06:00","2019","01","09","06:00","0.2","","0.0","","99","","30","","4","","","M","99.05","","","","","","NA"
"2019-01-09 07:00","2019","01","09","07:00","0.2","","0.1","","99","","32","","3","","","M","99.04","","","","","","NA"
"2019-01-09 08:00","2019","01","09","08:00","0.1","","0.0","","99","","32","","3","","","M","98.99","","","","","","NA"
"2019-01-09 09:00","2019","01","09","09:00","0.4","","0.2","","99","","14","","5","","","M","99.01","","","","","","NA"
"2019-01-09 10:00","2019","01","09","10:00","1.8","","1.7","","99","","13","","8","","","M","98.98","","","","","","NA"
"2019-01-09 11:00","2019","01","09","11:00","1.9","","1.8","","99","","13","","5","","","M","98.95","","","","","","NA"
"2019-01-09 12:00","2019","01","09","12:00","3.4","","3.4","","100","","14","","17","","","M","98.86","","","","","","NA"
"2019-01-09 13:00","2019","01","09","13:00","3.7","","3.7","","99","","13","","18","","","M","98.75","","","","","","NA"
"2019-01-09 14:00","2019","01","09","14:00","4.4","","4.2","","99","","14","","25","","","M","98.66","","","","","","NA"
"2019-01-09 15:00","2019","01","09","15:00","5.2","","4.8","","97","","14","","25","","","M","98.66","","","","","","NA"
"2019-01-09 16:00","2019","01","09","16:00","4.9","","4.5","","97","","13","","30","","","M","98.63","","","","","","NA"
"2019-01-09 17:00","2019","01","09","17:00","5.3","","4.8","","97","","13","","32","","","M","98.59","","","","","","NA"
"2019-01-09 18:00","2019","01","09","18:00","6.0","","5.6","","97","","15","","25","","","M","98.64","","","","","","NA"
"2019-01-09 19:00","2019","01","09","19:00","5.8","","5.4","","97","","15","","20","","","M","98.67","","","","","","NA"
"2019-01-09 20:00","2019","01","09","20:00","6.1","","5.4","","95","","14","","28","","","M","98.77","","","","","","NA"
"2019-01-09 21:00","2019","01","09","21:00","6.4","","6.1","","98","","13","","23","","","M","98.84","","","","","","NA"
"2019-01-09 22:00","2019","01","09","22:00","7.2","","6.9","","98","","14","","17","","","M","98.95","","","","","","NA"
"2019-01-09 23:00","2019","01","09","23:00","6.7","","6.4","","98","","12","","14","","","M","99.03","","","","","","NA"
"2019-01-10 00:00","2019","01","10","00:00","7.3","","7.1","","98","","14","","20","","","M","99.20","","","","","","NA"
"2019-01-10 01:00","2019","01","10","01:00","7.5","","7.2","","98","","14","","18","","","M","99.28","","","","","","NA"
"2019-01-10 02:00","2019","01","10","02:00","7.3","","7.0","","98","","9","","6","","","M","99.46","","","","","","NA"
"2019-01-10 03:00","2019","01","10","03:00","6.1","","5.8","","98","","24","","5","","","M","99.65","","","","","","NA"
"2019-01-10 04:00","2019","01","10","04:00","7.3","","6.8","","97","","13","","16","","","M","99.71","","","","","","NA"
"2019-01-10 05:00","2019","01","10","05:00","7.1","","6.8","","98","","14","","9","","","M","99.75","","","","","","NA"
"2019-01-10 06:00","2019","01","10","06:00","7.1","","6.9","","99","","14","","10","","","M","99.83","","","","","","NA"
"2019-01-10 07:00","2019","01","10","07:00","6.2","","6.0","","99","","12","","8","","","M","99.88","","","","","","NA"
"2019-01-10 08:00","2019","01","10","08:00","4.5","","4.4","","99","","29","","8","","","M","99.96","","","","","","NA"
"2019-01-10 09:00","2019","01","10","09:00","4.9","","4.8","","99","","17","","7","","","M","100.03","","","","","","NA"
"2019-01-10 10:00","2019","01","10","10:00","8.0","","6.5","","90","","10","","13","","","M","100.11","","","","","","NA"
"2019-01-10 11:00","2019","01","10","11:00","8.1","","6.6","","90","","11","","22","","","M","100.22","","","","","","NA"
"2019-01-10 12:00","2019","01","10","12:00","8.5","","7.0","","91","","12","","23","","","M","100.18","","","","","","NA"
"2019-01-10 13:00","2019","01","10","13:00","8.7","","7.2","","90","","11","","16","","","M","100.16","","","","","","NA"
"2019-01-10 14:00","2019","01","10","14:00","8.9","","6.9","","88","","12","","14","","","M","100.15","","","","","","NA"
"2019-01-10 15:00","2019","01","10","15:00","8.8","","7.4","","90","","13","","33","","","M","100.18","","","","","","NA"
"2019-01-10 16:00","2019","01","10","16:00","8.5","","7.5","","93","","14","","28","","","M","100.17","","","","","","NA"
"2019-01-10 17:00","2019","01","10","17:00","8.3","","7.3","","93","","13","","23","","","M","100.17","","","","","","NA"
"2019-01-10 18:00","2019","01","10","18:00","8.3","","7.2","","93","","13","","28","","","M","100.15","","","","","","NA"
"2019-01-10 19:00","2019","01","10","19:00","8.3","","7.4","","94","","13","","27","","","M","100.17","","","","","","NA"
"2019-01-10 20:00","2019","01","10","20:00","8.3","","7.5","","94","","13","","23","","","M","100.20","","","","","","NA"
"2019-01-10 21:00","2019","01","10","21:00","8.2","","7.5","","95","","13","","22","","","M","100.22","","","","","","NA"
"2019-01-10 22:00","2019","01","10","22:00","8.2","","7.5","","95","","13","","16","","","M","100.22","","","","","","NA"
"2019-01-10 23:00","2019","01","10","23:00","8.3","","7.3","","94","","14","","19","","","M","100.21","","","","","","NA"
"2019-01-11 00:00","2019","01","11","00:00","8.4","","7.0","","91","","14","","17","","","M","100.21","","","","","","NA"
"2019-01-11 01:00","2019","01","11","01:00","8.0","","6.8","","92","","14","","27","","","M","100.19","","","","","","NA"
"2019-01-11 02:00","2019","01","11","02:00","7.8","","6.5","","91","","13","","24","","","M","100.21","","","","","","NA"
"2019-01-11 03:00","2019","01","11","03:00","7.6","","6.2","","91","","13","","14","","","M","100.25","","","","","","NA"
"2019-01-11 04:00","2019","01","11","04:00","7.9","","6.5","","91","","13","","12","","","M","100.21","","","","","","NA"
"2019-01-11 05:00","2019","01","11","05:00","7.9","","6.6","","92","","12","","14","","","M","100.19","","","","","","NA"
"2019-01-11 06:00","2019","01","11","06:00","7.6","","6.7","","94","","12","","18","","","M","100.17","","","","","","NA"
"2019-01-11 07:00","2019","01","11","07:00","7.6","","6.5","","93","","11","","17","","","M","100.19","","","","","","NA"
"2019-01-11 08:00","2019","01","11","08:00","7.5","","6.4","","93","","11","","13","","","M","100.25","","","","","","NA"
"2019-01-11 09:00","2019","01","11","09:00","7.5","","6.4","","93","","14","","22","","","M","100.29","","","","","","NA"
"2019-01-11 10:00","2019","01","11","10:00","7.6","","6.5","","93","","13","","21","","","M","100.30","","","","","","NA"
"2019-01-11 11:00","2019","01","11","11:00","8.1","","6.5","","90","","13","","26","","","M","100.30","","","","","","NA"
"2019-01-11 12:00","2019","01","11","12:00","8.7","","6.1","","84","","13","","25","","","M","100.22","","","","","","NA"
"2019-01-11 13:00","2019","01","11","13:00","8.9","","6.1","","83","","13","","20","","","M","100.15","","","","","","NA"
"2019-01-11 14:00","2019","01","11","14:00","9.2","","5.5","","78","","10","","10","","","M","100.16","","","","","","NA"
"2019-01-11 15:00","2019","01","11","15:00","8.4","","6.4","","87","","7","","10","","","M","100.13","","","","","","NA"
"2019-01-11 16:00","2019","01","11","16:00","8.1","","6.1","","87","","7","","14","","","M","100.12","","","","","","NA"
"2019-01-11 17:00","2019","01","11","17:00","6.0","","4.6","","91","","13","","2","","","M","100.10","","","","","","NA"
"2019-01-11 18:00","2019","01","11","18:00","2.8","","2.4","","97","","33","","7","","","M","100.10","","","","","","NA"
"2019-01-11 19:00","2019","01","11","19:00","3.1","","3.0","","99","","31","","7","","","M","100.09","","","","","","NA"
"2019-01-11 20:00","2019","01","11","20:00","3.0","","2.9","","99","","28","","3","","","M","100.08","","","","","","NA"
"2019-01-11 21:00","2019","01","11","21:00","2.8","","2.7","","99","","30","","6","","","M","100.11","","","","","","NA"
"2019-01-11 22:00","2019","01","11","22:00","2.5","","2.4","","99","","26","","3","","","M","100.12","","","","","","NA"
"2019-01-11 23:00","2019","01","11","23:00","2.2","","2.1","","99","","29","","3","","","M","100.11","","","","","","NA"
"2019-01-12 00:00","2019","01","12","00:00","3.1","","3.1","","99","","23","","2","","","M","100.16","","","","","","NA"
"2019-01-12 01:00","2019","01","12","01:00","3.6","","3.5","","99","","31","","2","","","M","100.17","","","","","","NA"
"2019-01-12 02:00","2019","01","12","02:00","4.0","","3.9","","99","","32","","5","","","M","100.17","","","","","","NA"
"2019-01-12 03:00","2019","01","12","03:00","4.3","","4.2","","99","","16","","2","","","M","100.17","","","","","","NA"
"2019-01-12 04:00","2019","01","12","04:00","4.5","","4.4","","99","","27","","4","","","M","100.19","","","","","","NA"
"2019-01-12 05:00","2019","01","12","05:00","4.8","","4.8","","100","","28","","4","","","M","100.18","","","","","","NA"
"2019-01-12 06:00","2019","01","12","06:00","5.0","","4.9","","100","","28","","5","","","M","100.16","","","","","","NA"
"2019-01-12 07:00","2019","01","12","07:00","5.0","","5.0","","100","","28","","4","","","M","100.15","","","","","","NA"
"2019-01-12 08:00","2019","01","12","08:00","5.1","","5.1","","100","","1","","1","","","M","100.16","","","","","","NA"
"2019-01-12 09:00","2019","01","12","09:00","5.3","","5.2","","100","","33","","3","","","M","100.24","","","","","","NA"
"2019-01-12 10:00","2019","01","12","10:00","5.9","","5.9","","100","","22","","1","","","M","100.30","","","","","","NA"
"2019-01-12 11:00","2019","01","12","11:00","6.2","","6.2","","100","","12","","3","","","M","100.32","","","","","","NA"
"2019-01-12 12:00","2019","01","12","12:00","6.5","","6.5","","100","","9","","8","","","M","100.29","","","","","","NA"
"2019-01-12 13:00","2019","01","12","13:00","6.6","","6.5","","99","","7","","7","","","M","100.22","","","","","","NA"
"2019-01-12 14:00","2019","01","12","14:00","7.0","","6.4","","96","","9","","10","","","M","100.22","","","","","","NA"
"2019-01-12 15:00","2019","01","12","15:00","6.8","","6.3","","96","","11","","7","","","M","100.29","","","","","","NA"
"2019-01-12 16:00","2019","01","12","16:00","6.7","","6.3","","97","","10","","4","","","M","100.38","","","","","","NA"
"2019-01-12 17:00","2019","01","12","17:00","6.3","","6.1","","98","","7","","9","","","M","100.39","","","","","","NA"
"2019-01-12 18:00","2019","01","12","18:00","6.2","","5.7","","97","","7","","4","","","M","100.46","","","","","","NA"
"2019-01-12 19:00","2019","01","12","19:00","5.5","","5.0","","97","","16","","4","","","M","100.50","","","","","","NA"
"2019-01-12 20:00","2019","01","12","20:00","5.2","","5.0","","99","","27","","5","","","M","100.55","","","","","","NA"
"2019-01-12 21:00","2019","01","12","21:00","5.0","","4.8","","99","","24","","3","","","M","100.60","","","","","","NA"
"2019-01-12 22:00","2019","01","12","22:00","5.0","","4.9","","99","","27","","4","","","M","100.65","","","","","","NA"
"2019-01-12 23:00","2019","01","12","23:00","5.0","","4.9","","99","","31","","5","","","M","100.73","","","","","","NA"
"2019-01-13 00:00","2019","01","13","00:00","5.2","","5.2","","99","","29","","5","","","M","100.77","","","","","","NA"
"2019-01-13 01:00","2019","01","13","01:00","5.1","","5.0","","99","","32","","2","","","M","100.81","","","","","","NA"
"2019-01-13 02:00","2019","01","13","02:00","5.2","","5.1","","99","","26","","3","","","M","100.85","","","","","","NA"
"2019-01-13 03:00","2019","01","13","03:00","5.2","","5.1","","99","","28","","5","","","M","100.89","","","","","","NA"
"2019-01-13 04:00","2019","01","13","04:00","4.9","","4.7","","99","","30","","5","","","M","100.91","","","","","","NA"
"2019-01-13 05:00","2019","01","13","05:00","4.4","","4.2","","99","","32","","4","","","M","100.92","","","","","","NA"
"2019-01-13 06:00","2019","01","13","06:00","3.8","","3.7","","99","","31","","6","","","M","100.94","","","","","","NA"
"2019-01-13 07:00","2019","01","13","07:00","3.7","","3.6","","99","","31","","5","","","M","100.95","","","","","","NA"
"2019-01-13 08:00","2019","01","13","08:00","2.6","","2.5","","99","","30","","4","","","M","100.98","","","","","","NA"
"2019-01-13 09:00","2019","01","13","09:00","3.1","","3.0","","99","","31","","4","","","M","101.04","","","","","","NA"
"2019-01-13 10:00","2019","01","13","10:00","5.2","","5.2","","100","","32","","9","","","M","101.08","","","","","","NA"
"2019-01-13 11:00","2019","01","13","11:00","8.0","","6.2","","88","","31","","7","","","M","101.04","","","","","","NA"
"2019-01-13 12:00","2019","01","13","12:00","9.3","","5.7","","78","","30","","8","","","M","100.96","","","","","","NA"
"2019-01-13 13:00","2019","01","13","13:00","10.2","","5.2","","71","","34","","7","","","M","100.91","","","","","","NA"
"2019-01-13 14:00","2019","01","13","14:00","10.9","","5.6","","70","","32","","9","","","M","100.87","","","","","","NA"
"2019-01-13 15:00","2019","01","13","15:00","10.2","","5.4","","72","","29","","7","","","M","100.84","","","","","","NA"
"2019-01-13 16:00","2019","01","13","16:00","7.8","","5.7","","87","","29","","5","","","M","100.84","","","","","","NA"
"2019-01-13 17:00","2019","01","13","17:00","4.8","","4.5","","98","","29","","1","","","M","100.84","","","","","","NA"
"2019-01-13 18:00","2019","01","13","18:00","3.3","","3.1","","99","","25","","5","","","M","100.82","","","","","","NA"
"2019-01-13 19:00","2019","01","13","19:00","2.5","","2.4","","99","","27","","4","","","M","100.80","","","","","","NA"
"2019-01-13 20:00","2019","01","13","20:00","0.4","","0.2","","99","","27","","2","","","M","100.80","","","","","","NA"
"2019-01-13 21:00","2019","01","13","21:00","0.9","","0.8","","99","","27","","2","","","M","100.83","","","","","","NA"
"2019-01-13 22:00","2019","01","13","22:00","0.3","","0.2","","99","","28","","4","","","M","100.86","","","","","","NA"
"2019-01-13 23:00","2019","01","13","23:00","-0.9","","-1.1","","99","","30","","3","","","M","100.89","","","","-2","","NA"
"2019-01-14 00:00","2019","01","14","00:00","-1.2","","-1.4","","99","","29","","5","","","M","100.86","","","","-3","","NA"
"2019-01-14 01:00","2019","01","14","01:00","-1.7","","-1.9","","99","","31","","7","","","M","100.84","","","","-4","","NA"
"2019-01-14 02:00","2019","01","14","02:00","-2.4","","-2.6","","98","","29","","5","","","M","100.84","","","","-4","","NA"
"2019-01-14 03:00","2019","01","14","03:00","-1.3","","-1.5","","99","","30","","5","","","M","100.83","","","","-3","","NA"
"2019-01-14 04:00","2019","01","14","04:00","-1.9","","-2.2","","98","","29","","6","","","M","100.79","","","","-4","","NA"
"2019-01-14 05:00","2019","01","14","05:00","-2.5","","-2.7","","98","","27","","3","","","M","100.75","","","","-4","","NA"
"2019-01-14 06:00","2019","01","14","06:00","-3.0","","-3.3","","97","","29","","4","","","M","100.70","","","","-5","","NA"
"2019-01-14 07:00","2019","01","14","07:00","-1.6","","-2.0","","98","","30","","5","","","M","100.67","","","","-3","","NA"
"2019-01-14 08:00","2019","01","14","08:00","-3.2","","-3.7","","97","","32","","3","","","M","100.65","","","","-4","","NA"
"2019-01-14 09:00","2019","01","14","09:00","-2.1","","-2.4","","97","","28","","2","","","M","100.66","","","","-3","","NA"
"2019-01-14 10:00","2019","01","14","10:00","0.4","","0.2","","98","","30","","4","","","M","100.64","","","","","","NA"
"2019-01-14 11:00","2019","01","14","11:00","4.3","","3.9","","98","","33","","7","","","M","100.60","","","","","","NA"
"2019-01-14 12:00","2019","01","14","12:00","6.8","","4.4","","85","","31","","3","","","M","100.50","","","","","","NA"
"2019-01-14 13:00","2019","01","14","13:00","8.7","","4.4","","74","","35","","4","","","M","100.40","","","","","","NA"
"2019-01-14 14:00","2019","01","14","14:00","9.2","","5.0","","75","","13","","6","","","M","100.32","","","","","","NA"
"2019-01-14 15:00","2019","01","14","15:00","8.3","","5.0","","80","","10","","5","","","M","100.28","","","","","","NA"
"2019-01-14 16:00","2019","01","14","16:00","5.9","","4.6","","91","","11","","4","","","M","100.26","","","","","","NA"
"2019-01-14 17:00","2019","01","14","17:00","2.2","","2.0","","98","","0","","1","","","M","100.21","","","","","","NA"
"2019-01-14 18:00","2019","01","14","18:00","0.8","","0.7","","99","","26","","1","","","M","100.20","","","","","","NA"
"2019-01-14 19:00","2019","01","14","19:00","-0.2","","-0.3","","99","","30","","4","","","M","100.19","","","","-1","","NA"
"2019-01-14 20:00","2019","01","14","20:00","-1.0","","-1.2","","99","","28","","3","","","M","100.18","","","","-2","","NA"
"2019-01-14 21:00","2019","01","14","21:00","-2.1","","-2.3","","99","","31","","3","","","M","100.15","","","","-3","","NA"
"2019-01-14 22:00","2019","01","14","22:00","-1.3","","-1.5","","99","","30","","3","","","M","100.14","","","","-2","","NA"
"2019-01-14 23:00","2019","01","14","23:00","-1.5","","-1.7","","99","","28","","1","","","M","100.14","","","","-2","","NA"
"2019-01-15 00:00","2019","01","15","00:00","-1.5","","-1.7","","98","","26","","3","","","M","100.11","","","","-3","","NA"
"2019-01-15 01:00","2019","01","15","01:00","-2.4","","-2.7","","98","","28","","3","","","M","100.06","","","","-4","","NA"
"2019-01-15 02:00","2019","01","15","02:00","-2.5","","-2.8","","98","","26","","3","","","M","100.04","","","","-4","","NA"
"2019-01-15 03:00","2019","01","15","03:00","-2.8","","-3.2","","97","","27","","4","","","M","100.03","","","","-4","","NA"
"2019-01-15 04:00","2019","01","15","04:00","-2.6","","-3.0","","97","","28","","3","","","M","100.00","","","","-4","","NA"
"2019-01-15 05:00","2019","01","15","05:00","-2.1","","-2.4","","98","","32","","3","","","M","99.99","","","","-3","","NA"
"2019-01-15 06:00","2019","01","15","06:00","-3.1","","-3.5","","97","","","","0","","","M","99.98","","","","","","NA"
"2019-01-15 07:00","2019","01","15","07:00","-2.5","","-2.8","","97","","29","","3","","","M","99.97","","","","-4","","NA"
"2019-01-15 08:00","2019","01","15","08:00","-3.7","","-4.2","","96","","32","","3","","","M","99.92","","","","-5","","NA"
"2019-01-15 09:00","2019","01","15","09:00","-2.1","","-2.4","","97","","25","","1","","","M","99.97","","","","-2","","NA"
"2019-01-15 10:00","2019","01","15","10:00","-1.0","","-1.2","","98","","31","","3","","","M","99.99","","","","-2","","NA"
"2019-01-15 11:00","2019","01","15","11:00","-0.1","","-0.3","","99","","26","","3","","","M","100.00","","","","-1","","NA"
"2019-01-15 12:00","2019","01","15","12:00","0.8","","0.7","","99","","27","","4","","","M","99.95","","","","","","NA"
"2019-01-15 13:00","2019","01","15","13:00","0.9","","0.8","","99","","28","","4","","","M","99.89","","","","","","NA"
"2019-01-15 14:00","2019","01","15","14:00","1.4","","1.3","","99","","27","","1","","","M","99.83","","","","","","NA"
"2019-01-15 15:00","2019","01","15","15:00","1.2","","1.1","","99","","1","","3","","","M","99.81","","","","","","NA"
"2019-01-15 16:00","2019","01","15","16:00","1.4","","1.3","","99","","33","","3","","","M","99.77","","","","","","NA"
"2019-01-15 17:00","2019","01","15","17:00","0.8","","0.7","","99","","33","","5","","","M","99.74","","","","","","NA"
"2019-01-15 18:00","2019","01","15","18:00","0.3","","0.2","","100","","30","","7","","","M","99.72","","","","","","NA"
"2019-01-15 19:00","2019","01","15","19:00","0.1","","0.0","","100","","29","","6","","","M","99.70","","","","","","NA"
"2019-01-15 20:00","2019","01","15","20:00","-0.6","","-0.6","","100","","27","","5","","","M","99.67","","","","-2","","NA"
"2019-01-15 21:00","2019","01","15","21:00","-0.9","","-0.9","","100","","26","","3","","","M","99.65","","","","-2","","NA"
"2019-01-15 22:00","2019","01","15","22:00","-1.2","","-1.2","","100","","33","","3","","","M","99.65","","","","-2","","NA"
"2019-01-15 23:00","2019","01","15","23:00","-1.6","","-1.7","","100","","28","","3","","","M","99.64","","","","-3","","NA"
"2019-01-16 00:00","2019","01","16","00:00","-1.2","","-1.3","","99","","28","","4","","","M","99.64","","","","-3","","NA"
"2019-01-16 01:00","2019","01","16","01:00","-0.7","","-0.8","","99","","30","","2","","","M","99.62","","","","-1","","NA"
"2019-01-16 02:00","2019","01","16","02:00","-0.6","","-0.7","","99","","32","","4","","","M","99.63","","","","-2","","NA"
"2019-01-16 03:00","2019","01","16","03:00","-0.5","","-0.6","","99","","29","","3","","","M","99.64","","","","-1","","NA"
"2019-01-16 04:00","2019","01","16","04:00","-0.3","","-0.4","","99","","27","","4","","","M","99.62","","","","-2","","NA"
"2019-01-16 05:00","2019","01","16","05:00","-0.5","","-0.5","","99","","26","","3","","","M","99.62","","","","-1","","NA"
"2019-01-16 06:00","2019","01","16","06:00","-0.3","","-0.4","","100","","31","","4","","","M","99.60","","","","-2","","NA"
"2019-01-16 07:00","2019","01","16","07:00","-0.2","","-0.2","","100","","30","","4","","","M","99.62","","","","-1","","NA"
"2019-01-16 08:00","2019","01","16","08:00","-0.2","","-0.2","","100","","24","","5","","","M","99.63","","","","-2","","NA"
"2019-01-16 09:00","2019","01","16","09:00","0.0","","0.0","","100","","29","","3","","","M","99.64","","","","-1","","NA"
"2019-01-16 10:00","2019","01","16","10:00","0.2","","0.2","","100","","30","","4","","","M","99.66","","","","","","NA"
"2019-01-16 11:00","2019","01","16","11:00","0.4","","0.4","","100","","28","","3","","","M","99.68","","","","","","NA"
"2019-01-16 12:00","2019","01","16","12:00","0.9","","0.9","","100","","25","","4","","","M","99.65","","","","","","NA"
"2019-01-16 13:00","2019","01","16","13:00","1.3","","1.3","","100","","30","","6","","","M","99.57","","","","","","NA"
"2019-01-16 14:00","2019","01","16","14:00","1.8","","1.8","","100","","23","","2","","","M","99.51","","","","","","NA"
"2019-01-16 15:00","2019","01","16","15:00","1.9","","1.9","","100","","8","","4","","","M","99.47","","","","","","NA"
"2019-01-16 16:00","2019","01","16","16:00","1.9","","1.9","","100","","30","","4","","","M","99.43","","","","","","NA"
"2019-01-16 17:00","2019","01","16","17:00","1.6","","1.6","","100","","27","","5","","","M","99.34","","","","","","NA"
"2019-01-16 18:00","2019","01","16","18:00","1.4","","1.4","","100","","31","","3","","","M","99.24","","","","","","NA"
"2019-01-16 19:00","2019","01","16","19:00","1.1","","1.1","","100","","27","","5","","","M","99.14","","","","","","NA"
"2019-01-16 20:00","2019","01","16","20:00","-0.6","","-0.6","","100","","32","","3","","","M","99.05","","","","-2","","NA"
"2019-01-16 21:00","2019","01","16","21:00","-0.5","","-0.5","","100","","30","","5","","","M","98.95","","","","-2","","NA"
"2019-01-16 22:00","2019","01","16","22:00","-0.7","","-0.7","","100","","32","","7","","","M","98.88","","","","-3","","NA"
"2019-01-16 23:00","2019","01","16","23:00","-0.6","","-0.6","","100","","35","","1","","","M","98.82","","","","-1","","NA"
"2019-01-17 00:00","2019","01","17","00:00","-0.4","","-0.4","","100","","31","","2","","","M","98.78","","","","-1","","NA"
"2019-01-17 01:00","2019","01","17","01:00","-0.9","","-1.0","","99","","31","","5","","","M","98.73","","","","-3","","NA"
"2019-01-17 02:00","2019","01","17","02:00","-0.1","","-0.1","","100","","31","","3","","","M","98.71","","","","-1","","NA"
"2019-01-17 03:00","2019","01","17","03:00","0.2","","0.1","","100","","28","","7","","","M","98.66","","","","","","NA"
"2019-01-17 04:00","2019","01","17","04:00","0.4","","0.4","","100","","33","","3","","","M","98.66","","","","","","NA"
"2019-01-17 05:00","2019","01","17","05:00","0.6","","0.6","","100","","31","","4","","","M","98.67","","","","","","NA"
"2019-01-17 06:00","2019","01","17","06:00","2.1","","2.1","","100","","","M","","M","","M","98.64","","","","","","NA"
"2019-01-17 07:00","2019","01","17","07:00","1.2","","1.2","","100","","23","","8","","","M","98.65","","","","","","NA"
"2019-01-17 08:00","2019","01","17","08:00","1.3","","1.3","","100","","26","","7","","","M","98.61","","","","","","NA"
"2019-01-17 09:00","2019","01","17","09:00","1.4","","1.4","","100","","31","","5","","","M","98.60","","","","","","NA"
"2019-01-17 10:00","2019","01","17","10:00","2.2","","2.2","","100","","31","","7","","","M","98.56","","","","","","NA"
"2019-01-17 11:00","2019","01","17","11:00","3.1","","3.0","","100","","2","","9","","","M","98.55","","","","","","NA"
"2019-01-17 12:00","2019","01","17","12:00","3.2","","3.0","","99","","36","","1","","","M","98.51","","","","","","NA"
"2019-01-17 13:00","2019","01","17","13:00","3.6","","3.4","","98","","5","","3","","","M","98.45","","","","","","NA"
"2019-01-17 14:00","2019","01","17","14:00","3.6","","3.3","","98","","11","","7","","","M","98.44","","","","","","NA"
"2019-01-17 15:00","2019","01","17","15:00","3.6","","3.4","","99","","10","","5","","","M","98.47","","","","","","NA"
"2019-01-17 16:00","2019","01","17","16:00","4.1","","4.0","","99","","7","","8","","","M","98.51","","","","","","NA"
"2019-01-17 17:00","2019","01","17","17:00","4.0","","3.9","","99","","3","","5","","","M","98.53","","","","","","NA"
"2019-01-17 18:00","2019","01","17","18:00","4.4","","4.3","","100","","7","","4","","","M","98.56","","","","","","NA"
"2019-01-17 19:00","2019","01","17","19:00","5.1","","5.0","","100","","7","","9","","","M","98.62","","","","","","NA"
"2019-01-17 20:00","2019","01","17","20:00","5.5","","5.4","","100","","10","","11","","","M","98.69","","","","","","NA"
"2019-01-17 21:00","2019","01","17","21:00","6.6","","6.6","","100","","14","","18","","","M","98.78","","","","","","NA"
"2019-01-17 22:00","2019","01","17","22:00","6.7","","6.3","","98","","12","","12","","","M","98.89","","","","","","NA"
"2019-01-17 23:00","2019","01","17","23:00","6.8","","6.4","","98","","13","","17","","","M","99.02","","","","","","NA"
"2019-01-18 00:00","2019","01","18","00:00","7.2","","6.6","","96","","14","","20","","","M","99.17","","","","","","NA"
"2019-01-18 01:00","2019","01","18","01:00","7.2","","6.7","","96","","14","","16","","","M","99.29","","","","","","NA"
"2019-01-18 02:00","2019","01","18","02:00","7.2","","6.7","","96","","14","","12","","","M","99.37","","","","","","NA"
"2019-01-18 03:00","2019","01","18","03:00","6.6","","6.2","","97","","14","","4","","","M","99.51","","","","","","NA"
"2019-01-18 04:00","2019","01","18","04:00","5.4","","5.3","","99","","28","","5","","","M","99.60","","","","","","NA"
"2019-01-18 05:00","2019","01","18","05:00","4.4","","4.3","","99","","25","","8","","","M","99.76","","","","","","NA"
"2019-01-18 06:00","2019","01","18","06:00","3.5","","3.4","","99","","25","","9","","","M","99.81","","","","","","NA"
"2019-01-18 07:00","2019","01","18","07:00","3.4","","3.3","","99","","33","","3","","","M","99.90","","","","","","NA"
"2019-01-18 08:00","2019","01","18","08:00","2.8","","2.7","","99","","21","","1","","","M","99.96","","","","","","NA"
"2019-01-18 09:00","2019","01","18","09:00","3.0","","2.9","","100","","31","","7","","","M","100.06","","","","","","NA"
"2019-01-18 10:00","2019","01","18","10:00","4.5","","4.4","","100","","15","","5","","","M","100.15","","","","","","NA"
"2019-01-18 11:00","2019","01","18","11:00","6.8","","4.7","","87","","3","","2","","","M","100.16","","","","","","NA"
"2019-01-18 12:00","2019","01","18","12:00","8.0","","4.8","","80","","13","","26","","","M","100.14","","","","","","NA"
"2019-01-18 13:00","2019","01","18","13:00","7.9","","5.9","","87","","13","","20","","","M","100.09","","","","","","NA"
"2019-01-18 14:00","2019","01","18","14:00","7.4","","6.1","","91","","12","","21","","","M","99.99","","","","","","NA"
"2019-01-18 15:00","2019","01","18","15:00","7.1","","6.0","","93","","13","","21","","","M","99.90","","","","","","NA"
"2019-01-18 16:00","2019","01","18","16:00","6.8","","5.4","","91","","12","","36","","","M","99.79","","","","","","NA"
"2019-01-18 17:00","2019","01","18","17:00","6.8","","5.1","","89","","13","","29","","","M","99.63","","","","","","NA"
"2019-01-18 18:00","2019","01","18","18:00","6.8","","5.4","","91","","14","","37","","","M","99.54","","","","","","NA"
"2019-01-18 19:00","2019","01","18","19:00","6.6","","5.5","","93","","12","","36","","","M","99.43","","","","","","NA"
"2019-01-18 20:00","2019","01","18","20:00","6.5","","5.6","","94","","12","","43","","","M","99.21","","","","","","NA"
"2019-01-18 21:00","2019","01","18","21:00","6.0","","5.2","","94","","12","","35","","","M","99.12","","","","","","NA"
"2019-01-18 22:00","2019","01","18","22:00","5.9","","4.9","","93","","13","","48","","","M","99.06","","","","","","NA"
"2019-01-18 23:00","2019","01","18","23:00","6.0","","5.3","","95","","13","","49","","","M","98.91","","","","","","NA"
"2019-01-19 00:00","2019","01","19","00:00","6.0","","5.3","","96","","13","","43","","","M","98.83","","","","","","NA"
"2019-01-19 01:00","2019","01","19","01:00","6.4","","5.8","","96","","14","","34","","","M","98.92","","","","","","NA"
"2019-01-19 02:00","2019","01","19","02:00","6.3","","5.7","","96","","14","","27","","","M","99.01","","","","","","NA"
"2019-01-19 03:00","2019","01","19","03:00","6.6","","5.6","","93","","14","","24","","","M","99.22","","","","","","NA"
"2019-01-19 04:00","2019","01","19","04:00","6.3","","4.9","","91","","12","","16","","","M","99.34","","","","","","NA"
"2019-01-19 05:00","2019","01","19","05:00","6.2","","4.8","","91","","16","","14","","","M","99.41","","","","","","NA"
"2019-01-19 06:00","2019","01","19","06:00","6.0","","4.1","","88","","15","","11","","","M","99.56","","","","","","NA"
"2019-01-19 07:00","2019","01","19","07:00","5.1","","3.8","","91","","10","","12","","","M","99.66","","","","","","NA"
"2019-01-19 08:00","2019","01","19","08:00","5.3","","4.0","","91","","14","","10","","","M","99.80","","","","","","NA"
"2019-01-19 09:00","2019","01","19","09:00","4.6","","3.5","","93","","13","","1","","","M","99.96","","","","","","NA"
"2019-01-19 10:00","2019","01","19","10:00","5.2","","4.0","","92","","16","","13","","","M","100.09","","","","","","NA"
"2019-01-19 11:00","2019","01","19","11:00","6.5","","4.7","","88","","1","","4","","","M","100.15","","","","","","NA"
"2019-01-19 12:00","2019","01","19","12:00","6.0","","4.0","","87","","20","","9","","","M","100.21","","","","","","NA"
"2019-01-19 13:00","2019","01","19","13:00","7.0","","4.4","","83","","14","","12","","","M","100.25","","","","","","NA"
"2019-01-19 14:00","2019","01","19","14:00","7.0","","3.0","","76","","21","","3","","","M","100.29","","","","","","NA"
"2019-01-19 15:00","2019","01","19","15:00","7.6","","3.1","","73","","16","","4","","","M","100.35","","","","","","NA"
"2019-01-19 16:00","2019","01","19","16:00","4.5","","4.0","","96","","32","","7","","","M","100.43","","","","","","NA"
"2019-01-19 17:00","2019","01","19","17:00","3.5","","3.2","","98","","18","","5","","","M","100.47","","","","","","NA"
"2019-01-19 18:00","2019","01","19","18:00","1.2","","1.0","","99","","30","","4","","","M","100.51","","","","","","NA"
"2019-01-19 19:00","2019","01","19","19:00","0.8","","0.6","","99","","28","","3","","","M","100.57","","","","","","NA"
"2019-01-19 20:00","2019","01","19","20:00","0.4","","0.3","","99","","27","","8","","","M","100.58","","","","","","NA"
"2019-01-19 21:00","2019","01","19","21:00","0.0","","-0.1","","99","","28","","5","","","M","100.63","","","","-2","","NA"
"2019-01-19 22:00","2019","01","19","22:00","-1.2","","-1.4","","99","","32","","4","","","M","100.68","","","","-3","","NA"
"2019-01-19 23:00","2019","01","19","23:00","-1.0","","-1.1","","99","","32","","6","","","M","100.68","","","","-3","","NA"
"2019-01-20 00:00","2019","01","20","00:00","-0.7","","-0.8","","99","","30","","3","","","M","100.68","","","","-2","","NA"
"2019-01-20 01:00","2019","01","20","01:00","-1.7","","-1.9","","99","","32","","2","","","M","100.67","","","","-2","","NA"
"2019-01-20 02:00","2019","01","20","02:00","-1.0","","-1.2","","99","","27","","4","","","M","100.64","","","","-2","","NA"
"2019-01-20 03:00","2019","01","20","03:00","-2.1","","-2.4","","98","","29","","5","","","M","100.58","","","","-4","","NA"
"2019-01-20 04:00","2019","01","20","04:00","-1.3","","-1.5","","98","","29","","3","","","M","100.52","","","","-2","","NA"
"2019-01-20 05:00","2019","01","20","05:00","-1.8","","-2.1","","98","","26","","4","","","M","100.51","","","","-3","","NA"
"2019-01-20 06:00","2019","01","20","06:00","-0.6","","-0.8","","98","","30","","7","","","M","100.48","","","","-3","","NA"
"2019-01-20 07:00","2019","01","20","07:00","-0.4","","-0.6","","99","","28","","3","","","M","100.44","","","","-1","","NA"
"2019-01-20 08:00","2019","01","20","08:00","0.1","","0.0","","99","","32","","6","","","M","100.38","","","","","","NA"
"2019-01-20 09:00","2019","01","20","09:00","0.9","","0.8","","99","","27","","9","","","M","100.39","","","","","","NA"
"2019-01-20 10:00","2019","01","20","10:00","1.6","","1.4","","99","","29","","10","","","M","100.38","","","","","","NA"
"2019-01-20 11:00","2019","01","20","11:00","3.9","","2.5","","91","","29","","9","","","M","100.33","","","","","","NA"
"2019-01-20 12:00","2019","01","20","12:00","5.9","","2.2","","77","","30","","18","","","M","100.20","","","","","","NA"
"2019-01-20 13:00","2019","01","20","13:00","6.3","","2.0","","74","","32","","23","","","M","100.11","","","","","","NA"
"2019-01-20 14:00","2019","01","20","14:00","6.8","","2.5","","74","","30","","12","","","M","100.05","","","","","","NA"
"2019-01-20 15:00","2019","01","20","15:00","6.8","","2.0","","71","","31","","12","","","M","100.05","","","","","","NA"
"2019-01-20 16:00","2019","01","20","16:00","5.6","","1.7","","76","","28","","8","","","M","100.06","","","","","","NA"
"2019-01-20 17:00","2019","01","20","17:00","3.4","","1.4","","87","","29","","7","","","M","100.08","","","","","","NA"
"2019-01-20 18:00","2019","01","20","18:00","3.4","","0.5","","81","","29","","12","","","M","100.15","","","","","","NA"
"2019-01-20 19:00","2019","01","20","19:00","0.5","","-0.9","","90","","33","","9","","","M","100.17","","","","","","NA"
"2019-01-20 20:00","2019","01","20","20:00","-1.0","","-1.6","","96","","30","","6","","","M","100.25","","","","-3","","NA"
"2019-01-20 21:00","2019","01","20","21:00","2.0","","0.7","","91","","27","","14","","","M","100.30","","","","","","NA"
"2019-01-20 22:00","2019","01","20","22:00","2.0","","-0.6","","83","","27","","9","","","M","100.35","","","","","","NA"
"2019-01-20 23:00","2019","01","20","23:00","1.7","","-0.7","","84","","28","","11","","","M","100.42","","","","","","NA"
"2019-01-21 00:00","2019","01","21","00:00","2.2","","-0.7","","81","","28","","14","","","M","100.47","","","","","","NA"
"2019-01-21 01:00","2019","01","21","01:00","0.0","","-1.0","","92","","29","","8","","","M","100.51","","","","-3","","NA"
"2019-01-21 02:00","2019","01","21","02:00","1.9","","-1.2","","80","","29","","12","","","M","100.57","","","","","","NA"
"2019-01-21 03:00","2019","01","21","03:00","1.1","","-1.3","","84","","26","","11","","","M","100.64","","","","","","NA"
"2019-01-21 04:00","2019","01","21","04:00","0.9","","-1.4","","85","","28","","13","","","M","100.69","","","","","","NA"
"2019-01-21 05:00","2019","01","21","05:00","-0.9","","-2.1","","92","","31","","11","","","M","100.76","","","","-5","","NA"
"2019-01-21 06:00","2019","01","21","06:00","-2.0","","-3.0","","93","","1","","3","","","M","100.80","","","","-3","","NA"
"2019-01-21 07:00","2019","01","21","07:00","-2.3","","-3.0","","95","","0","","1","","","M","100.88","","","","-3","","NA"
"2019-01-21 08:00","2019","01","21","08:00","-2.2","","-2.8","","96","","30","","5","","","M","100.98","","","","-4","","NA"
"2019-01-21 09:00","2019","01","21","09:00","-1.7","","-2.2","","96","","28","","3","","","M","101.09","","","","-3","","NA"
"2019-01-21 10:00","2019","01","21","10:00","0.9","","-1.2","","86","","7","","1","","","M","101.20","","","","","","NA"
"2019-01-21 11:00","2019","01","21","11:00","3.0","","-1.4","","73","","6","","3","","","M","101.31","","","","","","NA"
"2019-01-21 12:00","2019","01","21","12:00","4.4","","-0.7","","70","","10","","9","","","M","101.33","","","","","","NA"
"2019-01-21 13:00","2019","01","21","13:00","4.5","","1.0","","78","","12","","9","","","M","101.33","","","","","","NA"
"2019-01-21 14:00","2019","01","21","14:00","5.0","","1.6","","79","","11","","11","","","M","101.30","","","","","","NA"
"2019-01-21 15:00","2019","01","21","15:00","4.5","","1.8","","83","","10","","9","","","M","101.35","","","","","","NA"
"2019-01-21 16:00","2019","01","21","16:00","4.2","","1.9","","85","","10","","10","","","M","101.38","","","","","","NA"
"2019-01-21 17:00","2019","01","21","17:00","2.7","","1.6","","92","","15","","4","","","M","101.38","","","","","","NA"
"2019-01-21 18:00","2019","01","21","18:00","2.4","","1.2","","92","","15","","5","","","M","101.37","","","","","","NA"
"2019-01-21 19:00","2019","01","21","19:00","2.8","","1.1","","88","","14","","8","","","M","101.37","","","","","","NA"
"2019-01-21 20:00","2019","01","21","20:00","3.4","","1.3","","86","","14","","11","","","M","101.34","","","","","","NA"
"2019-01-21 21:00","2019","01","21","21:00","3.6","","1.3","","85","","11","","19","","","M","101.28","","","","","","NA"
"2019-01-21 22:00","2019","01","21","22:00","4.1","","1.8","","85","","15","","17","","","M","101.25","","","","","","NA"
"2019-01-21 23:00","2019","01","21","23:00","3.8","","2.5","","91","","14","","20","","","M","101.23","","","","","","NA"
"2019-01-22 00:00","2019","01","22","00:00","3.7","","2.9","","94","","13","","16","","","M","101.17","","","","","","NA"
"2019-01-22 01:00","2019","01","22","01:00","4.3","","3.5","","95","","14","","12","","","M","101.17","","","","","","NA"
"2019-01-22 02:00","2019","01","22","02:00","3.9","","3.1","","95","","14","","17","","","M","101.15","","","","","","NA"
"2019-01-22 03:00","2019","01","22","03:00","3.8","","3.1","","95","","14","","13","","","M","101.16","","","","","","NA"
"2019-01-22 04:00","2019","01","22","04:00","3.8","","3.2","","96","","14","","15","","","M","101.14","","","","","","NA"
"2019-01-22 05:00","2019","01","22","05:00","3.9","","3.0","","94","","14","","18","","","M","101.09","","","","","","NA"
"2019-01-22 06:00","2019","01","22","06:00","4.0","","3.2","","95","","13","","16","","","M","101.11","","","","","","NA"
"2019-01-22 07:00","2019","01","22","07:00","4.3","","3.4","","94","","12","","32","","","M","101.06","","","","","","NA"
"2019-01-22 08:00","2019","01","22","08:00","4.3","","3.5","","95","","13","","29","","","M","101.08","","","","","","NA"
"2019-01-22 09:00","2019","01","22","09:00","4.2","","3.4","","95","","13","","24","","","M","101.08","","","","","","NA"
"2019-01-22 10:00","2019","01","22","10:00","4.4","","3.9","","97","","12","","19","","","M","101.06","","","","","","NA"
"2019-01-22 11:00","2019","01","22","11:00","4.5","","4.1","","97","","15","","13","","","M","101.03","","","","","","NA"
"2019-01-22 12:00","2019","01","22","12:00","4.4","","3.9","","97","","15","","11","","","M","100.96","","","","","","NA"
"2019-01-22 13:00","2019","01","22","13:00","4.5","","4.2","","98","","15","","10","","","M","100.87","","","","","","NA"
"2019-01-22 14:00","2019","01","22","14:00","5.1","","4.7","","97","","12","","25","","","M","100.77","","","","","","NA"
"2019-01-22 15:00","2019","01","22","15:00","5.0","","4.5","","96","","11","","21","","","M","100.67","","","","","","NA"
"2019-01-22 16:00","2019","01","22","16:00","4.9","","4.4","","96","","12","","23","","","M","100.54","","","","","","NA"
"2019-01-22 17:00","2019","01","22","17:00","4.9","","4.2","","95","","12","","23","","","M","100.39","","","","","","NA"
"2019-01-22 18:00","2019","01","22","18:00","4.7","","3.9","","94","","12","","29","","","M","100.25","","","","","","NA"
"2019-01-22 19:00","2019","01","22","19:00","4.2","","3.2","","93","","12","","29","","","M","100.21","","","","","","NA"
"2019-01-22 20:00","2019","01","22","20:00","3.6","","2.8","","94","","11","","21","","","M","100.12","","","","","","NA"
"2019-01-22 21:00","2019","01","22","21:00","3.5","","3.1","","97","","12","","18","","","M","99.98","","","","","","NA"
"2019-01-22 22:00","2019","01","22","22:00","3.9","","3.6","","98","","10","","17","","","M","99.93","","","","","","NA"
"2019-01-22 23:00","2019","01","22","23:00","3.2","","2.8","","97","","4","","8","","","M","99.94","","","","","","NA"
"2019-01-23 00:00","2019","01","23","00:00","2.9","","2.5","","97","","34","","14","","","M","100.09","","","","","","NA"
"2019-01-23 01:00","2019","01","23","01:00","2.9","","2.5","","97","","27","","8","","","M","100.16","","","","","","NA"
"2019-01-23 02:00","2019","01","23","02:00","1.7","","1.1","","96","","29","","9","","","M","100.32","","","","","","NA"
"2019-01-23 03:00","2019","01","23","03:00","1.6","","0.8","","95","","26","","12","","","M","100.40","","","","","","NA"
"2019-01-23 04:00","2019","01","23","04:00","1.5","","0.9","","96","","33","","13","","","M","100.47","","","","","","NA"
"2019-01-23 05:00","2019","01","23","05:00","0.6","","0.1","","97","","29","","9","","","M","100.55","","","","","","NA"
"2019-01-23 06:00","2019","01","23","06:00","0.2","","-0.4","","96","","33","","11","","","M","100.70","","","","","","NA"
"2019-01-23 07:00","2019","01","23","07:00","0.6","","-0.4","","93","","33","","10","","","M","100.80","","","","","","NA"
"2019-01-23 08:00","2019","01","23","08:00","0.4","","-0.3","","95","","33","","13","","","M","100.92","","","","","","NA"
"2019-01-23 09:00","2019","01","23","09:00","1.1","","0.3","","95","","17","","3","","","M","101.09","","","","","","NA"
"2019-01-23 10:00","2019","01","23","10:00","3.1","","2.3","","94","","31","","4","","","M","101.23","","","","","","NA"
"2019-01-23 11:00","2019","01","23","11:00","5.5","","2.6","","82","","31","","7","","","M","101.32","","","","","","NA"
"2019-01-23 12:00","2019","01","23","12:00","7.4","","4.1","","80","","32","","7","","","M","101.38","","","","","","NA"
"2019-01-23 13:00","2019","01","23","13:00","7.9","","4.0","","76","","34","","12","","","M","101.40","","","","","","NA"
"2019-01-23 14:00","2019","01","23","14:00","8.4","","3.8","","72","","31","","12","","","M","101.40","","","","","","NA"
"2019-01-23 15:00","2019","01","23","15:00","8.0","","3.4","","72","","30","","12","","","M","101.47","","","","","","NA"
"2019-01-23 16:00","2019","01","23","16:00","7.7","","3.9","","77","","36","","4","","","M","101.54","","","","","","NA"
"2019-01-23 17:00","2019","01","23","17:00","5.8","","4.5","","92","","25","","4","","","M","101.60","","","","","","NA"
"2019-01-23 18:00","2019","01","23","18:00","4.4","","3.9","","97","","29","","5","","","M","101.66","","","","","","NA"
"2019-01-23 19:00","2019","01","23","19:00","5.7","","3.8","","87","","29","","9","","","M","101.68","","","","","","NA"
"2019-01-23 20:00","2019","01","23","20:00","5.4","","3.8","","89","","30","","7","","","M","101.76","","","","","","NA"
"2019-01-23 21:00","2019","01","23","21:00","4.9","","3.7","","92","","30","","4","","","M","101.82","","","","","","NA"
"2019-01-23 22:00","2019","01","23","22:00","4.6","","3.6","","93","","29","","4","","","M","101.86","","","","","","NA"
"2019-01-23 23:00","2019","01","23","23:00","4.4","","3.9","","97","","32","","3","","","M","101.92","","","","","","NA"
"2019-01-24 00:00","2019","01","24","00:00","4.5","","3.8","","95","","32","","3","","","M","101.93","","","","","","NA"
"2019-01-24 01:00","2019","01","24","01:00","4.2","","3.7","","97","","34","","3","","","M","102.00","","","","","","NA"
"2019-01-24 02:00","2019","01","24","02:00","4.4","","4.2","","99","","24","","3","","","M","102.01","","","","","","NA"
"2019-01-24 03:00","2019","01","24","03:00","3.9","","3.8","","99","","25","","4","","","M","102.02","","","","","","NA"
"2019-01-24 04:00","2019","01","24","04:00","3.9","","3.8","","99","","28","","3","","","M","102.00","","","","","","NA"
"2019-01-24 05:00","2019","01","24","05:00","3.7","","3.6","","99","","29","","4","","","M","102.00","","","","","","NA"
"2019-01-24 06:00","2019","01","24","06:00","3.4","","3.3","","99","","30","","4","","","M","102.02","","","","","","NA"
"2019-01-24 07:00","2019","01","24","07:00","3.5","","3.4","","99","","27","","3","","","M","101.95","","","","","","NA"
"2019-01-24 08:00","2019","01","24","08:00","3.5","","3.4","","99","","27","","4","","","M","101.98","","","","","","NA"
"2019-01-24 09:00","2019","01","24","09:00","3.5","","3.3","","99","","27","","4","","","M","102.03","","","","","","NA"
"2019-01-24 10:00","2019","01","24","10:00","3.9","","3.5","","98","","31","","6","","","M","102.02","","","","","","NA"
"2019-01-24 11:00","2019","01","24","11:00","4.1","","3.6","","97","","29","","6","","","M","102.04","","","","","","NA"
"2019-01-24 12:00","2019","01","24","12:00","4.6","","4.4","","99","","33","","4","","","M","102.01","","","","","","NA"
"2019-01-24 13:00","2019","01","24","13:00","5.0","","4.7","","98","","32","","5","","","M","102.01","","","","","","NA"
"2019-01-24 14:00","2019","01","24","14:00","4.9","","4.5","","97","","10","","10","","","M","101.95","","","","","","NA"
"2019-01-24 15:00","2019","01","24","15:00","4.9","","4.6","","98","","8","","9","","","M","101.94","","","","","","NA"
"2019-01-24 16:00","2019","01","24","16:00","4.9","","4.6","","98","","8","","4","","","M","101.98","","","","","","NA"
"2019-01-24 17:00","2019","01","24","17:00","4.8","","4.5","","98","","6","","4","","","M","101.97","","","","","","NA"
"2019-01-24 18:00","2019","01","24","18:00","4.6","","4.5","","99","","22","","2","","","M","101.94","","","","","","NA"
"2019-01-24 19:00","2019","01","24","19:00","4.3","","4.2","","99","","","","0","","","M","101.87","","","","","","NA"
"2019-01-24 20:00","2019","01","24","20:00","4.1","","4.0","","99","","","","0","","","M","101.87","","","","","","NA"
"2019-01-24 21:00","2019","01","24","21:00","4.0","","3.9","","99","","29","","2","","","M","101.83","","","","","","NA"
"2019-01-24 22:00","2019","01","24","22:00","3.8","","3.7","","99","","33","","1","","","M","101.83","","","","","","NA"
"2019-01-24 23:00","2019","01","24","23:00","4.1","","4.0","","99","","26","","2","","","M","101.87","","","","","","NA"
"2019-01-25 00:00","2019","01","25","00:00","3.9","","3.8","","99","","24","","5","","","M","101.88","","","","","","NA"
"2019-01-25 01:00","2019","01","25","01:00","3.3","","3.2","","99","","29","","4","","","M","101.92","","","","","","NA"
"2019-01-25 02:00","2019","01","25","02:00","3.5","","3.4","","99","","30","","5","","","M","101.91","","","","","","NA"
"2019-01-25 03:00","2019","01","25","03:00","3.3","","3.2","","99","","31","","4","","","M","101.92","","","","","","NA"
"2019-01-25 04:00","2019","01","25","04:00","3.1","","3.0","","99","","29","","4","","","M","101.88","","","","","","NA"
"2019-01-25 05:00","2019","01","25","05:00","2.8","","2.7","","99","","28","","3","","","M","101.86","","","","","","NA"
"2019-01-25 06:00","2019","01","25","06:00","2.5","","2.4","","99","","26","","3","","","M","101.86","","","","","","NA"
"2019-01-25 07:00","2019","01","25","07:00","2.8","","2.7","","100","","31","","7","","","M","101.90","","","","","","NA"
"2019-01-25 08:00","2019","01","25","08:00","2.4","","2.4","","99","","6","","5","","","M","101.92","","","","","","NA"
"2019-01-25 09:00","2019","01","25","09:00","2.9","","2.8","","99","","23","","6","","","M","101.97","","","","","","NA"
"2019-01-25 10:00","2019","01","25","10:00","3.7","","3.5","","99","","24","","5","","","M","101.99","","","","","","NA"
"2019-01-25 11:00","2019","01","25","11:00","4.7","","3.6","","93","","24","","3","","","M","102.07","","","","","","NA"
"2019-01-25 12:00","2019","01","25","12:00","5.2","","3.8","","90","","23","","3","","","M","102.06","","","","","","NA"
"2019-01-25 13:00","2019","01","25","13:00","5.3","","3.2","","87","","13","","4","","","M","102.06","","","","","","NA"
"2019-01-25 14:00","2019","01","25","14:00","5.5","","3.6","","88","","9","","4","","","M","102.05","","","","","","NA"
"2019-01-25 15:00","2019","01","25","15:00","5.5","","3.9","","90","","13","","4","","","M","102.05","","","","","","NA"
"2019-01-25 16:00","2019","01","25","16:00","5.3","","3.6","","89","","11","","4","","","M","102.09","","","","","","NA"
"2019-01-25 17:00","2019","01","25","17:00","5.3","","3.4","","88","","10","","3","","","M","102.11","","","","","","NA"
"2019-01-25 18:00","2019","01","25","18:00","4.6","","4.2","","97","","29","","1","","","M","102.14","","","","","","NA"
"2019-01-25 19:00","2019","01","25","19:00","4.2","","4.0","","99","","31","","3","","","M","102.13","","","","","","NA"
"2019-01-25 20:00","2019","01","25","20:00","4.0","","3.8","","99","","29","","3","","","M","102.14","","","","","","NA"
"2019-01-25 21:00","2019","01","25","21:00","4.1","","4.0","","99","","26","","3","","","M","102.16","","","","","","NA"
"2019-01-25 22:00","2019","01","25","22:00","4.2","","4.1","","99","","27","","3","","","M","102.19","","","","","","NA"
"2019-01-25 23:00","2019","01","25","23:00","4.2","","4.1","","99","","23","","3","","","M","102.22","","","","","","NA"
"2019-01-26 00:00","2019","01","26","00:00","4.1","","4.0","","99","","32","","4","","","M","102.24","","","","","","NA"
"2019-01-26 01:00","2019","01","26","01:00","4.0","","3.9","","99","","29","","2","","","M","102.22","","","","","","NA"
"2019-01-26 02:00","2019","01","26","02:00","4.1","","4.0","","99","","33","","4","","","M","102.24","","","","","","NA"
"2019-01-26 03:00","2019","01","26","03:00","4.1","","3.5","","96","","35","","5","","","M","102.26","","","","","","NA"
"2019-01-26 04:00","2019","01","26","04:00","3.7","","3.3","","97","","31","","3","","","M","102.21","","","","","","NA"
"2019-01-26 05:00","2019","01","26","05:00","3.5","","3.1","","97","","26","","4","","","M","102.23","","","","","","NA"
"2019-01-26 06:00","2019","01","26","06:00","3.5","","3.1","","97","","25","","5","","","M","102.23","","","","","","NA"
"2019-01-26 07:00","2019","01","26","07:00","3.3","","3.0","","98","","27","","5","","","M","102.22","","","","","","NA"
"2019-01-26 08:00","2019","01","26","08:00","2.8","","2.6","","98","","25","","4","","","M","102.20","","","","","","NA"
"2019-01-26 09:00","2019","01","26","09:00","2.5","","2.4","","99","","25","","8","","","M","102.20","","","","","","NA"
"2019-01-26 10:00","2019","01","26","10:00","2.9","","2.7","","99","","26","","5","","","M","102.22","","","","","","NA"
"2019-01-26 11:00","2019","01","26","11:00","3.5","","3.2","","98","","24","","5","","","M","102.24","","","","","","NA"
"2019-01-26 12:00","2019","01","26","12:00","4.0","","3.2","","95","","13","","3","","","M","102.19","","","","","","NA"
"2019-01-26 13:00","2019","01","26","13:00","4.0","","3.2","","94","","14","","8","","","M","102.10","","","","","","NA"
"2019-01-26 14:00","2019","01","26","14:00","4.0","","3.4","","96","","12","","6","","","M","102.06","","","","","","NA"
"2019-01-26 15:00","2019","01","26","15:00","4.1","","3.4","","96","","9","","5","","","M","102.02","","","","","","NA"
"2019-01-26 16:00","2019","01","26","16:00","4.1","","3.4","","95","","16","","4","","","M","101.99","","","","","","NA"
"2019-01-26 17:00","2019","01","26","17:00","4.0","","3.5","","97","","6","","3","","","M","101.97","","","","","","NA"
"2019-01-26 18:00","2019","01","26","18:00","3.8","","3.5","","98","","30","","4","","","M","101.97","","","","","","NA"
"2019-01-26 19:00","2019","01","26","19:00","3.6","","3.4","","99","","33","","5","","","M","101.95","","","","","","NA"
"2019-01-26 20:00","2019","01","26","20:00","3.3","","3.1","","99","","28","","5","","","M","101.89","","","","","","NA"
"2019-01-26 21:00","2019","01","26","21:00","3.3","","3.1","","99","","18","","3","","","M","101.84","","","","","","NA"
"2019-01-26 22:00","2019","01","26","22:00","3.1","","3.0","","99","","31","","6","","","M","101.79","","","","","","NA"
"2019-01-26 23:00","2019","01","26","23:00","3.0","","2.9","","99","","26","","3","","","M","101.76","","","","","","NA"
"2019-01-27 00:00","2019","01","27","00:00","3.0","","2.9","","99","","31","","1","","","M","101.70","","","","","","NA"
"2019-01-27 01:00","2019","01","27","01:00","3.0","","2.8","","99","","32","","4","","","M","101.67","","","","","","NA"
"2019-01-27 02:00","2019","01","27","02:00","1.7","","1.5","","99","","25","","1","","","M","101.59","","","","","","NA"
"2019-01-27 03:00","2019","01","27","03:00","1.7","","1.6","","99","","30","","7","","","M","101.66","","","","","","NA"
"2019-01-27 04:00","2019","01","27","04:00","0.5","","0.4","","99","","0","","1","","","M","101.56","","","","","","NA"
"2019-01-27 05:00","2019","01","27","05:00","0.5","","0.4","","99","","23","","4","","","M","101.53","","","","","","NA"
"2019-01-27 06:00","2019","01","27","06:00","-0.3","","-0.5","","99","","30","","5","","","M","101.46","","","","-2","","NA"
"2019-01-27 07:00","2019","01","27","07:00","0.0","","-0.1","","99","","26","","4","","","M","101.44","","","","-1","","NA"
"2019-01-27 08:00","2019","01","27","08:00","0.8","","0.7","","99","","25","","5","","","M","101.50","","","","","","NA"
"2019-01-27 09:00","2019","01","27","09:00","1.8","","1.8","","99","","32","","4","","","M","101.54","","","","","","NA"
"2019-01-27 10:00","2019","01","27","10:00","4.5","","4.5","","100","","24","","5","","","M","101.59","","","","","","NA"
"2019-01-27 11:00","2019","01","27","11:00","6.0","","5.1","","94","","26","","6","","","M","101.61","","","","","","NA"
"2019-01-27 12:00","2019","01","27","12:00","7.2","","5.9","","92","","20","","3","","","M","101.61","","","","","","NA"
"2019-01-27 13:00","2019","01","27","13:00","7.6","","5.5","","86","","1","","4","","","M","101.61","","","","","","NA"
"2019-01-27 14:00","2019","01","27","14:00","8.2","","5.5","","83","","8","","3","","","M","101.61","","","","","","NA"
"2019-01-27 15:00","2019","01","27","15:00","8.0","","5.7","","85","","12","","5","","","M","101.58","","","","","","NA"
"2019-01-27 16:00","2019","01","27","16:00","7.7","","5.7","","87","","8","","4","","","M","101.57","","","","","","NA"
"2019-01-27 17:00","2019","01","27","17:00","7.1","","5.8","","91","","7","","4","","","M","101.54","","","","","","NA"
"2019-01-27 18:00","2019","01","27","18:00","6.4","","5.4","","93","","7","","4","","","M","101.54","","","","","","NA"
"2019-01-27 19:00","2019","01","27","19:00","5.6","","5.2","","97","","12","","2","","","M","101.55","","","","","","NA"
"2019-01-27 20:00","2019","01","27","20:00","3.7","","3.5","","99","","25","","2","","","M","101.60","","","","","","NA"
"2019-01-27 21:00","2019","01","27","21:00","2.9","","2.8","","99","","22","","3","","","M","101.65","","","","","","NA"
"2019-01-27 22:00","2019","01","27","22:00","2.8","","2.7","","99","","27","","2","","","M","101.69","","","","","","NA"
"2019-01-27 23:00","2019","01","27","23:00","3.8","","3.7","","100","","34","","5","","","M","101.72","","","","","","NA"
"2019-01-28 00:00","2019","01","28","00:00","4.0","","4.0","","99","","27","","3","","","M","101.74","","","","","","NA"
"2019-01-28 01:00","2019","01","28","01:00","4.1","","3.9","","99","","25","","4","","","M","101.75","","","","","","NA"
"2019-01-28 02:00","2019","01","28","02:00","4.0","","3.6","","97","","25","","6","","","M","101.78","","","","","","NA"
"2019-01-28 03:00","2019","01","28","03:00","3.8","","3.2","","96","","31","","3","","","M","101.79","","","","","","NA"
"2019-01-28 04:00","2019","01","28","04:00","3.8","","3.4","","97","","27","","4","","","M","101.79","","","","","","NA"
"2019-01-28 05:00","2019","01","28","05:00","3.9","","3.5","","97","","29","","4","","","M","101.78","","","","","","NA"
"2019-01-28 06:00","2019","01","28","06:00","3.9","","3.3","","96","","29","","3","","","M","101.74","","","","","","NA"
"2019-01-28 07:00","2019","01","28","07:00","3.6","","3.2","","97","","27","","3","","","M","101.72","","","","","","NA"
"2019-01-28 08:00","2019","01","28","08:00","3.5","","3.2","","98","","33","","5","","","M","101.69","","","","","","NA"
"2019-01-28 09:00","2019","01","28","09:00","3.7","","3.0","","95","","32","","5","","","M","101.67","","","","","","NA"
"2019-01-28 10:00","2019","01","28","10:00","4.4","","3.4","","93","","29","","5","","","M","101.67","","","","","","NA"
"2019-01-28 11:00","2019","01","28","11:00","5.8","","3.0","","82","","31","","9","","","M","101.61","","","","","","NA"
"2019-01-28 12:00","2019","01","28","12:00","6.6","","3.2","","79","","29","","7","","","M","101.54","","","","","","NA"
"2019-01-28 13:00","2019","01","28","13:00","6.7","","2.9","","76","","27","","4","","","M","101.47","","","","","","NA"
"2019-01-28 14:00","2019","01","28","14:00","7.3","","2.2","","70","","29","","3","","","M","101.40","","","","","","NA"
"2019-01-28 15:00","2019","01","28","15:00","7.6","","1.8","","67","","30","","3","","","M","101.35","","","","","","NA"
"2019-01-28 16:00","2019","01","28","16:00","6.3","","3.6","","83","","32","","1","","","M","101.29","","","","","","NA"
"2019-01-28 17:00","2019","01","28","17:00","3.7","","2.9","","95","","31","","2","","","M","101.26","","","","","","NA"
"2019-01-28 18:00","2019","01","28","18:00","3.0","","2.7","","98","","28","","3","","","M","101.22","","","","","","NA"
"2019-01-28 19:00","2019","01","28","19:00","2.4","","2.2","","98","","28","","3","","","M","101.16","","","","","","NA"
"2019-01-28 20:00","2019","01","28","20:00","0.9","","0.7","","99","","29","","4","","","M","101.14","","","","","","NA"
"2019-01-28 21:00","2019","01","28","21:00","0.1","","0.0","","99","","30","","5","","","M","101.12","","","","","","NA"
"2019-01-28 22:00","2019","01","28","22:00","-0.7","","-0.9","","99","","31","","4","","","M","101.09","","","","-2","","NA"
"2019-01-28 23:00","2019","01","28","23:00","-1.7","","-1.9","","99","","29","","4","","","M","101.08","","","","-3","","NA"
"2019-01-29 00:00","2019","01","29","00:00","-1.2","","-1.3","","99","","29","","3","","","M","101.06","","","","-2","","NA"
"2019-01-29 01:00","2019","01","29","01:00","-1.6","","-1.7","","99","","28","","3","","","M","101.05","","","","-3","","NA"
"2019-01-29 02:00","2019","01","29","02:00","-1.9","","-2.2","","98","","30","","4","","","M","101.04","","","","-3","","NA"
"2019-01-29 03:00","2019","01","29","03:00","-2.7","","-3.0","","98","","31","","5","","","M","101.04","","","","-5","","NA"
"2019-01-29 04:00","2019","01","29","04:00","-2.4","","-2.8","","97","","27","","2","","","M","100.99","","","","-3","","NA"
"2019-01-29 05:00","2019","01","29","05:00","-2.4","","-2.8","","97","","31","","3","","","M","100.98","","","","-4","","NA"
"2019-01-29 06:00","2019","01","29","06:00","-3.2","","-3.8","","96","","30","","5","","","M","100.96","","","","-5","","NA"
"2019-01-29 07:00","2019","01","29","07:00","-2.4","","-2.9","","96","","25","","5","","","M","100.94","","","","-4","","NA"
"2019-01-29 08:00","2019","01","29","08:00","-2.4","","-2.9","","96","","27","","2","","","M","100.93","","","","-3","","NA"
"2019-01-29 09:00","2019","01","29","09:00","-1.4","","-1.9","","97","","30","","5","","","M","100.93","","","","-3","","NA"
"2019-01-29 10:00","2019","01","29","10:00","1.5","","0.7","","95","","","","0","","","M","100.91","","","","","","NA"
"2019-01-29 11:00","2019","01","29","11:00","3.6","","0.8","","82","","10","","6","","","M","100.90","","","","","","NA"
"2019-01-29 12:00","2019","01","29","12:00","3.9","","1.3","","83","","10","","6","","","M","100.87","","","","","","NA"
"2019-01-29 13:00","2019","01","29","13:00","4.5","","1.6","","82","","11","","4","","","M","100.82","","","","","","NA"
"2019-01-29 14:00","2019","01","29","14:00","5.1","","2.4","","83","","7","","7","","","M","100.75","","","","","","NA"
"2019-01-29 15:00","2019","01","29","15:00","4.7","","2.1","","84","","9","","7","","","M","100.71","","","","","","NA"
"2019-01-29 16:00","2019","01","29","16:00","3.7","","1.6","","86","","9","","5","","","M","100.67","","","","","","NA"
"2019-01-29 17:00","2019","01","29","17:00","1.7","","1.0","","95","","15","","3","","","M","100.63","","","","","","NA"
"2019-01-29 18:00","2019","01","29","18:00","0.1","","-0.1","","98","","28","","1","","","M","100.62","","","","","","NA"
"2019-01-29 19:00","2019","01","29","19:00","-0.9","","-1.1","","99","","30","","4","","","M","100.59","","","","-2","","NA"
"2019-01-29 20:00","2019","01","29","20:00","-1.1","","-1.2","","99","","30","","4","","","M","100.57","","","","-2","","NA"
"2019-01-29 21:00","2019","01","29","21:00","-1.9","","-2.0","","99","","31","","4","","","M","100.55","","","","-3","","NA"
"2019-01-29 22:00","2019","01","29","22:00","-1.9","","-2.0","","99","","31","","5","","","M","100.52","","","","-4","","NA"
"2019-01-29 23:00","2019","01","29","23:00","-2.0","","-2.3","","98","","30","","5","","","M","100.49","","","","-4","","NA"
"2019-01-30 00:00","2019","01","30","00:00","-2.2","","-2.6","","98","","19","","2","","","M","100.50","","","","-3","","NA"
"2019-01-30 01:00","2019","01","30","01:00","-1.5","","-1.8","","98","","30","","2","","","M","100.46","","","","-2","","NA"
"2019-01-30 02:00","2019","01","30","02:00","-1.3","","-1.6","","98","","22","","2","","","M","100.45","","","","-2","","NA"
"2019-01-30 03:00","2019","01","30","03:00","-1.1","","-1.4","","98","","32","","4","","","M","100.43","","","","-2","","NA"
"2019-01-30 04:00","2019","01","30","04:00","-1.1","","-1.4","","98","","30","","5","","","M","100.41","","","","-3","","NA"
"2019-01-30 05:00","2019","01","30","05:00","-1.6","","-1.8","","98","","34","","1","","","M","100.39","","","","-2","","NA"
"2019-01-30 06:00","2019","01","30","06:00","-0.8","","-1.0","","98","","30","","3","","","M","100.38","","","","-2","","NA"
"2019-01-30 07:00","2019","01","30","07:00","-0.3","","-0.4","","99","","29","","4","","","M","100.37","","","","-2","","NA"
"2019-01-30 08:00","2019","01","30","08:00","-0.3","","-0.4","","99","","29","","5","","","M","100.37","","","","-2","","NA"
"2019-01-30 09:00","2019","01","30","09:00","0.2","","0.0","","99","","29","","3","","","M","100.37","","","","","","NA"
"2019-01-30 10:00","2019","01","30","10:00","1.9","","1.7","","98","","26","","7","","","M","100.37","","","","","","NA"
"2019-01-30 11:00","2019","01","30","11:00","2.9","","1.8","","92","","26","","2","","","M","100.35","","","","","","NA"
"2019-01-30 12:00","2019","01","30","12:00","3.5","","2.2","","91","","11","","3","","","M","100.33","","","","","","NA"
"2019-01-30 13:00","2019","01","30","13:00","4.2","","2.5","","89","","11","","4","","","M","100.29","","","","","","NA"
"2019-01-30 14:00","2019","01","30","14:00","4.5","","2.8","","88","","13","","4","","","M","100.26","","","","","","NA"
"2019-01-30 15:00","2019","01","30","15:00","4.7","","2.6","","86","","31","","3","","","M","100.27","","","","","","NA"
"2019-01-30 16:00","2019","01","30","16:00","4.8","","3.0","","88","","12","","1","","","M","100.25","","","","","","NA"
"2019-01-30 17:00","2019","01","30","17:00","4.6","","3.4","","92","","19","","1","","","M","100.23","","","","","","NA"
"2019-01-30 18:00","2019","01","30","18:00","3.7","","3.0","","95","","11","","1","","","M","100.19","","","","","","NA"
"2019-01-30 19:00","2019","01","30","19:00","3.4","","2.9","","97","","34","","3","","","M","100.16","","","","","","NA"
"2019-01-30 20:00","2019","01","30","20:00","3.1","","2.7","","97","","32","","4","","","M","100.14","","","","","","NA"
"2019-01-30 21:00","2019","01","30","21:00","3.3","","3.0","","98","","30","","3","","","M","100.12","","","","","","NA"
"2019-01-30 22:00","2019","01","30","22:00","3.4","","3.1","","98","","25","","2","","","M","100.09","","","","","","NA"
"2019-01-30 23:00","2019","01","30","23:00","3.3","","3.0","","98","","2","","2","","","M","100.05","","","","","","NA"
"2019-01-31 00:00","2019","01","31","00:00","3.4","","3.0","","98","","27","","3","","","M","100.02","","","","","","NA"
"2019-01-31 01:00","2019","01","31","01:00","3.4","","2.9","","97","","31","","4","","","M","100.02","","","","","","NA"
"2019-01-31 02:00","2019","01","31","02:00","3.5","","3.1","","98","","22","","3","","","M","99.96","","","","","","NA"
"2019-01-31 03:00","2019","01","31","03:00","3.1","","2.9","","98","","27","","5","","","M","99.95","","","","","","NA"
"2019-01-31 04:00","2019","01","31","04:00","3.2","","3.0","","98","","34","","3","","","M","99.89","","","","","","NA"
"2019-01-31 05:00","2019","01","31","05:00","3.1","","3.0","","99","","27","","2","","","M","99.82","","","","","","NA"
"2019-01-31 06:00","2019","01","31","06:00","2.9","","2.7","","99","","25","","4","","","M","99.77","","","","","","NA"
"2019-01-31 07:00","2019","01","31","07:00","3.0","","2.9","","99","","30","","3","","","M","99.76","","","","","","NA"
"2019-01-31 08:00","2019","01","31","08:00","3.1","","3.0","","99","","0","","1","","","M","99.72","","","","","","NA"
"2019-01-31 09:00","2019","01","31","09:00","3.1","","3.0","","99","","30","","2","","","M","99.74","","","","","","NA"
"2019-01-31 10:00","2019","01","31","10:00","3.8","","3.6","","99","","15","","2","","","M","99.71","","","","","","NA"
"2019-01-31 11:00","2019","01","31","11:00","4.0","","3.4","","95","","32","","8","","","M","99.75","","","","","","NA"
"2019-01-31 12:00","2019","01","31","12:00","4.4","","3.5","","93","","6","","2","","","M","99.70","","","","","","NA"
"2019-01-31 13:00","2019","01","31","13:00","4.8","","3.6","","92","","30","","3","","","M","99.65","","","","","","NA"
"2019-01-31 14:00","2019","01","31","14:00","5.1","","3.8","","91","","3","","1","","","M","99.59","","","","","","NA"
"2019-01-31 15:00","2019","01","31","15:00","5.3","","3.7","","90","","11","","3","","","M","99.56","","","","","","NA"
"2019-01-31 16:00","2019","01","31","16:00","5.2","","3.8","","91","","11","","3","","","M","99.52","","","","","","NA"
"2019-01-31 17:00","2019","01","31","17:00","4.9","","3.8","","92","","13","","7","","","M","99.37","","","","","","NA"
"2019-01-31 18:00","2019","01","31","18:00","4.5","","3.9","","96","","11","","3","","","M","99.27","","","","","","NA"
"2019-01-31 19:00","2019","01","31","19:00","4.2","","3.9","","98","","0","","1","","","M","99.13","","","","","","NA"
"2019-01-31 20:00","2019","01","31","20:00","4.0","","3.8","","99","","0","","1","","","M","99.06","","","","","","NA"
"2019-01-31 21:00","2019","01","31","21:00","4.7","","4.0","","95","","9","","7","","","M","99.02","","","","","","NA"
"2019-01-31 22:00","2019","01","31","22:00","5.0","","4.3","","95","","11","","13","","","M","98.99","","","","","","NA"
"2019-01-31 23:00","2019","01","31","23:00","4.9","","4.4","","96","","11","","10","","","M","98.96","","","","","","NA"
