"Station Name","CAMPBELL RIVER A"
"Province","BRITISH COLUMBIA"
"Latitude","49.95"
"Longitude","-125.27"
"Elevation","108.80"
"Climate Identifier","1021261"
"WMO Identifier",""
"TC Identifier","YBL"
"All times are specified in Local Standard Time (LST). Add 1 hour to adjust for Daylight Saving Time where and when it is observed."

"Legend"
"E","Estimated"
"M","Missing"
"NA","Not Available"

"Date/Time","Year","Month","Day","Time","Temp (°C)","Temp Flag","Dew Point Temp (°C)","Dew Point Temp Flag","Rel Hum (%)","Rel Hum Flag","Wind Dir (10s deg)","Wind Dir Flag","Wind Spd (km/h)","Wind Spd Flag","Visibility (km)","Visibility Flag","Stn Press (kPa)","Stn Press Flag","Hmdx","Hmdx Flag","Wind Chill","Wind Chill Flag","Weather"
"1990-11-01 00:00","1990","11","01","00:00","","","","","","","33","","9","","","","","","","","","","NA"
"1990-11-01 01:00","1990","11","01","01:00","","","","","","","","","0","","","","","","","","","","NA"
"1990-11-01 02:00","1990","11","01","02:00","","","","","","","32","","13","","","","","","","","","","NA"
"1990-11-01 03:00","1990","11","01","03:00","","","","","","","33","","11","","","","","","","","","","NA"
"1990-11-01 04:00","1990","11","01","04:00","","","","","","","33","","22","","","","","","","","","","NA"
"1990-11-01 05:00","1990","11","01","05:00","","","","","","","29","","9","","","","","","","","","","NA"
"1990-11-01 06:00","1990","11","01","06:00","-1.4","","-3.1","","88","","29","","9","","24.1","","101.18","","","","-5","","Clear"
"1990-11-01 07:00","1990","11","01","07:00","0.7","","-1.8","","83","","34","","11","","24.1","","101.25","","","","","","Clear"
"1990-11-01 08:00","1990","11","01","08:00","-0.3","","-1.9","","89","","","","0","","24.1","","101.28","","","","","","Mainly Clear"
"1990-11-01 09:00","1990","11","01","09:00","4.0","","0.4","","77","","33","","7","","24.1","","101.38","","","","","","Mainly Clear"
"1990-11-01 10:00","1990","11","01","10:00","7.0","","1.9","","70","","31","","15","","24.1","","101.45","","","","","","Clear"
"1990-11-01 11:00","1990","11","01","11:00","8.0","","1.7","","65","","31","","22","","24.1","","101.45","","","","","","Mainly Clear"
"1990-11-01 12:00","1990","11","01","12:00","8.8","","1.5","","60","","13","","6","","24.1","","101.45","","","","","","Mainly Clear"
"1990-11-01 13:00","1990","11","01","13:00","9.2","","2.2","","62","","11","","7","","24.1","","101.41","","","","","","Mainly Clear"
"1990-11-01 14:00","1990","11","01","14:00","9.0","","1.7","","60","","12","","9","","24.1","","101.45","","","","","","Mainly Clear"
"1990-11-01 15:00","1990","11","01","15:00","8.6","","0.8","","58","","11","","9","","24.1","","101.41","","","","","","Mainly Clear"
"1990-11-01 16:00","1990","11","01","16:00","8.2","","1.2","","61","","","","0","","24.1","","101.48","","","","","","Mainly Clear"
"1990-11-01 17:00","1990","11","01","17:00","4.2","","1.7","","84","","","","0","","24.1","","101.51","","","","","","Mainly Clear"
"1990-11-01 18:00","1990","11","01","18:00","1.6","","0.3","","91","","32","","4","","24.1","","101.51","","","","","","Mainly Clear"
"1990-11-01 19:00","1990","11","01","19:00","1.4","","0.3","","92","","32","","7","","24.1","","101.51","","","","","","Mainly Clear"
"1990-11-01 20:00","1990","11","01","20:00","1.4","","0.3","","92","","32","","7","","24.1","","101.51","","","","","","Mainly Clear"
"1990-11-01 21:00","1990","11","01","21:00","0.4","","-0.5","","94","","","","0","","24.1","","101.51","","","","","","Mostly Cloudy"
"1990-11-01 22:00","1990","11","01","22:00","","","","","","","32","","4","","","","","","","","","","NA"
"1990-11-01 23:00","1990","11","01","23:00","","","","","","","31","","4","","","","","","","","","","NA"
"1990-11-02 00:00","1990","11","02","00:00","","","","","","","32","","4","","","","","","","","","","NA"
"1990-11-02 01:00","1990","11","02","01:00","","","","","","","32","","4","","","","","","","","","","NA"
"1990-11-02 02:00","1990","11","02","02:00","","","","","","","32","","4","","","","","","","","","","NA"
"1990-11-02 03:00","1990","11","02","03:00","","","","","","","","","0","","","","","","","","","","NA"
"1990-11-02 04:00","1990","11","02","04:00","","","","","","","","","0","","","","","","","","","","NA"
"1990-11-02 05:00","1990","11","02","05:00","","","","","","","","","0","","","","","","","","","","NA"
"1990-11-02 06:00","1990","11","02","06:00","1.7","","1.2","","96","","","","0","","24.1","","101.45","","","","","","Rain"
"1990-11-02 07:00","1990","11","02","07:00","2.1","","1.7","","97","","","","0","","19.3","","101.45","","","","","","Rain"
"1990-11-02 08:00","1990","11","02","08:00","2.4","","1.9","","96","","","","0","","16.1","","101.45","","","","","","Rain"
"1990-11-02 09:00","1990","11","02","09:00","3.0","","2.5","","97","","","","0","","4.8","","101.48","","","","","","Rain,Fog"
"1990-11-02 10:00","1990","11","02","10:00","4.3","","4.0","","98","","10","","6","","2.4","","101.48","","","","","","Rain,Fog"
"1990-11-02 11:00","1990","11","02","11:00","4.9","","4.5","","97","","13","","6","","6.4","","101.48","","","","","","Rain,Fog"
"1990-11-02 12:00","1990","11","02","12:00","5.3","","4.9","","97","","12","","7","","8.0","","101.45","","","","","","Rain,Fog"
"1990-11-02 13:00","1990","11","02","13:00","5.6","","4.5","","93","","13","","11","","19.3","","101.38","","","","","","Rain"
"1990-11-02 14:00","1990","11","02","14:00","5.5","","5.4","","99","","13","","13","","19.3","","101.35","","","","","","Rain"
"1990-11-02 15:00","1990","11","02","15:00","6.0","","5.4","","96","","13","","9","","19.3","","101.35","","","","","","Rain"
"1990-11-02 16:00","1990","11","02","16:00","5.8","","4.8","","93","","13","","15","","12.9","","101.35","","","","","","Rain"
"1990-11-02 17:00","1990","11","02","17:00","5.5","","4.8","","95","","14","","17","","8.0","","101.31","","","","","","Rain"
"1990-11-02 18:00","1990","11","02","18:00","5.4","","4.6","","95","","15","","11","","8.0","","101.31","","","","","","Rain"
"1990-11-02 19:00","1990","11","02","19:00","5.5","","4.8","","95","","14","","9","","8.0","","101.31","","","","","","Rain,Fog"
"1990-11-02 20:00","1990","11","02","20:00","5.3","","4.5","","95","","14","","15","","6.4","","101.28","","","","","","Rain,Fog"
"1990-11-02 21:00","1990","11","02","21:00","5.3","","4.5","","95","","13","","19","","8.0","","101.28","","","","","","Rain,Fog"
"1990-11-02 22:00","1990","11","02","22:00","","","","","","","15","","17","","","","","","","","","","NA"
"1990-11-02 23:00","1990","11","02","23:00","","","","","","","15","","15","","","","","","","","","","NA"
"1990-11-03 00:00","1990","11","03","00:00","","","","","","","15","","17","","","","","","","","","","NA"
"1990-11-03 01:00","1990","11","03","01:00","","","","","","","14","","19","","","","","","","","","","NA"
"1990-11-03 02:00","1990","11","03","02:00","","","","","","","14","","19","","","","","","","","","","NA"
"1990-11-03 03:00","1990","11","03","03:00","","","","","","","14","","24","","","","","","","","","","NA"
"1990-11-03 04:00","1990","11","03","04:00","","","","","","","14","","22","","","","","","","","","","NA"
"1990-11-03 05:00","1990","11","03","05:00","","","","","","","14","","24","","","","","","","","","","NA"
"1990-11-03 06:00","1990","11","03","06:00","5.1","","4.0","","93","","15","","26","","16.1","","100.74","","","","","","Rain"
"1990-11-03 07:00","1990","11","03","07:00","5.4","","4.4","","93","","14","","24","","9.7","","100.71","","","","","","Rain,Fog"
"1990-11-03 08:00","1990","11","03","08:00","5.5","","4.7","","95","","13","","24","","8.0","","100.74","","","","","","Rain,Fog"
"1990-11-03 09:00","1990","11","03","09:00","5.7","","4.8","","94","","15","","13","","4.8","","100.74","","","","","","Rain,Fog"
"1990-11-03 10:00","1990","11","03","10:00","5.6","","5.0","","96","","13","","6","","3.2","","100.71","","","","","","Rain,Fog"
"1990-11-03 11:00","1990","11","03","11:00","5.9","","5.4","","97","","20","","6","","4.0","","100.78","","","","","","Fog"
"1990-11-03 12:00","1990","11","03","12:00","6.0","","5.3","","95","","","","0","","6.4","","100.78","","","","","","Fog"
"1990-11-03 13:00","1990","11","03","13:00","6.3","","5.5","","95","","","","0","","2.4","","100.81","","","","","","Drizzle,Fog"
"1990-11-03 14:00","1990","11","03","14:00","6.2","","5.8","","97","","","","0","","1.6","","100.81","","","","","","Drizzle,Fog"
"1990-11-03 15:00","1990","11","03","15:00","6.1","","5.7","","97","","13","","6","","1.6","","100.78","","","","","","Drizzle,Fog"
"1990-11-03 16:00","1990","11","03","16:00","6.0","","5.7","","98","","10","","6","","1.6","","100.81","","","","","","Drizzle,Fog"
"1990-11-03 17:00","1990","11","03","17:00","6.0","","5.8","","98","","","","0","","1.6","","100.81","","","","","","Drizzle,Fog"
"1990-11-03 18:00","1990","11","03","18:00","6.0","","5.8","","98","","","","0","","1.6","","100.81","","","","","","Drizzle,Fog"
"1990-11-03 19:00","1990","11","03","19:00","6.1","","5.8","","98","","","","0","","1.6","","100.81","","","","","","Drizzle,Fog"
"1990-11-03 20:00","1990","11","03","20:00","6.0","","5.8","","98","","","","0","","1.6","","100.81","","","","","","Drizzle,Fog"
"1990-11-03 21:00","1990","11","03","21:00","6.1","","5.8","","98","","","","0","","1.6","","100.81","","","","","","Drizzle,Fog"
"1990-11-03 22:00","1990","11","03","22:00","","","","","","","","","0","","","","","","","","","","NA"
"1990-11-03 23:00","1990","11","03","23:00","","","","","","","","","0","","","","","","","","","","NA"
"1990-11-04 00:00","1990","11","04","00:00","","","","","","","","","0","","","","","","","","","","NA"
"1990-11-04 01:00","1990","11","04","01:00","","","","","","","","","0","","","","","","","","","","NA"
"1990-11-04 02:00","1990","11","04","02:00","","","","","","","","","0","","","","","","","","","","NA"
"1990-11-04 03:00","1990","11","04","03:00","","","","","","","","","0","","","","","","","","","","NA"
"1990-11-04 04:00","1990","11","04","04:00","","","","","","","","","0","","","","","","","","","","NA"
"1990-11-04 05:00","1990","11","04","05:00","","","","","","","","","0","","","","","","","","","","NA"
"1990-11-04 06:00","1990","11","04","06:00","6.0","","5.6","","97","","","","0","","6.4","","100.44","","","","","","Rain Showers,Fog"
"1990-11-04 07:00","1990","11","04","07:00","5.6","","5.4","","98","","","","0","","19.3","","100.41","","","","","","Mostly Cloudy"
"1990-11-04 08:00","1990","11","04","08:00","4.9","","4.6","","98","","31","","4","","24.1","","100.44","","","","","","Mainly Clear"
"1990-11-04 09:00","1990","11","04","09:00","6.9","","6.1","","95","","","","0","","24.1","","100.44","","","","","","Mainly Clear"
"1990-11-04 10:00","1990","11","04","10:00","8.1","","7.3","","94","","34","","9","","24.1","","100.51","","","","","","Mainly Clear"
"1990-11-04 11:00","1990","11","04","11:00","8.8","","6.6","","86","","3","","9","","24.1","","100.51","","","","","","Mainly Clear"
"1990-11-04 12:00","1990","11","04","12:00","8.9","","7.4","","90","","7","","7","","24.1","","100.51","","","","","","Mostly Cloudy"
"1990-11-04 13:00","1990","11","04","13:00","9.9","","6.7","","81","","30","","11","","24.1","","100.51","","","","","","Mainly Clear"
"1990-11-04 14:00","1990","11","04","14:00","10.1","","6.7","","79","","34","","11","","24.1","","100.51","","","","","","Mostly Cloudy"
"1990-11-04 15:00","1990","11","04","15:00","8.9","","7.7","","92","","3","","7","","24.1","","100.54","","","","","","Mostly Cloudy"
"1990-11-04 16:00","1990","11","04","16:00","10.2","","6.1","","76","","31","","15","","24.1","","100.54","","","","","","Mainly Clear"
"1990-11-04 17:00","1990","11","04","17:00","7.1","","5.6","","90","","30","","11","","24.1","","100.61","","","","","","Mostly Cloudy"
"1990-11-04 18:00","1990","11","04","18:00","6.4","","4.2","","86","","30","","7","","24.1","","100.64","","","","","","Mainly Clear"
"1990-11-04 19:00","1990","11","04","19:00","5.0","","3.9","","93","","32","","11","","24.1","","100.68","","","","","","Mainly Clear"
"1990-11-04 20:00","1990","11","04","20:00","3.3","","2.4","","94","","","","0","","24.1","","100.71","","","","","","Mainly Clear"
"1990-11-04 21:00","1990","11","04","21:00","3.5","","2.8","","95","","31","","9","","24.1","","100.74","","","","","","Clear"
"1990-11-04 22:00","1990","11","04","22:00","","","","","","","34","","9","","","","","","","","","","NA"
"1990-11-04 23:00","1990","11","04","23:00","","","","","","","","","0","","","","","","","","","","NA"
"1990-11-05 00:00","1990","11","05","00:00","","","","","","","","","0","","","","","","","","","","NA"
"1990-11-05 01:00","1990","11","05","01:00","","","","","","","32","","4","","","","","","","","","","NA"
"1990-11-05 02:00","1990","11","05","02:00","","","","","","","","","0","","","","","","","","","","NA"
"1990-11-05 03:00","1990","11","05","03:00","","","","","","","","","0","","","","","","","","","","NA"
"1990-11-05 04:00","1990","11","05","04:00","","","","","","","32","","4","","","","","","","","","","NA"
"1990-11-05 05:00","1990","11","05","05:00","","","","","","","31","","4","","","","","","","","","","NA"
"1990-11-05 06:00","1990","11","05","06:00","2.6","","2.1","","96","","31","","7","","24.1","","100.98","","","","","","Mostly Cloudy"
"1990-11-05 07:00","1990","11","05","07:00","3.7","","3.0","","95","","31","","7","","24.1","","101.04","","","","","","Mostly Cloudy"
"1990-11-05 08:00","1990","11","05","08:00","3.6","","3.0","","96","","","","0","","24.1","","101.15","","","","","","Mostly Cloudy"
"1990-11-05 09:00","1990","11","05","09:00","5.2","","3.9","","91","","30","","7","","24.1","","101.25","","","","","","Mainly Clear"
"1990-11-05 10:00","1990","11","05","10:00","7.6","","3.9","","77","","31","","9","","24.1","","101.25","","","","","","Mainly Clear"
"1990-11-05 11:00","1990","11","05","11:00","8.2","","3.4","","72","","31","","15","","24.1","","101.28","","","","","","Mainly Clear"
"1990-11-05 12:00","1990","11","05","12:00","9.4","","3.3","","66","","32","","17","","24.1","","101.28","","","","","","Mainly Clear"
"1990-11-05 13:00","1990","11","05","13:00","10.2","","3.6","","64","","31","","17","","24.1","","101.25","","","","","","Mainly Clear"
"1990-11-05 14:00","1990","11","05","14:00","10.1","","3.9","","65","","1","","9","","24.1","","101.31","","","","","","Mainly Clear"
"1990-11-05 15:00","1990","11","05","15:00","10.1","","3.9","","65","","33","","9","","24.1","","101.35","","","","","","Clear"
"1990-11-05 16:00","1990","11","05","16:00","9.4","","4.8","","73","","35","","6","","24.1","","101.38","","","","","","Clear"
"1990-11-05 17:00","1990","11","05","17:00","5.3","","3.9","","91","","31","","6","","24.1","","101.45","","","","","","Clear"
"1990-11-05 18:00","1990","11","05","18:00","4.2","","3.0","","92","","31","","6","","24.1","","101.48","","","","","","Clear"
"1990-11-05 19:00","1990","11","05","19:00","3.1","","1.7","","91","","32","","4","","24.1","","101.51","","","","","","Clear"
"1990-11-05 20:00","1990","11","05","20:00","2.0","","0.9","","92","","31","","6","","24.1","","101.58","","","","","","Clear"
"1990-11-05 21:00","1990","11","05","21:00","0.8","","-0.2","","93","","34","","6","","24.1","","101.65","","","","","","Clear"
"1990-11-05 22:00","1990","11","05","22:00","","","","","","","34","","4","","","","","","","","","","NA"
"1990-11-05 23:00","1990","11","05","23:00","","","","","","","31","","6","","","","","","","","","","NA"
"1990-11-06 00:00","1990","11","06","00:00","","","","","","","31","","6","","","","","","","","","","NA"
"1990-11-06 01:00","1990","11","06","01:00","","","","","","","31","","4","","","","","","","","","","NA"
"1990-11-06 02:00","1990","11","06","02:00","","","","","","","30","","4","","","","","","","","","","NA"
"1990-11-06 03:00","1990","11","06","03:00","","","","","","","31","","4","","","","","","","","","","NA"
"1990-11-06 04:00","1990","11","06","04:00","","","","","","","30","","6","","","","","","","","","","NA"
"1990-11-06 05:00","1990","11","06","05:00","","","","","","","31","","4","","","","","","","","","","NA"
"1990-11-06 06:00","1990","11","06","06:00","0.8","","0.4","","97","","31","","6","","12.9","","101.61","","","","","","Cloudy"
"1990-11-06 07:00","1990","11","06","07:00","1.2","","0.7","","96","","","","0","","12.9","","101.61","","","","","","Cloudy"
"1990-11-06 08:00","1990","11","06","08:00","1.8","","1.1","","95","","31","","4","","12.9","","101.65","","","","","","Rain"
"1990-11-06 09:00","1990","11","06","09:00","3.0","","2.7","","98","","","","0","","19.3","","101.58","","","","","","Cloudy"
"1990-11-06 10:00","1990","11","06","10:00","4.7","","3.8","","94","","13","","11","","19.3","","101.48","","","","","","Cloudy"
"1990-11-06 11:00","1990","11","06","11:00","5.8","","3.6","","86","","12","","22","","19.3","","101.45","","","","","","Cloudy"
"1990-11-06 12:00","1990","11","06","12:00","6.6","","3.1","","78","","12","","22","","19.3","","101.35","","","","","","Cloudy"
"1990-11-06 13:00","1990","11","06","13:00","6.4","","3.6","","82","","13","","26","","19.3","","101.18","","","","","","Cloudy"
"1990-11-06 14:00","1990","11","06","14:00","6.4","","4.1","","85","","13","","26","","19.3","","101.11","","","","","","Cloudy"
"1990-11-06 15:00","1990","11","06","15:00","6.5","","4.7","","88","","15","","30","","19.3","","101.04","","","","","","Rain"
"1990-11-06 16:00","1990","11","06","16:00","5.9","","5.1","","95","","14","","30","","8.0","","100.94","","","","","","Rain,Fog"
"1990-11-06 17:00","1990","11","06","17:00","5.8","","4.7","","93","","14","","22","","8.0","","100.81","","","","","","Rain,Fog"
"1990-11-06 18:00","1990","11","06","18:00","5.9","","4.9","","93","","15","","28","","8.0","","100.71","","","","","","Rain,Fog"
"1990-11-06 19:00","1990","11","06","19:00","6.0","","5.1","","94","","14","","30","","8.0","","100.64","","","","","","Rain,Fog"
"1990-11-06 20:00","1990","11","06","20:00","5.9","","5.3","","96","","13","","26","","6.4","","100.54","","","","","","Rain,Fog"
"1990-11-06 21:00","1990","11","06","21:00","5.7","","4.9","","94","","15","","28","","6.4","","100.44","","","","","","Rain,Fog"
"1990-11-06 22:00","1990","11","06","22:00","","","","","","","15","","26","","","","","","","","","","NA"
"1990-11-06 23:00","1990","11","06","23:00","","","","","","","13","","17","","","","","","","","","","NA"
"1990-11-07 00:00","1990","11","07","00:00","","","","","","","13","","13","","","","","","","","","","NA"
"1990-11-07 01:00","1990","11","07","01:00","","","","","","","12","","4","","","","","","","","","","NA"
"1990-11-07 02:00","1990","11","07","02:00","","","","","","","","","0","","","","","","","","","","NA"
"1990-11-07 03:00","1990","11","07","03:00","","","","","","","","","0","","","","","","","","","","NA"
"1990-11-07 04:00","1990","11","07","04:00","","","","","","","","","0","","","","","","","","","","NA"
"1990-11-07 05:00","1990","11","07","05:00","","","","","","","","","0","","","","","","","","","","NA"
"1990-11-07 06:00","1990","11","07","06:00","4.6","","4.3","","98","","","","0","","1.6","","100.24","","","","","","Rain,Fog"
"1990-11-07 07:00","1990","11","07","07:00","4.8","","4.2","","96","","","","0","","9.7","","100.31","","","","","","Rain,Fog"
"1990-11-07 08:00","1990","11","07","08:00","4.8","","4.2","","96","","","","0","","4.8","","100.34","","","","","","Rain,Fog"
"1990-11-07 09:00","1990","11","07","09:00","5.0","","4.5","","97","","","","0","","8.0","","100.34","","","","","","Fog"
"1990-11-07 10:00","1990","11","07","10:00","6.0","","5.1","","94","","14","","30","","8.0","","100.64","","","","","","Rain,Fog"
"1990-11-07 11:00","1990","11","07","11:00","6.2","","5.6","","96","","","","0","","12.9","","100.41","","","","","","Cloudy"
"1990-11-07 12:00","1990","11","07","12:00","6.5","","6.0","","97","","","","0","","8.0","","100.37","","","","","","Fog"
"1990-11-07 13:00","1990","11","07","13:00","8.2","","5.8","","85","","","","0","","6.4","","100.41","","","","","","Fog"
"1990-11-07 14:00","1990","11","07","14:00","7.4","","5.8","","90","","15","","7","","8.0","","100.31","","","","","","Fog"
"1990-11-07 15:00","1990","11","07","15:00","7.4","","6.2","","92","","","","0","","19.3","","100.31","","","","","","Cloudy"
"1990-11-07 16:00","1990","11","07","16:00","7.1","","6.5","","96","","4","","4","","16.1","","100.31","","","","","","Mostly Cloudy"
"1990-11-07 17:00","1990","11","07","17:00","6.3","","5.9","","97","","","","0","","16.1","","100.34","","","","","","Mostly Cloudy"
"1990-11-07 18:00","1990","11","07","18:00","5.3","","5.1","","99","","","","0","","8.0","","100.34","","","","","","Fog"
"1990-11-07 19:00","1990","11","07","19:00","4.4","","4.1","","98","","","","0","","4.8","","100.34","","","","","","Fog"
"1990-11-07 20:00","1990","11","07","20:00","3.1","","2.5","","96","","32","","9","","1.2","","100.34","","","","","","Fog"
"1990-11-07 21:00","1990","11","07","21:00","3.4","","3.0","","97","","31","","7","","4.8","","100.44","","","","","","Fog"
"1990-11-07 22:00","1990","11","07","22:00","","","","","","","31","","4","","","","","","","","","","NA"
"1990-11-07 23:00","1990","11","07","23:00","","","","","","","30","","6","","","","","","","","","","NA"
"1990-11-08 00:00","1990","11","08","00:00","","","","","","","31","","7","","","","","","","","","","NA"
"1990-11-08 01:00","1990","11","08","01:00","","","","","","","31","","15","","","","","","","","","","NA"
"1990-11-08 02:00","1990","11","08","02:00","","","","","","","31","","13","","","","","","","","","","NA"
"1990-11-08 03:00","1990","11","08","03:00","","","","","","","31","","15","","","","","","","","","","NA"
"1990-11-08 04:00","1990","11","08","04:00","","","","","","","","","0","","","","","","","","","","NA"
"1990-11-08 05:00","1990","11","08","05:00","","","","","","","","","0","","","","","","","","","","NA"
"1990-11-08 06:00","1990","11","08","06:00","1.8","","1.3","","96","","","","0","","24.1","","100.88","","","","","","Mostly Cloudy"
"1990-11-08 07:00","1990","11","08","07:00","2.0","","1.4","","96","","29","","4","","24.1","","100.94","","","","","","Mostly Cloudy"
"1990-11-08 08:00","1990","11","08","08:00","2.0","","1.2","","95","","27","","6","","24.1","","100.94","","","","","","Mostly Cloudy"
"1990-11-08 09:00","1990","11","08","09:00","3.2","","1.8","","90","","32","","6","","24.1","","101.01","","","","","","Mostly Cloudy"
"1990-11-08 10:00","1990","11","08","10:00","4.6","","3.0","","89","","30","","4","","24.1","","100.98","","","","","","Cloudy"
"1990-11-08 11:00","1990","11","08","11:00","5.6","","2.7","","82","","","","0","","24.1","","100.98","","","","","","Cloudy"
"1990-11-08 12:00","1990","11","08","12:00","6.6","","3.0","","78","","","","0","","24.1","","100.98","","","","","","Cloudy"
"1990-11-08 13:00","1990","11","08","13:00","6.2","","2.2","","76","","12","","6","","24.1","","100.91","","","","","","Cloudy"
"1990-11-08 14:00","1990","11","08","14:00","5.5","","3.5","","87","","","","0","","24.1","","100.84","","","","","","Rain"
"1990-11-08 15:00","1990","11","08","15:00","4.7","","2.8","","87","","11","","6","","19.3","","100.78","","","","","","Rain"
"1990-11-08 16:00","1990","11","08","16:00","4.3","","3.2","","93","","","","0","","16.1","","100.64","","","","","","Rain"
"1990-11-08 17:00","1990","11","08","17:00","4.4","","3.2","","92","","14","","15","","8.0","","100.51","","","","","","Rain,Fog"
"1990-11-08 18:00","1990","11","08","18:00","3.9","","2.8","","92","","14","","19","","6.4","","100.31","","","","","","Rain,Fog"
"1990-11-08 19:00","1990","11","08","19:00","3.5","","2.3","","92","","17","","22","","4.8","","100.14","","","","","","Moderate Rain,Fog"
"1990-11-08 20:00","1990","11","08","20:00","0.8","","-0.1","","94","","15","","17","","2.0","","100.04","","","","","","Moderate Rain,Snow"
"1990-11-08 21:00","1990","11","08","21:00","0.5","","-0.2","","95","","13","","4","","2.0","","99.94","","","","","","Rain,Snow"
"1990-11-08 22:00","1990","11","08","22:00","","","","","","","","","0","","","","","","","","","","NA"
"1990-11-08 23:00","1990","11","08","23:00","","","","","","","","","0","","","","","","","","","","NA"
"1990-11-09 00:00","1990","11","09","00:00","","","","","","","33","","6","","","","","","","","","","NA"
"1990-11-09 01:00","1990","11","09","01:00","","","","","","","33","","7","","","","","","","","","","NA"
"1990-11-09 02:00","1990","11","09","02:00","","","","","","","34","","4","","","","","","","","","","NA"
"1990-11-09 03:00","1990","11","09","03:00","","","","","","","33","","6","","","","","","","","","","NA"
"1990-11-09 04:00","1990","11","09","04:00","","","","","","","","","0","","","","","","","","","","NA"
"1990-11-09 05:00","1990","11","09","05:00","","","","","","","","","0","","","","","","","","","","NA"
"1990-11-09 06:00","1990","11","09","06:00","0.9","","-4.3","","68","","","","0","","12.9","","99.74","","","","","","Cloudy"
"1990-11-09 07:00","1990","11","09","07:00","1.0","","0.4","","96","","","","0","","19.3","","99.74","","","","","","Cloudy"
"1990-11-09 08:00","1990","11","09","08:00","1.2","","0.6","","96","","30","","6","","12.9","","99.84","","","","","","Rain"
"1990-11-09 09:00","1990","11","09","09:00","1.6","","0.6","","93","","","","0","","12.9","","99.87","","","","","","Rain"
"1990-11-09 10:00","1990","11","09","10:00","2.2","","1.7","","96","","32","","4","","12.9","","99.87","","","","","","Rain"
"1990-11-09 11:00","1990","11","09","11:00","2.5","","2.2","","98","","31","","6","","12.9","","99.94","","","","","","Rain"
"1990-11-09 12:00","1990","11","09","12:00","3.2","","2.5","","95","","29","","6","","16.1","","99.94","","","","","","Rain"
"1990-11-09 13:00","1990","11","09","13:00","3.7","","3.1","","96","","29","","7","","16.1","","99.97","","","","","","Rain"
"1990-11-09 14:00","1990","11","09","14:00","4.0","","3.3","","95","","33","","6","","16.1","","100.01","","","","","","Rain"
"1990-11-09 15:00","1990","11","09","15:00","4.4","","3.5","","94","","30","","6","","16.1","","99.97","","","","","","Rain"
"1990-11-09 16:00","1990","11","09","16:00","4.0","","3.5","","97","","31","","7","","11.3","","99.97","","","","","","Rain"
"1990-11-09 17:00","1990","11","09","17:00","4.2","","3.6","","96","","31","","7","","16.1","","100.11","","","","","","Rain"
"1990-11-09 18:00","1990","11","09","18:00","4.3","","3.8","","97","","32","","6","","16.1","","100.07","","","","","","Rain"
"1990-11-09 19:00","1990","11","09","19:00","4.1","","3.9","","98","","28","","6","","16.1","","100.04","","","","","","Rain"
"1990-11-09 20:00","1990","11","09","20:00","4.2","","3.9","","98","","","","0","","24.1","","100.07","","","","","","Cloudy"
"1990-11-09 21:00","1990","11","09","21:00","3.8","","3.4","","97","","","","0","","24.1","","100.04","","","","","","Cloudy"
"1990-11-09 22:00","1990","11","09","22:00","","","","","","","","","0","","","","","","","","","","NA"
"1990-11-09 23:00","1990","11","09","23:00","","","","","","","","","0","","","","","","","","","","NA"
"1990-11-10 00:00","1990","11","10","00:00","","","","","","","","","0","","","","","","","","","","NA"
"1990-11-10 01:00","1990","11","10","01:00","","","","","","","","","0","","","","","","","","","","NA"
"1990-11-10 02:00","1990","11","10","02:00","","","","","","","","","0","","","","","","","","","","NA"
"1990-11-10 03:00","1990","11","10","03:00","","","","","","","","","0","","","","","","","","","","NA"
"1990-11-10 04:00","1990","11","10","04:00","","","","","","","","","0","","","","","","","","","","NA"
"1990-11-10 05:00","1990","11","10","05:00","","","","","","","","","0","","","","","","","","","","NA"
"1990-11-10 06:00","1990","11","10","06:00","4.0","","3.7","","98","","","","0","","4.8","","99.90","","","","","","Rain,Fog"
"1990-11-10 07:00","1990","11","10","07:00","4.1","","3.7","","97","","","","0","","4.8","","99.87","","","","","","Rain,Fog"
"1990-11-10 08:00","1990","11","10","08:00","4.1","","4.1","","100","","","","0","","4.8","","99.87","","","","","","Rain,Fog"
"1990-11-10 09:00","1990","11","10","09:00","4.2","","4.2","","100","","","","0","","3.2","","99.90","","","","","","Rain,Fog"
"1990-11-10 10:00","1990","11","10","10:00","4.9","","4.6","","98","","","","0","","3.2","","99.90","","","","","","Rain,Fog"
"1990-11-10 11:00","1990","11","10","11:00","5.5","","4.8","","95","","31","","4","","3.2","","99.94","","","","","","Rain,Fog"
"1990-11-10 12:00","1990","11","10","12:00","5.9","","5.1","","95","","","","0","","3.2","","99.94","","","","","","Rain,Fog"
"1990-11-10 13:00","1990","11","10","13:00","5.9","","5.4","","97","","","","0","","3.2","","99.87","","","","","","Rain,Fog"
"1990-11-10 14:00","1990","11","10","14:00","6.0","","5.9","","99","","","","0","","1.6","","99.87","","","","","","Rain,Fog"
"1990-11-10 15:00","1990","11","10","15:00","6.1","","6.0","","99","","","","0","","2.4","","99.84","","","","","","Rain,Fog"
"1990-11-10 16:00","1990","11","10","16:00","5.9","","5.5","","97","","","","0","","2.4","","99.74","","","","","","Rain,Fog"
"1990-11-10 17:00","1990","11","10","17:00","5.8","","5.4","","97","","","","0","","2.4","","99.80","","","","","","Rain,Fog"
"1990-11-10 18:00","1990","11","10","18:00","5.7","","5.4","","98","","33","","6","","2.4","","99.74","","","","","","Rain,Fog"
"1990-11-10 19:00","1990","11","10","19:00","5.7","","5.4","","98","","","","0","","12.9","","99.80","","","","","","Rain"
"1990-11-10 20:00","1990","11","10","20:00","5.8","","5.6","","99","","","","0","","24.1","","99.84","","","","","","Rain"
"1990-11-10 21:00","1990","11","10","21:00","5.8","","5.6","","99","","","","0","","12.9","","99.80","","","","","","Rain"
"1990-11-10 22:00","1990","11","10","22:00","","","","","","","","","0","","","","","","","","","","NA"
"1990-11-10 23:00","1990","11","10","23:00","","","","","","","","","0","","","","","","","","","","NA"
"1990-11-11 00:00","1990","11","11","00:00","","","","","","","","","0","","","","","","","","","","NA"
"1990-11-11 01:00","1990","11","11","01:00","","","","","","","","","0","","","","","","","","","","NA"
"1990-11-11 02:00","1990","11","11","02:00","","","","","","","33","","6","","","","","","","","","","NA"
"1990-11-11 03:00","1990","11","11","03:00","","","","","","","","","0","","","","","","","","","","NA"
"1990-11-11 04:00","1990","11","11","04:00","","","","","","","","","0","","","","","","","","","","NA"
"1990-11-11 05:00","1990","11","11","05:00","","","","","","","","","0","","","","","","","","","","NA"
"1990-11-11 06:00","1990","11","11","06:00","6.8","","6.8","","100","","","","0","","9.7","","99.77","","","","","","Rain,Fog"
"1990-11-11 07:00","1990","11","11","07:00","7.4","","7.1","","98","","","","0","","4.8","","99.74","","","","","","Rain,Fog"
"1990-11-11 08:00","1990","11","11","08:00","7.8","","7.6","","99","","","","0","","2.4","","99.74","","","","","","Fog"
"1990-11-11 09:00","1990","11","11","09:00","8.4","","8.1","","98","","","","0","","3.2","","99.80","","","","","","Rain,Fog"
"1990-11-11 10:00","1990","11","11","10:00","11.4","","11.4","","100","","13","","19","","3.2","","99.87","","","","","","Rain,Fog"
"1990-11-11 11:00","1990","11","11","11:00","12.1","","11.5","","96","","16","","19","","3.2","","99.90","","","","","","Rain,Fog"
"1990-11-11 12:00","1990","11","11","12:00","12.1","","11.5","","96","","16","","19","","3.2","","99.87","","","","","","Rain,Fog"
"1990-11-11 13:00","1990","11","11","13:00","11.8","","11.5","","98","","12","","20","","3.2","","99.80","","","","","","Rain,Fog"
"1990-11-11 14:00","1990","11","11","14:00","11.8","","11.3","","97","","12","","20","","3.2","","99.84","","","","","","Rain,Fog"
"1990-11-11 15:00","1990","11","11","15:00","12.0","","11.6","","97","","12","","15","","3.2","","99.80","","","","","","Rain,Fog"
"1990-11-11 16:00","1990","11","11","16:00","12.2","","11.4","","95","","13","","22","","3.2","","99.77","","","","","","Rain,Fog"
"1990-11-11 17:00","1990","11","11","17:00","11.3","","10.9","","97","","13","","15","","3.2","","99.80","","","","","","Rain,Fog"
"1990-11-11 18:00","1990","11","11","18:00","11.0","","10.7","","98","","13","","15","","3.2","","99.84","","","","","","Rain,Fog"
"1990-11-11 19:00","1990","11","11","19:00","11.6","","11.3","","98","","13","","19","","6.4","","99.90","","","","","","Rain,Fog"
"1990-11-11 20:00","1990","11","11","20:00","11.2","","10.8","","97","","12","","19","","6.4","","99.80","","","","","","Rain,Fog"
"1990-11-11 21:00","1990","11","11","21:00","11.8","","11.2","","96","","13","","22","","6.4","","99.90","","","","","","Rain,Fog"
"1990-11-11 22:00","1990","11","11","22:00","","","","","","","12","","19","","","","","","","","","","NA"
"1990-11-11 23:00","1990","11","11","23:00","","","","","","","11","","15","","","","","","","","","","NA"
"1990-11-12 00:00","1990","11","12","00:00","","","","","","","12","","26","","","","","","","","","","NA"
"1990-11-12 01:00","1990","11","12","01:00","","","","","","","13","","30","","","","","","","","","","NA"
"1990-11-12 02:00","1990","11","12","02:00","","","","","","","14","","33","","","","","","","","","","NA"
"1990-11-12 03:00","1990","11","12","03:00","","","","","","","13","","26","","","","","","","","","","NA"
"1990-11-12 04:00","1990","11","12","04:00","","","","","","","14","","30","","","","","","","","","","NA"
"1990-11-12 05:00","1990","11","12","05:00","","","","","","","12","","37","","","","","","","","","","NA"
"1990-11-12 06:00","1990","11","12","06:00","12.0","","10.1","","88","","15","","26","","24.1","","99.57","","","","","","Mostly Cloudy"
"1990-11-12 07:00","1990","11","12","07:00","11.4","","9.8","","90","","13","","26","","24.1","","99.44","","","","","","Mostly Cloudy"
"1990-11-12 08:00","1990","11","12","08:00","11.9","","9.2","","84","","14","","44","","24.1","","99.33","","","","","","Rain"
"1990-11-12 09:00","1990","11","12","09:00","12.1","","9.2","","83","","14","","33","","19.3","","99.33","","","","","","Rain"
"1990-11-12 10:00","1990","11","12","10:00","11.5","","9.2","","86","","14","","30","","16.1","","99.30","","","","","","Rain"
"1990-11-12 11:00","1990","11","12","11:00","10.9","","9.9","","94","","13","","24","","9.7","","99.37","","","","","","Rain,Fog"
"1990-11-12 12:00","1990","11","12","12:00","10.6","","9.9","","95","","15","","13","","9.7","","99.33","","","","","","Rain,Fog"
"1990-11-12 13:00","1990","11","12","13:00","10.3","","9.5","","95","","14","","22","","4.8","","99.20","","","","","","Rain,Fog"
"1990-11-12 14:00","1990","11","12","14:00","10.4","","10.0","","97","","14","","15","","2.4","","99.20","","","","","","Rain,Fog"
"1990-11-12 15:00","1990","11","12","15:00","10.3","","10.2","","100","","","","0","","2.4","","99.17","","","","","","Rain,Fog"
"1990-11-12 16:00","1990","11","12","16:00","10.4","","10.0","","97","","","","0","","2.4","","99.17","","","","","","Rain,Fog"
"1990-11-12 17:00","1990","11","12","17:00","8.6","","8.0","","96","","","","0","","6.4","","99.17","","","","","","Rain,Fog"
"1990-11-12 18:00","1990","11","12","18:00","8.8","","8.4","","97","","","","0","","4.8","","99.17","","","","","","Rain,Fog"
"1990-11-12 19:00","1990","11","12","19:00","9.4","","8.4","","93","","","","0","","3.2","","99.03","","","","","","Rain,Fog"
"1990-11-12 20:00","1990","11","12","20:00","10.0","","9.4","","96","","15","","7","","2.4","","98.97","","","","","","Rain,Fog"
"1990-11-12 21:00","1990","11","12","21:00","9.9","","9.4","","97","","27","","6","","2.4","","98.97","","","","","","Rain,Fog"
"1990-11-12 22:00","1990","11","12","22:00","","","","","","","8","","6","","","","","","","","","","NA"
"1990-11-12 23:00","1990","11","12","23:00","","","","","","","19","","9","","","","","","","","","","NA"
"1990-11-13 00:00","1990","11","13","00:00","","","","","","","19","","7","","","","","","","","","","NA"
"1990-11-13 01:00","1990","11","13","01:00","","","","","","","15","","11","","","","","","","","","","NA"
"1990-11-13 02:00","1990","11","13","02:00","","","","","","","34","","4","","","","","","","","","","NA"
"1990-11-13 03:00","1990","11","13","03:00","","","","","","","","","0","","","","","","","","","","NA"
"1990-11-13 04:00","1990","11","13","04:00","","","","","","","","","0","","","","","","","","","","NA"
"1990-11-13 05:00","1990","11","13","05:00","","","","","","","27","","4","","","","","","","","","","NA"
"1990-11-13 06:00","1990","11","13","06:00","5.5","","4.9","","96","","31","","6","","19.3","","98.86","","","","","","Mainly Clear"
"1990-11-13 07:00","1990","11","13","07:00","6.0","","4.6","","91","","31","","15","","19.3","","98.97","","","","","","Mostly Cloudy"
"1990-11-13 08:00","1990","11","13","08:00","5.1","","4.1","","93","","30","","17","","19.3","","99.07","","","","","","Mostly Cloudy"
"1990-11-13 09:00","1990","11","13","09:00","4.6","","3.1","","90","","28","","7","","24.1","","99.17","","","","","","Mainly Clear"
"1990-11-13 10:00","1990","11","13","10:00","6.7","","5.1","","89","","31","","6","","24.1","","99.20","","","","","","Mainly Clear"
"1990-11-13 11:00","1990","11","13","11:00","7.3","","4.7","","84","","14","","15","","24.1","","99.27","","","","","","Mostly Cloudy"
"1990-11-13 12:00","1990","11","13","12:00","8.6","","5.2","","79","","14","","11","","24.1","","99.30","","","","","","Mostly Cloudy"
"1990-11-13 13:00","1990","11","13","13:00","8.3","","4.5","","77","","13","","15","","24.1","","99.30","","","","","","Mostly Cloudy"
"1990-11-13 14:00","1990","11","13","14:00","8.6","","4.7","","77","","17","","6","","24.1","","99.30","","","","","","Mostly Cloudy"
"1990-11-13 15:00","1990","11","13","15:00","7.0","","4.7","","85","","28","","6","","24.1","","99.30","","","","","","Mainly Clear"
"1990-11-13 16:00","1990","11","13","16:00","5.8","","3.4","","85","","29","","7","","24.1","","99.40","","","","","","Mostly Cloudy"
"1990-11-13 17:00","1990","11","13","17:00","4.2","","3.0","","92","","","","0","","24.1","","99.44","","","","","","Mainly Clear"
"1990-11-13 18:00","1990","11","13","18:00","2.8","","1.8","","93","","","","0","","24.1","","99.50","","","","","","Mainly Clear"
"1990-11-13 19:00","1990","11","13","19:00","2.4","","1.3","","92","","31","","13","","24.1","","99.57","","","","","","Mainly Clear"
"1990-11-13 20:00","1990","11","13","20:00","1.2","","0.4","","94","","30","","6","","24.1","","99.60","","","","","","Mainly Clear"
"1990-11-13 21:00","1990","11","13","21:00","0.4","","-0.2","","96","","31","","6","","24.1","","99.64","","","","","","Mainly Clear"
"1990-11-13 22:00","1990","11","13","22:00","","","","","","","","","0","","","","","","","","","","NA"
"1990-11-13 23:00","1990","11","13","23:00","","","","","","","","","0","","","","","","","","","","NA"
"1990-11-14 00:00","1990","11","14","00:00","","","","","","","","","0","","","","","","","","","","NA"
"1990-11-14 01:00","1990","11","14","01:00","","","","","","","","","0","","","","","","","","","","NA"
"1990-11-14 02:00","1990","11","14","02:00","","","","","","","","","0","","","","","","","","","","NA"
"1990-11-14 03:00","1990","11","14","03:00","","","","","","","","","0","","","","","","","","","","NA"
"1990-11-14 04:00","1990","11","14","04:00","","","","","","","","","0","","","","","","","","","","NA"
"1990-11-14 05:00","1990","11","14","05:00","","","","","","","","","0","","","","","","","","","","NA"
"1990-11-14 06:00","1990","11","14","06:00","3.0","","1.3","","88","","17","","7","","24.1","","99.70","","","","","","Cloudy"
"1990-11-14 07:00","1990","11","14","07:00","4.0","","2.3","","89","","16","","24","","19.3","","99.64","","","","","","Rain"
"1990-11-14 08:00","1990","11","14","08:00","4.0","","2.8","","92","","16","","17","","12.9","","99.70","","","","","","Rain"
"1990-11-14 09:00","1990","11","14","09:00","4.0","","2.8","","92","","17","","13","","16.1","","99.70","","","","","","Rain"
"1990-11-14 10:00","1990","11","14","10:00","4.0","","2.4","","89","","17","","19","","24.1","","99.74","","","","","","Rain"
"1990-11-14 11:00","1990","11","14","11:00","5.3","","3.9","","91","","15","","20","","24.1","","99.77","","","","","","Mainly Clear"
"1990-11-14 12:00","1990","11","14","12:00","6.2","","4.0","","86","","13","","19","","24.1","","99.77","","","","","","Mostly Cloudy"
"1990-11-14 13:00","1990","11","14","13:00","6.4","","4.2","","86","","15","","13","","24.1","","99.77","","","","","","Mostly Cloudy"
"1990-11-14 14:00","1990","11","14","14:00","7.4","","5.1","","85","","","","0","","24.1","","99.80","","","","","","Mostly Cloudy"
"1990-11-14 15:00","1990","11","14","15:00","7.2","","5.4","","88","","","","0","","24.1","","99.84","","","","","","Mostly Cloudy"
"1990-11-14 16:00","1990","11","14","16:00","6.6","","5.4","","92","","","","0","","24.1","","99.94","","","","","","Rain Showers"
"1990-11-14 17:00","1990","11","14","17:00","5.8","","5.2","","96","","33","","4","","24.1","","100.01","","","","","","Mostly Cloudy"
"1990-11-14 18:00","1990","11","14","18:00","3.4","","3.1","","98","","30","","6","","24.1","","100.04","","","","","","Mainly Clear"
"1990-11-14 19:00","1990","11","14","19:00","2.8","","2.6","","99","","","","0","","24.1","","100.11","","","","","","Mainly Clear"
"1990-11-14 20:00","1990","11","14","20:00","2.0","","1.8","","98","","32","","4","","24.1","","100.17","","","","","","Mainly Clear"
"1990-11-14 21:00","1990","11","14","21:00","1.0","","0.4","","96","","","","0","","24.1","","100.24","","","","","","Mainly Clear"
"1990-11-14 22:00","1990","11","14","22:00","","","","","","","31","","6","","","","","","","","","","NA"
"1990-11-14 23:00","1990","11","14","23:00","","","","","","","32","","4","","","","","","","","","","NA"
"1990-11-15 00:00","1990","11","15","00:00","","","","","","","31","","4","","","","","","","","","","NA"
"1990-11-15 01:00","1990","11","15","01:00","","","","","","","29","","4","","","","","","","","","","NA"
"1990-11-15 02:00","1990","11","15","02:00","","","","","","","34","","4","","","","","","","","","","NA"
"1990-11-15 03:00","1990","11","15","03:00","","","","","","","","","0","","","","","","","","","","NA"
"1990-11-15 04:00","1990","11","15","04:00","","","","","","","33","","4","","","","","","","","","","NA"
"1990-11-15 05:00","1990","11","15","05:00","","","","","","","","","0","","","","","","","","","","NA"
"1990-11-15 06:00","1990","11","15","06:00","3.2","","2.7","","97","","","","0","","4.8","","101.01","","","","","","Fog"
"1990-11-15 07:00","1990","11","15","07:00","3.4","","2.8","","96","","","","0","","8.0","","101.04","","","","","","Fog"
"1990-11-15 08:00","1990","11","15","08:00","3.6","","3.0","","96","","","","0","","4.8","","101.15","","","","","","Rain,Drizzle,Fog"
"1990-11-15 09:00","1990","11","15","09:00","4.3","","3.8","","97","","","","0","","4.8","","101.15","","","","","","Rain,Fog"
"1990-11-15 10:00","1990","11","15","10:00","4.9","","4.3","","96","","12","","9","","4.8","","101.18","","","","","","Rain,Fog"
"1990-11-15 11:00","1990","11","15","11:00","5.5","","5.1","","97","","12","","15","","6.4","","101.18","","","","","","Fog"
"1990-11-15 12:00","1990","11","15","12:00","5.8","","5.4","","97","","11","","7","","2.4","","101.18","","","","","","Drizzle,Fog"
"1990-11-15 13:00","1990","11","15","13:00","6.1","","5.5","","96","","12","","11","","2.4","","101.15","","","","","","Rain,Drizzle,Fog"
"1990-11-15 14:00","1990","11","15","14:00","6.3","","5.7","","96","","15","","19","","2.4","","101.11","","","","","","Rain,Fog"
"1990-11-15 15:00","1990","11","15","15:00","6.6","","6.1","","97","","12","","13","","2.4","","101.08","","","","","","Drizzle,Fog"
"1990-11-15 16:00","1990","11","15","16:00","7.0","","6.3","","95","","14","","22","","1.6","","101.04","","","","","","Drizzle,Fog"
"1990-11-15 17:00","1990","11","15","17:00","7.1","","6.4","","95","","12","","26","","2.4","","100.94","","","","","","Rain,Fog"
"1990-11-15 18:00","1990","11","15","18:00","7.2","","6.4","","94","","13","","26","","3.2","","100.94","","","","","","Rain,Fog"
"1990-11-15 19:00","1990","11","15","19:00","7.4","","6.8","","96","","12","","24","","3.2","","100.84","","","","","","Rain,Fog"
"1990-11-15 20:00","1990","11","15","20:00","7.6","","6.8","","94","","15","","19","","4.8","","100.84","","","","","","Rain,Fog"
"1990-11-15 21:00","1990","11","15","21:00","7.5","","6.8","","95","","15","","15","","4.8","","100.81","","","","","","Rain,Fog"
"1990-11-15 22:00","1990","11","15","22:00","","","","","","","14","","19","","","","","","","","","","NA"
"1990-11-15 23:00","1990","11","15","23:00","","","","","","","14","","22","","","","","","","","","","NA"
"1990-11-16 00:00","1990","11","16","00:00","","","","","","","14","","19","","","","","","","","","","NA"
"1990-11-16 01:00","1990","11","16","01:00","","","","","","","14","","19","","","","","","","","","","NA"
"1990-11-16 02:00","1990","11","16","02:00","","","","","","","14","","19","","","","","","","","","","NA"
"1990-11-16 03:00","1990","11","16","03:00","","","","","","","12","","26","","","","","","","","","","NA"
"1990-11-16 04:00","1990","11","16","04:00","","","","","","","13","","19","","","","","","","","","","NA"
"1990-11-16 05:00","1990","11","16","05:00","","","","","","","13","","26","","","","","","","","","","NA"
"1990-11-16 06:00","1990","11","16","06:00","8.5","","7.7","","95","","16","","20","","16.1","","100.44","","","","","","Cloudy"
"1990-11-16 07:00","1990","11","16","07:00","8.5","","7.8","","95","","14","","24","","16.1","","100.41","","","","","","Cloudy"
"1990-11-16 08:00","1990","11","16","08:00","8.5","","7.6","","94","","14","","15","","16.1","","100.44","","","","","","Cloudy"
"1990-11-16 09:00","1990","11","16","09:00","8.5","","7.6","","94","","14","","11","","16.1","","100.44","","","","","","Cloudy"
"1990-11-16 10:00","1990","11","16","10:00","8.7","","7.7","","93","","14","","19","","16.1","","100.41","","","","","","Rain"
"1990-11-16 11:00","1990","11","16","11:00","9.1","","8.0","","93","","14","","22","","16.1","","100.37","","","","","","Cloudy"
"1990-11-16 12:00","1990","11","16","12:00","9.0","","8.0","","93","","13","","19","","12.9","","100.34","","","","","","Rain"
"1990-11-16 13:00","1990","11","16","13:00","9.6","","7.9","","89","","14","","22","","12.9","","100.24","","","","","","Cloudy"
"1990-11-16 14:00","1990","11","16","14:00","8.9","","8.1","","95","","15","","15","","8.0","","100.24","","","","","","Rain,Fog"
"1990-11-16 15:00","1990","11","16","15:00","8.7","","8.1","","96","","16","","11","","6.4","","100.24","","","","","","Rain,Fog"
"1990-11-16 16:00","1990","11","16","16:00","8.5","","7.9","","96","","","","0","","8.0","","100.27","","","","","","Rain,Fog"
"1990-11-16 17:00","1990","11","16","17:00","8.3","","8.1","","99","","14","","9","","6.4","","100.27","","","","","","Rain,Fog"
"1990-11-16 18:00","1990","11","16","18:00","7.5","","6.8","","95","","31","","11","","6.4","","100.31","","","","","","Rain,Fog"
"1990-11-16 19:00","1990","11","16","19:00","6.9","","6.1","","95","","31","","13","","6.4","","100.34","","","","","","Rain,Fog"
"1990-11-16 20:00","1990","11","16","20:00","6.4","","5.6","","95","","30","","9","","8.0","","100.34","","","","","","Rain Showers,Fog"
"1990-11-16 21:00","1990","11","16","21:00","5.9","","4.8","","93","","33","","7","","8.0","","100.41","","","","","","Fog"
"1990-11-16 22:00","1990","11","16","22:00","","","","","","","34","","7","","","","","","","","","","NA"
"1990-11-16 23:00","1990","11","16","23:00","","","","","","","31","","11","","","","","","","","","","NA"
"1990-11-17 00:00","1990","11","17","00:00","","","","","","","29","","11","","","","","","","","","","NA"
"1990-11-17 01:00","1990","11","17","01:00","","","","","","","31","","11","","","","","","","","","","NA"
"1990-11-17 02:00","1990","11","17","02:00","","","","","","","","","0","","","","","","","","","","NA"
"1990-11-17 03:00","1990","11","17","03:00","","","","","","","31","","11","","","","","","","","","","NA"
"1990-11-17 04:00","1990","11","17","04:00","","","","","","","32","","9","","","","","","","","","","NA"
"1990-11-17 05:00","1990","11","17","05:00","","","","","","","31","","6","","","","","","","","","","NA"
"1990-11-17 06:00","1990","11","17","06:00","0.8","","-0.2","","93","","31","","7","","24.1","","100.71","","","","","","Mainly Clear"
"1990-11-17 07:00","1990","11","17","07:00","-0.8","","-1.4","","96","","","","0","","24.1","","100.74","","","","","","Mainly Clear"
"1990-11-17 08:00","1990","11","17","08:00","-1.1","","-1.5","","97","","","","0","","24.1","","100.81","","","","","","Mainly Clear"
"1990-11-17 09:00","1990","11","17","09:00","1.2","","0.8","","97","","","","0","","24.1","","100.88","","","","","","Mainly Clear"
"1990-11-17 10:00","1990","11","17","10:00","3.8","","3.2","","96","","","","0","","24.1","","100.94","","","","","","Mainly Clear"
"1990-11-17 11:00","1990","11","17","11:00","6.2","","4.3","","87","","","","0","","24.1","","100.94","","","","","","Mainly Clear"
"1990-11-17 12:00","1990","11","17","12:00","7.6","","4.5","","81","","","","0","","24.1","","100.91","","","","","","Mainly Clear"
"1990-11-17 13:00","1990","11","17","13:00","7.2","","5.1","","86","","","","0","","24.1","","100.94","","","","","","Mainly Clear"
"1990-11-17 14:00","1990","11","17","14:00","8.5","","5.2","","80","","","","0","","24.1","","100.98","","","","","","Mainly Clear"
"1990-11-17 15:00","1990","11","17","15:00","7.6","","4.5","","81","","","","0","","24.1","","100.98","","","","","","Mainly Clear"
"1990-11-17 16:00","1990","11","17","16:00","5.9","","4.1","","88","","","","0","","24.1","","100.98","","","","","","Mainly Clear"
"1990-11-17 17:00","1990","11","17","17:00","3.2","","2.3","","94","","","","0","","24.1","","101.01","","","","","","Mainly Clear"
"1990-11-17 18:00","1990","11","17","18:00","2.0","","0.8","","92","","33","","7","","24.1","","101.08","","","","","","Clear"
"1990-11-17 19:00","1990","11","17","19:00","1.4","","0.8","","96","","31","","9","","24.1","","101.04","","","","","","Clear"
"1990-11-17 20:00","1990","11","17","20:00","0.4","","-0.3","","95","","","","0","","24.1","","101.04","","","","","","Clear"
"1990-11-17 21:00","1990","11","17","21:00","0.4","","-0.5","","94","","31","","11","","24.1","","101.11","","","","","","Clear"
"1990-11-17 22:00","1990","11","17","22:00","","","","","","","","","0","","","","","","","","","","NA"
"1990-11-17 23:00","1990","11","17","23:00","","","","","","","","","0","","","","","","","","","","NA"
"1990-11-18 00:00","1990","11","18","00:00","","","","","","","","","0","","","","","","","","","","NA"
"1990-11-18 01:00","1990","11","18","01:00","","","","","","","","","0","","","","","","","","","","NA"
"1990-11-18 02:00","1990","11","18","02:00","","","","","","","","","0","","","","","","","","","","NA"
"1990-11-18 03:00","1990","11","18","03:00","","","","","","","","","0","","","","","","","","","","NA"
"1990-11-18 04:00","1990","11","18","04:00","","","","","","","","","0","","","","","","","","","","NA"
"1990-11-18 05:00","1990","11","18","05:00","","","","","","","","","0","","","","","","","","","","NA"
"1990-11-18 06:00","1990","11","18","06:00","-1.2","","-1.9","","95","","","","0","","24.1","","101.04","","","","","","Mainly Clear"
"1990-11-18 07:00","1990","11","18","07:00","-1.2","","-2.0","","94","","","","0","","24.1","","101.04","","","","","","Mostly Cloudy"
"1990-11-18 08:00","1990","11","18","08:00","-1.2","","-1.9","","95","","33","","6","","24.1","","101.04","","","","-3","","Mostly Cloudy"
"1990-11-18 09:00","1990","11","18","09:00","-0.8","","-1.2","","97","","","","0","","24.1","","101.04","","","","","","Mostly Cloudy"
"1990-11-18 10:00","1990","11","18","10:00","0.0","","-0.4","","97","","","","0","","24.1","","101.04","","","","","","Mostly Cloudy"
"1990-11-18 11:00","1990","11","18","11:00","2.6","","2.1","","96","","","","0","","24.1","","101.01","","","","","","Mostly Cloudy"
"1990-11-18 12:00","1990","11","18","12:00","4.1","","2.0","","86","","","","0","","24.1","","101.01","","","","","","Mostly Cloudy"
"1990-11-18 13:00","1990","11","18","13:00","4.6","","2.6","","87","","","","0","","24.1","","100.84","","","","","","Mostly Cloudy"
"1990-11-18 14:00","1990","11","18","14:00","4.5","","3.6","","94","","13","","6","","24.1","","100.81","","","","","","Mostly Cloudy"
"1990-11-18 15:00","1990","11","18","15:00","4.4","","3.1","","91","","","","0","","24.1","","100.74","","","","","","Cloudy"
"1990-11-18 16:00","1990","11","18","16:00","4.0","","3.2","","95","","","","0","","24.1","","100.61","","","","","","Cloudy"
"1990-11-18 17:00","1990","11","18","17:00","3.4","","2.7","","95","","","","0","","24.1","","100.54","","","","","","Cloudy"
"1990-11-18 18:00","1990","11","18","18:00","3.0","","2.5","","97","","","","0","","24.1","","100.44","","","","","","Cloudy"
"1990-11-18 19:00","1990","11","18","19:00","2.7","","2.0","","95","","","","0","","24.1","","100.31","","","","","","Cloudy"
"1990-11-18 20:00","1990","11","18","20:00","2.6","","2.0","","96","","","","0","","24.1","","100.21","","","","","","Cloudy"
"1990-11-18 21:00","1990","11","18","21:00","2.6","","2.2","","97","","","","0","","24.1","","100.11","","","","","","Cloudy"
"1990-11-18 22:00","1990","11","18","22:00","","","","","","","","","0","","","","","","","","","","NA"
"1990-11-18 23:00","1990","11","18","23:00","","","","","","","14","","4","","","","","","","","","","NA"
"1990-11-19 00:00","1990","11","19","00:00","","","","","","","13","","19","","","","","","","","","","NA"
"1990-11-19 01:00","1990","11","19","01:00","","","","","","","14","","22","","","","","","","","","","NA"
"1990-11-19 02:00","1990","11","19","02:00","","","","","","","14","","22","","","","","","","","","","NA"
"1990-11-19 03:00","1990","11","19","03:00","","","","","","","13","","20","","","","","","","","","","NA"
"1990-11-19 04:00","1990","11","19","04:00","","","","","","","14","","22","","","","","","","","","","NA"
"1990-11-19 05:00","1990","11","19","05:00","","","","","","","14","","22","","","","","","","","","","NA"
"1990-11-19 06:00","1990","11","19","06:00","5.0","","3.5","","90","","14","","24","","24.1","","98.83","","","","","","Cloudy"
"1990-11-19 07:00","1990","11","19","07:00","4.8","","3.9","","94","","","","0","","12.9","","98.80","","","","","","Rain"
"1990-11-19 08:00","1990","11","19","08:00","3.7","","2.6","","92","","28","","6","","16.1","","98.80","","","","","","Rain"
"1990-11-19 09:00","1990","11","19","09:00","2.9","","2.0","","94","","32","","11","","16.1","","98.83","","","","","","Rain"
"1990-11-19 10:00","1990","11","19","10:00","3.2","","2.2","","93","","29","","9","","19.3","","98.86","","","","","","Rain"
"1990-11-19 11:00","1990","11","19","11:00","3.6","","2.6","","93","","32","","7","","24.1","","98.86","","","","","","Mostly Cloudy"
"1990-11-19 12:00","1990","11","19","12:00","5.5","","3.5","","87","","31","","7","","24.1","","98.83","","","","","","Mainly Clear"
"1990-11-19 13:00","1990","11","19","13:00","6.3","","2.2","","75","","32","","9","","24.1","","98.83","","","","","","Mainly Clear"
"1990-11-19 14:00","1990","11","19","14:00","7.3","","2.8","","73","","29","","6","","24.1","","98.83","","","","","","Mainly Clear"
"1990-11-19 15:00","1990","11","19","15:00","7.0","","2.1","","71","","32","","6","","24.1","","98.83","","","","","","Mainly Clear"
"1990-11-19 16:00","1990","11","19","16:00","5.1","","2.6","","84","","","","0","","24.1","","98.80","","","","","","Mainly Clear"
"1990-11-19 17:00","1990","11","19","17:00","3.3","","2.1","","92","","","","0","","24.1","","98.83","","","","","","Mainly Clear"
"1990-11-19 18:00","1990","11","19","18:00","2.8","","0.5","","85","","31","","6","","24.1","","98.90","","","","","","Mainly Clear"
"1990-11-19 19:00","1990","11","19","19:00","0.8","","-0.5","","91","","30","","7","","24.1","","98.86","","","","","","Mainly Clear"
"1990-11-19 20:00","1990","11","19","20:00","1.5","","-0.8","","85","","31","","22","","24.1","","98.90","","","","","","Mainly Clear"
"1990-11-19 21:00","1990","11","19","21:00","1.1","","-1.3","","84","","31","","11","","24.1","","98.93","","","","","","Mainly Clear"
"1990-11-19 22:00","1990","11","19","22:00","","","","","","","30","","9","","","","","","","","","","NA"
"1990-11-19 23:00","1990","11","19","23:00","","","","","","","30","","7","","","","","","","","","","NA"
"1990-11-20 00:00","1990","11","20","00:00","","","","","","","","","0","","","","","","","","","","NA"
"1990-11-20 01:00","1990","11","20","01:00","","","","","","","","","0","","","","","","","","","","NA"
"1990-11-20 02:00","1990","11","20","02:00","","","","","","","","","0","","","","","","","","","","NA"
"1990-11-20 03:00","1990","11","20","03:00","","","","","","","","","0","","","","","","","","","","NA"
"1990-11-20 04:00","1990","11","20","04:00","","","","","","","","","0","","","","","","","","","","NA"
"1990-11-20 05:00","1990","11","20","05:00","","","","","","","","","0","","","","","","","","","","NA"
"1990-11-20 06:00","1990","11","20","06:00","-2.0","","-2.6","","96","","","","0","","24.1","","99.13","","","","","","Clear"
"1990-11-20 07:00","1990","11","20","07:00","-2.2","","-2.8","","96","","","","0","","24.1","","99.20","","","","","","Mainly Clear"
"1990-11-20 08:00","1990","11","20","08:00","-2.7","","-3.4","","95","","","","0","","24.1","","99.27","","","","","","Mainly Clear"
"1990-11-20 09:00","1990","11","20","09:00","0.0","","-1.8","","88","","32","","6","","24.1","","99.30","","","","-2","","Mainly Clear"
"1990-11-20 10:00","1990","11","20","10:00","2.0","","0.4","","89","","35","","4","","24.1","","99.30","","","","","","Mostly Cloudy"
"1990-11-20 11:00","1990","11","20","11:00","3.6","","0.2","","78","","","","0","","24.1","","99.33","","","","","","Mostly Cloudy"
"1990-11-20 12:00","1990","11","20","12:00","3.4","","0.9","","84","","10","","4","","24.1","","99.37","","","","","","Mostly Cloudy"
"1990-11-20 13:00","1990","11","20","13:00","3.8","","0.2","","78","","","","0","","24.1","","99.37","","","","","","Mostly Cloudy"
"1990-11-20 14:00","1990","11","20","14:00","3.9","","0.5","","78","","14","","6","","24.1","","99.40","","","","","","Mostly Cloudy"
"1990-11-20 15:00","1990","11","20","15:00","4.0","","0.4","","77","","12","","4","","24.1","","99.47","","","","","","Mostly Cloudy"
"1990-11-20 16:00","1990","11","20","16:00","2.8","","1.5","","91","","","","0","","24.1","","99.50","","","","","","Mostly Cloudy"
"1990-11-20 17:00","1990","11","20","17:00","2.1","","0.8","","91","","","","0","","24.1","","99.54","","","","","","Cloudy"
"1990-11-20 18:00","1990","11","20","18:00","1.7","","1.0","","95","","","","0","","24.1","","99.54","","","","","","Rain"
"1990-11-20 19:00","1990","11","20","19:00","1.4","","0.7","","95","","33","","4","","24.1","","99.57","","","","","","Rain"
"1990-11-20 20:00","1990","11","20","20:00","1.3","","0.7","","96","","","","0","","24.1","","99.60","","","","","","Rain"
"1990-11-20 21:00","1990","11","20","21:00","1.3","","0.6","","95","","","","0","","24.1","","99.60","","","","","","Rain"
"1990-11-20 22:00","1990","11","20","22:00","","","","","","","","","0","","","","","","","","","","NA"
"1990-11-20 23:00","1990","11","20","23:00","","","","","","","","","0","","","","","","","","","","NA"
"1990-11-21 00:00","1990","11","21","00:00","","","","","","","","","0","","","","","","","","","","NA"
"1990-11-21 01:00","1990","11","21","01:00","","","","","","","","","0","","","","","","","","","","NA"
"1990-11-21 02:00","1990","11","21","02:00","","","","","","","","","0","","","","","","","","","","NA"
"1990-11-21 03:00","1990","11","21","03:00","","","","","","","","","0","","","","","","","","","","NA"
"1990-11-21 04:00","1990","11","21","04:00","","","","","","","","","0","","","","","","","","","","NA"
"1990-11-21 05:00","1990","11","21","05:00","","","","","","","","","0","","","","","","","","","","NA"
"1990-11-21 06:00","1990","11","21","06:00","1.2","","0.6","","96","","","","0","","9.7","","99.74","","","","","","Fog"
"1990-11-21 07:00","1990","11","21","07:00","1.7","","1.0","","95","","","","0","","9.7","","99.64","","","","","","Fog"
"1990-11-21 08:00","1990","11","21","08:00","1.9","","1.4","","96","","13","","6","","3.2","","99.64","","","","","","Fog"
"1990-11-21 09:00","1990","11","21","09:00","2.2","","1.6","","96","","14","","19","","3.2","","99.57","","","","","","Rain,Fog"
"1990-11-21 10:00","1990","11","21","10:00","2.4","","1.5","","94","","15","","19","","6.4","","99.50","","","","","","Rain,Fog"
"1990-11-21 11:00","1990","11","21","11:00","2.5","","1.6","","94","","15","","26","","6.4","","99.37","","","","","","Rain,Fog"
"1990-11-21 12:00","1990","11","21","12:00","2.8","","2.0","","95","","13","","19","","6.4","","99.23","","","","","","Rain,Fog"
"1990-11-21 13:00","1990","11","21","13:00","3.2","","2.7","","97","","14","","15","","4.8","","99.10","","","","","","Rain,Fog"
"1990-11-21 14:00","1990","11","21","14:00","3.5","","2.6","","94","","15","","22","","6.4","","99.00","","","","","","Rain,Fog"
"1990-11-21 15:00","1990","11","21","15:00","3.8","","2.6","","92","","16","","19","","8.0","","98.86","","","","","","Rain,Fog"
"1990-11-21 16:00","1990","11","21","16:00","3.8","","2.6","","92","","16","","24","","8.0","","98.80","","","","","","Rain,Fog"
"1990-11-21 17:00","1990","11","21","17:00","4.0","","2.8","","92","","14","","15","","9.7","","98.73","","","","","","Rain,Fog"
"1990-11-21 18:00","1990","11","21","18:00","4.0","","3.2","","95","","12","","13","","9.7","","98.76","","","","","","Rain,Fog"
"1990-11-21 19:00","1990","11","21","19:00","4.3","","3.5","","95","","14","","22","","6.4","","98.73","","","","","","Rain,Fog"
"1990-11-21 20:00","1990","11","21","20:00","4.2","","3.8","","97","","","","0","","4.8","","98.70","","","","","","Rain,Fog"
"1990-11-21 21:00","1990","11","21","21:00","4.0","","3.4","","96","","","","0","","8.0","","98.80","","","","","","Rain,Fog"
"1990-11-21 22:00","1990","11","21","22:00","","","","","","","","","0","","","","","","","","","","NA"
"1990-11-21 23:00","1990","11","21","23:00","","","","","","","1","","7","","","","","","","","","","NA"
"1990-11-22 00:00","1990","11","22","00:00","","","","","","","30","","7","","","","","","","","","","NA"
"1990-11-22 01:00","1990","11","22","01:00","","","","","","","29","","6","","","","","","","","","","NA"
"1990-11-22 02:00","1990","11","22","02:00","","","","","","","31","","4","","","","","","","","","","NA"
"1990-11-22 03:00","1990","11","22","03:00","","","","","","","","","0","","","","","","","","","","NA"
"1990-11-22 04:00","1990","11","22","04:00","","","","","","","","","0","","","","","","","","","","NA"
"1990-11-22 05:00","1990","11","22","05:00","","","","","","","32","","11","","","","","","","","","","NA"
"1990-11-22 06:00","1990","11","22","06:00","2.7","","2.1","","96","","","","0","","24.1","","99.90","","","","","","Mostly Cloudy"
"1990-11-22 07:00","1990","11","22","07:00","2.9","","2.5","","97","","","","0","","24.1","","100.01","","","","","","Rain"
"1990-11-22 08:00","1990","11","22","08:00","3.1","","2.7","","97","","","","0","","19.3","","100.11","","","","","","Rain"
"1990-11-22 09:00","1990","11","22","09:00","3.5","","3.1","","97","","","","0","","16.1","","100.21","","","","","","Rain"
"1990-11-22 10:00","1990","11","22","10:00","4.0","","3.5","","97","","","","0","","11.3","","100.21","","","","","","Rain"
"1990-11-22 11:00","1990","11","22","11:00","4.8","","4.5","","98","","","","0","","9.7","","100.24","","","","","","Rain,Fog"
"1990-11-22 12:00","1990","11","22","12:00","5.3","","4.7","","96","","","","0","","9.7","","100.21","","","","","","Rain,Fog"
"1990-11-22 13:00","1990","11","22","13:00","5.6","","5.1","","97","","","","0","","6.4","","100.11","","","","","","Rain,Fog"
"1990-11-22 14:00","1990","11","22","14:00","6.0","","5.5","","97","","","","0","","6.4","","100.04","","","","","","Rain,Fog"
"1990-11-22 15:00","1990","11","22","15:00","5.8","","5.2","","96","","13","","9","","4.8","","99.97","","","","","","Rain,Fog"
"1990-11-22 16:00","1990","11","22","16:00","6.2","","5.4","","94","","14","","19","","3.2","","99.94","","","","","","Rain,Fog"
"1990-11-22 17:00","1990","11","22","17:00","6.4","","5.9","","97","","13","","9","","3.2","","99.87","","","","","","Rain,Fog"
"1990-11-22 18:00","1990","11","22","18:00","6.6","","6.2","","97","","13","","7","","3.2","","99.74","","","","","","Rain,Fog"
"1990-11-22 19:00","1990","11","22","19:00","6.9","","6.5","","97","","13","","13","","2.4","","99.67","","","","","","Moderate Rain,Fog"
"1990-11-22 20:00","1990","11","22","20:00","7.0","","6.8","","98","","13","","13","","2.4","","99.60","","","","","","Moderate Rain,Fog"
"1990-11-22 21:00","1990","11","22","21:00","7.5","","7.4","","99","","13","","6","","2.4","","99.50","","","","","","Moderate Rain,Fog"
"1990-11-22 22:00","1990","11","22","22:00","","","","","","","","","0","","","","","","","","","","NA"
"1990-11-22 23:00","1990","11","22","23:00","","","","","","","32","","6","","","","","","","","","","NA"
"1990-11-23 00:00","1990","11","23","00:00","","","","","","","","","0","","","","","","","","","","NA"
"1990-11-23 01:00","1990","11","23","01:00","","","","","","","","","0","","","","","","","","","","NA"
"1990-11-23 02:00","1990","11","23","02:00","","","","","","","","","0","","","","","","","","","","NA"
"1990-11-23 03:00","1990","11","23","03:00","","","","","","","","","0","","","","","","","","","","NA"
"1990-11-23 04:00","1990","11","23","04:00","","","","","","","13","","4","","","","","","","","","","NA"
"1990-11-23 05:00","1990","11","23","05:00","","","","","","","12","","6","","","","","","","","","","NA"
"1990-11-23 06:00","1990","11","23","06:00","9.4","","9.2","","99","","12","","9","","2.4","","99.03","","","","","","Moderate Rain,Fog"
"1990-11-23 07:00","1990","11","23","07:00","9.6","","9.2","","97","","12","","13","","2.4","","98.93","","","","","","Moderate Rain,Fog"
"1990-11-23 08:00","1990","11","23","08:00","9.0","","9.0","","100","","10","","9","","3.2","","98.83","","","","","","Rain,Fog"
"1990-11-23 09:00","1990","11","23","09:00","8.9","","8.8","","99","","15","","4","","3.2","","98.73","","","","","","Rain,Fog"
"1990-11-23 10:00","1990","11","23","10:00","10.2","","10.0","","99","","15","","15","","4.8","","98.60","","","","","","Rain,Fog"
"1990-11-23 11:00","1990","11","23","11:00","10.6","","10.3","","98","","13","","15","","3.2","","98.43","","","","","","Moderate Rain,Fog"
"1990-11-23 12:00","1990","11","23","12:00","10.8","","10.3","","97","","15","","19","","3.2","","98.29","","","","","","Moderate Rain,Fog"
"1990-11-23 13:00","1990","11","23","13:00","11.0","","10.6","","97","","13","","15","","3.2","","98.16","","","","","","Rain,Fog"
"1990-11-23 14:00","1990","11","23","14:00","11.2","","10.8","","97","","13","","17","","4.8","","98.03","","","","","","Rain,Fog"
"1990-11-23 15:00","1990","11","23","15:00","11.0","","10.9","","99","","2","","11","","4.8","","98.16","","","","","","Fog"
"1990-11-23 16:00","1990","11","23","16:00","10.0","","9.8","","99","","32","","7","","9.7","","98.19","","","","","","Fog"
"1990-11-23 17:00","1990","11","23","17:00","10.8","","7.8","","82","","30","","15","","16.1","","98.26","","","","","","Mostly Cloudy"
"1990-11-23 18:00","1990","11","23","18:00","10.6","","4.3","","65","","30","","13","","16.1","","98.43","","","","","","Mostly Cloudy"
"1990-11-23 19:00","1990","11","23","19:00","8.2","","4.3","","76","","32","","7","","19.3","","98.56","","","","","","Mainly Clear"
"1990-11-23 20:00","1990","11","23","20:00","10.0","","2.1","","58","","30","","13","","24.1","","98.70","","","","","","Mostly Cloudy"
"1990-11-23 21:00","1990","11","23","21:00","6.8","","4.7","","87","","31","","28","","24.1","","98.90","","","","","","Mostly Cloudy"
"1990-11-23 22:00","1990","11","23","22:00","","","","","","","30","","11","","","","","","","","","","NA"
"1990-11-23 23:00","1990","11","23","23:00","","","","","","","32","","24","","","","","","","","","","NA"
"1990-11-24 00:00","1990","11","24","00:00","","","","","","","31","","11","","","","","","","","","","NA"
"1990-11-24 01:00","1990","11","24","01:00","","","","","","","29","","9","","","","","","","","","","NA"
"1990-11-24 02:00","1990","11","24","02:00","","","","","","","","","0","","","","","","","","","","NA"
"1990-11-24 03:00","1990","11","24","03:00","","","","","","","","","0","","","","","","","","","","NA"
"1990-11-24 04:00","1990","11","24","04:00","","","","","","","29","","7","","","","","","","","","","NA"
"1990-11-24 05:00","1990","11","24","05:00","","","","","","","34","","4","","","","","","","","","","NA"
"1990-11-24 06:00","1990","11","24","06:00","3.1","","1.5","","89","","31","","7","","19.3","","99.37","","","","","","Mostly Cloudy"
"1990-11-24 07:00","1990","11","24","07:00","3.2","","1.4","","88","","31","","7","","19.3","","99.30","","","","","","Mostly Cloudy"
"1990-11-24 08:00","1990","11","24","08:00","3.1","","1.6","","90","","","","0","","24.1","","99.27","","","","","","Mostly Cloudy"
"1990-11-24 09:00","1990","11","24","09:00","3.3","","1.7","","90","","29","","9","","24.1","","99.30","","","","","","Mostly Cloudy"
"1990-11-24 10:00","1990","11","24","10:00","3.6","","2.0","","89","","31","","9","","24.1","","99.20","","","","","","Mostly Cloudy"
"1990-11-24 11:00","1990","11","24","11:00","4.0","","1.9","","86","","32","","7","","24.1","","99.20","","","","","","Cloudy"
"1990-11-24 12:00","1990","11","24","12:00","4.6","","2.4","","85","","","","0","","24.1","","99.17","","","","","","Mostly Cloudy"
"1990-11-24 13:00","1990","11","24","13:00","4.7","","2.2","","84","","29","","9","","24.1","","99.13","","","","","","Mostly Cloudy"
"1990-11-24 14:00","1990","11","24","14:00","5.0","","2.2","","82","","31","","6","","24.1","","99.10","","","","","","Mostly Cloudy"
"1990-11-24 15:00","1990","11","24","15:00","5.0","","1.8","","80","","","","0","","24.1","","99.10","","","","","","Mostly Cloudy"
"1990-11-24 16:00","1990","11","24","16:00","4.7","","2.3","","84","","30","","6","","24.1","","99.07","","","","","","Mostly Cloudy"
"1990-11-24 17:00","1990","11","24","17:00","2.2","","1.3","","93","","","","0","","24.1","","99.07","","","","","","Mostly Cloudy"
"1990-11-24 18:00","1990","11","24","18:00","1.1","","0.3","","94","","32","","6","","24.1","","99.07","","","","","","Mainly Clear"
"1990-11-24 19:00","1990","11","24","19:00","0.2","","-0.8","","93","","32","","6","","24.1","","99.07","","","","","","Mainly Clear"
"1990-11-24 20:00","1990","11","24","20:00","-0.3","","-0.8","","96","","33","","4","","24.1","","99.10","","","","-2","","Mainly Clear"
"1990-11-24 21:00","1990","11","24","21:00","-0.4","","-0.9","","96","","33","","4","","24.1","","99.10","","","","-2","","Mainly Clear"
"1990-11-24 22:00","1990","11","24","22:00","","","","","","","","","0","","","","","","","","","","NA"
"1990-11-24 23:00","1990","11","24","23:00"
"1990-11-25 00:00","1990","11","25","00:00"
"1990-11-25 01:00","1990","11","25","01:00"
"1990-11-25 02:00","1990","11","25","02:00"
"1990-11-25 03:00","1990","11","25","03:00"
"1990-11-25 04:00","1990","11","25","04:00"
"1990-11-25 05:00","1990","11","25","05:00"
"1990-11-25 06:00","1990","11","25","06:00","0.5","","-0.2","","95","","31","","6","","24.1","","99.00","","","","","","Mostly Cloudy"
"1990-11-25 07:00","1990","11","25","07:00","0.5","","-0.2","","95","","32","","6","","24.1","","99.03","","","","","","Mostly Cloudy"
"1990-11-25 08:00","1990","11","25","08:00","0.3","","-0.6","","94","","28","","13","","24.1","","99.07","","","","","","Mainly Clear"
"1990-11-25 09:00","1990","11","25","09:00","1.7","","-0.6","","84","","32","","19","","24.1","","99.13","","","","","","Mainly Clear"
"1990-11-25 10:00","1990","11","25","10:00","2.4","","-0.2","","83","","32","","24","","24.1","","99.20","","","","","","Mainly Clear"
"1990-11-25 11:00","1990","11","25","11:00","4.0","","-1.1","","69","","30","","15","","24.1","","99.30","","","","","","Mainly Clear"
"1990-11-25 12:00","1990","11","25","12:00","4.8","","-0.6","","68","","31","","19","","24.1","","99.30","","","","","","Mainly Clear"
"1990-11-25 13:00","1990","11","25","13:00","5.1","","-1.3","","63","","34","","9","","24.1","","99.37","","","","","","Mainly Clear"
"1990-11-25 14:00","1990","11","25","14:00","5.2","","-0.9","","65","","33","","15","","24.1","","99.40","","","","","","Mainly Clear"
"1990-11-25 15:00","1990","11","25","15:00","5.2","","-1.9","","60","","33","","17","","24.1","","99.47","","","","","","Mainly Clear"
"1990-11-25 16:00","1990","11","25","16:00","3.6","","-2.0","","67","","32","","15","","24.1","","99.60","","","","","","Mainly Clear"
"1990-11-25 17:00","1990","11","25","17:00","1.6","","-1.9","","77","","32","","19","","24.1","","99.70","","","","","","Mainly Clear"
"1990-11-25 18:00","1990","11","25","18:00","1.2","","-2.7","","75","","29","","9","","24.1","","99.84","","","","","","Mainly Clear"
"1990-11-25 19:00","1990","11","25","19:00","0.4","","-2.7","","80","","","","0","","24.1","","99.90","","","","","","Mainly Clear"
"1990-11-25 20:00","1990","11","25","20:00","0.6","","-2.3","","81","","31","","19","","24.1","","100.01","","","","","","Mainly Clear"
"1990-11-25 21:00","1990","11","25","21:00","1.6","","-1.9","","77","","32","","20","","24.1","","100.11","","","","","","Mainly Clear"
"1990-11-25 22:00","1990","11","25","22:00","","","","","","","31","","19","","","","","","","","","","NA"
"1990-11-25 23:00","1990","11","25","23:00","","","","","","","30","","15","","","","","","","","","","NA"
"1990-11-26 00:00","1990","11","26","00:00","","","","","","","32","","11","","","","","","","","","","NA"
"1990-11-26 01:00","1990","11","26","01:00","","","","","","","31","","6","","","","","","","","","","NA"
"1990-11-26 02:00","1990","11","26","02:00","","","","","","","","","0","","","","","","","","","","NA"
"1990-11-26 03:00","1990","11","26","03:00","","","","","","","","","0","","","","","","","","","","NA"
"1990-11-26 04:00","1990","11","26","04:00","","","","","","","","","0","","","","","","","","","","NA"
"1990-11-26 05:00","1990","11","26","05:00","","","","","","","","","0","","","","","","","","","","NA"
"1990-11-26 06:00","1990","11","26","06:00","-1.8","","-2.7","","93","","33","","4","","24.1","","100.34","","","","-3","","Cloudy"
"1990-11-26 07:00","1990","11","26","07:00","-1.6","","-2.7","","92","","","","0","","24.1","","100.37","","","","","","Mostly Cloudy"
"1990-11-26 08:00","1990","11","26","08:00","-1.4","","-2.1","","95","","","","0","","24.1","","100.34","","","","","","Mostly Cloudy"
"1990-11-26 09:00","1990","11","26","09:00","-1.0","","-1.9","","94","","","","0","","24.1","","100.31","","","","","","Mostly Cloudy"
"1990-11-26 10:00","1990","11","26","10:00","0.3","","-1.0","","91","","15","","4","","24.1","","100.24","","","","","","Mostly Cloudy"
"1990-11-26 11:00","1990","11","26","11:00","2.6","","-1.0","","77","","14","","19","","24.1","","100.14","","","","","","Mostly Cloudy"
"1990-11-26 12:00","1990","11","26","12:00","3.2","","-0.2","","78","","14","","13","","24.1","","100.04","","","","","","Cloudy"
"1990-11-26 13:00","1990","11","26","13:00","4.1","","-0.2","","73","","14","","15","","24.1","","99.87","","","","","","Cloudy"
"1990-11-26 14:00","1990","11","26","14:00","4.0","","-0.6","","72","","21","","6","","12.9","","99.87","","","","","","Rain Showers"
"1990-11-26 15:00","1990","11","26","15:00","3.4","","-2.2","","67","","19","","6","","12.9","","99.84","","","","","","Rain Showers"
"1990-11-26 16:00","1990","11","26","16:00","2.4","","1.6","","95","","32","","11","","24.1","","99.80","","","","","","Mostly Cloudy"
"1990-11-26 17:00","1990","11","26","17:00","1.6","","1.1","","96","","33","","7","","1.6","","99.84","","","","","","Rain Showers,Fog"
"1990-11-26 18:00","1990","11","26","18:00","1.4","","0.9","","96","","","","0","","1.6","","99.84","","","","","","Rain Showers,Fog"
"1990-11-26 19:00","1990","11","26","19:00","1.6","","1.0","","96","","35","","6","","3.2","","99.84","","","","","","Rain Showers,Fog"
"1990-11-26 20:00","1990","11","26","20:00","1.4","","0.9","","96","","","","0","","3.2","","99.87","","","","","","Rain Showers,Fog"
"1990-11-26 21:00","1990","11","26","21:00","1.4","","1.0","","97","","","","0","","6.4","","99.87","","","","","","Fog"
"1990-11-26 22:00","1990","11","26","22:00","","","","","","","","","0","","","","","","","","","","NA"
"1990-11-26 23:00","1990","11","26","23:00","","","","","","","","","0","","","","","","","","","","NA"
"1990-11-27 00:00","1990","11","27","00:00","","","","","","","","","0","","","","","","","","","","NA"
"1990-11-27 01:00","1990","11","27","01:00","","","","","","","","","0","","","","","","","","","","NA"
"1990-11-27 02:00","1990","11","27","02:00","","","","","","","","","0","","","","","","","","","","NA"
"1990-11-27 03:00","1990","11","27","03:00","","","","","","","","","0","","","","","","","","","","NA"
"1990-11-27 04:00","1990","11","27","04:00","","","","","","","31","","4","","","","","","","","","","NA"
"1990-11-27 05:00","1990","11","27","05:00","","","","","","","","","0","","","","","","","","","","NA"
"1990-11-27 06:00","1990","11","27","06:00","-1.0","","-1.7","","95","","","","0","","16.1","","100.31","","","","","","Mostly Cloudy"
"1990-11-27 07:00","1990","11","27","07:00","-1.4","","-1.9","","96","","","","0","","24.1","","100.41","","","","","","Mostly Cloudy"
"1990-11-27 08:00","1990","11","27","08:00","-1.4","","-2.2","","94","","","","0","","24.1","","100.47","","","","","","Mostly Cloudy"
"1990-11-27 09:00","1990","11","27","09:00","-1.0","","-1.8","","94","","","","0","","24.1","","100.54","","","","","","Mostly Cloudy"
"1990-11-27 10:00","1990","11","27","10:00","1.2","","1.0","","98","","32","","4","","24.1","","100.64","","","","","","Mainly Clear"
"1990-11-27 11:00","1990","11","27","11:00","4.9","","0.9","","75","","","","0","","24.1","","100.71","","","","","","Mostly Cloudy"
"1990-11-27 12:00","1990","11","27","12:00","3.5","","1.5","","87","","15","","4","","24.1","","100.74","","","","","","Mostly Cloudy"
"1990-11-27 13:00","1990","11","27","13:00","5.4","","2.2","","80","","15","","6","","24.1","","100.81","","","","","","Mostly Cloudy"
"1990-11-27 14:00","1990","11","27","14:00","5.2","","2.5","","83","","5","","6","","24.1","","100.84","","","","","","Mostly Cloudy"
"1990-11-27 15:00","1990","11","27","15:00","5.1","","2.4","","83","","13","","4","","24.1","","100.88","","","","","","Mostly Cloudy"
"1990-11-27 16:00","1990","11","27","16:00","3.8","","3.1","","95","","","","0","","24.1","","100.98","","","","","","Cloudy"
"1990-11-27 17:00","1990","11","27","17:00","2.2","","1.8","","97","","","","0","","24.1","","101.04","","","","","","Mostly Cloudy"
"1990-11-27 18:00","1990","11","27","18:00","1.4","","1.3","","99","","","","0","","24.1","","101.04","","","","","","Mostly Cloudy"
"1990-11-27 19:00","1990","11","27","19:00","0.2","","0.2","","100","","","","0","","24.1","","101.04","","","","","","Mostly Cloudy"
"1990-11-27 20:00","1990","11","27","20:00","0.6","","0.6","","100","","","","0","","24.1","","101.08","","","","","","Mostly Cloudy"
"1990-11-27 21:00","1990","11","27","21:00","0.6","","0.5","","99","","","","0","","24.1","","101.11","","","","","","Cloudy"
"1990-11-27 22:00","1990","11","27","22:00","","","","","","","","","0","","","","","","","","","","NA"
"1990-11-27 23:00","1990","11","27","23:00","","","","","","","","","0","","","","","","","","","","NA"
"1990-11-28 00:00","1990","11","28","00:00","","","","","","","13","","6","","","","","","","","","","NA"
"1990-11-28 01:00","1990","11","28","01:00","","","","","","","14","","19","","","","","","","","","","NA"
"1990-11-28 02:00","1990","11","28","02:00","","","","","","","12","","15","","","","","","","","","","NA"
"1990-11-28 03:00","1990","11","28","03:00","","","","","","","13","","19","","","","","","","","","","NA"
"1990-11-28 04:00","1990","11","28","04:00","","","","","","","12","","15","","","","","","","","","","NA"
"1990-11-28 05:00","1990","11","28","05:00","","","","","","","13","","19","","","","","","","","","","NA"
"1990-11-28 06:00","1990","11","28","06:00","4.5","","3.1","","91","","15","","19","","24.1","","100.91","","","","","","Cloudy"
"1990-11-28 07:00","1990","11","28","07:00","4.9","","3.7","","92","","14","","19","","24.1","","100.84","","","","","","Cloudy"
"1990-11-28 08:00","1990","11","28","08:00","4.9","","3.8","","93","","15","","20","","16.1","","100.74","","","","","","Cloudy"
"1990-11-28 09:00","1990","11","28","09:00","5.3","","4.2","","93","","15","","20","","16.1","","100.71","","","","","","Cloudy"
"1990-11-28 10:00","1990","11","28","10:00","5.4","","4.6","","95","","15","","22","","11.3","","100.64","","","","","","Rain"
"1990-11-28 11:00","1990","11","28","11:00","5.8","","5.1","","95","","14","","19","","8.0","","100.58","","","","","","Rain,Fog"
"1990-11-28 12:00","1990","11","28","12:00","5.8","","5.3","","97","","14","","22","","8.0","","100.44","","","","","","Rain,Fog"
"1990-11-28 13:00","1990","11","28","13:00","6.1","","5.8","","98","","15","","24","","6.4","","100.31","","","","","","Rain,Fog"
"1990-11-28 14:00","1990","11","28","14:00","6.3","","5.9","","97","","13","","26","","4.8","","100.17","","","","","","Moderate Rain,Fog"
"1990-11-28 15:00","1990","11","28","15:00","6.3","","6.0","","98","","13","","22","","4.8","","100.11","","","","","","Rain,Fog"
"1990-11-28 16:00","1990","11","28","16:00","6.5","","6.0","","97","","14","","28","","4.8","","100.01","","","","","","Rain,Fog"
"1990-11-28 17:00","1990","11","28","17:00","6.6","","6.0","","96","","14","","26","","4.8","","99.90","","","","","","Rain,Fog"
"1990-11-28 18:00","1990","11","28","18:00","6.7","","6.2","","97","","13","","28","","4.8","","99.77","","","","","","Rain,Fog"
"1990-11-28 19:00","1990","11","28","19:00","6.7","","6.5","","98","","13","","37","","4.8","","99.60","","","","","","Rain,Fog"
"1990-11-28 20:00","1990","11","28","20:00","6.9","","6.5","","97","","14","","33","","4.8","","99.47","","","","","","Rain,Fog"
"1990-11-28 21:00","1990","11","28","21:00","6.8","","6.4","","97","","14","","28","","4.8","","99.30","","","","","","Moderate Rain,Fog"
"1990-11-28 22:00","1990","11","28","22:00","","","","","","","14","","28","","","","","","","","","","NA"
"1990-11-28 23:00","1990","11","28","23:00","","","","","","","14","","37","","","","","","","","","","NA"
"1990-11-29 00:00","1990","11","29","00:00","","","","","","","13","","33","","","","","","","","","","NA"
"1990-11-29 01:00","1990","11","29","01:00","","","","","","","15","","19","","","","","","","","","","NA"
"1990-11-29 02:00","1990","11","29","02:00","","","","","","","16","","4","","","","","","","","","","NA"
"1990-11-29 03:00","1990","11","29","03:00","","","","","","","33","","17","","","","","","","","","","NA"
"1990-11-29 04:00","1990","11","29","04:00","","","","","","","34","","22","","","","","","","","","","NA"
"1990-11-29 05:00","1990","11","29","05:00","","","","","","","33","","24","","","","","","","","","","NA"
"1990-11-29 06:00","1990","11","29","06:00","3.2","","0.7","","84","","32","","24","","24.1","","99.50","","","","","","Mostly Cloudy"
"1990-11-29 07:00","1990","11","29","07:00","2.2","","0.7","","90","","29","","9","","24.1","","99.60","","","","","","Mostly Cloudy"
"1990-11-29 08:00","1990","11","29","08:00","1.8","","-1.5","","79","","28","","19","","24.1","","99.67","","","","","","Mostly Cloudy"
"1990-11-29 09:00","1990","11","29","09:00","0.2","","-1.0","","91","","","","0","","24.1","","99.80","","","","","","Mostly Cloudy"
"1990-11-29 10:00","1990","11","29","10:00","1.8","","0.4","","90","","","","0","","24.1","","99.84","","","","","","Mainly Clear"
"1990-11-29 11:00","1990","11","29","11:00","3.6","","-1.1","","71","","","","0","","24.1","","99.87","","","","","","Mostly Cloudy"
"1990-11-29 12:00","1990","11","29","12:00","4.8","","0.0","","71","","","","0","","24.1","","99.90","","","","","","Mainly Clear"
"1990-11-29 13:00","1990","11","29","13:00","5.6","","0.9","","72","","","","0","","24.1","","99.84","","","","","","Mainly Clear"
"1990-11-29 14:00","1990","11","29","14:00","4.5","","0.6","","76","","9","","9","","24.1","","99.80","","","","","","Mostly Cloudy"
"1990-11-29 15:00","1990","11","29","15:00","4.2","","0.6","","77","","16","","9","","24.1","","99.77","","","","","","Mostly Cloudy"
"1990-11-29 16:00","1990","11","29","16:00","3.2","","-1.1","","73","","27","","9","","16.1","","99.80","","","","","","Cloudy"
"1990-11-29 17:00","1990","11","29","17:00","1.1","","0.0","","92","","","","0","","8.0","","99.80","","","","","","Snow Showers"
"1990-11-29 18:00","1990","11","29","18:00","0.1","","-0.5","","96","","20","","7","","11.3","","99.84","","","","","","Mainly Clear"
"1990-11-29 19:00","1990","11","29","19:00","0.7","","-0.3","","93","","27","","7","","16.1","","99.94","","","","","","Mainly Clear"
"1990-11-29 20:00","1990","11","29","20:00","0.1","","-0.8","","94","","32","","7","","24.1","","100.11","","","","","","Mainly Clear"
"1990-11-29 21:00","1990","11","29","21:00","-0.5","","-1.3","","94","","31","","11","","24.1","","100.21","","","","-4","","Mainly Clear"
"1990-11-29 22:00","1990","11","29","22:00","","","","","","","30","","7","","","","","","","","","","NA"
"1990-11-29 23:00","1990","11","29","23:00","","","","","","","31","","6","","","","","","","","","","NA"
"1990-11-30 00:00","1990","11","30","00:00","","","","","","","","","0","","","","","","","","","","NA"
"1990-11-30 01:00","1990","11","30","01:00","","","","","","","","","0","","","","","","","","","","NA"
"1990-11-30 02:00","1990","11","30","02:00","","","","","","","","","0","","","","","","","","","","NA"
"1990-11-30 03:00","1990","11","30","03:00","","","","","","","","","0","","","","","","","","","","NA"
"1990-11-30 04:00","1990","11","30","04:00","","","","","","","","","0","","","","","","","","","","NA"
"1990-11-30 05:00","1990","11","30","05:00","","","","","","","","","0","","","","","","","","","","NA"
"1990-11-30 06:00","1990","11","30","06:00","-2.4","","-3.2","","94","","","","0","","24.1","","100.84","","","","","","Mainly Clear"
"1990-11-30 07:00","1990","11","30","07:00","-2.2","","-3.0","","94","","35","","6","","24.1","","100.88","","","","-5","","Mostly Cloudy"
"1990-11-30 08:00","1990","11","30","08:00","-2.0","","-3.0","","93","","","","0","","24.1","","100.94","","","","","","Mostly Cloudy"
"1990-11-30 09:00","1990","11","30","09:00","-1.4","","-2.4","","93","","","","0","","24.1","","100.94","","","","","","Mostly Cloudy"
"1990-11-30 10:00","1990","11","30","10:00","-0.6","","-1.6","","93","","","","0","","24.1","","100.98","","","","","","Mostly Cloudy"
"1990-11-30 11:00","1990","11","30","11:00","0.0","","-0.6","","96","","","","0","","24.1","","101.04","","","","","","Mostly Cloudy"
"1990-11-30 12:00","1990","11","30","12:00","0.4","","0.0","","97","","8","","4","","24.1","","101.04","","","","","","Mostly Cloudy"
"1990-11-30 13:00","1990","11","30","13:00","1.6","","0.9","","95","","29","","4","","24.1","","101.01","","","","","","Mostly Cloudy"
"1990-11-30 14:00","1990","11","30","14:00","1.7","","0.4","","91","","","","0","","24.1","","101.01","","","","","","Mostly Cloudy"
"1990-11-30 15:00","1990","11","30","15:00","1.5","","0.8","","95","","","","0","","24.1","","100.98","","","","","","Mostly Cloudy"
"1990-11-30 16:00","1990","11","30","16:00","0.8","","0.0","","95","","","","0","","24.1","","100.91","","","","","","Mostly Cloudy"
"1990-11-30 17:00","1990","11","30","17:00","-0.3","","-0.7","","97","","","","0","","24.1","","100.88","","","","","","Mostly Cloudy"
"1990-11-30 18:00","1990","11","30","18:00","-0.4","","-0.4","","100","","","","0","","24.1","","100.84","","","","","","Mostly Cloudy"
"1990-11-30 19:00","1990","11","30","19:00","-0.4","","-0.4","","100","","","","0","","24.1","","100.74","","","","","","Cloudy"
"1990-11-30 20:00","1990","11","30","20:00","-0.5","","-0.6","","99","","","","0","","24.1","","100.61","","","","","","Mostly Cloudy"
"1990-11-30 21:00","1990","11","30","21:00","1.4","","0.1","","91","","15","","7","","24.1","","100.54","","","","","","Mostly Cloudy"
"1990-11-30 22:00","1990","11","30","22:00","","","","","","","15","","9","","","","","","","","","","NA"
"1990-11-30 23:00","1990","11","30","23:00"
