"Station Name","CAMPBELL RIVER A"
"Province","BRITISH COLUMBIA"
"Latitude","49.95"
"Longitude","-125.27"
"Elevation","108.80"
"Climate Identifier","1021261"
"WMO Identifier",""
"TC Identifier","YBL"
"All times are specified in Local Standard Time (LST). Add 1 hour to adjust for Daylight Saving Time where and when it is observed."

"Legend"
"E","Estimated"
"M","Missing"
"NA","Not Available"

"Date/Time","Year","Month","Day","Time","Temp (°C)","Temp Flag","Dew Point Temp (°C)","Dew Point Temp Flag","Rel Hum (%)","Rel Hum Flag","Wind Dir (10s deg)","Wind Dir Flag","Wind Spd (km/h)","Wind Spd Flag","Visibility (km)","Visibility Flag","Stn Press (kPa)","Stn Press Flag","Hmdx","Hmdx Flag","Wind Chill","Wind Chill Flag","Weather"
"1998-08-01 00:00","1998","08","01","00:00"
"1998-08-01 01:00","1998","08","01","01:00"
"1998-08-01 02:00","1998","08","01","02:00"
"1998-08-01 03:00","1998","08","01","03:00"
"1998-08-01 04:00","1998","08","01","04:00"
"1998-08-01 05:00","1998","08","01","05:00","10.4","","7.2","","81","","30","","15","","32.2","","101.10","","","","","","Mainly Clear"
"1998-08-01 06:00","1998","08","01","06:00","11.2","","7.8","","80","","30","","9","","32.2","","101.13","","","","","","Mainly Clear"
"1998-08-01 07:00","1998","08","01","07:00","14.2","","8.7","","69","","30","","9","","32.2","","101.17","","","","","","Mainly Clear"
"1998-08-01 08:00","1998","08","01","08:00","16.4","","8.7","","60","","30","","19","","32.2","","101.20","","","","","","Mainly Clear"
"1998-08-01 09:00","1998","08","01","09:00","17.7","","9.1","","57","","30","","19","","32.2","","101.20","","","","","","Mainly Clear"
"1998-08-01 10:00","1998","08","01","10:00","19.3","","10.4","","56","","35","","9","","32.2","","101.20","","","","","","Mainly Clear"
"1998-08-01 11:00","1998","08","01","11:00","20.5","","11.3","","56","","35","","9","","32.2","","101.20","","","","","","Mainly Clear"
"1998-08-01 12:00","1998","08","01","12:00","21.5","","11.5","","53","","6","","9","","32.2","","101.17","","","","","","Mainly Clear"
"1998-08-01 13:00","1998","08","01","13:00","22.2","","10.8","","48","","11","","19","","32.2","","101.20","","","","","","Mainly Clear"
"1998-08-01 14:00","1998","08","01","14:00","23.3","","11.5","","47","","7","","11","","48.3","","101.17","","25","","","","Clear"
"1998-08-01 15:00","1998","08","01","15:00","23.0","","10.9","","46","","4","","11","","48.3","","101.13","","25","","","","Clear"
"1998-08-01 16:00","1998","08","01","16:00","23.9","","10.6","","43","","12","","13","","48.3","","101.10","","25","","","","Clear"
"1998-08-01 17:00","1998","08","01","17:00","24.0","","10.4","","42","","11","","13","","48.3","","101.10","","25","","","","Clear"
"1998-08-01 18:00","1998","08","01","18:00","23.6","","10.0","","42","","9","","9","","48.3","","101.10","","25","","","","Clear"
"1998-08-01 19:00","1998","08","01","19:00","22.6","","8.8","","41","","34","","9","","48.3","","101.10","","","","","","Mainly Clear"
"1998-08-01 20:00","1998","08","01","20:00","18.6","","9.9","","57","","29","","9","","48.3","","101.13","","","","","","Mainly Clear"
"1998-08-01 21:00","1998","08","01","21:00"
"1998-08-01 22:00","1998","08","01","22:00"
"1998-08-01 23:00","1998","08","01","23:00"
"1998-08-02 00:00","1998","08","02","00:00"
"1998-08-02 01:00","1998","08","02","01:00"
"1998-08-02 02:00","1998","08","02","02:00"
"1998-08-02 03:00","1998","08","02","03:00"
"1998-08-02 04:00","1998","08","02","04:00"
"1998-08-02 05:00","1998","08","02","05:00","10.0","","6.4","","78","","30","","6","","32.2","","101.20","","","","","","Mainly Clear"
"1998-08-02 06:00","1998","08","02","06:00","12.0","","6.9","","71","","33","","6","","32.2","","101.20","","","","","","Mainly Clear"
"1998-08-02 07:00","1998","08","02","07:00","14.6","","9.9","","73","","33","","9","","32.2","","101.23","","","","","","Mainly Clear"
"1998-08-02 08:00","1998","08","02","08:00","16.8","","9.6","","62","","31","","9","","32.2","","101.23","","","","","","Clear"
"1998-08-02 09:00","1998","08","02","09:00","19.3","","9.3","","52","","","","0","","32.2","","101.23","","","","","","Clear"
"1998-08-02 10:00","1998","08","02","10:00","21.3","","10.8","","51","","6","","6","","32.2","","101.20","","","","","","Clear"
"1998-08-02 11:00","1998","08","02","11:00","21.8","","11.8","","53","","6","","9","","32.2","","101.17","","","","","","Clear"
"1998-08-02 12:00","1998","08","02","12:00","22.9","","11.7","","49","","8","","9","","32.2","","101.10","","25","","","","Clear"
"1998-08-02 13:00","1998","08","02","13:00","24.8","","11.3","","43","","6","","9","","32.2","","101.07","","27","","","","Clear"
"1998-08-02 14:00","1998","08","02","14:00","23.5","","10.3","","43","","6","","7","","32.2","","101.00","","25","","","","Clear"
"1998-08-02 15:00","1998","08","02","15:00","26.6","","9.7","","35","","6","","13","","32.2","","100.96","","28","","","","Clear"
"1998-08-02 16:00","1998","08","02","16:00","27.1","","8.4","","31","","12","","7","","32.2","","100.93","","28","","","","Clear"
"1998-08-02 17:00","1998","08","02","17:00","27.2","","7.4","","29","","6","","6","","32.2","","100.90","","27","","","","Clear"
"1998-08-02 18:00","1998","08","02","18:00","27.0","","9.6","","34","","9","","4","","32.2","","100.86","","28","","","","Clear"
"1998-08-02 19:00","1998","08","02","19:00","26.0","","11.6","","41","","16","","4","","32.2","","100.83","","28","","","","Clear"
"1998-08-02 20:00","1998","08","02","20:00","21.8","","13.4","","59","","","","0","","32.2","","100.83","","25","","","","Clear"
"1998-08-02 21:00","1998","08","02","21:00"
"1998-08-02 22:00","1998","08","02","22:00"
"1998-08-02 23:00","1998","08","02","23:00"
"1998-08-03 00:00","1998","08","03","00:00"
"1998-08-03 01:00","1998","08","03","01:00"
"1998-08-03 02:00","1998","08","03","02:00"
"1998-08-03 03:00","1998","08","03","03:00"
"1998-08-03 04:00","1998","08","03","04:00"
"1998-08-03 05:00","1998","08","03","05:00","10.5","","9.0","","90","","","","0","","48.3","","100.90","","","","","","Mostly Cloudy"
"1998-08-03 06:00","1998","08","03","06:00","11.7","","10.0","","89","","","","0","","48.3","","100.93","","","","","","Mostly Cloudy"
"1998-08-03 07:00","1998","08","03","07:00","14.6","","12.2","","86","","","","0","","48.3","","100.93","","","","","","Mostly Cloudy"
"1998-08-03 08:00","1998","08","03","08:00","18.8","","13.1","","69","","","","0","","48.3","","100.96","","","","","","Mostly Cloudy"
"1998-08-03 09:00","1998","08","03","09:00","22.4","","12.3","","53","","2","","4","","48.3","","100.90","","25","","","","Mostly Cloudy"
"1998-08-03 10:00","1998","08","03","10:00","22.9","","11.8","","50","","11","","4","","48.3","","100.86","","25","","","","Mostly Cloudy"
"1998-08-03 11:00","1998","08","03","11:00","23.8","","15.0","","58","","9","","9","","48.3","","100.86","","28","","","","Mostly Cloudy"
"1998-08-03 12:00","1998","08","03","12:00","25.2","","14.1","","50","","6","","9","","48.3","","100.86","","29","","","","Clear"
"1998-08-03 13:00","1998","08","03","13:00","25.7","","14.1","","49","","9","","19","","48.3","","100.83","","29","","","","Clear"
"1998-08-03 14:00","1998","08","03","14:00","25.5","","13.7","","48","","9","","15","","48.3","","100.76","","29","","","","Mainly Clear"
"1998-08-03 15:00","1998","08","03","15:00","26.5","","14.7","","48","","11","","13","","48.3","","100.70","","30","","","","Mainly Clear"
"1998-08-03 16:00","1998","08","03","16:00","26.6","","14.9","","49","","10","","15","","48.3","","100.66","","31","","","","Mainly Clear"
"1998-08-03 17:00","1998","08","03","17:00","26.2","","15.1","","50","","10","","11","","48.3","","100.56","","30","","","","Mainly Clear"
"1998-08-03 18:00","1998","08","03","18:00","25.5","","15.6","","54","","12","","7","","48.3","","100.53","","30","","","","Mainly Clear"
"1998-08-03 19:00","1998","08","03","19:00","24.5","","15.8","","58","","9","","9","","48.3","","100.50","","29","","","","Mainly Clear"
"1998-08-03 20:00","1998","08","03","20:00","21.5","","15.5","","69","","31","","6","","48.3","","100.50","","26","","","","Mainly Clear"
"1998-08-03 21:00","1998","08","03","21:00"
"1998-08-03 22:00","1998","08","03","22:00"
"1998-08-03 23:00","1998","08","03","23:00"
"1998-08-04 00:00","1998","08","04","00:00"
"1998-08-04 01:00","1998","08","04","01:00"
"1998-08-04 02:00","1998","08","04","02:00"
"1998-08-04 03:00","1998","08","04","03:00"
"1998-08-04 04:00","1998","08","04","04:00"
"1998-08-04 05:00","1998","08","04","05:00","12.4","","9.1","","80","","31","","4","","48.3","","100.80","","","","","","Mainly Clear"
"1998-08-04 06:00","1998","08","04","06:00","11.8","","9.5","","86","","30","","6","","48.3","","100.83","","","","","","Mainly Clear"
"1998-08-04 07:00","1998","08","04","07:00","16.3","","10.4","","68","","32","","9","","48.3","","100.86","","","","","","Mainly Clear"
"1998-08-04 08:00","1998","08","04","08:00","18.6","","9.9","","57","","29","","11","","48.3","","100.86","","","","","","Clear"
"1998-08-04 09:00","1998","08","04","09:00","21.1","","10.9","","52","","","","0","","32.2","","100.83","","","","","","Mainly Clear"
"1998-08-04 10:00","1998","08","04","10:00","22.5","","11.5","","50","","8","","11","","48.3","","100.83","","25","","","","Clear"
"1998-08-04 11:00","1998","08","04","11:00","24.2","","11.6","","45","","4","","7","","48.3","","100.80","","26","","","","Mainly Clear"
"1998-08-04 12:00","1998","08","04","12:00","24.5","","10.9","","42","","7","","13","","48.3","","100.76","","26","","","","Mainly Clear"
"1998-08-04 13:00","1998","08","04","13:00","25.3","","12.9","","46","","4","","13","","48.3","","100.70","","28","","","","Mainly Clear"
"1998-08-04 14:00","1998","08","04","14:00","26.8","","10.0","","35","","8","","11","","48.3","","100.63","","28","","","","Mainly Clear"
"1998-08-04 15:00","1998","08","04","15:00","26.7","","9.0","","33","","8","","13","","48.3","","100.53","","28","","","","Mainly Clear"
"1998-08-04 16:00","1998","08","04","16:00","27.3","","9.4","","32","","8","","11","","48.3","","100.46","","28","","","","Mainly Clear"
"1998-08-04 17:00","1998","08","04","17:00","27.1","","8.6","","31","","9","","7","","48.3","","100.36","","28","","","","Mainly Clear"
"1998-08-04 18:00","1998","08","04","18:00","26.5","","7.1","","29","","9","","6","","48.3","","100.29","","27","","","","Mainly Clear"
"1998-08-04 19:00","1998","08","04","19:00","25.1","","8.0","","34","","","","0","","48.3","","100.23","","26","","","","Mainly Clear"
"1998-08-04 20:00","1998","08","04","20:00","20.6","","11.2","","55","","","","0","","48.3","","100.26","","","","","","Mainly Clear"
"1998-08-04 21:00","1998","08","04","21:00"
"1998-08-04 22:00","1998","08","04","22:00"
"1998-08-04 23:00","1998","08","04","23:00"
"1998-08-05 00:00","1998","08","05","00:00"
"1998-08-05 01:00","1998","08","05","01:00"
"1998-08-05 02:00","1998","08","05","02:00"
"1998-08-05 03:00","1998","08","05","03:00"
"1998-08-05 04:00","1998","08","05","04:00"
"1998-08-05 05:00","1998","08","05","05:00","14.0","","10.7","","80","","32","","7","","32.2","","100.26","","","","","","Mostly Cloudy"
"1998-08-05 06:00","1998","08","05","06:00","15.4","","11.7","","79","","","","0","","32.2","","100.29","","","","","","Mostly Cloudy"
"1998-08-05 07:00","1998","08","05","07:00","17.6","","12.5","","72","","","","0","","32.2","","100.36","","","","","","Mostly Cloudy"
"1998-08-05 08:00","1998","08","05","08:00","17.9","","12.7","","72","","","","0","","32.2","","100.43","","","","","","Mostly Cloudy"
"1998-08-05 09:00","1998","08","05","09:00","19.6","","13.2","","67","","","","0","","32.2","","100.43","","","","","","Mainly Clear"
"1998-08-05 10:00","1998","08","05","10:00","21.6","","13.6","","60","","9","","9","","32.2","","100.43","","25","","","","Mostly Cloudy"
"1998-08-05 11:00","1998","08","05","11:00","22.8","","12.4","","52","","6","","7","","32.2","","100.46","","25","","","","Mainly Clear"
"1998-08-05 12:00","1998","08","05","12:00","24.3","","11.5","","45","","6","","9","","32.2","","100.46","","26","","","","Mainly Clear"
"1998-08-05 13:00","1998","08","05","13:00","24.3","","11.4","","44","","6","","9","","32.2","","100.46","","26","","","","Mainly Clear"
"1998-08-05 14:00","1998","08","05","14:00","24.4","","12.6","","48","","10","","11","","32.2","","100.46","","27","","","","Mainly Clear"
"1998-08-05 15:00","1998","08","05","15:00","24.6","","12.0","","45","","10","","9","","32.2","","100.46","","27","","","","Mainly Clear"
"1998-08-05 16:00","1998","08","05","16:00","23.5","","13.3","","53","","32","","28","","32.2","","100.50","","26","","","","Mainly Clear"
"1998-08-05 17:00","1998","08","05","17:00","21.9","","12.7","","56","","34","","24","","32.2","","100.60","","25","","","","Mainly Clear"
"1998-08-05 18:00","1998","08","05","18:00","20.1","","11.5","","58","","35","","17","","32.2","","100.63","","","","","","Mainly Clear"
"1998-08-05 19:00","1998","08","05","19:00","19.3","","11.2","","59","","34","","20","","32.2","","100.70","","","","","","Mainly Clear"
"1998-08-05 20:00","1998","08","05","20:00","17.9","","10.4","","61","","32","","13","","32.2","","100.76","","","","","","Mainly Clear"
"1998-08-05 21:00","1998","08","05","21:00"
"1998-08-05 22:00","1998","08","05","22:00"
"1998-08-05 23:00","1998","08","05","23:00"
"1998-08-06 00:00","1998","08","06","00:00"
"1998-08-06 01:00","1998","08","06","01:00"
"1998-08-06 02:00","1998","08","06","02:00"
"1998-08-06 03:00","1998","08","06","03:00"
"1998-08-06 04:00","1998","08","06","04:00"
"1998-08-06 05:00","1998","08","06","05:00","13.0","","9.5","","79","","29","","7","","32.2","","100.90","","","","","","Mainly Clear"
"1998-08-06 06:00","1998","08","06","06:00","13.0","","9.8","","81","","31","","4","","32.2","","100.93","","","","","","Mainly Clear"
"1998-08-06 07:00","1998","08","06","07:00","15.1","","10.0","","72","","33","","13","","32.2","","100.93","","","","","","Mainly Clear"
"1998-08-06 08:00","1998","08","06","08:00","17.2","","9.9","","62","","31","","20","","32.2","","100.93","","","","","","Mainly Clear"
"1998-08-06 09:00","1998","08","06","09:00","18.6","","10.0","","57","","32","","24","","32.2","","100.90","","","","","","Mainly Clear"
"1998-08-06 10:00","1998","08","06","10:00","20.0","","9.7","","51","","33","","15","","32.2","","100.90","","","","","","Mainly Clear"
"1998-08-06 11:00","1998","08","06","11:00","21.2","","10.7","","51","","4","","9","","32.2","","100.83","","","","","","Mainly Clear"
"1998-08-06 12:00","1998","08","06","12:00","21.8","","10.5","","49","","36","","11","","32.2","","100.83","","","","","","Mainly Clear"
"1998-08-06 13:00","1998","08","06","13:00","22.7","","10.5","","46","","33","","9","","32.2","","100.80","","","","","","Mainly Clear"
"1998-08-06 14:00","1998","08","06","14:00","23.7","","10.9","","44","","34","","19","","32.2","","100.76","","25","","","","Mainly Clear"
"1998-08-06 15:00","1998","08","06","15:00","23.9","","10.0","","41","","35","","19","","32.2","","100.73","","25","","","","Mainly Clear"
"1998-08-06 16:00","1998","08","06","16:00","24.2","","9.5","","39","","33","","15","","32.2","","100.66","","25","","","","Mainly Clear"
"1998-08-06 17:00","1998","08","06","17:00","23.8","","8.9","","39","","35","","15","","32.2","","100.63","","25","","","","Mainly Clear"
"1998-08-06 18:00","1998","08","06","18:00","23.2","","9.1","","41","","35","","15","","32.2","","100.63","","","","","","Mainly Clear"
"1998-08-06 19:00","1998","08","06","19:00","21.3","","8.4","","44","","30","","11","","32.2","","100.63","","","","","","Mainly Clear"
"1998-08-06 20:00","1998","08","06","20:00","18.2","","9.3","","56","","30","","19","","32.2","","100.63","","","","","","Mainly Clear"
"1998-08-06 21:00","1998","08","06","21:00"
"1998-08-06 22:00","1998","08","06","22:00"
"1998-08-06 23:00","1998","08","06","23:00"
"1998-08-07 00:00","1998","08","07","00:00"
"1998-08-07 01:00","1998","08","07","01:00"
"1998-08-07 02:00","1998","08","07","02:00"
"1998-08-07 03:00","1998","08","07","03:00"
"1998-08-07 04:00","1998","08","07","04:00"
"1998-08-07 05:00","1998","08","07","05:00","12.5","","8.3","","76","","33","","9","","32.2","","100.56","","","","","","Mainly Clear"
"1998-08-07 06:00","1998","08","07","06:00","11.6","","8.5","","81","","30","","6","","32.2","","100.56","","","","","","Mainly Clear"
"1998-08-07 07:00","1998","08","07","07:00","14.4","","10.0","","75","","33","","9","","32.2","","100.60","","","","","","Mostly Cloudy"
"1998-08-07 08:00","1998","08","07","08:00","16.0","","9.7","","66","","33","","9","","32.2","","100.60","","","","","","Mostly Cloudy"
"1998-08-07 09:00","1998","08","07","09:00","18.5","","10.1","","58","","33","","9","","32.2","","100.56","","","","","","Mostly Cloudy"
"1998-08-07 10:00","1998","08","07","10:00","19.6","","11.1","","58","","1","","9","","32.2","","100.53","","","","","","Mainly Clear"
"1998-08-07 11:00","1998","08","07","11:00","20.2","","10.8","","55","","12","","9","","32.2","","100.53","","","","","","Mainly Clear"
"1998-08-07 12:00","1998","08","07","12:00","21.5","","10.7","","50","","9","","9","","32.2","","100.53","","","","","","Mainly Clear"
"1998-08-07 13:00","1998","08","07","13:00","21.4","","10.0","","48","","10","","19","","32.2","","100.53","","","","","","Mainly Clear"
"1998-08-07 14:00","1998","08","07","14:00","22.3","","11.0","","49","","9","","7","","32.2","","100.50","","","","","","Mainly Clear"
"1998-08-07 15:00","1998","08","07","15:00","22.5","","10.9","","48","","12","","19","","32.2","","100.46","","","","","","Mainly Clear"
"1998-08-07 16:00","1998","08","07","16:00","21.7","","11.0","","51","","9","","15","","32.2","","100.43","","","","","","Mainly Clear"
"1998-08-07 17:00","1998","08","07","17:00","20.6","","12.0","","58","","9","","13","","32.2","","100.43","","","","","","Mainly Clear"
"1998-08-07 18:00","1998","08","07","18:00","19.8","","12.7","","64","","10","","9","","32.2","","100.36","","","","","","Mainly Clear"
"1998-08-07 19:00","1998","08","07","19:00","18.9","","13.6","","71","","9","","6","","32.2","","100.36","","","","","","Mainly Clear"
"1998-08-07 20:00","1998","08","07","20:00","17.5","","13.7","","78","","","","0","","32.2","","100.36","","","","","","Mainly Clear"
"1998-08-07 21:00","1998","08","07","21:00"
"1998-08-07 22:00","1998","08","07","22:00"
"1998-08-07 23:00","1998","08","07","23:00"
"1998-08-08 00:00","1998","08","08","00:00"
"1998-08-08 01:00","1998","08","08","01:00"
"1998-08-08 02:00","1998","08","08","02:00"
"1998-08-08 03:00","1998","08","08","03:00"
"1998-08-08 04:00","1998","08","08","04:00"
"1998-08-08 05:00","1998","08","08","05:00","10.3","","8.9","","91","","","","0","","32.2","","100.56","","","","","","Mainly Clear"
"1998-08-08 06:00","1998","08","08","06:00","10.5","","9.5","","94","","","","0","","32.2","","100.50","","","","","","Mainly Clear"
"1998-08-08 07:00","1998","08","08","07:00","12.9","","11.7","","92","","","","0","","24.1","","100.50","","","","","","Mostly Cloudy"
"1998-08-08 08:00","1998","08","08","08:00","17.1","","13.9","","81","","","","0","","32.2","","100.53","","","","","","Mainly Clear"
"1998-08-08 09:00","1998","08","08","09:00","19.0","","13.3","","70","","7","","13","","32.2","","100.53","","","","","","Mainly Clear"
"1998-08-08 10:00","1998","08","08","10:00","19.3","","13.5","","69","","12","","17","","32.2","","100.53","","","","","","Mainly Clear"
"1998-08-08 11:00","1998","08","08","11:00","19.9","","11.6","","59","","10","","24","","32.2","","100.53","","","","","","Mainly Clear"
"1998-08-08 12:00","1998","08","08","12:00","20.3","","12.0","","59","","11","","13","","32.2","","100.50","","","","","","Mainly Clear"
"1998-08-08 13:00","1998","08","08","13:00","21.2","","12.5","","58","","9","","11","","32.2","","100.46","","","","","","Mostly Cloudy"
"1998-08-08 14:00","1998","08","08","14:00","21.9","","12.9","","57","","9","","19","","32.2","","100.40","","25","","","","Mostly Cloudy"
"1998-08-08 15:00","1998","08","08","15:00","22.2","","11.6","","51","","12","","11","","32.2","","100.36","","","","","","Mostly Cloudy"
"1998-08-08 16:00","1998","08","08","16:00","22.2","","12.3","","53","","12","","9","","32.2","","100.29","","25","","","","Mainly Clear"
"1998-08-08 17:00","1998","08","08","17:00","22.1","","11.1","","50","","9","","6","","32.2","","100.26","","","","","","Mainly Clear"
"1998-08-08 18:00","1998","08","08","18:00","21.7","","11.9","","54","","12","","7","","32.2","","100.23","","","","","","Mainly Clear"
"1998-08-08 19:00","1998","08","08","19:00","19.5","","12.2","","63","","","","0","","32.2","","100.16","","","","","","Mainly Clear"
"1998-08-08 20:00","1998","08","08","20:00","17.5","","12.0","","70","","","","0","","32.2","","100.16","","","","","","Mainly Clear"
"1998-08-08 21:00","1998","08","08","21:00"
"1998-08-08 22:00","1998","08","08","22:00"
"1998-08-08 23:00","1998","08","08","23:00"
"1998-08-09 00:00","1998","08","09","00:00"
"1998-08-09 01:00","1998","08","09","01:00"
"1998-08-09 02:00","1998","08","09","02:00"
"1998-08-09 03:00","1998","08","09","03:00"
"1998-08-09 04:00","1998","08","09","04:00"
"1998-08-09 05:00","1998","08","09","05:00","8.8","","7.8","","93","","","","0","","32.2","","100.40","","","","","","Mostly Cloudy"
"1998-08-09 06:00","1998","08","09","06:00","10.1","","9.2","","94","","","","0","","32.2","","100.43","","","","","","Mostly Cloudy"
"1998-08-09 07:00","1998","08","09","07:00","13.5","","12.0","","91","","32","","4","","32.2","","100.50","","","","","","Mostly Cloudy"
"1998-08-09 08:00","1998","08","09","08:00","18.0","","12.9","","72","","9","","4","","32.2","","100.53","","","","","","Mostly Cloudy"
"1998-08-09 09:00","1998","08","09","09:00","17.9","","12.9","","73","","12","","9","","32.2","","100.56","","","","","","Mostly Cloudy"
"1998-08-09 10:00","1998","08","09","10:00","18.5","","12.0","","66","","9","","19","","32.2","","100.63","","","","","","Mostly Cloudy"
"1998-08-09 11:00","1998","08","09","11:00","18.7","","12.6","","68","","10","","19","","32.2","","100.60","","","","","","Mostly Cloudy"
"1998-08-09 12:00","1998","08","09","12:00","19.1","","14.2","","73","","3","","9","","24.1","","100.66","","","","","","Cloudy"
"1998-08-09 13:00","1998","08","09","13:00","19.6","","14.2","","71","","","","0","","24.1","","100.66","","","","","","Mostly Cloudy"
"1998-08-09 14:00","1998","08","09","14:00","19.8","","13.4","","67","","4","","7","","32.2","","100.66","","","","","","Mostly Cloudy"
"1998-08-09 15:00","1998","08","09","15:00","20.5","","13.6","","65","","7","","4","","32.2","","100.63","","","","","","Mostly Cloudy"
"1998-08-09 16:00","1998","08","09","16:00","20.0","","13.0","","64","","5","","4","","32.2","","100.63","","","","","","Cloudy"
"1998-08-09 17:00","1998","08","09","17:00","20.0","","13.5","","66","","","","0","","32.2","","100.60","","","","","","Cloudy"
"1998-08-09 18:00","1998","08","09","18:00","18.6","","13.8","","74","","","","0","","32.2","","100.60","","","","","","Rain Showers"
"1998-08-09 19:00","1998","08","09","19:00","17.7","","14.8","","83","","","","0","","32.2","","100.60","","","","","","Cloudy"
"1998-08-09 20:00","1998","08","09","20:00","16.9","","15.3","","90","","","","0","","32.2","","100.60","","","","","","Mostly Cloudy"
"1998-08-09 21:00","1998","08","09","21:00"
"1998-08-09 22:00","1998","08","09","22:00"
"1998-08-09 23:00","1998","08","09","23:00"
"1998-08-10 00:00","1998","08","10","00:00"
"1998-08-10 01:00","1998","08","10","01:00"
"1998-08-10 02:00","1998","08","10","02:00"
"1998-08-10 03:00","1998","08","10","03:00"
"1998-08-10 04:00","1998","08","10","04:00"
"1998-08-10 05:00","1998","08","10","05:00","15.3","","14.7","","96","","","","0","","3.2","","100.76","","","","","","Rain Showers,Fog"
"1998-08-10 06:00","1998","08","10","06:00","15.3","","14.6","","96","","","","0","","3.2","","100.80","","","","","","Rain Showers,Fog"
"1998-08-10 07:00","1998","08","10","07:00","15.4","","14.5","","94","","","","0","","3.2","","100.83","","","","","","Rain Showers,Fog"
"1998-08-10 08:00","1998","08","10","08:00","15.8","","15.0","","95","","31","","6","","3.2","","100.83","","","","","","Rain Showers,Fog"
"1998-08-10 09:00","1998","08","10","09:00","16.0","","14.7","","92","","31","","7","","4.8","","100.86","","","","","","Rain Showers,Fog"
"1998-08-10 10:00","1998","08","10","10:00","16.8","","14.9","","89","","33","","6","","12.9","","100.86","","","","","","Cloudy"
"1998-08-10 11:00","1998","08","10","11:00","18.0","","14.8","","82","","3","","6","","24.1","","100.86","","","","","","Mostly Cloudy"
"1998-08-10 12:00","1998","08","10","12:00","18.6","","15.0","","80","","3","","7","","24.1","","100.90","","","","","","Mostly Cloudy"
"1998-08-10 13:00","1998","08","10","13:00","18.8","","15.0","","79","","12","","7","","24.1","","100.90","","","","","","Mostly Cloudy"
"1998-08-10 14:00","1998","08","10","14:00","19.4","","15.0","","76","","13","","7","","24.1","","100.90","","","","","","Mostly Cloudy"
"1998-08-10 15:00","1998","08","10","15:00","20.2","","15.3","","73","","12","","9","","24.1","","100.90","","","","","","Mostly Cloudy"
"1998-08-10 16:00","1998","08","10","16:00","20.3","","15.3","","73","","9","","9","","24.1","","100.86","","","","","","Mostly Cloudy"
"1998-08-10 17:00","1998","08","10","17:00","19.9","","14.6","","72","","9","","9","","24.1","","100.83","","","","","","Mostly Cloudy"
"1998-08-10 18:00","1998","08","10","18:00","20.0","","15.5","","75","","7","","7","","32.2","","100.83","","","","","","Mostly Cloudy"
"1998-08-10 19:00","1998","08","10","19:00","19.0","","15.1","","78","","7","","6","","32.2","","100.80","","","","","","Mostly Cloudy"
"1998-08-10 20:00","1998","08","10","20:00","16.9","","14.6","","86","","","","0","","32.2","","100.80","","","","","","Mainly Clear"
"1998-08-10 21:00","1998","08","10","21:00"
"1998-08-10 22:00","1998","08","10","22:00"
"1998-08-10 23:00","1998","08","10","23:00"
"1998-08-11 00:00","1998","08","11","00:00"
"1998-08-11 01:00","1998","08","11","01:00"
"1998-08-11 02:00","1998","08","11","02:00"
"1998-08-11 03:00","1998","08","11","03:00"
"1998-08-11 04:00","1998","08","11","04:00"
"1998-08-11 05:00","1998","08","11","05:00","15.0","","14.1","","94","","","","0","","32.2","","100.90","","","","","","Mostly Cloudy"
"1998-08-11 06:00","1998","08","11","06:00","15.3","","13.9","","91","","","","0","","32.2","","100.93","","","","","","Mostly Cloudy"
"1998-08-11 07:00","1998","08","11","07:00","16.3","","14.5","","89","","","","0","","32.2","","100.96","","","","","","Mostly Cloudy"
"1998-08-11 08:00","1998","08","11","08:00","17.6","","15.3","","86","","","","0","","32.2","","101.00","","","","","","Mostly Cloudy"
"1998-08-11 09:00","1998","08","11","09:00","18.8","","15.7","","82","","9","","6","","32.2","","101.00","","","","","","Mostly Cloudy"
"1998-08-11 10:00","1998","08","11","10:00","19.7","","15.8","","78","","12","","6","","32.2","","101.03","","","","","","Mostly Cloudy"
"1998-08-11 11:00","1998","08","11","11:00","20.4","","15.6","","74","","9","","9","","32.2","","101.03","","25","","","","Mostly Cloudy"
"1998-08-11 12:00","1998","08","11","12:00","21.1","","15.4","","70","","6","","7","","32.2","","101.07","","25","","","","Mostly Cloudy"
"1998-08-11 13:00","1998","08","11","13:00","21.9","","15.6","","67","","9","","13","","32.2","","101.07","","26","","","","Mostly Cloudy"
"1998-08-11 14:00","1998","08","11","14:00","23.7","","15.3","","59","","8","","11","","32.2","","101.03","","28","","","","Mostly Cloudy"
"1998-08-11 15:00","1998","08","11","15:00","23.2","","14.4","","58","","9","","13","","32.2","","101.00","","27","","","","Mostly Cloudy"
"1998-08-11 16:00","1998","08","11","16:00","23.4","","15.6","","62","","9","","13","","32.2","","101.00","","28","","","","Mostly Cloudy"
"1998-08-11 17:00","1998","08","11","17:00","22.4","","15.1","","63","","10","","11","","32.2","","101.00","","26","","","","Mostly Cloudy"
"1998-08-11 18:00","1998","08","11","18:00","22.6","","14.9","","62","","15","","7","","32.2","","100.96","","27","","","","Mostly Cloudy"
"1998-08-11 19:00","1998","08","11","19:00","20.9","","15.3","","70","","","","0","","32.2","","101.00","","25","","","","Mostly Cloudy"
"1998-08-11 20:00","1998","08","11","20:00","19.7","","15.7","","78","","","","0","","32.2","","101.03","","","","","","Mostly Cloudy"
"1998-08-11 21:00","1998","08","11","21:00"
"1998-08-11 22:00","1998","08","11","22:00"
"1998-08-11 23:00","1998","08","11","23:00"
"1998-08-12 00:00","1998","08","12","00:00"
"1998-08-12 01:00","1998","08","12","01:00"
"1998-08-12 02:00","1998","08","12","02:00"
"1998-08-12 03:00","1998","08","12","03:00"
"1998-08-12 04:00","1998","08","12","04:00"
"1998-08-12 05:00","1998","08","12","05:00","15.4","","14.2","","93","","","","0","","48.3","","101.30","","","","","","Mostly Cloudy"
"1998-08-12 06:00","1998","08","12","06:00","15.5","","14.4","","93","","","","0","","48.3","","101.33","","","","","","Mainly Clear"
"1998-08-12 07:00","1998","08","12","07:00","17.5","","15.6","","89","","","","0","","48.3","","101.37","","","","","","Clear"
"1998-08-12 08:00","1998","08","12","08:00","21.7","","15.2","","67","","32","","7","","48.3","","101.37","","26","","","","Clear"
"1998-08-12 09:00","1998","08","12","09:00","23.4","","16.5","","65","","9","","11","","48.3","","101.40","","28","","","","Clear"
"1998-08-12 10:00","1998","08","12","10:00","24.5","","16.1","","59","","7","","6","","48.3","","101.40","","29","","","","Mainly Clear"
"1998-08-12 11:00","1998","08","12","11:00","25.0","","15.3","","55","","13","","6","","48.3","","101.40","","29","","","","Mostly Cloudy"
"1998-08-12 12:00","1998","08","12","12:00","27.1","","16.7","","53","","","","0","","48.3","","101.33","","32","","","","Mainly Clear"
"1998-08-12 13:00","1998","08","12","13:00","27.3","","16.0","","50","","9","","9","","48.3","","101.30","","32","","","","Mainly Clear"
"1998-08-12 14:00","1998","08","12","14:00","28.0","","15.8","","47","","9","","6","","48.3","","101.27","","32","","","","Mainly Clear"
"1998-08-12 15:00","1998","08","12","15:00","28.7","","15.7","","45","","9","","11","","48.3","","101.20","","33","","","","Mainly Clear"
"1998-08-12 16:00","1998","08","12","16:00","28.9","","14.2","","41","","3","","9","","48.3","","101.20","","32","","","","Mainly Clear"
"1998-08-12 17:00","1998","08","12","17:00","29.5","","10.4","","31","","34","","19","","48.3","","101.17","","31","","","","Mainly Clear"
"1998-08-12 18:00","1998","08","12","18:00","28.8","","10.4","","32","","33","","13","","48.3","","101.13","","30","","","","Mainly Clear"
"1998-08-12 19:00","1998","08","12","19:00","27.4","","12.4","","39","","33","","9","","48.3","","101.13","","30","","","","Clear"
"1998-08-12 20:00","1998","08","12","20:00","22.3","","14.7","","62","","26","","6","","48.3","","101.17","","26","","","","Clear"
"1998-08-12 21:00","1998","08","12","21:00"
"1998-08-12 22:00","1998","08","12","22:00"
"1998-08-12 23:00","1998","08","12","23:00"
"1998-08-13 00:00","1998","08","13","00:00"
"1998-08-13 01:00","1998","08","13","01:00"
"1998-08-13 02:00","1998","08","13","02:00"
"1998-08-13 03:00","1998","08","13","03:00"
"1998-08-13 04:00","1998","08","13","04:00"
"1998-08-13 05:00","1998","08","13","05:00","18.2","","12.1","","68","","32","","9","","32.2","","101.17","","","","","","Clear"
"1998-08-13 06:00","1998","08","13","06:00","17.0","","13.1","","78","","34","","15","","32.2","","101.20","","","","","","Clear"
"1998-08-13 07:00","1998","08","13","07:00","18.9","","13.6","","71","","33","","9","","32.2","","101.20","","","","","","Clear"
"1998-08-13 08:00","1998","08","13","08:00","21.9","","13.5","","59","","31","","15","","32.2","","101.20","","25","","","","Clear"
"1998-08-13 09:00","1998","08","13","09:00","23.9","","14.0","","54","","28","","19","","32.2","","101.17","","27","","","","Clear"
"1998-08-13 10:00","1998","08","13","10:00","26.1","","14.0","","47","","3","","9","","32.2","","101.13","","29","","","","Clear"
"1998-08-13 11:00","1998","08","13","11:00","26.8","","14.1","","46","","36","","7","","32.2","","101.07","","30","","","","Clear"
"1998-08-13 12:00","1998","08","13","12:00","28.1","","14.1","","42","","36","","15","","32.2","","101.00","","32","","","","Clear"
"1998-08-13 13:00","1998","08","13","13:00","29.4","","13.6","","38","","36","","13","","32.2","","100.96","","33","","","","Clear"
"1998-08-13 14:00","1998","08","13","14:00","30.1","","13.7","","37","","35","","15","","32.2","","100.86","","33","","","","Mainly Clear"
"1998-08-13 15:00","1998","08","13","15:00","30.5","","14.0","","37","","34","","11","","32.2","","100.80","","34","","","","Mainly Clear"
"1998-08-13 16:00","1998","08","13","16:00","30.1","","14.8","","39","","1","","13","","32.2","","100.76","","34","","","","Mainly Clear"
"1998-08-13 17:00","1998","08","13","17:00","29.5","","15.1","","42","","35","","9","","32.2","","100.70","","34","","","","Mainly Clear"
"1998-08-13 18:00","1998","08","13","18:00","28.4","","14.9","","44","","1","","7","","32.2","","100.66","","32","","","","Mainly Clear"
"1998-08-13 19:00","1998","08","13","19:00","26.9","","14.7","","47","","31","","9","","32.2","","100.63","","31","","","","Clear"
"1998-08-13 20:00","1998","08","13","20:00","23.6","","14.4","","56","","30","","9","","32.2","","100.63","","27","","","","Clear"
"1998-08-13 21:00","1998","08","13","21:00"
"1998-08-13 22:00","1998","08","13","22:00"
"1998-08-13 23:00","1998","08","13","23:00"
"1998-08-14 00:00","1998","08","14","00:00"
"1998-08-14 01:00","1998","08","14","01:00"
"1998-08-14 02:00","1998","08","14","02:00"
"1998-08-14 03:00","1998","08","14","03:00"
"1998-08-14 04:00","1998","08","14","04:00"
"1998-08-14 05:00","1998","08","14","05:00","16.1","","13.7","","86","","27","","9","","32.2","","100.46","","","","","","Mainly Clear"
"1998-08-14 06:00","1998","08","14","06:00","16.0","","13.8","","87","","30","","9","","32.2","","100.46","","","","","","Mainly Clear"
"1998-08-14 07:00","1998","08","14","07:00","18.2","","14.3","","78","","27","","9","","32.2","","100.46","","","","","","Mainly Clear"
"1998-08-14 08:00","1998","08","14","08:00","19.2","","14.6","","75","","33","","9","","32.2","","100.43","","","","","","Mainly Clear"
"1998-08-14 09:00","1998","08","14","09:00","21.5","","15.5","","69","","27","","9","","32.2","","100.43","","26","","","","Mainly Clear"
"1998-08-14 10:00","1998","08","14","10:00","22.2","","15.2","","65","","9","","9","","32.2","","100.40","","26","","","","Mainly Clear"
"1998-08-14 11:00","1998","08","14","11:00","23.6","","15.9","","62","","9","","9","","32.2","","100.40","","28","","","","Mostly Cloudy"
"1998-08-14 12:00","1998","08","14","12:00","24.8","","16.1","","58","","9","","6","","32.2","","100.33","","29","","","","Mostly Cloudy"
"1998-08-14 13:00","1998","08","14","13:00","25.1","","16.1","","57","","4","","6","","32.2","","100.26","","30","","","","Mostly Cloudy"
"1998-08-14 14:00","1998","08","14","14:00","25.8","","16.0","","55","","9","","9","","32.2","","100.23","","30","","","","Mostly Cloudy"
"1998-08-14 15:00","1998","08","14","15:00","26.0","","15.9","","54","","9","","9","","32.2","","100.16","","31","","","","Mostly Cloudy"
"1998-08-14 16:00","1998","08","14","16:00","25.9","","15.8","","54","","11","","9","","32.2","","100.13","","30","","","","Mostly Cloudy"
"1998-08-14 17:00","1998","08","14","17:00","23.6","","15.2","","59","","35","","19","","32.2","","100.16","","28","","","","Mostly Cloudy"
"1998-08-14 18:00","1998","08","14","18:00","21.8","","14.3","","62","","35","","19","","32.2","","100.13","","25","","","","Mostly Cloudy"
"1998-08-14 19:00","1998","08","14","19:00","20.2","","12.3","","60","","34","","22","","32.2","","100.16","","","","","","Mostly Cloudy"
"1998-08-14 20:00","1998","08","14","20:00","18.2","","11.3","","64","","30","","19","","32.2","","100.19","","","","","","Mostly Cloudy"
"1998-08-14 21:00","1998","08","14","21:00"
"1998-08-14 22:00","1998","08","14","22:00"
"1998-08-14 23:00","1998","08","14","23:00"
"1998-08-15 00:00","1998","08","15","00:00"
"1998-08-15 01:00","1998","08","15","01:00"
"1998-08-15 02:00","1998","08","15","02:00"
"1998-08-15 03:00","1998","08","15","03:00"
"1998-08-15 04:00","1998","08","15","04:00"
"1998-08-15 05:00","1998","08","15","05:00","12.5","","9.6","","82","","28","","9","","32.2","","100.23","","","","","","Mostly Cloudy"
"1998-08-15 06:00","1998","08","15","06:00","11.9","","9.8","","87","","","","0","","32.2","","100.23","","","","","","Mostly Cloudy"
"1998-08-15 07:00","1998","08","15","07:00","12.9","","10.2","","84","","","","0","","32.2","","100.23","","","","","","Mainly Clear"
"1998-08-15 08:00","1998","08","15","08:00","16.4","","10.0","","66","","","","0","","32.2","","100.19","","","","","","Mainly Clear"
"1998-08-15 09:00","1998","08","15","09:00","18.5","","10.9","","61","","3","","11","","32.2","","100.19","","","","","","Mainly Clear"
"1998-08-15 10:00","1998","08","15","10:00","18.3","","11.0","","62","","9","","15","","32.2","","100.19","","","","","","Mostly Cloudy"
"1998-08-15 11:00","1998","08","15","11:00","18.5","","9.8","","57","","12","","9","","32.2","","100.19","","","","","","Mostly Cloudy"
"1998-08-15 12:00","1998","08","15","12:00","18.5","","9.7","","57","","12","","13","","32.2","","100.19","","","","","","Mostly Cloudy"
"1998-08-15 13:00","1998","08","15","13:00","18.8","","9.4","","54","","9","","11","","32.2","","100.16","","","","","","Mostly Cloudy"
"1998-08-15 14:00","1998","08","15","14:00","16.9","","12.2","","74","","5","","4","","32.2","","100.16","","","","","","Mostly Cloudy"
"1998-08-15 15:00","1998","08","15","15:00","16.6","","13.0","","79","","","","0","","32.2","","100.13","","","","","","Mostly Cloudy"
"1998-08-15 16:00","1998","08","15","16:00","18.2","","11.7","","66","","32","","7","","32.2","","100.09","","","","","","Mostly Cloudy"
"1998-08-15 17:00","1998","08","15","17:00","15.2","","13.6","","90","","35","","9","","32.2","","100.09","","","","","","Moderate Rain Showers"
"1998-08-15 18:00","1998","08","15","18:00","13.5","","11.1","","85","","34","","15","","32.2","","100.19","","","","","","Rain Showers"
"1998-08-15 19:00","1998","08","15","19:00","12.9","","9.9","","82","","29","","7","","32.2","","100.16","","","","","","Mostly Cloudy"
"1998-08-15 20:00","1998","08","15","20:00","12.8","","10.0","","83","","31","","9","","32.2","","100.19","","","","","","Mostly Cloudy"
"1998-08-15 21:00","1998","08","15","21:00"
"1998-08-15 22:00","1998","08","15","22:00"
"1998-08-15 23:00","1998","08","15","23:00"
"1998-08-16 00:00","1998","08","16","00:00"
"1998-08-16 01:00","1998","08","16","01:00"
"1998-08-16 02:00","1998","08","16","02:00"
"1998-08-16 03:00","1998","08","16","03:00"
"1998-08-16 04:00","1998","08","16","04:00"
"1998-08-16 05:00","1998","08","16","05:00","10.4","","8.8","","90","","","","0","","32.2","","100.26","","","","","","Mainly Clear"
"1998-08-16 06:00","1998","08","16","06:00","9.4","","8.3","","93","","","","0","","32.2","","100.33","","","","","","Mainly Clear"
"1998-08-16 07:00","1998","08","16","07:00","11.3","","9.8","","90","","","","0","","32.2","","100.33","","","","","","Mostly Cloudy"
"1998-08-16 08:00","1998","08","16","08:00","13.6","","10.4","","81","","","","0","","32.2","","100.33","","","","","","Mostly Cloudy"
"1998-08-16 09:00","1998","08","16","09:00","16.1","","10.7","","70","","30","","6","","32.2","","100.33","","","","","","Mostly Cloudy"
"1998-08-16 10:00","1998","08","16","10:00","15.8","","10.8","","72","","6","","9","","32.2","","100.40","","","","","","Mostly Cloudy"
"1998-08-16 11:00","1998","08","16","11:00","15.3","","10.3","","72","","8","","6","","32.2","","100.43","","","","","","Mostly Cloudy"
"1998-08-16 12:00","1998","08","16","12:00","14.4","","11.1","","81","","11","","7","","16.1","","100.46","","","","","","Cloudy"
"1998-08-16 13:00","1998","08","16","13:00","15.3","","11.3","","77","","17","","6","","24.1","","100.46","","","","","","Rain Showers"
"1998-08-16 14:00","1998","08","16","14:00","16.0","","11.4","","74","","12","","9","","24.1","","100.43","","","","","","Mostly Cloudy"
"1998-08-16 15:00","1998","08","16","15:00","15.8","","12.4","","80","","9","","9","","19.3","","100.43","","","","","","Rain Showers"
"1998-08-16 16:00","1998","08","16","16:00","14.5","","12.9","","90","","7","","6","","16.1","","100.43","","","","","","Rain Showers"
"1998-08-16 17:00","1998","08","16","17:00","13.6","","12.3","","92","","","","0","","16.1","","100.46","","","","","","Rain Showers"
"1998-08-16 18:00","1998","08","16","18:00","13.2","","11.9","","92","","","","0","","16.1","","100.50","","","","","","Rain Showers"
"1998-08-16 19:00","1998","08","16","19:00","13.1","","12.0","","93","","","","0","","16.1","","100.50","","","","","","Rain Showers"
"1998-08-16 20:00","1998","08","16","20:00","12.8","","11.3","","91","","","","0","","19.3","","100.50","","","","","","Mostly Cloudy"
"1998-08-16 21:00","1998","08","16","21:00"
"1998-08-16 22:00","1998","08","16","22:00"
"1998-08-16 23:00","1998","08","16","23:00"
"1998-08-17 00:00","1998","08","17","00:00"
"1998-08-17 01:00","1998","08","17","01:00"
"1998-08-17 02:00","1998","08","17","02:00"
"1998-08-17 03:00","1998","08","17","03:00"
"1998-08-17 04:00","1998","08","17","04:00"
"1998-08-17 05:00","1998","08","17","05:00","12.2","","11.3","","94","","","","0","","12.9","","100.40","","","","","","Cloudy"
"1998-08-17 06:00","1998","08","17","06:00","12.2","","11.5","","95","","","","0","","16.1","","100.46","","","","","","Rain Showers"
"1998-08-17 07:00","1998","08","17","07:00","12.4","","11.5","","94","","","","0","","9.7","","100.46","","","","","","Rain Showers,Fog"
"1998-08-17 08:00","1998","08","17","08:00","13.5","","11.6","","88","","","","0","","16.1","","100.46","","","","","","Mostly Cloudy"
"1998-08-17 09:00","1998","08","17","09:00","13.9","","11.8","","87","","","","0","","12.9","","100.50","","","","","","Mostly Cloudy"
"1998-08-17 10:00","1998","08","17","10:00","14.9","","11.3","","79","","","","0","","16.1","","100.53","","","","","","Mostly Cloudy"
"1998-08-17 11:00","1998","08","17","11:00","15.6","","11.8","","78","","","","0","","16.1","","100.53","","","","","","Mostly Cloudy"
"1998-08-17 12:00","1998","08","17","12:00","17.7","","11.0","","65","","","","0","","16.1","","100.56","","","","","","Mostly Cloudy"
"1998-08-17 13:00","1998","08","17","13:00","16.6","","12.1","","75","","10","","7","","24.1","","100.56","","","","","","Mostly Cloudy"
"1998-08-17 14:00","1998","08","17","14:00","15.7","","11.5","","76","","11","","11","","24.1","","100.53","","","","","","Mostly Cloudy"
"1998-08-17 15:00","1998","08","17","15:00","15.4","","11.0","","75","","","","0","","24.1","","100.56","","","","","","Mostly Cloudy"
"1998-08-17 16:00","1998","08","17","16:00","15.2","","12.2","","82","","30","","7","","24.1","","100.56","","","","","","Rain Showers"
"1998-08-17 17:00","1998","08","17","17:00","15.8","","12.1","","79","","22","","4","","24.1","","100.56","","","","","","Mostly Cloudy"
"1998-08-17 18:00","1998","08","17","18:00","15.5","","12.1","","80","","","","0","","24.1","","100.56","","","","","","Mostly Cloudy"
"1998-08-17 19:00","1998","08","17","19:00","15.3","","12.2","","82","","","","0","","24.1","","100.53","","","","","","Mostly Cloudy"
"1998-08-17 20:00","1998","08","17","20:00","14.2","","12.3","","88","","","","0","","24.1","","100.56","","","","","","Mostly Cloudy"
"1998-08-17 21:00","1998","08","17","21:00"
"1998-08-17 22:00","1998","08","17","22:00"
"1998-08-17 23:00","1998","08","17","23:00"
"1998-08-18 00:00","1998","08","18","00:00"
"1998-08-18 01:00","1998","08","18","01:00"
"1998-08-18 02:00","1998","08","18","02:00"
"1998-08-18 03:00","1998","08","18","03:00"
"1998-08-18 04:00","1998","08","18","04:00"
"1998-08-18 05:00","1998","08","18","05:00","11.1","","10.0","","93","","","","0","","32.2","","100.56","","","","","","Cloudy"
"1998-08-18 06:00","1998","08","18","06:00","11.7","","10.1","","90","","","","0","","32.2","","100.56","","","","","","Mostly Cloudy"
"1998-08-18 07:00","1998","08","18","07:00","12.4","","10.2","","86","","","","0","","32.2","","100.56","","","","","","Mostly Cloudy"
"1998-08-18 08:00","1998","08","18","08:00","14.0","","10.7","","80","","","","0","","32.2","","100.63","","","","","","Mostly Cloudy"
"1998-08-18 09:00","1998","08","18","09:00","16.0","","10.0","","68","","1","","9","","32.2","","100.60","","","","","","Mostly Cloudy"
"1998-08-18 10:00","1998","08","18","10:00","17.0","","10.9","","67","","6","","4","","32.2","","100.63","","","","","","Mostly Cloudy"
"1998-08-18 11:00","1998","08","18","11:00","17.4","","10.3","","63","","8","","9","","32.2","","100.63","","","","","","Mostly Cloudy"
"1998-08-18 12:00","1998","08","18","12:00","18.5","","9.7","","57","","12","","7","","32.2","","100.63","","","","","","Mostly Cloudy"
"1998-08-18 13:00","1998","08","18","13:00","18.9","","8.8","","52","","11","","9","","32.2","","100.63","","","","","","Mostly Cloudy"
"1998-08-18 14:00","1998","08","18","14:00","19.0","","9.4","","54","","","","0","","32.2","","100.66","","","","","","Mostly Cloudy"
"1998-08-18 15:00","1998","08","18","15:00","18.5","","9.6","","56","","9","","6","","32.2","","100.66","","","","","","Cloudy"
"1998-08-18 16:00","1998","08","18","16:00","18.4","","10.3","","59","","12","","4","","32.2","","100.70","","","","","","Cloudy"
"1998-08-18 17:00","1998","08","18","17:00","18.2","","10.9","","62","","","","0","","32.2","","100.70","","","","","","Cloudy"
"1998-08-18 18:00","1998","08","18","18:00","18.0","","10.9","","63","","","","0","","32.2","","100.73","","","","","","Cloudy"
"1998-08-18 19:00","1998","08","18","19:00","17.0","","12.6","","75","","","","0","","32.2","","100.73","","","","","","Cloudy"
"1998-08-18 20:00","1998","08","18","20:00","16.3","","12.6","","79","","","","0","","32.2","","100.76","","","","","","Cloudy"
"1998-08-18 21:00","1998","08","18","21:00"
"1998-08-18 22:00","1998","08","18","22:00"
"1998-08-18 23:00","1998","08","18","23:00"
"1998-08-19 00:00","1998","08","19","00:00"
"1998-08-19 01:00","1998","08","19","01:00"
"1998-08-19 02:00","1998","08","19","02:00"
"1998-08-19 03:00","1998","08","19","03:00"
"1998-08-19 04:00","1998","08","19","04:00"
"1998-08-19 05:00","1998","08","19","05:00","9.6","","8.5","","93","","31","","4","","32.2","","100.73","","","","","","Mostly Cloudy"
"1998-08-19 06:00","1998","08","19","06:00","10.2","","8.9","","92","","31","","4","","32.2","","100.76","","","","","","Mainly Clear"
"1998-08-19 07:00","1998","08","19","07:00","12.8","","10.2","","84","","31","","9","","32.2","","100.76","","","","","","Mainly Clear"
"1998-08-19 08:00","1998","08","19","08:00","16.3","","10.5","","69","","30","","9","","32.2","","100.76","","","","","","Clear"
"1998-08-19 09:00","1998","08","19","09:00","18.2","","10.2","","60","","33","","11","","32.2","","100.76","","","","","","Mainly Clear"
"1998-08-19 10:00","1998","08","19","10:00","19.8","","10.7","","56","","","","0","","32.2","","100.73","","","","","","Mainly Clear"
"1998-08-19 11:00","1998","08","19","11:00","21.1","","10.9","","52","","7","","11","","32.2","","100.70","","","","","","Mainly Clear"
"1998-08-19 12:00","1998","08","19","12:00","21.6","","11.2","","52","","6","","9","","32.2","","100.66","","","","","","Mainly Clear"
"1998-08-19 13:00","1998","08","19","13:00","22.5","","11.5","","50","","3","","15","","32.2","","100.63","","25","","","","Mainly Clear"
"1998-08-19 14:00","1998","08","19","14:00","23.5","","11.8","","48","","9","","9","","32.2","","100.60","","26","","","","Mainly Clear"
"1998-08-19 15:00","1998","08","19","15:00","23.6","","10.6","","44","","9","","11","","32.2","","100.53","","25","","","","Mainly Clear"
"1998-08-19 16:00","1998","08","19","16:00","24.2","","10.5","","42","","8","","6","","32.2","","100.50","","26","","","","Mainly Clear"
"1998-08-19 17:00","1998","08","19","17:00","24.4","","10.8","","42","","8","","9","","32.2","","100.43","","26","","","","Mainly Clear"
"1998-08-19 18:00","1998","08","19","18:00","23.5","","10.5","","44","","11","","7","","32.2","","100.40","","25","","","","Mainly Clear"
"1998-08-19 19:00","1998","08","19","19:00","21.5","","11.4","","53","","","","0","","32.2","","100.40","","","","","","Mainly Clear"
"1998-08-19 20:00","1998","08","19","20:00","16.9","","12.2","","74","","31","","6","","32.2","","100.40","","","","","","Mainly Clear"
"1998-08-19 21:00","1998","08","19","21:00"
"1998-08-19 22:00","1998","08","19","22:00"
"1998-08-19 23:00","1998","08","19","23:00"
"1998-08-20 00:00","1998","08","20","00:00"
"1998-08-20 01:00","1998","08","20","01:00"
"1998-08-20 02:00","1998","08","20","02:00"
"1998-08-20 03:00","1998","08","20","03:00"
"1998-08-20 04:00","1998","08","20","04:00"
"1998-08-20 05:00","1998","08","20","05:00","11.8","","9.4","","85","","30","","7","","32.2","","100.36","","","","","","Mainly Clear"
"1998-08-20 06:00","1998","08","20","06:00","11.5","","9.7","","89","","","","0","","32.2","","100.40","","","","","","Mostly Cloudy"
"1998-08-20 07:00","1998","08","20","07:00","14.2","","11.3","","83","","33","","7","","32.2","","100.40","","","","","","Mainly Clear"
"1998-08-20 08:00","1998","08","20","08:00","18.0","","12.2","","69","","31","","4","","32.2","","100.40","","","","","","Mainly Clear"
"1998-08-20 09:00","1998","08","20","09:00","20.2","","13.0","","63","","9","","9","","32.2","","100.40","","","","","","Mainly Clear"
"1998-08-20 10:00","1998","08","20","10:00","20.9","","12.6","","59","","10","","9","","32.2","","100.40","","","","","","Mainly Clear"
"1998-08-20 11:00","1998","08","20","11:00","21.8","","12.9","","57","","6","","9","","32.2","","100.36","","25","","","","Mainly Clear"
"1998-08-20 12:00","1998","08","20","12:00","22.6","","12.7","","54","","13","","15","","32.2","","100.33","","25","","","","Mainly Clear"
"1998-08-20 13:00","1998","08","20","13:00","24.2","","12.3","","47","","9","","7","","32.2","","100.29","","27","","","","Mainly Clear"
"1998-08-20 14:00","1998","08","20","14:00","25.4","","12.9","","46","","8","","11","","32.2","","100.26","","28","","","","Mainly Clear"
"1998-08-20 15:00","1998","08","20","15:00","25.6","","12.3","","44","","12","","7","","32.2","","100.23","","28","","","","Mainly Clear"
"1998-08-20 16:00","1998","08","20","16:00","25.4","","11.5","","42","","12","","9","","32.2","","100.19","","27","","","","Mainly Clear"
"1998-08-20 17:00","1998","08","20","17:00","24.5","","11.7","","45","","","","0","","32.2","","100.16","","27","","","","Mainly Clear"
"1998-08-20 18:00","1998","08","20","18:00","23.7","","11.2","","45","","","","0","","32.2","","100.16","","26","","","","Mainly Clear"
"1998-08-20 19:00","1998","08","20","19:00","22.2","","12.4","","54","","30","","6","","32.2","","100.16","","25","","","","Mainly Clear"
"1998-08-20 20:00","1998","08","20","20:00","17.2","","12.4","","73","","28","","7","","32.2","","100.23","","","","","","Mainly Clear"
"1998-08-20 21:00","1998","08","20","21:00"
"1998-08-20 22:00","1998","08","20","22:00"
"1998-08-20 23:00","1998","08","20","23:00"
"1998-08-21 00:00","1998","08","21","00:00"
"1998-08-21 01:00","1998","08","21","01:00"
"1998-08-21 02:00","1998","08","21","02:00"
"1998-08-21 03:00","1998","08","21","03:00"
"1998-08-21 04:00","1998","08","21","04:00"
"1998-08-21 05:00","1998","08","21","05:00","11.4","","9.5","","88","","29","","11","","32.2","","100.53","","","","","","Mainly Clear"
"1998-08-21 06:00","1998","08","21","06:00","11.6","","9.6","","88","","30","","9","","32.2","","100.53","","","","","","Mainly Clear"
"1998-08-21 07:00","1998","08","21","07:00","13.1","","10.6","","85","","28","","9","","32.2","","100.63","","","","","","Mainly Clear"
"1998-08-21 08:00","1998","08","21","08:00","15.3","","10.7","","74","","31","","9","","32.2","","100.66","","","","","","Mostly Cloudy"
"1998-08-21 09:00","1998","08","21","09:00","17.6","","11.6","","68","","30","","6","","32.2","","100.66","","","","","","Mainly Clear"
"1998-08-21 10:00","1998","08","21","10:00","18.6","","11.9","","65","","11","","13","","32.2","","100.66","","","","","","Mostly Cloudy"
"1998-08-21 11:00","1998","08","21","11:00","19.9","","12.5","","62","","6","","7","","32.2","","100.63","","","","","","Mostly Cloudy"
"1998-08-21 12:00","1998","08","21","12:00","20.8","","12.2","","58","","9","","13","","32.2","","100.63","","","","","","Mostly Cloudy"
"1998-08-21 13:00","1998","08","21","13:00","21.3","","12.1","","56","","9","","9","","32.2","","100.63","","","","","","Mostly Cloudy"
"1998-08-21 14:00","1998","08","21","14:00","21.6","","12.1","","55","","10","","6","","32.2","","100.60","","","","","","Mainly Clear"
"1998-08-21 15:00","1998","08","21","15:00","22.1","","12.6","","55","","","","0","","32.2","","100.56","","25","","","","Mainly Clear"
"1998-08-21 16:00","1998","08","21","16:00","22.0","","12.8","","56","","9","","9","","32.2","","100.53","","25","","","","Mainly Clear"
"1998-08-21 17:00","1998","08","21","17:00","22.4","","12.4","","53","","35","","6","","32.2","","100.53","","25","","","","Mainly Clear"
"1998-08-21 18:00","1998","08","21","18:00","21.5","","13.0","","58","","","","0","","32.2","","100.53","","","","","","Mainly Clear"
"1998-08-21 19:00","1998","08","21","19:00","19.6","","11.5","","59","","","","0","","32.2","","100.56","","","","","","Mainly Clear"
"1998-08-21 20:00","1998","08","21","20:00","16.6","","11.8","","73","","","","0","","32.2","","100.60","","","","","","Mainly Clear"
"1998-08-21 21:00","1998","08","21","21:00"
"1998-08-21 22:00","1998","08","21","22:00"
"1998-08-21 23:00","1998","08","21","23:00"
"1998-08-22 00:00","1998","08","22","00:00"
"1998-08-22 01:00","1998","08","22","01:00"
"1998-08-22 02:00","1998","08","22","02:00"
"1998-08-22 03:00","1998","08","22","03:00"
"1998-08-22 04:00","1998","08","22","04:00"
"1998-08-22 05:00","1998","08","22","05:00","11.4","","8.3","","81","","27","","6","","32.2","","100.73","","","","","","Mainly Clear"
"1998-08-22 06:00","1998","08","22","06:00","12.0","","8.2","","78","","28","","6","","32.2","","100.80","","","","","","Mainly Clear"
"1998-08-22 07:00","1998","08","22","07:00","13.1","","8.5","","74","","28","","9","","32.2","","100.80","","","","","","Mainly Clear"
"1998-08-22 08:00","1998","08","22","08:00","14.6","","9.4","","71","","28","","9","","32.2","","100.76","","","","","","Mainly Clear"
"1998-08-22 09:00","1998","08","22","09:00","16.2","","9.7","","65","","31","","11","","32.2","","100.76","","","","","","Mostly Cloudy"
"1998-08-22 10:00","1998","08","22","10:00","18.2","","10.3","","60","","31","","9","","32.2","","100.76","","","","","","Mostly Cloudy"
"1998-08-22 11:00","1998","08","22","11:00","19.2","","10.6","","57","","28","","9","","32.2","","100.76","","","","","","Mostly Cloudy"
"1998-08-22 12:00","1998","08","22","12:00","20.5","","11.1","","55","","28","","11","","32.2","","100.73","","","","","","Mostly Cloudy"
"1998-08-22 13:00","1998","08","22","13:00","21.0","","11.5","","55","","10","","19","","32.2","","100.66","","","","","","Mainly Clear"
"1998-08-22 14:00","1998","08","22","14:00","22.2","","12.5","","54","","10","","19","","32.2","","100.63","","25","","","","Mainly Clear"
"1998-08-22 15:00","1998","08","22","15:00","22.5","","12.0","","51","","10","","9","","32.2","","100.60","","25","","","","Mainly Clear"
"1998-08-22 16:00","1998","08","22","16:00","22.7","","12.0","","51","","9","","9","","32.2","","100.53","","25","","","","Mainly Clear"
"1998-08-22 17:00","1998","08","22","17:00","21.9","","11.4","","51","","9","","9","","32.2","","100.50","","","","","","Mainly Clear"
"1998-08-22 18:00","1998","08","22","18:00","21.9","","12.3","","54","","6","","6","","32.2","","100.43","","","","","","Mainly Clear"
"1998-08-22 19:00","1998","08","22","19:00","19.8","","11.5","","59","","35","","9","","32.2","","100.43","","","","","","Mainly Clear"
"1998-08-22 20:00","1998","08","22","20:00","16.6","","11.5","","72","","","","0","","32.2","","100.43","","","","","","Mainly Clear"
"1998-08-22 21:00","1998","08","22","21:00"
"1998-08-22 22:00","1998","08","22","22:00"
"1998-08-22 23:00","1998","08","22","23:00"
"1998-08-23 00:00","1998","08","23","00:00"
"1998-08-23 01:00","1998","08","23","01:00"
"1998-08-23 02:00","1998","08","23","02:00"
"1998-08-23 03:00","1998","08","23","03:00"
"1998-08-23 04:00","1998","08","23","04:00"
"1998-08-23 05:00","1998","08","23","05:00","10.9","","7.6","","80","","28","","9","","32.2","","100.40","","","","","","Mainly Clear"
"1998-08-23 06:00","1998","08","23","06:00","9.5","","7.5","","87","","28","","7","","32.2","","100.43","","","","","","Mainly Clear"
"1998-08-23 07:00","1998","08","23","07:00","11.0","","8.5","","85","","28","","9","","32.2","","100.43","","","","","","Mainly Clear"
"1998-08-23 08:00","1998","08","23","08:00","15.2","","10.2","","72","","28","","7","","32.2","","100.50","","","","","","Mainly Clear"
"1998-08-23 09:00","1998","08","23","09:00","16.8","","10.5","","66","","31","","9","","32.2","","100.50","","","","","","Mainly Clear"
"1998-08-23 10:00","1998","08","23","10:00","18.8","","11.2","","61","","","","0","","32.2","","100.50","","","","","","Mainly Clear"
"1998-08-23 11:00","1998","08","23","11:00","19.9","","11.1","","57","","34","","9","","32.2","","100.46","","","","","","Mainly Clear"
"1998-08-23 12:00","1998","08","23","12:00","20.5","","10.4","","52","","35","","19","","32.2","","100.46","","","","","","Mainly Clear"
"1998-08-23 13:00","1998","08","23","13:00","21.0","","10.6","","51","","33","","15","","32.2","","100.46","","","","","","Mainly Clear"
"1998-08-23 14:00","1998","08","23","14:00","21.5","","10.9","","51","","3","","7","","32.2","","100.46","","","","","","Mainly Clear"
"1998-08-23 15:00","1998","08","23","15:00","22.6","","11.8","","50","","10","","19","","32.2","","100.46","","25","","","","Mainly Clear"
"1998-08-23 16:00","1998","08","23","16:00","21.5","","10.7","","50","","35","","9","","32.2","","100.46","","","","","","Mainly Clear"
"1998-08-23 17:00","1998","08","23","17:00","21.1","","10.6","","51","","34","","13","","32.2","","100.50","","","","","","Mainly Clear"
"1998-08-23 18:00","1998","08","23","18:00","18.9","","10.1","","57","","34","","11","","32.2","","100.53","","","","","","Mostly Cloudy"
"1998-08-23 19:00","1998","08","23","19:00","17.7","","9.7","","59","","35","","15","","32.2","","100.56","","","","","","Mostly Cloudy"
"1998-08-23 20:00","1998","08","23","20:00","16.2","","9.6","","65","","33","","9","","32.2","","100.56","","","","","","Mostly Cloudy"
"1998-08-23 21:00","1998","08","23","21:00"
"1998-08-23 22:00","1998","08","23","22:00"
"1998-08-23 23:00","1998","08","23","23:00"
"1998-08-24 00:00","1998","08","24","00:00"
"1998-08-24 01:00","1998","08","24","01:00"
"1998-08-24 02:00","1998","08","24","02:00"
"1998-08-24 03:00","1998","08","24","03:00"
"1998-08-24 04:00","1998","08","24","04:00"
"1998-08-24 05:00","1998","08","24","05:00","8.9","","7.8","","93","","","","0","","32.2","","100.63","","","","","","Mainly Clear"
"1998-08-24 06:00","1998","08","24","06:00","9.3","","8.4","","94","","","","0","","32.2","","100.66","","","","","","Mainly Clear"
"1998-08-24 07:00","1998","08","24","07:00","12.7","","10.2","","85","","","","0","","32.2","","100.66","","","","","","Mainly Clear"
"1998-08-24 08:00","1998","08","24","08:00","15.7","","10.7","","72","","29","","9","","32.2","","100.66","","","","","","Mainly Clear"
"1998-08-24 09:00","1998","08","24","09:00","17.5","","10.4","","63","","30","","7","","32.2","","100.63","","","","","","Mainly Clear"
"1998-08-24 10:00","1998","08","24","10:00","18.8","","11.0","","60","","33","","7","","32.2","","100.60","","","","","","Mainly Clear"
"1998-08-24 11:00","1998","08","24","11:00","19.6","","11.7","","60","","6","","4","","32.2","","100.56","","","","","","Mainly Clear"
"1998-08-24 12:00","1998","08","24","12:00","20.1","","11.6","","58","","6","","9","","32.2","","100.53","","","","","","Mainly Clear"
"1998-08-24 13:00","1998","08","24","13:00","20.9","","11.7","","56","","9","","9","","32.2","","100.46","","","","","","Mostly Cloudy"
"1998-08-24 14:00","1998","08","24","14:00","21.3","","11.5","","54","","6","","9","","32.2","","100.43","","","","","","Mostly Cloudy"
"1998-08-24 15:00","1998","08","24","15:00","21.2","","11.8","","55","","9","","15","","32.2","","100.36","","","","","","Mostly Cloudy"
"1998-08-24 16:00","1998","08","24","16:00","21.3","","10.6","","50","","9","","15","","32.2","","100.29","","","","","","Mostly Cloudy"
"1998-08-24 17:00","1998","08","24","17:00","21.3","","11.0","","52","","11","","9","","32.2","","100.23","","","","","","Mostly Cloudy"
"1998-08-24 18:00","1998","08","24","18:00","20.4","","11.4","","56","","18","","6","","32.2","","100.23","","","","","","Mostly Cloudy"
"1998-08-24 19:00","1998","08","24","19:00","18.2","","12.1","","68","","","","0","","32.2","","100.19","","","","","","Mostly Cloudy"
"1998-08-24 20:00","1998","08","24","20:00","15.1","","12.0","","82","","30","","6","","32.2","","100.19","","","","","","Mostly Cloudy"
"1998-08-24 21:00","1998","08","24","21:00"
"1998-08-24 22:00","1998","08","24","22:00"
"1998-08-24 23:00","1998","08","24","23:00"
"1998-08-25 00:00","1998","08","25","00:00"
"1998-08-25 01:00","1998","08","25","01:00"
"1998-08-25 02:00","1998","08","25","02:00"
"1998-08-25 03:00","1998","08","25","03:00"
"1998-08-25 04:00","1998","08","25","04:00"
"1998-08-25 05:00","1998","08","25","05:00","13.2","","10.7","","85","","","","0","","32.2","","100.13","","","","","","Cloudy"
"1998-08-25 06:00","1998","08","25","06:00","12.8","","10.4","","85","","","","0","","32.2","","100.16","","","","","","Mostly Cloudy"
"1998-08-25 07:00","1998","08","25","07:00","14.8","","11.2","","79","","","","0","","32.2","","100.16","","","","","","Mostly Cloudy"
"1998-08-25 08:00","1998","08","25","08:00","15.4","","11.1","","76","","","","0","","32.2","","100.19","","","","","","Mostly Cloudy"
"1998-08-25 09:00","1998","08","25","09:00","18.8","","12.0","","65","","4","","6","","32.2","","100.16","","","","","","Mostly Cloudy"
"1998-08-25 10:00","1998","08","25","10:00","18.7","","11.3","","62","","10","","6","","32.2","","100.16","","","","","","Mostly Cloudy"
"1998-08-25 11:00","1998","08","25","11:00","19.9","","11.7","","59","","10","","15","","32.2","","100.16","","","","","","Mostly Cloudy"
"1998-08-25 12:00","1998","08","25","12:00","21.1","","11.1","","53","","12","","9","","32.2","","100.13","","","","","","Mainly Clear"
"1998-08-25 13:00","1998","08","25","13:00","21.7","","12.0","","54","","10","","11","","24.1","","100.09","","","","","","Mostly Cloudy"
"1998-08-25 14:00","1998","08","25","14:00","21.9","","12.0","","53","","9","","13","","24.1","","100.09","","","","","","Mostly Cloudy"
"1998-08-25 15:00","1998","08","25","15:00","21.4","","11.6","","54","","9","","13","","24.1","","100.06","","","","","","Mostly Cloudy"
"1998-08-25 16:00","1998","08","25","16:00","21.3","","12.0","","55","","13","","7","","32.2","","100.06","","","","","","Mostly Cloudy"
"1998-08-25 17:00","1998","08","25","17:00","21.1","","12.5","","58","","9","","7","","32.2","","100.03","","","","","","Mostly Cloudy"
"1998-08-25 18:00","1998","08","25","18:00","21.4","","12.9","","58","","7","","7","","32.2","","100.03","","","","","","Mostly Cloudy"
"1998-08-25 19:00","1998","08","25","19:00","18.8","","10.8","","60","","2","","11","","32.2","","100.06","","","","","","Mostly Cloudy"
"1998-08-25 20:00","1998","08","25","20:00","16.7","","11.5","","71","","34","","9","","32.2","","100.13","","","","","","Mainly Clear"
"1998-08-25 21:00","1998","08","25","21:00"
"1998-08-25 22:00","1998","08","25","22:00"
"1998-08-25 23:00","1998","08","25","23:00"
"1998-08-26 00:00","1998","08","26","00:00"
"1998-08-26 01:00","1998","08","26","01:00"
"1998-08-26 02:00","1998","08","26","02:00"
"1998-08-26 03:00","1998","08","26","03:00"
"1998-08-26 04:00","1998","08","26","04:00"
"1998-08-26 05:00","1998","08","26","05:00","14.1","","10.2","","77","","31","","9","","32.2","","100.33","","","","","","Mostly Cloudy"
"1998-08-26 06:00","1998","08","26","06:00","13.5","","9.5","","77","","30","","11","","32.2","","100.36","","","","","","Mostly Cloudy"
"1998-08-26 07:00","1998","08","26","07:00","13.5","","9.8","","78","","31","","9","","32.2","","100.36","","","","","","Mainly Clear"
"1998-08-26 08:00","1998","08","26","08:00","15.3","","10.1","","71","","33","","7","","32.2","","100.36","","","","","","Mainly Clear"
"1998-08-26 09:00","1998","08","26","09:00","16.8","","10.7","","67","","29","","6","","32.2","","100.43","","","","","","Mainly Clear"
"1998-08-26 10:00","1998","08","26","10:00","18.4","","10.8","","61","","6","","11","","32.2","","100.43","","","","","","Mainly Clear"
"1998-08-26 11:00","1998","08","26","11:00","19.3","","10.7","","57","","4","","9","","32.2","","100.43","","","","","","Mainly Clear"
"1998-08-26 12:00","1998","08","26","12:00","20.0","","10.8","","55","","10","","13","","32.2","","100.43","","","","","","Mainly Clear"
"1998-08-26 13:00","1998","08","26","13:00","21.0","","11.1","","53","","8","","17","","32.2","","100.43","","","","","","Mainly Clear"
"1998-08-26 14:00","1998","08","26","14:00","20.6","","10.6","","53","","9","","17","","32.2","","100.43","","","","","","Mostly Cloudy"
"1998-08-26 15:00","1998","08","26","15:00","21.2","","11.0","","52","","8","","9","","32.2","","100.43","","","","","","Mostly Cloudy"
"1998-08-26 16:00","1998","08","26","16:00","20.7","","11.3","","55","","9","","11","","32.2","","100.43","","","","","","Mostly Cloudy"
"1998-08-26 17:00","1998","08","26","17:00","20.5","","11.1","","55","","8","","9","","32.2","","100.40","","","","","","Mostly Cloudy"
"1998-08-26 18:00","1998","08","26","18:00","19.3","","11.6","","61","","11","","4","","32.2","","100.40","","","","","","Mostly Cloudy"
"1998-08-26 19:00","1998","08","26","19:00","18.2","","12.5","","69","","9","","4","","32.2","","100.36","","","","","","Mostly Cloudy"
"1998-08-26 20:00","1998","08","26","20:00","17.1","","12.3","","73","","","","0","","32.2","","100.43","","","","","","Mostly Cloudy"
"1998-08-26 21:00","1998","08","26","21:00"
"1998-08-26 22:00","1998","08","26","22:00"
"1998-08-26 23:00","1998","08","26","23:00"
"1998-08-27 00:00","1998","08","27","00:00"
"1998-08-27 01:00","1998","08","27","01:00"
"1998-08-27 02:00","1998","08","27","02:00"
"1998-08-27 03:00","1998","08","27","03:00"
"1998-08-27 04:00","1998","08","27","04:00"
"1998-08-27 05:00","1998","08","27","05:00","14.3","","11.2","","82","","30","","9","","32.2","","100.70","","","","","","Mostly Cloudy"
"1998-08-27 06:00","1998","08","27","06:00","14.7","","10.7","","77","","26","","6","","32.2","","100.73","","","","","","Mostly Cloudy"
"1998-08-27 07:00","1998","08","27","07:00","15.3","","11.5","","78","","","","0","","32.2","","100.73","","","","","","Mostly Cloudy"
"1998-08-27 08:00","1998","08","27","08:00","16.8","","11.1","","69","","","","0","","32.2","","100.76","","","","","","Mainly Clear"
"1998-08-27 09:00","1998","08","27","09:00","18.8","","11.5","","63","","","","0","","32.2","","100.80","","","","","","Mainly Clear"
"1998-08-27 10:00","1998","08","27","10:00","19.4","","11.7","","61","","7","","6","","32.2","","100.83","","","","","","Mainly Clear"
"1998-08-27 11:00","1998","08","27","11:00","19.7","","12.3","","62","","9","","9","","32.2","","100.80","","","","","","Mainly Clear"
"1998-08-27 12:00","1998","08","27","12:00","20.6","","13.1","","62","","6","","9","","32.2","","100.80","","","","","","Mainly Clear"
"1998-08-27 13:00","1998","08","27","13:00","21.1","","13.5","","62","","9","","9","","32.2","","100.76","","","","","","Mainly Clear"
"1998-08-27 14:00","1998","08","27","14:00","21.7","","13.2","","58","","12","","11","","32.2","","100.73","","25","","","","Mainly Clear"
"1998-08-27 15:00","1998","08","27","15:00","22.2","","13.4","","57","","9","","9","","32.2","","100.70","","25","","","","Mainly Clear"
"1998-08-27 16:00","1998","08","27","16:00","21.9","","11.8","","53","","8","","11","","32.2","","100.70","","","","","","Mainly Clear"
"1998-08-27 17:00","1998","08","27","17:00","22.2","","10.4","","47","","8","","9","","32.2","","100.63","","","","","","Mainly Clear"
"1998-08-27 18:00","1998","08","27","18:00","21.7","","10.4","","49","","12","","9","","32.2","","100.60","","","","","","Mainly Clear"
"1998-08-27 19:00","1998","08","27","19:00","20.1","","10.7","","55","","","","0","","32.2","","100.60","","","","","","Mainly Clear"
"1998-08-27 20:00","1998","08","27","20:00","16.6","","11.4","","71","","28","","6","","32.2","","100.63","","","","","","Mainly Clear"
"1998-08-27 21:00","1998","08","27","21:00"
"1998-08-27 22:00","1998","08","27","22:00"
"1998-08-27 23:00","1998","08","27","23:00"
"1998-08-28 00:00","1998","08","28","00:00"
"1998-08-28 01:00","1998","08","28","01:00"
"1998-08-28 02:00","1998","08","28","02:00"
"1998-08-28 03:00","1998","08","28","03:00"
"1998-08-28 04:00","1998","08","28","04:00"
"1998-08-28 05:00","1998","08","28","05:00","9.9","","9.0","","94","","","","0","","32.2","","100.73","","","","","","Clear"
"1998-08-28 06:00","1998","08","28","06:00","9.8","","9.0","","95","","","","0","","32.2","","100.73","","","","","","Clear"
"1998-08-28 07:00","1998","08","28","07:00","11.5","","10.5","","94","","","","0","","32.2","","100.73","","","","","","Clear"
"1998-08-28 08:00","1998","08","28","08:00","17.9","","12.9","","73","","31","","9","","32.2","","100.76","","","","","","Clear"
"1998-08-28 09:00","1998","08","28","09:00","20.6","","13.3","","63","","6","","6","","32.2","","100.73","","","","","","Clear"
"1998-08-28 10:00","1998","08","28","10:00","22.3","","13.7","","58","","9","","9","","32.2","","100.73","","25","","","","Clear"
"1998-08-28 11:00","1998","08","28","11:00","23.5","","14.2","","56","","8","","9","","32.2","","100.73","","27","","","","Clear"
"1998-08-28 12:00","1998","08","28","12:00","24.6","","13.5","","50","","13","","9","","32.2","","100.70","","28","","","","Clear"
"1998-08-28 13:00","1998","08","28","13:00","25.5","","13.0","","46","","10","","9","","48.3","","100.63","","28","","","","Clear"
"1998-08-28 14:00","1998","08","28","14:00","26.3","","11.8","","40","","12","","7","","48.3","","100.60","","28","","","","Clear"
"1998-08-28 15:00","1998","08","28","15:00","27.3","","11.5","","37","","1","","4","","48.3","","100.53","","29","","","","Clear"
"1998-08-28 16:00","1998","08","28","16:00","27.4","","10.6","","35","","9","","6","","48.3","","100.46","","29","","","","Clear"
"1998-08-28 17:00","1998","08","28","17:00","27.9","","10.9","","35","","6","","4","","48.3","","100.43","","30","","","","Clear"
"1998-08-28 18:00","1998","08","28","18:00","27.3","","12.5","","40","","","","0","","48.3","","100.36","","30","","","","Clear"
"1998-08-28 19:00","1998","08","28","19:00","24.6","","13.4","","50","","","","0","","48.3","","100.33","","28","","","","Clear"
"1998-08-28 20:00","1998","08","28","20:00","18.8","","14.2","","75","","","","0","","48.3","","100.36","","","","","","Clear"
"1998-08-28 21:00","1998","08","28","21:00"
"1998-08-28 22:00","1998","08","28","22:00"
"1998-08-28 23:00","1998","08","28","23:00"
"1998-08-29 00:00","1998","08","29","00:00"
"1998-08-29 01:00","1998","08","29","01:00"
"1998-08-29 02:00","1998","08","29","02:00"
"1998-08-29 03:00","1998","08","29","03:00"
"1998-08-29 04:00","1998","08","29","04:00"
"1998-08-29 05:00","1998","08","29","05:00","14.6","","12.1","","85","","31","","11","","32.2","","100.53","","","","","","Clear"
"1998-08-29 06:00","1998","08","29","06:00","14.8","","12.2","","84","","31","","9","","32.2","","100.56","","","","","","Mainly Clear"
"1998-08-29 07:00","1998","08","29","07:00","16.1","","12.9","","81","","31","","13","","32.2","","100.63","","","","","","Clear"
"1998-08-29 08:00","1998","08","29","08:00","17.8","","13.0","","73","","33","","19","","32.2","","100.66","","","","","","Clear"
"1998-08-29 09:00","1998","08","29","09:00","20.0","","13.6","","67","","32","","15","","32.2","","100.66","","","","","","Clear"
"1998-08-29 10:00","1998","08","29","10:00","22.1","","14.2","","61","","34","","9","","32.2","","100.70","","26","","","","Mainly Clear"
"1998-08-29 11:00","1998","08","29","11:00","24.3","","15.8","","59","","9","","11","","32.2","","100.70","","29","","","","Mainly Clear"
"1998-08-29 12:00","1998","08","29","12:00","25.3","","15.6","","55","","13","","9","","32.2","","100.66","","30","","","","Mostly Cloudy"
"1998-08-29 13:00","1998","08","29","13:00","26.8","","14.7","","47","","35","","9","","32.2","","100.66","","31","","","","Mostly Cloudy"
"1998-08-29 14:00","1998","08","29","14:00","28.6","","15.6","","45","","33","","9","","32.2","","100.63","","33","","","","Mainly Clear"
"1998-08-29 15:00","1998","08","29","15:00","28.4","","13.1","","39","","35","","15","","32.2","","100.63","","31","","","","Mainly Clear"
"1998-08-29 16:00","1998","08","29","16:00","27.4","","12.7","","40","","2","","11","","32.2","","100.63","","30","","","","Mainly Clear"
"1998-08-29 17:00","1998","08","29","17:00","26.9","","11.9","","39","","34","","15","","32.2","","100.63","","29","","","","Mainly Clear"
"1998-08-29 18:00","1998","08","29","18:00","26.3","","11.6","","40","","33","","19","","32.2","","100.63","","28","","","","Mainly Clear"
"1998-08-29 19:00","1998","08","29","19:00","23.2","","12.8","","52","","29","","11","","32.2","","100.63","","26","","","","Mainly Clear"
"1998-08-29 20:00","1998","08","29","20:00","22.2","","12.3","","53","","26","","13","","32.2","","100.70","","25","","","","Mainly Clear"
"1998-08-29 21:00","1998","08","29","21:00"
"1998-08-29 22:00","1998","08","29","22:00"
"1998-08-29 23:00","1998","08","29","23:00"
"1998-08-30 00:00","1998","08","30","00:00"
"1998-08-30 01:00","1998","08","30","01:00"
"1998-08-30 02:00","1998","08","30","02:00"
"1998-08-30 03:00","1998","08","30","03:00"
"1998-08-30 04:00","1998","08","30","04:00"
"1998-08-30 05:00","1998","08","30","05:00","16.2","","10.7","","70","","31","","19","","32.2","","100.76","","","","","","Mainly Clear"
"1998-08-30 06:00","1998","08","30","06:00","15.6","","12.7","","83","","31","","13","","32.2","","100.80","","","","","","Mainly Clear"
"1998-08-30 07:00","1998","08","30","07:00","16.5","","13.0","","80","","31","","15","","32.2","","100.83","","","","","","Mainly Clear"
"1998-08-30 08:00","1998","08","30","08:00","18.8","","13.4","","71","","31","","11","","32.2","","100.83","","","","","","Mostly Cloudy"
"1998-08-30 09:00","1998","08","30","09:00","19.8","","13.2","","66","","31","","19","","32.2","","100.83","","","","","","Mostly Cloudy"
"1998-08-30 10:00","1998","08","30","10:00","21.8","","13.5","","59","","31","","19","","32.2","","100.83","","25","","","","Mainly Clear"
"1998-08-30 11:00","1998","08","30","11:00","23.8","","14.7","","57","","31","","9","","32.2","","100.83","","28","","","","Mainly Clear"
"1998-08-30 12:00","1998","08","30","12:00","25.5","","15.7","","55","","6","","9","","32.2","","100.76","","30","","","","Mainly Clear"
"1998-08-30 13:00","1998","08","30","13:00","26.7","","15.3","","50","","6","","9","","32.2","","100.73","","31","","","","Mainly Clear"
"1998-08-30 14:00","1998","08","30","14:00","28.0","","14.9","","45","","35","","19","","32.2","","100.73","","32","","","","Mainly Clear"
"1998-08-30 15:00","1998","08","30","15:00","29.0","","12.3","","36","","3","","15","","32.2","","100.66","","31","","","","Mainly Clear"
"1998-08-30 16:00","1998","08","30","16:00","29.3","","12.4","","35","","33","","9","","32.2","","100.63","","32","","","","Mainly Clear"
"1998-08-30 17:00","1998","08","30","17:00","29.3","","12.7","","36","","34","","19","","32.2","","100.60","","32","","","","Mainly Clear"
"1998-08-30 18:00","1998","08","30","18:00","27.6","","12.9","","40","","33","","9","","32.2","","100.56","","30","","","","Mainly Clear"
"1998-08-30 19:00","1998","08","30","19:00","24.5","","13.8","","51","","30","","9","","32.2","","100.56","","28","","","","Mainly Clear"
"1998-08-30 20:00","1998","08","30","20:00","21.5","","12.6","","57","","29","","19","","32.2","","100.63","","","","","","Mainly Clear"
"1998-08-30 21:00","1998","08","30","21:00"
"1998-08-30 22:00","1998","08","30","22:00"
"1998-08-30 23:00","1998","08","30","23:00"
"1998-08-31 00:00","1998","08","31","00:00"
"1998-08-31 01:00","1998","08","31","01:00"
"1998-08-31 02:00","1998","08","31","02:00"
"1998-08-31 03:00","1998","08","31","03:00"
"1998-08-31 04:00","1998","08","31","04:00"
"1998-08-31 05:00","1998","08","31","05:00","14.0","","11.1","","83","","27","","4","","32.2","","100.56","","","","","","Mainly Clear"
"1998-08-31 06:00","1998","08","31","06:00","12.6","","10.5","","87","","","","0","","32.2","","100.60","","","","","","Mainly Clear"
"1998-08-31 07:00","1998","08","31","07:00","14.5","","11.8","","84","","","","0","","32.2","","100.60","","","","","","Mainly Clear"
"1998-08-31 08:00","1998","08","31","08:00","20.4","","13.6","","65","","","","0","","32.2","","100.60","","","","","","Mainly Clear"
"1998-08-31 09:00","1998","08","31","09:00","23.4","","14.6","","58","","","","0","","32.2","","100.56","","27","","","","Clear"
"1998-08-31 10:00","1998","08","31","10:00","24.3","","13.8","","52","","9","","13","","32.2","","100.50","","28","","","","Clear"
"1998-08-31 11:00","1998","08","31","11:00","25.2","","12.5","","45","","3","","6","","32.2","","100.46","","28","","","","Clear"
"1998-08-31 12:00","1998","08","31","12:00","26.1","","13.5","","46","","8","","6","","32.2","","100.43","","29","","","","Mainly Clear"
"1998-08-31 13:00","1998","08","31","13:00","27.1","","13.0","","42","","6","","9","","32.2","","100.36","","30","","","","Mainly Clear"
"1998-08-31 14:00","1998","08","31","14:00","28.4","","12.9","","38","","6","","9","","32.2","","100.33","","31","","","","Mainly Clear"
"1998-08-31 15:00","1998","08","31","15:00","29.2","","12.6","","36","","9","","9","","32.2","","100.23","","32","","","","Mainly Clear"
"1998-08-31 16:00","1998","08","31","16:00","29.5","","12.6","","35","","6","","9","","32.2","","100.19","","32","","","","Mainly Clear"
"1998-08-31 17:00","1998","08","31","17:00","29.9","","11.8","","33","","11","","4","","32.2","","100.09","","32","","","","Mostly Cloudy"
"1998-08-31 18:00","1998","08","31","18:00","27.0","","13.6","","44","","","","0","","32.2","","100.06","","30","","","","Mostly Cloudy"
"1998-08-31 19:00","1998","08","31","19:00","23.8","","16.1","","62","","","","0","","32.2","","100.06","","28","","","","Mostly Cloudy"
"1998-08-31 20:00","1998","08","31","20:00","21.7","","15.1","","66","","30","","9","","32.2","","100.09","","26","","","","Mostly Cloudy"
"1998-08-31 21:00","1998","08","31","21:00"
"1998-08-31 22:00","1998","08","31","22:00"
"1998-08-31 23:00","1998","08","31","23:00"
