"Station Name","CAMPBELL RIVER A"
"Province","BRITISH COLUMBIA"
"Latitude","49.95"
"Longitude","-125.27"
"Elevation","108.80"
"Climate Identifier","1021261"
"WMO Identifier",""
"TC Identifier","YBL"
"All times are specified in Local Standard Time (LST). Add 1 hour to adjust for Daylight Saving Time where and when it is observed."

"Legend"
"E","Estimated"
"M","Missing"
"NA","Not Available"

"Date/Time","Year","Month","Day","Time","Temp (°C)","Temp Flag","Dew Point Temp (°C)","Dew Point Temp Flag","Rel Hum (%)","Rel Hum Flag","Wind Dir (10s deg)","Wind Dir Flag","Wind Spd (km/h)","Wind Spd Flag","Visibility (km)","Visibility Flag","Stn Press (kPa)","Stn Press Flag","Hmdx","Hmdx Flag","Wind Chill","Wind Chill Flag","Weather"
"2007-02-01 00:00","2007","02","01","00:00"
"2007-02-01 01:00","2007","02","01","01:00"
"2007-02-01 02:00","2007","02","01","02:00"
"2007-02-01 03:00","2007","02","01","03:00"
"2007-02-01 04:00","2007","02","01","04:00"
"2007-02-01 05:00","2007","02","01","05:00"
"2007-02-01 06:00","2007","02","01","06:00","-4.0","","-4.8","","94","","","","0","","25.0","","101.02","","","","","","Clear"
"2007-02-01 07:00","2007","02","01","07:00","-4.6","","-5.5","","93","","33","","6","","25.0","","101.03","","","","-7","","Clear"
"2007-02-01 08:00","2007","02","01","08:00","-4.4","","-5.4","","93","","","","0","","48.3","","101.11","","","","","","Clear"
"2007-02-01 09:00","2007","02","01","09:00","-3.5","","-4.2","","95","","","","0","","48.3","","101.17","","","","","","Clear"
"2007-02-01 10:00","2007","02","01","10:00","-0.3","","-1.2","","94","","","","0","","48.3","","101.20","","","","","","Clear"
"2007-02-01 11:00","2007","02","01","11:00","3.7","","0.6","","80","","","","0","","48.3","","101.27","","","","","","Clear"
"2007-02-01 12:00","2007","02","01","12:00","6.5","","2.2","","74","","","","0","","48.3","","101.22","","","","","","Clear"
"2007-02-01 13:00","2007","02","01","13:00","6.6","","3.2","","79","","9","","9","","48.3","","101.20","","","","","","Clear"
"2007-02-01 14:00","2007","02","01","14:00","7.4","","2.5","","71","","","","0","","48.3","","101.17","","","","","","Clear"
"2007-02-01 15:00","2007","02","01","15:00","10.9","","3.0","","58","","","","0","","48.3","","101.14","","","","","","Clear"
"2007-02-01 16:00","2007","02","01","16:00","4.5","","2.2","","85","","11","","6","","48.3","","101.13","","","","","","Mainly Clear"
"2007-02-01 17:00","2007","02","01","17:00","1.9","","0.8","","92","","9","","6","","32.2","","101.10","","","","","","Clear"
"2007-02-01 18:00","2007","02","01","18:00","0.4","","0.0","","97","","","","0","","0.4","","101.11","","","","","","Fog"
"2007-02-01 19:00","2007","02","01","19:00","0.1","","-0.1","","99","","","","0","","0.2","","101.19","","","","","","Fog"
"2007-02-01 20:00","2007","02","01","20:00","0.1","","-0.2","","98","","","","0","","0.2","","101.19","","","","","","Fog"
"2007-02-01 21:00","2007","02","01","21:00","-0.3","","-0.6","","98","","25","","6","","0.4","","101.25","","","","-2","","Freezing Fog"
"2007-02-01 22:00","2007","02","01","22:00"
"2007-02-01 23:00","2007","02","01","23:00"
"2007-02-02 00:00","2007","02","02","00:00"
"2007-02-02 01:00","2007","02","02","01:00"
"2007-02-02 02:00","2007","02","02","02:00"
"2007-02-02 03:00","2007","02","02","03:00"
"2007-02-02 04:00","2007","02","02","04:00"
"2007-02-02 05:00","2007","02","02","05:00"
"2007-02-02 06:00","2007","02","02","06:00","-4.1","","-4.9","","94","","","","0","","16.1","","101.15","","","","","","Mostly Cloudy"
"2007-02-02 07:00","2007","02","02","07:00","-4.8","","-5.7","","93","","","","0","","16.1","","101.12","","","","","","Mostly Cloudy"
"2007-02-02 08:00","2007","02","02","08:00","-4.0","","-4.7","","95","","","","0","","0.2","","101.16","","","","","","Freezing Fog"
"2007-02-02 09:00","2007","02","02","09:00","-2.3","","-2.6","","98","","29","","4","","0.4","","101.20","","","","-4","","Freezing Fog"
"2007-02-02 10:00","2007","02","02","10:00","-1.2","","-1.4","","99","","","","0","","0.4","","101.20","","","","","","Freezing Fog"
"2007-02-02 11:00","2007","02","02","11:00","-0.5","","-0.6","","99","","","","0","","0.4","","101.19","","","","","","Freezing Fog"
"2007-02-02 12:00","2007","02","02","12:00","0.1","","0.1","","100","","","","0","","0.8","","101.19","","","","","","Fog"
"2007-02-02 13:00","2007","02","02","13:00","0.1","","0.1","","100","","","","0","","0.8","","101.16","","","","","","Fog"
"2007-02-02 14:00","2007","02","02","14:00","0.7","","0.6","","99","","","","0","","1.6","","101.08","","","","","","Fog"
"2007-02-02 15:00","2007","02","02","15:00","0.4","","0.3","","99","","","","0","","1.2","","101.00","","","","","","Fog"
"2007-02-02 16:00","2007","02","02","16:00","0.5","","0.3","","99","","","","0","","0.8","","100.97","","","","","","Fog"
"2007-02-02 17:00","2007","02","02","17:00","0.3","","0.2","","99","","","","0","","0.4","","100.97","","","","","","Fog"
"2007-02-02 18:00","2007","02","02","18:00","-0.4","","-0.5","","99","","","","0","","0.2","","100.95","","","","","","Freezing Fog"
"2007-02-02 19:00","2007","02","02","19:00","-0.5","","-0.7","","99","","","","0","","0.2","","100.95","","","","","","Freezing Fog"
"2007-02-02 20:00","2007","02","02","20:00","-0.6","","-0.8","","99","","","","0","","0.2","","100.93","","","","","","Freezing Fog"
"2007-02-02 21:00","2007","02","02","21:00","-0.7","","-0.8","","99","","","","0","","0.2","","101.00","","","","","","Freezing Fog"
"2007-02-02 22:00","2007","02","02","22:00"
"2007-02-02 23:00","2007","02","02","23:00"
"2007-02-03 00:00","2007","02","03","00:00"
"2007-02-03 01:00","2007","02","03","01:00"
"2007-02-03 02:00","2007","02","03","02:00"
"2007-02-03 03:00","2007","02","03","03:00"
"2007-02-03 04:00","2007","02","03","04:00"
"2007-02-03 05:00","2007","02","03","05:00"
"2007-02-03 06:00","2007","02","03","06:00","0.0","","-0.1","","99","","","","0","","8.0","","101.15","","","","","","Fog"
"2007-02-03 07:00","2007","02","03","07:00","0.1","","0.0","","99","","","","0","","8.0","","101.17","","","","","","Rain,Fog"
"2007-02-03 08:00","2007","02","03","08:00","0.3","","0.1","","99","","","","0","","2.4","","101.21","","","","","","Fog"
"2007-02-03 09:00","2007","02","03","09:00","0.3","","0.2","","99","","","","0","","1.6","","101.23","","","","","","Rain,Snow Pellets,Fog"
"2007-02-03 10:00","2007","02","03","10:00","0.7","","0.5","","99","","","","0","","1.2","","101.24","","","","","","Rain,Fog"
"2007-02-03 11:00","2007","02","03","11:00","1.0","","0.9","","99","","","","0","","1.2","","101.30","","","","","","Rain,Fog"
"2007-02-03 12:00","2007","02","03","12:00","2.4","","2.3","","99","","10","","11","","1.6","","101.35","","","","","","Rain,Fog"
"2007-02-03 13:00","2007","02","03","13:00","2.0","","1.8","","99","","10","","15","","1.6","","101.39","","","","","","Rain,Snow,Fog"
"2007-02-03 14:00","2007","02","03","14:00","1.7","","1.6","","99","","9","","9","","2.0","","101.43","","","","","","Rain,Fog"
"2007-02-03 15:00","2007","02","03","15:00","2.1","","2.1","","100","","12","","13","","2.0","","101.45","","","","","","Fog"
"2007-02-03 16:00","2007","02","03","16:00","2.4","","2.3","","99","","11","","6","","2.0","","101.44","","","","","","Fog"
"2007-02-03 17:00","2007","02","03","17:00","2.4","","2.2","","99","","9","","4","","4.8","","101.50","","","","","","Fog"
"2007-02-03 18:00","2007","02","03","18:00","2.4","","2.1","","98","","12","","7","","3.2","","101.50","","","","","","Fog"
"2007-02-03 19:00","2007","02","03","19:00","2.4","","2.0","","97","","","","0","","3.2","","101.55","","","","","","Drizzle,Fog"
"2007-02-03 20:00","2007","02","03","20:00","2.4","","2.3","","99","","","","0","","2.4","","101.58","","","","","","Drizzle,Fog"
"2007-02-03 21:00","2007","02","03","21:00","2.6","","2.4","","99","","","","0","","1.6","","101.60","","","","","","Drizzle,Fog"
"2007-02-03 22:00","2007","02","03","22:00"
"2007-02-03 23:00","2007","02","03","23:00"
"2007-02-04 00:00","2007","02","04","00:00"
"2007-02-04 01:00","2007","02","04","01:00"
"2007-02-04 02:00","2007","02","04","02:00"
"2007-02-04 03:00","2007","02","04","03:00"
"2007-02-04 04:00","2007","02","04","04:00"
"2007-02-04 05:00","2007","02","04","05:00"
"2007-02-04 06:00","2007","02","04","06:00","3.3","","3.1","","99","","","","0","","2.4","","101.56","","","","","","Rain,Fog"
"2007-02-04 07:00","2007","02","04","07:00","3.3","","3.2","","99","","","","0","","2.4","","101.55","","","","","","Rain,Fog"
"2007-02-04 08:00","2007","02","04","08:00","3.6","","3.5","","99","","","","0","","0.8","","101.54","","","","","","Rain,Fog"
"2007-02-04 09:00","2007","02","04","09:00","3.7","","3.5","","99","","","","0","","0.8","","101.54","","","","","","Rain,Fog"
"2007-02-04 10:00","2007","02","04","10:00","4.0","","4.0","","100","","10","","4","","0.8","","101.53","","","","","","Rain,Fog"
"2007-02-04 11:00","2007","02","04","11:00","3.5","","3.3","","99","","","","0","","1.2","","101.58","","","","","","Rain,Fog"
"2007-02-04 12:00","2007","02","04","12:00","3.8","","3.7","","99","","27","","4","","1.6","","101.56","","","","","","Rain,Fog"
"2007-02-04 13:00","2007","02","04","13:00","4.0","","3.8","","99","","","","0","","1.2","","101.51","","","","","","Drizzle,Fog"
"2007-02-04 14:00","2007","02","04","14:00","4.0","","3.9","","99","","","","0","","1.0","","101.47","","","","","","Drizzle,Fog"
"2007-02-04 15:00","2007","02","04","15:00","4.6","","4.5","","99","","","","0","","0.4","","101.42","","","","","","Drizzle,Fog"
"2007-02-04 16:00","2007","02","04","16:00","4.0","","4.0","","100","","31","","6","","0.8","","101.43","","","","","","Drizzle,Fog"
"2007-02-04 17:00","2007","02","04","17:00","4.1","","4.0","","99","","","","0","","0.8","","101.42","","","","","","Drizzle,Fog"
"2007-02-04 18:00","2007","02","04","18:00","3.7","","3.6","","99","","","","0","","0.8","","101.43","","","","","","Drizzle,Fog"
"2007-02-04 19:00","2007","02","04","19:00","3.7","","3.6","","99","","27","","4","","0.8","","101.38","","","","","","Drizzle,Fog"
"2007-02-04 20:00","2007","02","04","20:00","3.5","","3.4","","99","","","","0","","1.0","","101.34","","","","","","Drizzle,Fog"
"2007-02-04 21:00","2007","02","04","21:00","3.6","","3.5","","99","","","","0","","1.0","","101.32","","","","","","Drizzle,Fog"
"2007-02-04 22:00","2007","02","04","22:00"
"2007-02-04 23:00","2007","02","04","23:00"
"2007-02-05 00:00","2007","02","05","00:00"
"2007-02-05 01:00","2007","02","05","01:00"
"2007-02-05 02:00","2007","02","05","02:00"
"2007-02-05 03:00","2007","02","05","03:00"
"2007-02-05 04:00","2007","02","05","04:00"
"2007-02-05 05:00","2007","02","05","05:00"
"2007-02-05 06:00","2007","02","05","06:00","3.7","","3.6","","99","","","","0","","12.9","","101.18","","","","","","Cloudy"
"2007-02-05 07:00","2007","02","05","07:00","3.7","","3.5","","99","","","","0","","12.9","","101.15","","","","","","Cloudy"
"2007-02-05 08:00","2007","02","05","08:00","3.7","","3.5","","99","","","","0","","12.9","","101.13","","","","","","Cloudy"
"2007-02-05 09:00","2007","02","05","09:00","3.9","","3.7","","99","","27","","4","","4.8","","101.12","","","","","","Fog"
"2007-02-05 10:00","2007","02","05","10:00","4.3","","4.2","","99","","27","","4","","1.2","","101.12","","","","","","Drizzle,Fog"
"2007-02-05 11:00","2007","02","05","11:00","4.8","","4.7","","99","","31","","7","","1.2","","101.09","","","","","","Drizzle,Fog"
"2007-02-05 12:00","2007","02","05","12:00","6.1","","5.9","","99","","27","","6","","1.6","","101.05","","","","","","Drizzle,Fog"
"2007-02-05 13:00","2007","02","05","13:00","6.9","","6.5","","97","","","","0","","2.0","","100.96","","","","","","Fog"
"2007-02-05 14:00","2007","02","05","14:00","7.2","","6.6","","96","","","","0","","2.0","","100.88","","","","","","Fog"
"2007-02-05 15:00","2007","02","05","15:00","7.3","","7.0","","98","","","","0","","2.0","","100.85","","","","","","Fog"
"2007-02-05 16:00","2007","02","05","16:00","7.5","","7.0","","97","","","","0","","3.2","","100.82","","","","","","Fog"
"2007-02-05 17:00","2007","02","05","17:00","7.5","","7.3","","99","","","","0","","1.2","","100.77","","","","","","Fog"
"2007-02-05 18:00","2007","02","05","18:00","6.6","","6.5","","99","","","","0","","1.6","","100.70","","","","","","Fog"
"2007-02-05 19:00","2007","02","05","19:00","6.5","","6.3","","99","","","","0","","4.8","","100.66","","","","","","Fog"
"2007-02-05 20:00","2007","02","05","20:00","6.1","","6.0","","99","","","","0","","0.6","","100.62","","","","","","Fog"
"2007-02-05 21:00","2007","02","05","21:00","5.9","","5.9","","100","","","","0","","1.2","","100.57","","","","","","Fog"
"2007-02-05 22:00","2007","02","05","22:00"
"2007-02-05 23:00","2007","02","05","23:00"
"2007-02-06 00:00","2007","02","06","00:00"
"2007-02-06 01:00","2007","02","06","01:00"
"2007-02-06 02:00","2007","02","06","02:00"
"2007-02-06 03:00","2007","02","06","03:00"
"2007-02-06 04:00","2007","02","06","04:00"
"2007-02-06 05:00","2007","02","06","05:00"
"2007-02-06 06:00","2007","02","06","06:00","4.7","","4.5","","99","","","","0","","0.2","","100.28","","","","","","Fog"
"2007-02-06 07:00","2007","02","06","07:00","4.7","","4.5","","99","","","","0","","0.2","","100.23","","","","","","Fog"
"2007-02-06 08:00","2007","02","06","08:00","4.5","","4.4","","99","","","","0","","0.4","","100.24","","","","","","Fog"
"2007-02-06 09:00","2007","02","06","09:00","4.6","","4.5","","99","","","","0","","0.6","","100.24","","","","","","Fog"
"2007-02-06 10:00","2007","02","06","10:00","4.5","","4.5","","100","","11","","7","","0.6","","100.28","","","","","","Drizzle,Fog"
"2007-02-06 11:00","2007","02","06","11:00","4.5","","4.4","","99","","6","","6","","0.4","","100.30","","","","","","Drizzle,Fog"
"2007-02-06 12:00","2007","02","06","12:00","4.8","","4.8","","100","","9","","13","","0.2","","100.29","","","","","","Drizzle,Fog"
"2007-02-06 13:00","2007","02","06","13:00","4.9","","4.9","","100","","7","","7","","0.2","","100.29","","","","","","Drizzle,Fog"
"2007-02-06 14:00","2007","02","06","14:00","5.4","","5.4","","100","","11","","11","","0.6","","100.29","","","","","","Rain,Fog"
"2007-02-06 15:00","2007","02","06","15:00","5.3","","5.2","","99","","9","","11","","2.0","","100.30","","","","","","Rain,Fog"
"2007-02-06 16:00","2007","02","06","16:00","5.4","","5.4","","100","","12","","11","","0.8","","100.31","","","","","","Rain,Fog"
"2007-02-06 17:00","2007","02","06","17:00","5.5","","5.5","","100","","4","","4","","2.0","","100.28","","","","","","Fog"
"2007-02-06 18:00","2007","02","06","18:00","5.6","","5.5","","99","","11","","6","","2.0","","100.26","","","","","","Fog"
"2007-02-06 19:00","2007","02","06","19:00","5.6","","5.6","","100","","7","","4","","0.8","","100.27","","","","","","Fog"
"2007-02-06 20:00","2007","02","06","20:00","5.6","","5.5","","99","","9","","4","","1.2","","100.30","","","","","","Fog"
"2007-02-06 21:00","2007","02","06","21:00","5.5","","5.4","","99","","11","","7","","0.4","","100.34","","","","","","Fog"
"2007-02-06 22:00","2007","02","06","22:00"
"2007-02-06 23:00","2007","02","06","23:00"
"2007-02-07 00:00","2007","02","07","00:00"
"2007-02-07 01:00","2007","02","07","01:00"
"2007-02-07 02:00","2007","02","07","02:00"
"2007-02-07 03:00","2007","02","07","03:00"
"2007-02-07 04:00","2007","02","07","04:00"
"2007-02-07 05:00","2007","02","07","05:00"
"2007-02-07 06:00","2007","02","07","06:00","5.6","","5.6","","100","","","","0","","0.6","","100.01","","","","","","Drizzle,Fog"
"2007-02-07 07:00","2007","02","07","07:00","5.5","","5.5","","100","","","","0","","0.8","","99.94","","","","","","Drizzle,Fog"
"2007-02-07 08:00","2007","02","07","08:00","5.6","","5.6","","100","","","","0","","1.2","","99.92","","","","","","Rain,Fog"
"2007-02-07 09:00","2007","02","07","09:00","5.5","","5.5","","100","","","","0","","1.2","","99.92","","","","","","Rain,Fog"
"2007-02-07 10:00","2007","02","07","10:00","5.7","","5.7","","100","","","","0","","1.6","","99.91","","","","","","Rain,Fog"
"2007-02-07 11:00","2007","02","07","11:00","5.9","","5.9","","100","","9","","4","","1.6","","99.90","","","","","","Rain,Fog"
"2007-02-07 12:00","2007","02","07","12:00","6.1","","6.1","","100","","","","0","","1.6","","99.90","","","","","","Rain,Fog"
"2007-02-07 13:00","2007","02","07","13:00","6.2","","6.2","","100","","9","","6","","1.6","","99.84","","","","","","Rain,Fog"
"2007-02-07 14:00","2007","02","07","14:00","6.3","","6.2","","99","","9","","7","","1.6","","99.79","","","","","","Rain,Fog"
"2007-02-07 15:00","2007","02","07","15:00","6.2","","6.2","","100","","","","0","","1.6","","99.76","","","","","","Rain,Fog"
"2007-02-07 16:00","2007","02","07","16:00","6.2","","6.2","","100","","5","","4","","1.6","","99.74","","","","","","Rain,Fog"
"2007-02-07 17:00","2007","02","07","17:00","6.3","","6.3","","100","","9","","4","","0.8","","99.71","","","","","","Rain,Fog"
"2007-02-07 18:00","2007","02","07","18:00","6.4","","6.3","","99","","","","0","","1.2","","99.70","","","","","","Rain,Fog"
"2007-02-07 19:00","2007","02","07","19:00","6.3","","6.3","","100","","","","0","","0.8","","99.68","","","","","","Rain,Fog"
"2007-02-07 20:00","2007","02","07","20:00","6.2","","6.2","","100","","","","0","","0.8","","99.67","","","","","","Rain,Fog"
"2007-02-07 21:00","2007","02","07","21:00","6.1","","6.1","","100","","","","0","","1.6","","99.68","","","","","","Rain,Fog"
"2007-02-07 22:00","2007","02","07","22:00"
"2007-02-07 23:00","2007","02","07","23:00"
"2007-02-08 00:00","2007","02","08","00:00"
"2007-02-08 01:00","2007","02","08","01:00"
"2007-02-08 02:00","2007","02","08","02:00"
"2007-02-08 03:00","2007","02","08","03:00"
"2007-02-08 04:00","2007","02","08","04:00"
"2007-02-08 05:00","2007","02","08","05:00"
"2007-02-08 06:00","2007","02","08","06:00","5.9","","5.8","","99","","","","0","","2.4","","100.01","","","","","","Fog"
"2007-02-08 07:00","2007","02","08","07:00","5.8","","5.7","","99","","","","0","","2.4","","100.05","","","","","","Fog"
"2007-02-08 08:00","2007","02","08","08:00","5.4","","5.1","","98","","","","0","","2.0","","100.14","","","","","","Fog"
"2007-02-08 09:00","2007","02","08","09:00","5.7","","5.4","","98","","","","0","","2.4","","100.20","","","","","","Fog"
"2007-02-08 10:00","2007","02","08","10:00","6.5","","6.1","","97","","","","0","","2.4","","100.25","","","","","","Fog"
"2007-02-08 11:00","2007","02","08","11:00","6.9","","6.8","","99","","8","","6","","2.4","","100.30","","","","","","Fog"
"2007-02-08 12:00","2007","02","08","12:00","7.2","","6.8","","97","","11","","11","","6.4","","100.33","","","","","","Fog"
"2007-02-08 13:00","2007","02","08","13:00","7.7","","7.1","","96","","11","","9","","9.7","","100.33","","","","","","Fog"
"2007-02-08 14:00","2007","02","08","14:00","8.4","","7.2","","92","","11","","13","","9.7","","100.31","","","","","","Fog"
"2007-02-08 15:00","2007","02","08","15:00","8.0","","7.1","","94","","11","","13","","9.7","","100.28","","","","","","Rain,Fog"
"2007-02-08 16:00","2007","02","08","16:00","7.9","","7.0","","94","","12","","13","","11.3","","100.30","","","","","","Mostly Cloudy"
"2007-02-08 17:00","2007","02","08","17:00","7.6","","7.1","","97","","10","","11","","11.3","","100.31","","","","","","Cloudy"
"2007-02-08 18:00","2007","02","08","18:00","7.2","","6.9","","98","","10","","7","","1.6","","100.32","","","","","","Fog"
"2007-02-08 19:00","2007","02","08","19:00","7.2","","7.0","","99","","7","","6","","1.6","","100.33","","","","","","Fog"
"2007-02-08 20:00","2007","02","08","20:00","7.0","","6.9","","99","","","","0","","1.6","","100.30","","","","","","Fog"
"2007-02-08 21:00","2007","02","08","21:00","7.1","","6.8","","98","","7","","4","","1.6","","100.28","","","","","","Fog"
"2007-02-08 22:00","2007","02","08","22:00"
"2007-02-08 23:00","2007","02","08","23:00"
"2007-02-09 00:00","2007","02","09","00:00"
"2007-02-09 01:00","2007","02","09","01:00"
"2007-02-09 02:00","2007","02","09","02:00"
"2007-02-09 03:00","2007","02","09","03:00"
"2007-02-09 04:00","2007","02","09","04:00"
"2007-02-09 05:00","2007","02","09","05:00"
"2007-02-09 06:00","2007","02","09","06:00","5.4","","5.4","","100","","","","0","","1.2","","100.06","","","","","","Fog"
"2007-02-09 07:00","2007","02","09","07:00","5.3","","5.1","","99","","","","0","","0.8","","100.08","","","","","","Fog"
"2007-02-09 08:00","2007","02","09","08:00","4.9","","4.9","","100","","","","0","","0.8","","100.13","","","","","","Fog"
"2007-02-09 09:00","2007","02","09","09:00","5.2","","5.1","","99","","","","0","","0.6","","100.16","","","","","","Fog"
"2007-02-09 10:00","2007","02","09","10:00","5.1","","4.9","","99","","11","","6","","1.6","","100.22","","","","","","Fog"
"2007-02-09 11:00","2007","02","09","11:00","5.4","","5.0","","97","","10","","9","","3.2","","100.28","","","","","","Fog"
"2007-02-09 12:00","2007","02","09","12:00","5.5","","5.4","","99","","11","","9","","0.8","","100.30","","","","","","Fog"
"2007-02-09 13:00","2007","02","09","13:00","5.9","","5.6","","98","","11","","15","","1.6","","100.26","","","","","","Rain,Fog"
"2007-02-09 14:00","2007","02","09","14:00","5.8","","5.6","","99","","10","","15","","1.6","","100.27","","","","","","Rain,Fog"
"2007-02-09 15:00","2007","02","09","15:00","6.0","","5.9","","99","","10","","13","","2.4","","100.24","","","","","","Rain,Fog"
"2007-02-09 16:00","2007","02","09","16:00","5.8","","5.7","","99","","9","","11","","1.2","","100.24","","","","","","Rain,Fog"
"2007-02-09 17:00","2007","02","09","17:00","6.2","","6.1","","99","","11","","19","","2.4","","100.21","","","","","","Rain,Fog"
"2007-02-09 18:00","2007","02","09","18:00","6.6","","6.3","","98","","12","","17","","3.2","","100.21","","","","","","Rain,Fog"
"2007-02-09 19:00","2007","02","09","19:00","6.4","","6.3","","99","","11","","9","","2.4","","100.20","","","","","","Rain,Fog"
"2007-02-09 20:00","2007","02","09","20:00","6.0","","5.9","","99","","8","","11","","1.6","","100.20","","","","","","Rain,Fog"
"2007-02-09 21:00","2007","02","09","21:00","5.9","","5.8","","99","","9","","11","","1.6","","100.21","","","","","","Rain,Fog"
"2007-02-09 22:00","2007","02","09","22:00"
"2007-02-09 23:00","2007","02","09","23:00"
"2007-02-10 00:00","2007","02","10","00:00"
"2007-02-10 01:00","2007","02","10","01:00"
"2007-02-10 02:00","2007","02","10","02:00"
"2007-02-10 03:00","2007","02","10","03:00"
"2007-02-10 04:00","2007","02","10","04:00"
"2007-02-10 05:00","2007","02","10","05:00"
"2007-02-10 06:00","2007","02","10","06:00","6.6","","6.3","","98","","9","","13","","9.7","","100.09","","","","","","Drizzle,Fog"
"2007-02-10 07:00","2007","02","10","07:00","6.2","","5.9","","98","","11","","9","","12.9","","100.03","","","","","","Cloudy"
"2007-02-10 08:00","2007","02","10","08:00","6.3","","6.0","","98","","11","","9","","8.0","","100.03","","","","","","Fog"
"2007-02-10 09:00","2007","02","10","09:00","6.5","","6.0","","97","","8","","4","","6.4","","100.01","","","","","","Fog"
"2007-02-10 10:00","2007","02","10","10:00","6.3","","5.9","","97","","","","0","","3.2","","99.97","","","","","","Fog"
"2007-02-10 11:00","2007","02","10","11:00","6.7","","6.0","","95","","","","0","","3.2","","99.93","","","","","","Fog"
"2007-02-10 12:00","2007","02","10","12:00","6.8","","6.3","","97","","30","","4","","4.8","","99.84","","","","","","Fog"
"2007-02-10 13:00","2007","02","10","13:00","7.7","","6.8","","94","","8","","4","","9.7","","99.71","","","","","","Fog"
"2007-02-10 14:00","2007","02","10","14:00","8.3","","6.7","","90","","","","0","","12.9","","99.60","","","","","","Cloudy"
"2007-02-10 15:00","2007","02","10","15:00","8.2","","6.5","","89","","","","0","","12.9","","99.51","","","","","","Cloudy"
"2007-02-10 16:00","2007","02","10","16:00","8.4","","6.4","","87","","","","0","","16.1","","99.42","","","","","","Mostly Cloudy"
"2007-02-10 17:00","2007","02","10","17:00","7.5","","6.9","","96","","","","0","","16.1","","99.34","","","","","","Mostly Cloudy"
"2007-02-10 18:00","2007","02","10","18:00","6.7","","6.4","","98","","31","","4","","12.9","","99.27","","","","","","Cloudy"
"2007-02-10 19:00","2007","02","10","19:00","6.2","","5.4","","95","","29","","7","","19.3","","99.20","","","","","","Mostly Cloudy"
"2007-02-10 20:00","2007","02","10","20:00","4.9","","4.5","","97","","32","","7","","19.3","","99.11","","","","","","Mostly Cloudy"
"2007-02-10 21:00","2007","02","10","21:00","3.6","","3.4","","99","","30","","7","","12.9","","99.04","","","","","","Mainly Clear"
"2007-02-10 22:00","2007","02","10","22:00"
"2007-02-10 23:00","2007","02","10","23:00"
"2007-02-11 00:00","2007","02","11","00:00"
"2007-02-11 01:00","2007","02","11","01:00"
"2007-02-11 02:00","2007","02","11","02:00"
"2007-02-11 03:00","2007","02","11","03:00"
"2007-02-11 04:00","2007","02","11","04:00"
"2007-02-11 05:00","2007","02","11","05:00"
"2007-02-11 06:00","2007","02","11","06:00","3.2","","3.0","","99","","","","0","","8.0","","98.96","","","","","","Rain,Fog"
"2007-02-11 07:00","2007","02","11","07:00","3.5","","3.4","","99","","","","0","","8.0","","98.95","","","","","","Rain,Fog"
"2007-02-11 08:00","2007","02","11","08:00","3.7","","3.5","","99","","","","0","","2.4","","98.98","","","","","","Rain,Fog"
"2007-02-11 09:00","2007","02","11","09:00","4.0","","3.8","","99","","","","0","","1.6","","99.00","","","","","","Rain,Fog"
"2007-02-11 10:00","2007","02","11","10:00","4.6","","4.3","","98","","","","0","","1.6","","99.03","","","","","","Drizzle,Fog"
"2007-02-11 11:00","2007","02","11","11:00","5.1","","4.9","","99","","","","0","","1.6","","99.08","","","","","","Drizzle,Fog"
"2007-02-11 12:00","2007","02","11","12:00","5.6","","5.5","","99","","9","","4","","1.6","","99.09","","","","","","Drizzle,Fog"
"2007-02-11 13:00","2007","02","11","13:00","6.1","","6.0","","99","","10","","9","","0.8","","99.08","","","","","","Drizzle,Fog"
"2007-02-11 14:00","2007","02","11","14:00","6.5","","6.4","","99","","10","","13","","1.6","","99.07","","","","","","Drizzle,Fog"
"2007-02-11 15:00","2007","02","11","15:00","6.8","","6.6","","99","","11","","19","","2.0","","99.08","","","","","","Fog"
"2007-02-11 16:00","2007","02","11","16:00","7.0","","6.8","","99","","11","","13","","2.0","","99.11","","","","","","Fog"
"2007-02-11 17:00","2007","02","11","17:00","7.3","","6.9","","97","","13","","24","","4.8","","99.13","","","","","","Moderate Rain Showers,Fog"
"2007-02-11 18:00","2007","02","11","18:00","7.3","","6.8","","97","","13","","24","","8.0","","99.16","","","","","","Fog"
"2007-02-11 19:00","2007","02","11","19:00","7.5","","6.7","","95","","13","","26","","6.4","","99.22","","","","","","Rain Showers,Fog"
"2007-02-11 20:00","2007","02","11","20:00","7.5","","6.8","","95","","12","","17","","4.8","","99.24","","","","","","Rain Showers,Fog"
"2007-02-11 21:00","2007","02","11","21:00","7.7","","6.9","","95","","13","","24","","4.8","","99.30","","","","","","Rain,Fog"
"2007-02-11 22:00","2007","02","11","22:00"
"2007-02-11 23:00","2007","02","11","23:00"
"2007-02-12 00:00","2007","02","12","00:00"
"2007-02-12 01:00","2007","02","12","01:00"
"2007-02-12 02:00","2007","02","12","02:00"
"2007-02-12 03:00","2007","02","12","03:00"
"2007-02-12 04:00","2007","02","12","04:00"
"2007-02-12 05:00","2007","02","12","05:00"
"2007-02-12 06:00","2007","02","12","06:00","5.9","","4.0","","88","","12","","9","","12.9","","99.98","","","","","","Mostly Cloudy"
"2007-02-12 07:00","2007","02","12","07:00","5.8","","4.1","","89","","12","","9","","16.1","","100.04","","","","","","Cloudy"
"2007-02-12 08:00","2007","02","12","08:00","5.7","","4.2","","90","","13","","13","","24.1","","100.10","","","","","","Cloudy"
"2007-02-12 09:00","2007","02","12","09:00","6.3","","4.8","","90","","14","","13","","24.1","","100.20","","","","","","Cloudy"
"2007-02-12 10:00","2007","02","12","10:00","6.9","","4.9","","87","","13","","20","","24.1","","100.27","","","","","","Mostly Cloudy"
"2007-02-12 11:00","2007","02","12","11:00","7.5","","5.5","","87","","12","","19","","24.1","","100.36","","","","","","Mostly Cloudy"
"2007-02-12 12:00","2007","02","12","12:00","7.7","","5.5","","86","","12","","17","","24.1","","100.39","","","","","","Mostly Cloudy"
"2007-02-12 13:00","2007","02","12","13:00","8.7","","5.4","","80","","12","","20","","24.1","","100.40","","","","","","Mostly Cloudy"
"2007-02-12 14:00","2007","02","12","14:00","8.9","","5.6","","80","","13","","17","","24.1","","100.41","","","","","","Mostly Cloudy"
"2007-02-12 15:00","2007","02","12","15:00","8.7","","5.8","","82","","12","","15","","24.1","","100.41","","","","","","Mostly Cloudy"
"2007-02-12 16:00","2007","02","12","16:00","8.8","","5.7","","81","","13","","30","","32.2","","100.46","","","","","","Mostly Cloudy"
"2007-02-12 17:00","2007","02","12","17:00","7.9","","5.3","","84","","11","","17","","32.2","","100.49","","","","","","Mostly Cloudy"
"2007-02-12 18:00","2007","02","12","18:00","7.3","","5.3","","87","","11","","13","","32.2","","100.52","","","","","","Mostly Cloudy"
"2007-02-12 19:00","2007","02","12","19:00","6.9","","5.4","","90","","11","","9","","32.2","","100.56","","","","","","Mostly Cloudy"
"2007-02-12 20:00","2007","02","12","20:00","6.6","","5.8","","95","","10","","4","","24.1","","100.59","","","","","","Rain Showers"
"2007-02-12 21:00","2007","02","12","21:00","6.5","","6.0","","97","","7","","9","","16.1","","100.60","","","","","","Rain Showers"
"2007-02-12 22:00","2007","02","12","22:00"
"2007-02-12 23:00","2007","02","12","23:00"
"2007-02-13 00:00","2007","02","13","00:00"
"2007-02-13 01:00","2007","02","13","01:00"
"2007-02-13 02:00","2007","02","13","02:00"
"2007-02-13 03:00","2007","02","13","03:00"
"2007-02-13 04:00","2007","02","13","04:00"
"2007-02-13 05:00","2007","02","13","05:00"
"2007-02-13 06:00","2007","02","13","06:00","5.2","","4.8","","97","","","","0","","4.8","","100.82","","","","","","Fog"
"2007-02-13 07:00","2007","02","13","07:00","4.7","","4.2","","97","","25","","4","","4.8","","100.90","","","","","","Fog"
"2007-02-13 08:00","2007","02","13","08:00","4.6","","4.2","","97","","","","0","","3.2","","100.97","","","","","","Fog"
"2007-02-13 09:00","2007","02","13","09:00","4.7","","4.0","","95","","","","0","","1.6","","101.01","","","","","","Fog"
"2007-02-13 10:00","2007","02","13","10:00","5.2","","4.5","","95","","","","0","","16.1","","101.07","","","","","","Mostly Cloudy"
"2007-02-13 11:00","2007","02","13","11:00","6.9","","5.5","","91","","8","","4","","19.3","","101.08","","","","","","Mostly Cloudy"
"2007-02-13 12:00","2007","02","13","12:00","7.2","","5.4","","88","","","","0","","24.1","","101.09","","","","","","Mostly Cloudy"
"2007-02-13 13:00","2007","02","13","13:00","7.6","","5.3","","85","","8","","7","","24.1","","101.09","","","","","","Mostly Cloudy"
"2007-02-13 14:00","2007","02","13","14:00","7.5","","5.7","","88","","9","","9","","24.1","","101.08","","","","","","Mostly Cloudy"
"2007-02-13 15:00","2007","02","13","15:00","7.3","","5.3","","87","","8","","9","","24.1","","101.08","","","","","","Cloudy"
"2007-02-13 16:00","2007","02","13","16:00","7.2","","5.5","","89","","9","","7","","19.3","","101.08","","","","","","Mostly Cloudy"
"2007-02-13 17:00","2007","02","13","17:00","6.8","","5.7","","93","","11","","6","","19.3","","101.10","","","","","","Mostly Cloudy"
"2007-02-13 18:00","2007","02","13","18:00","6.7","","5.7","","93","","11","","4","","19.3","","101.11","","","","","","Cloudy"
"2007-02-13 19:00","2007","02","13","19:00","6.4","","5.8","","96","","","","0","","8.0","","101.17","","","","","","Fog"
"2007-02-13 20:00","2007","02","13","20:00","6.4","","5.9","","97","","10","","4","","4.8","","101.16","","","","","","Fog"
"2007-02-13 21:00","2007","02","13","21:00","6.3","","5.8","","97","","9","","4","","9.7","","101.17","","","","","","Fog"
"2007-02-13 22:00","2007","02","13","22:00"
"2007-02-13 23:00","2007","02","13","23:00"
"2007-02-14 00:00","2007","02","14","00:00"
"2007-02-14 01:00","2007","02","14","01:00"
"2007-02-14 02:00","2007","02","14","02:00"
"2007-02-14 03:00","2007","02","14","03:00"
"2007-02-14 04:00","2007","02","14","04:00"
"2007-02-14 05:00","2007","02","14","05:00"
"2007-02-14 06:00","2007","02","14","06:00","6.6","","5.1","","90","","13","","24","","12.9","","100.74","","","","","","Cloudy"
"2007-02-14 07:00","2007","02","14","07:00","6.5","","4.9","","89","","13","","20","","12.9","","100.64","","","","","","Cloudy"
"2007-02-14 08:00","2007","02","14","08:00","6.4","","4.8","","89","","13","","20","","16.1","","100.65","","","","","","Cloudy"
"2007-02-14 09:00","2007","02","14","09:00","6.4","","5.0","","91","","13","","20","","9.7","","100.63","","","","","","Rain,Fog"
"2007-02-14 10:00","2007","02","14","10:00","6.6","","5.2","","91","","13","","19","","19.3","","100.65","","","","","","Rain"
"2007-02-14 11:00","2007","02","14","11:00","6.6","","5.2","","91","","15","","17","","24.1","","100.68","","","","","","Rain"
"2007-02-14 12:00","2007","02","14","12:00","6.3","","5.3","","93","","14","","17","","19.3","","100.66","","","","","","Rain"
"2007-02-14 13:00","2007","02","14","13:00","6.2","","5.5","","95","","13","","32","","9.7","","100.67","","","","","","Rain,Fog"
"2007-02-14 14:00","2007","02","14","14:00","6.2","","5.8","","97","","12","","35","","2.8","","100.67","","","","","","Rain,Fog"
"2007-02-14 15:00","2007","02","14","15:00","5.5","","5.2","","98","","12","","24","","2.4","","100.67","","","","","","Rain,Fog"
"2007-02-14 16:00","2007","02","14","16:00","5.4","","4.9","","97","","12","","32","","2.4","","100.62","","","","","","Rain,Fog"
"2007-02-14 17:00","2007","02","14","17:00","5.5","","4.8","","95","","13","","33","","4.8","","100.59","","","","","","Rain,Fog"
"2007-02-14 18:00","2007","02","14","18:00","5.2","","4.6","","96","","12","","20","","4.8","","100.56","","","","","","Rain,Fog"
"2007-02-14 19:00","2007","02","14","19:00","5.1","","4.6","","97","","11","","19","","4.8","","100.62","","","","","","Rain,Fog"
"2007-02-14 20:00","2007","02","14","20:00","5.1","","4.7","","97","","13","","15","","4.0","","100.72","","","","","","Drizzle,Fog"
"2007-02-14 21:00","2007","02","14","21:00","5.2","","4.7","","97","","13","","17","","4.0","","100.72","","","","","","Drizzle,Fog"
"2007-02-14 22:00","2007","02","14","22:00"
"2007-02-14 23:00","2007","02","14","23:00"
"2007-02-15 00:00","2007","02","15","00:00"
"2007-02-15 01:00","2007","02","15","01:00"
"2007-02-15 02:00","2007","02","15","02:00"
"2007-02-15 03:00","2007","02","15","03:00"
"2007-02-15 04:00","2007","02","15","04:00"
"2007-02-15 05:00","2007","02","15","05:00"
"2007-02-15 06:00","2007","02","15","06:00","5.2","","4.7","","97","","12","","19","","3.2","","99.97","","","","","","Rain,Fog"
"2007-02-15 07:00","2007","02","15","07:00","5.5","","5.1","","97","","13","","17","","3.2","","99.77","","","","","","Rain,Fog"
"2007-02-15 08:00","2007","02","15","08:00","5.7","","5.2","","97","","13","","19","","6.4","","99.74","","","","","","Rain,Fog"
"2007-02-15 09:00","2007","02","15","09:00","6.1","","5.6","","97","","14","","13","","4.8","","99.73","","","","","","Fog"
"2007-02-15 10:00","2007","02","15","10:00","6.5","","6.2","","98","","14","","15","","2.0","","99.72","","","","","","Rain,Fog"
"2007-02-15 11:00","2007","02","15","11:00","7.2","","6.6","","96","","19","","6","","4.8","","99.78","","","","","","Rain,Fog"
"2007-02-15 12:00","2007","02","15","12:00","7.9","","7.1","","95","","11","","4","","8.0","","99.82","","","","","","Fog"
"2007-02-15 13:00","2007","02","15","13:00","9.3","","7.9","","91","","30","","4","","16.1","","99.90","","","","","","Mostly Cloudy"
"2007-02-15 14:00","2007","02","15","14:00","9.8","","7.8","","87","","34","","13","","32.2","","100.08","","","","","","Mostly Cloudy"
"2007-02-15 15:00","2007","02","15","15:00","11.5","","7.9","","79","","33","","13","","32.2","","100.19","","","","","","Mainly Clear"
"2007-02-15 16:00","2007","02","15","16:00","12.3","","2.8","","52","","27","","20","","32.2","","100.29","","","","","","Mainly Clear"
"2007-02-15 17:00","2007","02","15","17:00","10.2","","2.4","","58","","28","","15","","32.2","","100.45","","","","","","Mainly Clear"
"2007-02-15 18:00","2007","02","15","18:00","9.1","","2.2","","62","","29","","11","","32.2","","100.58","","","","","","Mainly Clear"
"2007-02-15 19:00","2007","02","15","19:00","8.7","","1.4","","60","","29","","13","","25.0","","100.71","","","","","","Mainly Clear"
"2007-02-15 20:00","2007","02","15","20:00","5.5","","2.2","","79","","29","","9","","25.0","","100.86","","","","","","Mainly Clear"
"2007-02-15 21:00","2007","02","15","21:00","3.2","","1.1","","86","","","","0","","25.0","","100.99","","","","","","Mainly Clear"
"2007-02-15 22:00","2007","02","15","22:00"
"2007-02-15 23:00","2007","02","15","23:00"
"2007-02-16 00:00","2007","02","16","00:00"
"2007-02-16 01:00","2007","02","16","01:00"
"2007-02-16 02:00","2007","02","16","02:00"
"2007-02-16 03:00","2007","02","16","03:00"
"2007-02-16 04:00","2007","02","16","04:00"
"2007-02-16 05:00","2007","02","16","05:00"
"2007-02-16 06:00","2007","02","16","06:00","-0.8","","-1.3","","96","","29","","6","","25.0","","101.66","","","","-3","","Mostly Cloudy"
"2007-02-16 07:00","2007","02","16","07:00","-0.9","","-1.5","","96","","27","","4","","32.2","","101.69","","","","-2","","Mostly Cloudy"
"2007-02-16 08:00","2007","02","16","08:00","-1.0","","-1.5","","96","","31","","6","","32.2","","101.71","","","","-3","","Mostly Cloudy"
"2007-02-16 09:00","2007","02","16","09:00","0.1","","-0.4","","96","","32","","9","","32.2","","101.77","","","","","","Mostly Cloudy"
"2007-02-16 10:00","2007","02","16","10:00","3.5","","2.7","","94","","","","0","","32.2","","101.85","","","","","","Mostly Cloudy"
"2007-02-16 11:00","2007","02","16","11:00","5.6","","4.0","","89","","11","","6","","24.1","","101.84","","","","","","Mostly Cloudy"
"2007-02-16 12:00","2007","02","16","12:00","4.9","","4.2","","95","","8","","6","","1.6","","101.85","","","","","","Fog"
"2007-02-16 13:00","2007","02","16","13:00","5.7","","4.3","","91","","7","","6","","16.1","","101.82","","","","","","Cloudy"
"2007-02-16 14:00","2007","02","16","14:00","5.3","","4.6","","95","","11","","7","","16.1","","101.80","","","","","","Cloudy"
"2007-02-16 15:00","2007","02","16","15:00","5.8","","5.4","","97","","11","","11","","9.7","","101.75","","","","","","Rain,Fog"
"2007-02-16 16:00","2007","02","16","16:00","6.0","","5.6","","97","","13","","11","","9.7","","101.72","","","","","","Rain,Fog"
"2007-02-16 17:00","2007","02","16","17:00","6.0","","5.6","","97","","13","","15","","4.8","","101.67","","","","","","Rain,Fog"
"2007-02-16 18:00","2007","02","16","18:00","6.0","","5.5","","97","","13","","17","","4.8","","101.64","","","","","","Rain,Fog"
"2007-02-16 19:00","2007","02","16","19:00","6.1","","5.5","","96","","13","","22","","4.8","","101.66","","","","","","Rain,Fog"
"2007-02-16 20:00","2007","02","16","20:00","6.2","","5.5","","95","","12","","30","","4.8","","101.59","","","","","","Rain,Fog"
"2007-02-16 21:00","2007","02","16","21:00","6.0","","5.5","","97","","12","","22","","3.2","","101.56","","","","","","Rain,Fog"
"2007-02-16 22:00","2007","02","16","22:00"
"2007-02-16 23:00","2007","02","16","23:00"
"2007-02-17 00:00","2007","02","17","00:00"
"2007-02-17 01:00","2007","02","17","01:00"
"2007-02-17 02:00","2007","02","17","02:00"
"2007-02-17 03:00","2007","02","17","03:00"
"2007-02-17 04:00","2007","02","17","04:00"
"2007-02-17 05:00","2007","02","17","05:00"
"2007-02-17 06:00","2007","02","17","06:00","6.6","","6.0","","96","","13","","26","","4.0","","100.94","","","","","","Fog"
"2007-02-17 07:00","2007","02","17","07:00","6.6","","6.1","","97","","13","","32","","4.0","","100.78","","","","","","Fog"
"2007-02-17 08:00","2007","02","17","08:00","6.9","","6.1","","95","","11","","17","","4.8","","100.76","","","","","","Fog"
"2007-02-17 09:00","2007","02","17","09:00","7.0","","5.9","","93","","13","","26","","16.1","","100.64","","","","","","Mostly Cloudy"
"2007-02-17 10:00","2007","02","17","10:00","8.1","","6.6","","90","","13","","24","","19.3","","100.60","","","","","","Mostly Cloudy"
"2007-02-17 11:00","2007","02","17","11:00","8.1","","6.7","","91","","13","","30","","19.3","","100.42","","","","","","Mostly Cloudy"
"2007-02-17 12:00","2007","02","17","12:00","8.1","","6.7","","91","","13","","44","","16.1","","100.20","","","","","","Rain"
"2007-02-17 13:00","2007","02","17","13:00","8.0","","6.8","","92","","15","","39","","9.7","","100.02","","","","","","Rain,Fog"
"2007-02-17 14:00","2007","02","17","14:00","7.7","","6.9","","95","","14","","26","","9.7","","99.90","","","","","","Rain,Fog"
"2007-02-17 15:00","2007","02","17","15:00","7.5","","6.4","","93","","13","","22","","16.1","","99.76","","","","","","Rain"
"2007-02-17 16:00","2007","02","17","16:00","6.9","","5.4","","90","","14","","19","","19.3","","99.71","","","","","","Rain"
"2007-02-17 17:00","2007","02","17","17:00","6.7","","4.6","","86","","18","","13","","24.1","","99.64","","","","","","Mostly Cloudy"
"2007-02-17 18:00","2007","02","17","18:00","4.4","","3.8","","96","","","","0","","24.1","","99.54","","","","","","Mostly Cloudy"
"2007-02-17 19:00","2007","02","17","19:00","3.5","","2.8","","95","","24","","6","","19.3","","99.54","","","","","","Mainly Clear"
"2007-02-17 20:00","2007","02","17","20:00","2.8","","2.4","","97","","","","0","","19.3","","99.45","","","","","","Mostly Cloudy"
"2007-02-17 21:00","2007","02","17","21:00","2.4","","1.9","","96","","21","","6","","19.3","","99.42","","","","","","Mostly Cloudy"
"2007-02-17 22:00","2007","02","17","22:00"
"2007-02-17 23:00","2007","02","17","23:00"
"2007-02-18 00:00","2007","02","18","00:00"
"2007-02-18 01:00","2007","02","18","01:00"
"2007-02-18 02:00","2007","02","18","02:00"
"2007-02-18 03:00","2007","02","18","03:00"
"2007-02-18 04:00","2007","02","18","04:00"
"2007-02-18 05:00","2007","02","18","05:00"
"2007-02-18 06:00","2007","02","18","06:00","1.5","","0.9","","96","","","","0","","25.0","","99.52","","","","","","Mostly Cloudy"
"2007-02-18 07:00","2007","02","18","07:00","0.4","","-0.2","","96","","","","0","","32.2","","99.51","","","","","","Mostly Cloudy"
"2007-02-18 08:00","2007","02","18","08:00","0.7","","0.2","","96","","29","","7","","32.2","","99.55","","","","","","Mostly Cloudy"
"2007-02-18 09:00","2007","02","18","09:00","1.6","","1.1","","96","","","","0","","32.2","","99.62","","","","","","Mostly Cloudy"
"2007-02-18 10:00","2007","02","18","10:00","3.7","","2.6","","93","","","","0","","32.2","","99.68","","","","","","Mostly Cloudy"
"2007-02-18 11:00","2007","02","18","11:00","5.5","","3.8","","89","","","","0","","32.2","","99.74","","","","","","Mostly Cloudy"
"2007-02-18 12:00","2007","02","18","12:00","7.3","","2.4","","71","","","","0","","32.2","","99.77","","","","","","Mostly Cloudy"
"2007-02-18 13:00","2007","02","18","13:00","7.5","","3.2","","74","","7","","13","","32.2","","99.80","","","","","","Mostly Cloudy"
"2007-02-18 14:00","2007","02","18","14:00","6.4","","4.1","","85","","12","","9","","32.2","","99.82","","","","","","Rain Showers"
"2007-02-18 15:00","2007","02","18","15:00","6.3","","4.2","","86","","2","","4","","32.2","","99.84","","","","","","Rain Showers"
"2007-02-18 16:00","2007","02","18","16:00","6.3","","4.7","","89","","12","","4","","32.2","","99.86","","","","","","Mostly Cloudy"
"2007-02-18 17:00","2007","02","18","17:00","6.1","","4.6","","90","","","","0","","32.2","","99.88","","","","","","Rain Showers"
"2007-02-18 18:00","2007","02","18","18:00","4.8","","4.1","","95","","","","0","","32.2","","99.88","","","","","","Mostly Cloudy"
"2007-02-18 19:00","2007","02","18","19:00","4.4","","4.0","","97","","","","0","","16.1","","99.88","","","","","","Cloudy"
"2007-02-18 20:00","2007","02","18","20:00","3.8","","3.4","","97","","","","0","","16.1","","99.91","","","","","","Cloudy"
"2007-02-18 21:00","2007","02","18","21:00","2.9","","2.5","","97","","","","0","","16.1","","99.87","","","","","","Cloudy"
"2007-02-18 22:00","2007","02","18","22:00"
"2007-02-18 23:00","2007","02","18","23:00"
"2007-02-19 00:00","2007","02","19","00:00"
"2007-02-19 01:00","2007","02","19","01:00"
"2007-02-19 02:00","2007","02","19","02:00"
"2007-02-19 03:00","2007","02","19","03:00"
"2007-02-19 04:00","2007","02","19","04:00"
"2007-02-19 05:00","2007","02","19","05:00"
"2007-02-19 06:00","2007","02","19","06:00","4.4","","3.5","","94","","13","","19","","8.0","","99.29","","","","","","Rain,Fog"
"2007-02-19 07:00","2007","02","19","07:00","5.1","","4.3","","95","","13","","20","","8.0","","99.13","","","","","","Rain,Fog"
"2007-02-19 08:00","2007","02","19","08:00","5.2","","4.5","","95","","13","","20","","8.0","","99.07","","","","","","Rain,Fog"
"2007-02-19 09:00","2007","02","19","09:00","5.5","","4.6","","94","","13","","22","","8.0","","99.00","","","","","","Rain,Fog"
"2007-02-19 10:00","2007","02","19","10:00","5.6","","4.8","","95","","15","","15","","12.9","","98.94","","","","","","Rain"
"2007-02-19 11:00","2007","02","19","11:00","5.7","","5.0","","95","","13","","7","","12.9","","98.87","","","","","","Rain"
"2007-02-19 12:00","2007","02","19","12:00","6.0","","5.3","","95","","13","","15","","12.9","","98.80","","","","","","Rain"
"2007-02-19 13:00","2007","02","19","13:00","6.2","","5.5","","95","","13","","17","","12.9","","98.66","","","","","","Rain"
"2007-02-19 14:00","2007","02","19","14:00","6.5","","5.7","","95","","13","","7","","12.9","","98.61","","","","","","Rain"
"2007-02-19 15:00","2007","02","19","15:00","6.7","","5.9","","95","","12","","7","","12.9","","98.53","","","","","","Rain"
"2007-02-19 16:00","2007","02","19","16:00","6.6","","5.7","","94","","","","0","","19.3","","98.48","","","","","","Rain"
"2007-02-19 17:00","2007","02","19","17:00","6.6","","5.1","","90","","","","0","","24.1","","98.43","","","","","","Rain"
"2007-02-19 18:00","2007","02","19","18:00","4.8","","4.3","","97","","","","0","","24.1","","98.35","","","","","","Mostly Cloudy"
"2007-02-19 19:00","2007","02","19","19:00","3.9","","3.6","","98","","","","0","","24.1","","98.36","","","","","","Mostly Cloudy"
"2007-02-19 20:00","2007","02","19","20:00","3.1","","2.9","","99","","32","","6","","25.0","","98.34","","","","","","Mainly Clear"
"2007-02-19 21:00","2007","02","19","21:00","1.6","","1.5","","99","","","","0","","25.0","","98.34","","","","","","Mainly Clear"
"2007-02-19 22:00","2007","02","19","22:00"
"2007-02-19 23:00","2007","02","19","23:00"
"2007-02-20 00:00","2007","02","20","00:00"
"2007-02-20 01:00","2007","02","20","01:00"
"2007-02-20 02:00","2007","02","20","02:00"
"2007-02-20 03:00","2007","02","20","03:00"
"2007-02-20 04:00","2007","02","20","04:00"
"2007-02-20 05:00","2007","02","20","05:00"
"2007-02-20 06:00","2007","02","20","06:00","0.1","","-0.8","","94","","32","","9","","16.1","","98.58","","","","","","Mainly Clear"
"2007-02-20 07:00","2007","02","20","07:00","-1.0","","-1.5","","96","","","","0","","32.2","","98.56","","","","","","Mainly Clear"
"2007-02-20 08:00","2007","02","20","08:00","-0.9","","-1.5","","96","","29","","6","","32.2","","98.61","","","","-3","","Mostly Cloudy"
"2007-02-20 09:00","2007","02","20","09:00","0.7","","-0.2","","94","","34","","7","","32.2","","98.65","","","","","","Mostly Cloudy"
"2007-02-20 10:00","2007","02","20","10:00","1.1","","0.5","","96","","","","0","","32.2","","98.73","","","","","","Mostly Cloudy"
"2007-02-20 11:00","2007","02","20","11:00","4.4","","2.0","","84","","","","0","","32.2","","98.79","","","","","","Mostly Cloudy"
"2007-02-20 12:00","2007","02","20","12:00","4.8","","2.6","","86","","","","0","","32.2","","98.88","","","","","","Mostly Cloudy"
"2007-02-20 13:00","2007","02","20","13:00","5.5","","1.3","","74","","","","0","","32.2","","98.95","","","","","","Mostly Cloudy"
"2007-02-20 14:00","2007","02","20","14:00","6.7","","2.7","","76","","12","","6","","32.2","","98.98","","","","","","Mostly Cloudy"
"2007-02-20 15:00","2007","02","20","15:00","6.5","","1.1","","68","","9","","7","","32.2","","99.01","","","","","","Mostly Cloudy"
"2007-02-20 16:00","2007","02","20","16:00","6.1","","3.1","","81","","10","","13","","32.2","","99.06","","","","","","Mostly Cloudy"
"2007-02-20 17:00","2007","02","20","17:00","5.6","","2.9","","83","","10","","11","","32.2","","99.08","","","","","","Rain Showers"
"2007-02-20 18:00","2007","02","20","18:00","4.1","","2.6","","90","","28","","6","","32.2","","99.14","","","","","","Mostly Cloudy"
"2007-02-20 19:00","2007","02","20","19:00","2.7","","0.2","","84","","29","","6","","25.0","","99.22","","","","","","Mostly Cloudy"
"2007-02-20 20:00","2007","02","20","20:00","1.8","","-0.2","","87","","26","","6","","25.0","","99.29","","","","","","Mostly Cloudy"
"2007-02-20 21:00","2007","02","20","21:00","0.6","","-0.6","","92","","","","0","","25.0","","99.36","","","","","","Mostly Cloudy"
"2007-02-20 22:00","2007","02","20","22:00"
"2007-02-20 23:00","2007","02","20","23:00"
"2007-02-21 00:00","2007","02","21","00:00"
"2007-02-21 01:00","2007","02","21","01:00"
"2007-02-21 02:00","2007","02","21","02:00"
"2007-02-21 03:00","2007","02","21","03:00"
"2007-02-21 04:00","2007","02","21","04:00"
"2007-02-21 05:00","2007","02","21","05:00"
"2007-02-21 06:00","2007","02","21","06:00","-1.5","","-2.2","","95","","","","0","","19.3","","99.72","","","","","","Mainly Clear"
"2007-02-21 07:00","2007","02","21","07:00","-1.8","","-2.3","","96","","32","","4","","32.2","","99.73","","","","-3","","Mostly Cloudy"
"2007-02-21 08:00","2007","02","21","08:00","-1.5","","-2.1","","96","","30","","4","","32.2","","99.77","","","","-3","","Mostly Cloudy"
"2007-02-21 09:00","2007","02","21","09:00","1.0","","-0.6","","89","","16","","4","","32.2","","99.79","","","","","","Cloudy"
"2007-02-21 10:00","2007","02","21","10:00","2.9","","0.4","","84","","14","","13","","32.2","","99.81","","","","","","Cloudy"
"2007-02-21 11:00","2007","02","21","11:00","2.8","","1.5","","91","","15","","9","","12.9","","99.79","","","","","","Rain Showers"
"2007-02-21 12:00","2007","02","21","12:00","4.1","","2.2","","87","","15","","15","","19.3","","99.75","","","","","","Cloudy"
"2007-02-21 13:00","2007","02","21","13:00","3.3","","2.1","","92","","14","","32","","8.0","","99.69","","","","","","Rain Showers,Fog"
"2007-02-21 14:00","2007","02","21","14:00","3.6","","2.3","","91","","14","","24","","9.7","","99.64","","","","","","Rain Showers,Fog"
"2007-02-21 15:00","2007","02","21","15:00","4.6","","2.3","","85","","13","","24","","16.1","","99.55","","","","","","Cloudy"
"2007-02-21 16:00","2007","02","21","16:00","4.0","","2.3","","89","","13","","41","","9.7","","99.51","","","","","","Rain Showers,Snow Showers"
"2007-02-21 17:00","2007","02","21","17:00","4.0","","2.9","","93","","16","","9","","16.1","","99.49","","","","","","Rain Showers"
"2007-02-21 18:00","2007","02","21","18:00","3.6","","2.6","","93","","14","","13","","16.1","","99.47","","","","","","Rain Showers"
"2007-02-21 19:00","2007","02","21","19:00","3.0","","2.0","","93","","14","","9","","9.7","","99.47","","","","","","Rain Showers,Fog"
"2007-02-21 20:00","2007","02","21","20:00","2.4","","1.9","","96","","14","","7","","8.0","","99.43","","","","","","Rain Showers,Fog"
"2007-02-21 21:00","2007","02","21","21:00","2.7","","2.3","","97","","","","0","","6.4","","99.37","","","","","","Rain Showers,Fog"
"2007-02-21 22:00","2007","02","21","22:00"
"2007-02-21 23:00","2007","02","21","23:00"
"2007-02-22 00:00","2007","02","22","00:00"
"2007-02-22 01:00","2007","02","22","01:00"
"2007-02-22 02:00","2007","02","22","02:00"
"2007-02-22 03:00","2007","02","22","03:00"
"2007-02-22 04:00","2007","02","22","04:00"
"2007-02-22 05:00","2007","02","22","05:00"
"2007-02-22 06:00","2007","02","22","06:00","1.5","","1.0","","96","","35","","4","","24.1","","98.95","","","","","","Mostly Cloudy"
"2007-02-22 07:00","2007","02","22","07:00","0.9","","0.4","","96","","32","","6","","19.3","","99.02","","","","","","Mostly Cloudy"
"2007-02-22 08:00","2007","02","22","08:00","0.8","","0.4","","97","","28","","7","","24.1","","99.07","","","","","","Mostly Cloudy"
"2007-02-22 09:00","2007","02","22","09:00","1.4","","1.0","","97","","31","","4","","32.2","","99.11","","","","","","Mostly Cloudy"
"2007-02-22 10:00","2007","02","22","10:00","3.6","","2.3","","91","","","","0","","32.2","","99.12","","","","","","Mostly Cloudy"
"2007-02-22 11:00","2007","02","22","11:00","5.3","","2.6","","83","","","","0","","32.2","","99.13","","","","","","Mostly Cloudy"
"2007-02-22 12:00","2007","02","22","12:00","5.2","","1.8","","79","","10","","6","","32.2","","99.09","","","","","","Mostly Cloudy"
"2007-02-22 13:00","2007","02","22","13:00","5.8","","0.6","","69","","11","","11","","32.2","","99.06","","","","","","Mostly Cloudy"
"2007-02-22 14:00","2007","02","22","14:00","6.2","","-0.3","","63","","11","","19","","24.1","","99.02","","","","","","Mostly Cloudy"
"2007-02-22 15:00","2007","02","22","15:00","6.1","","0.1","","65","","12","","22","","24.1","","99.02","","","","","","Mostly Cloudy"
"2007-02-22 16:00","2007","02","22","16:00","5.8","","0.0","","66","","13","","22","","24.1","","98.99","","","","","","Mostly Cloudy"
"2007-02-22 17:00","2007","02","22","17:00","5.2","","1.0","","74","","11","","13","","24.1","","98.99","","","","","","Mostly Cloudy"
"2007-02-22 18:00","2007","02","22","18:00","4.5","","0.9","","77","","14","","17","","24.1","","99.03","","","","","","Mostly Cloudy"
"2007-02-22 19:00","2007","02","22","19:00","3.4","","0.7","","82","","14","","7","","25.0","","99.05","","","","","","Cloudy"
"2007-02-22 20:00","2007","02","22","20:00","3.7","","0.1","","77","","14","","15","","25.0","","99.08","","","","","","Cloudy"
"2007-02-22 21:00","2007","02","22","21:00","2.4","","0.9","","90","","13","","9","","19.3","","99.10","","","","","","Cloudy"
"2007-02-22 22:00","2007","02","22","22:00"
"2007-02-22 23:00","2007","02","22","23:00"
"2007-02-23 00:00","2007","02","23","00:00"
"2007-02-23 01:00","2007","02","23","01:00"
"2007-02-23 02:00","2007","02","23","02:00"
"2007-02-23 03:00","2007","02","23","03:00"
"2007-02-23 04:00","2007","02","23","04:00"
"2007-02-23 05:00","2007","02","23","05:00"
"2007-02-23 06:00","2007","02","23","06:00","-0.8","","-1.6","","94","","","","0","","25.0","","99.47","","","","","","Mainly Clear"
"2007-02-23 07:00","2007","02","23","07:00","-0.7","","-1.4","","95","","","","0","","32.2","","99.52","","","","","","Mainly Clear"
"2007-02-23 08:00","2007","02","23","08:00","0.2","","-0.9","","92","","31","","6","","32.2","","99.60","","","","","","Mostly Cloudy"
"2007-02-23 09:00","2007","02","23","09:00","1.2","","-0.2","","90","","","","0","","32.2","","99.69","","","","","","Mostly Cloudy"
"2007-02-23 10:00","2007","02","23","10:00","3.1","","-0.9","","75","","","","0","","32.2","","99.76","","","","","","Mainly Clear"
"2007-02-23 11:00","2007","02","23","11:00","5.5","","-0.9","","63","","","","0","","32.2","","99.83","","","","","","Mainly Clear"
"2007-02-23 12:00","2007","02","23","12:00","4.4","","-1.0","","68","","7","","9","","32.2","","99.90","","","","","","Mostly Cloudy"
"2007-02-23 13:00","2007","02","23","13:00","5.1","","-0.1","","69","","11","","15","","24.1","","99.93","","","","","","Mostly Cloudy"
"2007-02-23 14:00","2007","02","23","14:00","4.6","","-1.5","","65","","8","","13","","24.1","","99.95","","","","","","Mostly Cloudy"
"2007-02-23 15:00","2007","02","23","15:00","4.2","","-0.8","","70","","9","","6","","24.1","","99.99","","","","","","Rain Showers"
"2007-02-23 16:00","2007","02","23","16:00","4.3","","0.0","","74","","4","","9","","32.2","","100.04","","","","","","Mostly Cloudy"
"2007-02-23 17:00","2007","02","23","17:00","3.9","","0.3","","77","","2","","6","","32.2","","100.01","","","","","","Mostly Cloudy"
"2007-02-23 18:00","2007","02","23","18:00","2.6","","0.4","","85","","29","","4","","32.2","","100.02","","","","","","Mostly Cloudy"
"2007-02-23 19:00","2007","02","23","19:00","1.4","","0.2","","92","","22","","6","","25.0","","100.03","","","","","","Mostly Cloudy"
"2007-02-23 20:00","2007","02","23","20:00","0.8","","-1.0","","88","","19","","6","","25.0","","100.03","","","","","","Mostly Cloudy"
"2007-02-23 21:00","2007","02","23","21:00","2.3","","-2.7","","69","","15","","15","","25.0","","100.03","","","","","","Mostly Cloudy"
"2007-02-23 22:00","2007","02","23","22:00"
"2007-02-23 23:00","2007","02","23","23:00"
"2007-02-24 00:00","2007","02","24","00:00"
"2007-02-24 01:00","2007","02","24","01:00"
"2007-02-24 02:00","2007","02","24","02:00"
"2007-02-24 03:00","2007","02","24","03:00"
"2007-02-24 04:00","2007","02","24","04:00"
"2007-02-24 05:00","2007","02","24","05:00"
"2007-02-24 06:00","2007","02","24","06:00","0.6","","0.0","","96","","14","","22","","1.0","","99.45","","","","","","Snow"
"2007-02-24 07:00","2007","02","24","07:00","0.9","","0.3","","96","","11","","24","","1.2","","99.33","","","","","","Snow"
"2007-02-24 08:00","2007","02","24","08:00","0.8","","0.3","","96","","12","","20","","1.2","","99.28","","","","","","Snow"
"2007-02-24 09:00","2007","02","24","09:00","0.8","","0.4","","97","","12","","17","","1.6","","99.22","","","","","","Snow"
"2007-02-24 10:00","2007","02","24","10:00","0.9","","0.4","","96","","14","","17","","2.4","","99.18","","","","","","Snow"
"2007-02-24 11:00","2007","02","24","11:00","1.1","","0.6","","96","","13","","19","","2.4","","99.13","","","","","","Snow"
"2007-02-24 12:00","2007","02","24","12:00","1.6","","0.9","","95","","14","","15","","3.2","","99.07","","","","","","Snow"
"2007-02-24 13:00","2007","02","24","13:00","1.9","","1.2","","95","","15","","15","","4.8","","98.98","","","","","","Rain,Fog"
"2007-02-24 14:00","2007","02","24","14:00","1.6","","1.1","","96","","13","","11","","4.8","","98.89","","","","","","Rain,Snow"
"2007-02-24 15:00","2007","02","24","15:00","2.1","","1.3","","94","","13","","17","","6.4","","98.82","","","","","","Rain,Snow"
"2007-02-24 16:00","2007","02","24","16:00","1.7","","1.0","","95","","14","","15","","6.4","","98.77","","","","","","Rain,Snow"
"2007-02-24 17:00","2007","02","24","17:00","1.9","","1.4","","96","","14","","19","","6.4","","98.73","","","","","","Rain,Snow"
"2007-02-24 18:00","2007","02","24","18:00","1.8","","1.5","","98","","12","","9","","3.2","","98.69","","","","","","Rain,Snow"
"2007-02-24 19:00","2007","02","24","19:00","1.6","","1.2","","97","","13","","4","","4.8","","98.66","","","","","","Rain,Fog"
"2007-02-24 20:00","2007","02","24","20:00","2.2","","1.7","","96","","12","","11","","6.4","","98.61","","","","","","Rain,Fog"
"2007-02-24 21:00","2007","02","24","21:00","2.2","","1.9","","98","","10","","11","","6.4","","98.56","","","","","","Rain,Fog"
"2007-02-24 22:00","2007","02","24","22:00"
"2007-02-24 23:00","2007","02","24","23:00"
"2007-02-25 00:00","2007","02","25","00:00"
"2007-02-25 01:00","2007","02","25","01:00"
"2007-02-25 02:00","2007","02","25","02:00"
"2007-02-25 03:00","2007","02","25","03:00"
"2007-02-25 04:00","2007","02","25","04:00"
"2007-02-25 05:00","2007","02","25","05:00"
"2007-02-25 06:00","2007","02","25","06:00","4.0","","3.3","","95","","14","","15","","24.1","","98.28","","","","","","Mostly Cloudy"
"2007-02-25 07:00","2007","02","25","07:00","4.0","","3.1","","94","","14","","13","","19.3","","98.28","","","","","","Cloudy"
"2007-02-25 08:00","2007","02","25","08:00","4.4","","3.7","","95","","13","","20","","19.3","","98.30","","","","","","Rain Showers"
"2007-02-25 09:00","2007","02","25","09:00","4.8","","3.9","","94","","13","","24","","16.1","","98.31","","","","","","Rain Showers"
"2007-02-25 10:00","2007","02","25","10:00","5.4","","4.4","","93","","14","","19","","16.1","","98.33","","","","","","Rain Showers"
"2007-02-25 11:00","2007","02","25","11:00","4.9","","4.0","","94","","13","","20","","9.7","","98.33","","","","","","Rain Showers,Fog"
"2007-02-25 12:00","2007","02","25","12:00","5.8","","4.8","","93","","14","","20","","9.7","","98.33","","","","","","Rain Showers,Fog"
"2007-02-25 13:00","2007","02","25","13:00","5.8","","4.6","","92","","14","","22","","9.7","","98.31","","","","","","Rain Showers,Fog"
"2007-02-25 14:00","2007","02","25","14:00","5.1","","4.3","","95","","14","","15","","9.7","","98.31","","","","","","Rain Showers,Fog"
"2007-02-25 15:00","2007","02","25","15:00","5.9","","4.6","","91","","12","","28","","12.9","","98.32","","","","","","Cloudy"
"2007-02-25 16:00","2007","02","25","16:00","6.2","","4.2","","87","","13","","28","","16.1","","98.34","","","","","","Cloudy"
"2007-02-25 17:00","2007","02","25","17:00","5.8","","4.4","","91","","13","","22","","16.1","","98.41","","","","","","Rain Showers"
"2007-02-25 18:00","2007","02","25","18:00","5.5","","4.5","","93","","13","","22","","16.1","","98.43","","","","","","Rain Showers"
"2007-02-25 19:00","2007","02","25","19:00","5.7","","4.5","","92","","13","","24","","16.1","","98.49","","","","","","Rain Showers"
"2007-02-25 20:00","2007","02","25","20:00","5.9","","4.6","","91","","13","","22","","12.9","","98.53","","","","","","Rain Showers"
"2007-02-25 21:00","2007","02","25","21:00","5.5","","4.7","","95","","15","","11","","16.1","","98.59","","","","","","Rain Showers"
"2007-02-25 22:00","2007","02","25","22:00"
"2007-02-25 23:00","2007","02","25","23:00"
"2007-02-26 00:00","2007","02","26","00:00"
"2007-02-26 01:00","2007","02","26","01:00"
"2007-02-26 02:00","2007","02","26","02:00"
"2007-02-26 03:00","2007","02","26","03:00"
"2007-02-26 04:00","2007","02","26","04:00"
"2007-02-26 05:00","2007","02","26","05:00"
"2007-02-26 06:00","2007","02","26","06:00","3.9","","2.8","","93","","12","","9","","25.0","","98.78","","","","","","Cloudy"
"2007-02-26 07:00","2007","02","26","07:00","3.6","","2.4","","92","","19","","7","","32.2","","98.83","","","","","","Cloudy"
"2007-02-26 08:00","2007","02","26","08:00","2.6","","2.3","","98","","","","0","","32.2","","98.89","","","","","","Mostly Cloudy"
"2007-02-26 09:00","2007","02","26","09:00","3.0","","2.6","","97","","","","0","","32.2","","98.97","","","","","","Mostly Cloudy"
"2007-02-26 10:00","2007","02","26","10:00","4.4","","3.1","","91","","","","0","","32.2","","99.02","","","","","","Mostly Cloudy"
"2007-02-26 11:00","2007","02","26","11:00","5.4","","3.8","","89","","36","","7","","32.2","","99.05","","","","","","Mostly Cloudy"
"2007-02-26 12:00","2007","02","26","12:00","5.5","","1.6","","76","","","","0","","32.2","","99.08","","","","","","Mostly Cloudy"
"2007-02-26 13:00","2007","02","26","13:00","6.4","","2.6","","77","","10","","9","","32.2","","99.08","","","","","","Cloudy"
"2007-02-26 14:00","2007","02","26","14:00","6.5","","2.4","","75","","9","","19","","32.2","","99.07","","","","","","Mostly Cloudy"
"2007-02-26 15:00","2007","02","26","15:00","7.1","","1.8","","69","","13","","9","","32.2","","99.05","","","","","","Mostly Cloudy"
"2007-02-26 16:00","2007","02","26","16:00","6.0","","3.0","","81","","11","","19","","24.1","","99.10","","","","","","Mostly Cloudy"
"2007-02-26 17:00","2007","02","26","17:00","5.0","","2.4","","83","","11","","15","","32.2","","99.13","","","","","","Mostly Cloudy"
"2007-02-26 18:00","2007","02","26","18:00","4.4","","2.4","","87","","9","","9","","32.2","","99.13","","","","","","Mostly Cloudy"
"2007-02-26 19:00","2007","02","26","19:00","3.7","","1.6","","86","","","","0","","24.1","","99.15","","","","","","Mostly Cloudy"
"2007-02-26 20:00","2007","02","26","20:00","1.9","","1.1","","94","","27","","7","","25.0","","99.16","","","","","","Mostly Cloudy"
"2007-02-26 21:00","2007","02","26","21:00","1.8","","1.1","","95","","29","","7","","25.0","","99.16","","","","","","Mostly Cloudy"
"2007-02-26 22:00","2007","02","26","22:00"
"2007-02-26 23:00","2007","02","26","23:00"
"2007-02-27 00:00","2007","02","27","00:00"
"2007-02-27 01:00","2007","02","27","01:00"
"2007-02-27 02:00","2007","02","27","02:00"
"2007-02-27 03:00","2007","02","27","03:00"
"2007-02-27 04:00","2007","02","27","04:00"
"2007-02-27 05:00","2007","02","27","05:00"
"2007-02-27 06:00","2007","02","27","06:00","1.3","","0.4","","94","","","","0","","16.1","","99.03","","","","","","Cloudy"
"2007-02-27 07:00","2007","02","27","07:00","1.0","","0.1","","94","","","","0","","24.1","","99.03","","","","","","Mostly Cloudy"
"2007-02-27 08:00","2007","02","27","08:00","0.6","","0.0","","96","","","","0","","24.1","","99.03","","","","","","Mostly Cloudy"
"2007-02-27 09:00","2007","02","27","09:00","1.8","","0.4","","90","","","","0","","24.1","","99.05","","","","","","Mostly Cloudy"
"2007-02-27 10:00","2007","02","27","10:00","3.5","","0.2","","79","","15","","6","","24.1","","99.05","","","","","","Mostly Cloudy"
"2007-02-27 11:00","2007","02","27","11:00","3.8","","1.3","","84","","9","","6","","24.1","","99.03","","","","","","Mostly Cloudy"
"2007-02-27 12:00","2007","02","27","12:00","3.8","","1.4","","84","","2","","4","","24.1","","99.04","","","","","","Mostly Cloudy"
"2007-02-27 13:00","2007","02","27","13:00","4.1","","1.6","","84","","6","","4","","24.1","","99.03","","","","","","Mostly Cloudy"
"2007-02-27 14:00","2007","02","27","14:00","2.9","","0.0","","81","","18","","4","","16.1","","99.02","","","","","","Rain Showers"
"2007-02-27 15:00","2007","02","27","15:00","2.9","","1.1","","88","","","","0","","16.1","","99.02","","","","","","Rain Showers"
"2007-02-27 16:00","2007","02","27","16:00","2.0","","1.1","","94","","32","","4","","8.0","","99.00","","","","","","Rain Showers,Fog"
"2007-02-27 17:00","2007","02","27","17:00","2.0","","1.2","","94","","33","","4","","8.0","","99.02","","","","","","Rain Showers,Fog"
"2007-02-27 18:00","2007","02","27","18:00","1.3","","0.7","","96","","30","","4","","3.2","","99.04","","","","","","Rain Showers,Snow Showers"
"2007-02-27 19:00","2007","02","27","19:00","0.7","","0.2","","96","","34","","4","","4.8","","99.05","","","","","","Rain Showers,Snow Showers"
"2007-02-27 20:00","2007","02","27","20:00","0.4","","0.0","","97","","","","0","","2.4","","99.08","","","","","","Snow Showers"
"2007-02-27 21:00","2007","02","27","21:00","0.3","","0.0","","98","","","","0","","2.4","","99.11","","","","","","Snow Showers"
"2007-02-27 22:00","2007","02","27","22:00"
"2007-02-27 23:00","2007","02","27","23:00"
"2007-02-28 00:00","2007","02","28","00:00"
"2007-02-28 01:00","2007","02","28","01:00"
"2007-02-28 02:00","2007","02","28","02:00"
"2007-02-28 03:00","2007","02","28","03:00"
"2007-02-28 04:00","2007","02","28","04:00"
"2007-02-28 05:00","2007","02","28","05:00"
"2007-02-28 06:00","2007","02","28","06:00","-0.9","","-2.6","","88","","29","","4","","16.1","","99.17","","","","-2","","Cloudy"
"2007-02-28 07:00","2007","02","28","07:00","-1.3","","-2.7","","90","","27","","7","","24.1","","99.18","","","","-4","","Cloudy"
"2007-02-28 08:00","2007","02","28","08:00","-1.2","","-3.0","","88","","30","","7","","32.2","","99.21","","","","-4","","Mostly Cloudy"
"2007-02-28 09:00","2007","02","28","09:00","-0.4","","-2.8","","84","","28","","7","","32.2","","99.23","","","","-3","","Mostly Cloudy"
"2007-02-28 10:00","2007","02","28","10:00","0.8","","-5.1","","65","","30","","11","","32.2","","99.25","","","","","","Mostly Cloudy"
"2007-02-28 11:00","2007","02","28","11:00","1.8","","-5.2","","60","","30","","9","","32.2","","99.28","","","","","","Mainly Clear"
"2007-02-28 12:00","2007","02","28","12:00","2.2","","-7.1","","50","","34","","22","","32.2","","99.31","","","","","","Mainly Clear"
"2007-02-28 13:00","2007","02","28","13:00","2.6","","-5.9","","53","","35","","9","","32.2","","99.31","","","","","","Mainly Clear"
"2007-02-28 14:00","2007","02","28","14:00","3.6","","-5.9","","50","","","","0","","24.1","","99.31","","","","","","Mostly Cloudy"
"2007-02-28 15:00","2007","02","28","15:00","3.2","","-6.2","","50","","","","0","","24.1","","99.32","","","","","","Mostly Cloudy"
"2007-02-28 16:00","2007","02","28","16:00","0.5","","-2.2","","82","","13","","11","","1.6","","99.43","","","","","","Snow Showers"
"2007-02-28 17:00","2007","02","28","17:00","-0.8","","-1.9","","92","","7","","7","","16.1","","99.47","","","","-3","","Snow Showers"
"2007-02-28 18:00","2007","02","28","18:00","-1.8","","-2.6","","94","","32","","19","","1.2","","99.56","","","","-7","","Snow Showers"
"2007-02-28 19:00","2007","02","28","19:00","-2.3","","-3.6","","91","","27","","7","","16.1","","99.62","","","","-5","","Snow Showers"
"2007-02-28 20:00","2007","02","28","20:00","-2.9","","-4.5","","89","","29","","7","","16.1","","99.67","","","","-6","","Mostly Cloudy"
"2007-02-28 21:00","2007","02","28","21:00","-4.0","","-6.4","","83","","29","","11","","25.0","","99.73","","","","-8","","Mainly Clear"
"2007-02-28 22:00","2007","02","28","22:00"
"2007-02-28 23:00","2007","02","28","23:00"
