"Station Name","CAMPBELL RIVER A"
"Province","BRITISH COLUMBIA"
"Latitude","49.95"
"Longitude","-125.27"
"Elevation","108.80"
"Climate Identifier","1021261"
"WMO Identifier",""
"TC Identifier","YBL"
"All times are specified in Local Standard Time (LST). Add 1 hour to adjust for Daylight Saving Time where and when it is observed."

"Legend"
"E","Estimated"
"M","Missing"
"NA","Not Available"

"Date/Time","Year","Month","Day","Time","Temp (°C)","Temp Flag","Dew Point Temp (°C)","Dew Point Temp Flag","Rel Hum (%)","Rel Hum Flag","Wind Dir (10s deg)","Wind Dir Flag","Wind Spd (km/h)","Wind Spd Flag","Visibility (km)","Visibility Flag","Stn Press (kPa)","Stn Press Flag","Hmdx","Hmdx Flag","Wind Chill","Wind Chill Flag","Weather"
"1999-09-01 00:00","1999","09","01","00:00"
"1999-09-01 01:00","1999","09","01","01:00"
"1999-09-01 02:00","1999","09","01","02:00"
"1999-09-01 03:00","1999","09","01","03:00"
"1999-09-01 04:00","1999","09","01","04:00"
"1999-09-01 05:00","1999","09","01","05:00","8.7","","8.0","","95","","28","","6","","32.2","","100.66","","","","","","Mostly Cloudy"
"1999-09-01 06:00","1999","09","01","06:00","9.6","","8.5","","93","","","","0","","32.2","","100.66","","","","","","Mostly Cloudy"
"1999-09-01 07:00","1999","09","01","07:00","10.1","","9.1","","93","","","","0","","32.2","","100.73","","","","","","Mainly Clear"
"1999-09-01 08:00","1999","09","01","08:00","12.8","","8.9","","77","","35","","6","","32.2","","100.73","","","","","","Mainly Clear"
"1999-09-01 09:00","1999","09","01","09:00","14.9","","8.6","","66","","36","","4","","32.2","","100.70","","","","","","Mostly Cloudy"
"1999-09-01 10:00","1999","09","01","10:00","16.1","","9.6","","65","","10","","9","","32.2","","100.70","","","","","","Mainly Clear"
"1999-09-01 11:00","1999","09","01","11:00","16.6","","9.3","","62","","11","","4","","32.2","","100.63","","","","","","Mainly Clear"
"1999-09-01 12:00","1999","09","01","12:00","17.6","","8.7","","56","","10","","9","","32.2","","100.63","","","","","","Mainly Clear"
"1999-09-01 13:00","1999","09","01","13:00","18.6","","8.6","","52","","","","0","","32.2","","100.60","","","","","","Mainly Clear"
"1999-09-01 14:00","1999","09","01","14:00","19.5","","8.0","","47","","12","","15","","32.2","","100.56","","","","","","Mainly Clear"
"1999-09-01 15:00","1999","09","01","15:00","19.9","","7.1","","43","","8","","11","","32.2","","100.53","","","","","","Mainly Clear"
"1999-09-01 16:00","1999","09","01","16:00","20.4","","9.0","","48","","9","","11","","32.2","","100.50","","","","","","Mainly Clear"
"1999-09-01 17:00","1999","09","01","17:00","19.6","","7.6","","46","","12","","6","","32.2","","100.46","","","","","","Mainly Clear"
"1999-09-01 18:00","1999","09","01","18:00","19.2","","8.7","","51","","","","0","","32.2","","100.46","","","","","","Mainly Clear"
"1999-09-01 19:00","1999","09","01","19:00","16.6","","9.2","","62","","30","","4","","32.2","","100.43","","","","","","Mainly Clear"
"1999-09-01 20:00","1999","09","01","20:00","11.3","","9.1","","86","","","","0","","32.2","","100.50","","","","","","Mainly Clear"
"1999-09-01 21:00","1999","09","01","21:00"
"1999-09-01 22:00","1999","09","01","22:00"
"1999-09-01 23:00","1999","09","01","23:00"
"1999-09-02 00:00","1999","09","02","00:00"
"1999-09-02 01:00","1999","09","02","01:00"
"1999-09-02 02:00","1999","09","02","02:00"
"1999-09-02 03:00","1999","09","02","03:00"
"1999-09-02 04:00","1999","09","02","04:00"
"1999-09-02 05:00","1999","09","02","05:00","8.6","","5.4","","80","","33","","13","","32.2","","100.56","","","","","","Clear"
"1999-09-02 06:00","1999","09","02","06:00","8.0","","5.7","","85","","31","","19","","32.2","","100.60","","","","","","Clear"
"1999-09-02 07:00","1999","09","02","07:00","9.9","","6.9","","82","","32","","15","","32.2","","100.60","","","","","","Clear"
"1999-09-02 08:00","1999","09","02","08:00","13.1","","7.9","","71","","32","","15","","32.2","","100.60","","","","","","Clear"
"1999-09-02 09:00","1999","09","02","09:00","15.2","","7.9","","62","","33","","19","","32.2","","100.60","","","","","","Clear"
"1999-09-02 10:00","1999","09","02","10:00","17.1","","8.3","","56","","31","","15","","32.2","","100.60","","","","","","Clear"
"1999-09-02 11:00","1999","09","02","11:00","19.3","","8.5","","50","","31","","13","","32.2","","100.56","","","","","","Mainly Clear"
"1999-09-02 12:00","1999","09","02","12:00","20.2","","9.2","","49","","9","","15","","32.2","","100.53","","","","","","Mainly Clear"
"1999-09-02 13:00","1999","09","02","13:00","20.3","","9.4","","50","","12","","9","","32.2","","100.50","","","","","","Mainly Clear"
"1999-09-02 14:00","1999","09","02","14:00","21.8","","9.4","","45","","12","","9","","32.2","","100.46","","","","","","Mainly Clear"
"1999-09-02 15:00","1999","09","02","15:00","21.7","","9.2","","45","","9","","11","","32.2","","100.43","","","","","","Mainly Clear"
"1999-09-02 16:00","1999","09","02","16:00","22.1","","8.5","","42","","6","","9","","32.2","","100.40","","","","","","Mainly Clear"
"1999-09-02 17:00","1999","09","02","17:00","21.0","","9.0","","46","","9","","6","","32.2","","100.40","","","","","","Mainly Clear"
"1999-09-02 18:00","1999","09","02","18:00","21.5","","8.6","","44","","12","","6","","32.2","","100.40","","","","","","Mainly Clear"
"1999-09-02 19:00","1999","09","02","19:00","16.0","","10.8","","71","","33","","9","","32.2","","100.43","","","","","","Mainly Clear"
"1999-09-02 20:00","1999","09","02","20:00","14.3","","9.2","","71","","27","","6","","32.2","","100.46","","","","","","Mainly Clear"
"1999-09-02 21:00","1999","09","02","21:00"
"1999-09-02 22:00","1999","09","02","22:00"
"1999-09-02 23:00","1999","09","02","23:00"
"1999-09-03 00:00","1999","09","03","00:00"
"1999-09-03 01:00","1999","09","03","01:00"
"1999-09-03 02:00","1999","09","03","02:00"
"1999-09-03 03:00","1999","09","03","03:00"
"1999-09-03 04:00","1999","09","03","04:00"
"1999-09-03 05:00","1999","09","03","05:00","9.7","","7.7","","87","","31","","17","","24.1","","100.60","","","","","","Mainly Clear"
"1999-09-03 06:00","1999","09","03","06:00","9.6","","7.7","","88","","31","","17","","24.1","","100.60","","","","","","Mainly Clear"
"1999-09-03 07:00","1999","09","03","07:00","9.7","","8.0","","89","","31","","17","","24.1","","100.63","","","","","","Mainly Clear"
"1999-09-03 08:00","1999","09","03","08:00","13.4","","9.2","","76","","34","","15","","24.1","","100.63","","","","","","Mainly Clear"
"1999-09-03 09:00","1999","09","03","09:00","15.4","","9.4","","67","","34","","15","","24.1","","100.63","","","","","","Mainly Clear"
"1999-09-03 10:00","1999","09","03","10:00","17.9","","9.0","","56","","","","0","","24.1","","100.63","","","","","","Mainly Clear"
"1999-09-03 11:00","1999","09","03","11:00","18.8","","11.4","","62","","10","","11","","24.1","","100.60","","","","","","Mainly Clear"
"1999-09-03 12:00","1999","09","03","12:00","20.2","","12.1","","60","","6","","9","","32.2","","100.56","","","","","","Mainly Clear"
"1999-09-03 13:00","1999","09","03","13:00","20.5","","9.6","","50","","6","","9","","32.2","","100.53","","","","","","Mainly Clear"
"1999-09-03 14:00","1999","09","03","14:00","22.0","","10.9","","49","","6","","9","","32.2","","100.50","","","","","","Mainly Clear"
"1999-09-03 15:00","1999","09","03","15:00","21.8","","9.4","","45","","12","","9","","32.2","","100.40","","","","","","Mainly Clear"
"1999-09-03 16:00","1999","09","03","16:00","22.5","","9.6","","44","","10","","9","","32.2","","100.36","","","","","","Mainly Clear"
"1999-09-03 17:00","1999","09","03","17:00","21.9","","8.1","","41","","11","","9","","32.2","","100.33","","","","","","Mainly Clear"
"1999-09-03 18:00","1999","09","03","18:00","20.0","","9.9","","52","","","","0","","32.2","","100.26","","","","","","Mostly Cloudy"
"1999-09-03 19:00","1999","09","03","19:00","17.4","","10.8","","65","","","","0","","32.2","","100.26","","","","","","Mostly Cloudy"
"1999-09-03 20:00","1999","09","03","20:00","14.1","","11.3","","83","","","","0","","32.2","","100.29","","","","","","Mostly Cloudy"
"1999-09-03 21:00","1999","09","03","21:00"
"1999-09-03 22:00","1999","09","03","22:00"
"1999-09-03 23:00","1999","09","03","23:00"
"1999-09-04 00:00","1999","09","04","00:00"
"1999-09-04 01:00","1999","09","04","01:00"
"1999-09-04 02:00","1999","09","04","02:00"
"1999-09-04 03:00","1999","09","04","03:00"
"1999-09-04 04:00","1999","09","04","04:00"
"1999-09-04 05:00","1999","09","04","05:00","12.8","","12.2","","96","","","","0","","4.8","","100.26","","","","","","Rain,Fog"
"1999-09-04 06:00","1999","09","04","06:00","12.5","","12.0","","97","","","","0","","16.1","","100.26","","","","","","Rain"
"1999-09-04 07:00","1999","09","04","07:00","12.8","","12.1","","96","","","","0","","24.1","","100.29","","","","","","Cloudy"
"1999-09-04 08:00","1999","09","04","08:00","13.5","","12.7","","95","","","","0","","24.1","","100.29","","","","","","Cloudy"
"1999-09-04 09:00","1999","09","04","09:00","14.6","","13.3","","92","","","","0","","9.7","","100.29","","","","","","Fog"
"1999-09-04 10:00","1999","09","04","10:00","14.9","","13.1","","89","","10","","6","","9.7","","100.29","","","","","","Fog"
"1999-09-04 11:00","1999","09","04","11:00","15.9","","13.0","","83","","","","0","","16.1","","100.33","","","","","","Cloudy"
"1999-09-04 12:00","1999","09","04","12:00","16.6","","12.2","","75","","","","0","","24.1","","100.29","","","","","","Mostly Cloudy"
"1999-09-04 13:00","1999","09","04","13:00","17.9","","13.1","","73","","9","","9","","24.1","","100.23","","","","","","Mostly Cloudy"
"1999-09-04 14:00","1999","09","04","14:00","17.1","","13.1","","77","","11","","9","","24.1","","100.23","","","","","","Mostly Cloudy"
"1999-09-04 15:00","1999","09","04","15:00","16.9","","11.8","","72","","11","","9","","24.1","","100.13","","","","","","Mostly Cloudy"
"1999-09-04 16:00","1999","09","04","16:00","15.8","","13.0","","83","","10","","11","","24.1","","100.06","","","","","","Cloudy"
"1999-09-04 17:00","1999","09","04","17:00","15.3","","13.8","","91","","10","","9","","24.1","","99.99","","","","","","Rain Showers"
"1999-09-04 18:00","1999","09","04","18:00","15.0","","13.2","","89","","12","","9","","24.1","","99.93","","","","","","Rain Showers"
"1999-09-04 19:00","1999","09","04","19:00","14.3","","13.0","","92","","12","","9","","24.1","","99.86","","","","","","Rain"
"1999-09-04 20:00","1999","09","04","20:00","14.6","","13.4","","93","","10","","19","","24.1","","99.86","","","","","","Rain"
"1999-09-04 21:00","1999","09","04","21:00"
"1999-09-04 22:00","1999","09","04","22:00"
"1999-09-04 23:00","1999","09","04","23:00"
"1999-09-05 00:00","1999","09","05","00:00"
"1999-09-05 01:00","1999","09","05","01:00"
"1999-09-05 02:00","1999","09","05","02:00"
"1999-09-05 03:00","1999","09","05","03:00"
"1999-09-05 04:00","1999","09","05","04:00"
"1999-09-05 05:00","1999","09","05","05:00","14.5","","12.7","","89","","12","","28","","24.1","","99.32","","","","","","Mostly Cloudy"
"1999-09-05 06:00","1999","09","05","06:00","14.3","","12.8","","91","","15","","28","","24.1","","99.29","","","","","","Cloudy"
"1999-09-05 07:00","1999","09","05","07:00","14.2","","13.1","","93","","14","","28","","24.1","","99.29","","","","","","Cloudy"
"1999-09-05 08:00","1999","09","05","08:00","14.2","","13.4","","95","","14","","19","","4.8","","99.29","","","","","","Rain Showers,Fog"
"1999-09-05 09:00","1999","09","05","09:00","15.2","","14.1","","93","","15","","19","","4.8","","99.29","","","","","","Rain Showers,Fog"
"1999-09-05 10:00","1999","09","05","10:00","14.7","","13.6","","93","","10","","22","","9.7","","99.29","","","","","","Rain Showers,Fog"
"1999-09-05 11:00","1999","09","05","11:00","16.6","","14.5","","87","","12","","19","","24.1","","99.32","","","","","","Rain Showers"
"1999-09-05 12:00","1999","09","05","12:00","17.7","","14.1","","79","","9","","19","","24.1","","99.32","","","","","","Mostly Cloudy"
"1999-09-05 13:00","1999","09","05","13:00","15.9","","14.5","","91","","3","","9","","24.1","","99.39","","","","","","Mostly Cloudy"
"1999-09-05 14:00","1999","09","05","14:00","17.7","","13.8","","78","","6","","7","","24.1","","99.39","","","","","","Mainly Clear"
"1999-09-05 15:00","1999","09","05","15:00","17.4","","13.3","","77","","33","","11","","24.1","","99.42","","","","","","Mostly Cloudy"
"1999-09-05 16:00","1999","09","05","16:00","17.9","","11.5","","66","","32","","11","","24.1","","99.42","","","","","","Mostly Cloudy"
"1999-09-05 17:00","1999","09","05","17:00","17.6","","9.5","","59","","32","","7","","32.2","","99.49","","","","","","Mostly Cloudy"
"1999-09-05 18:00","1999","09","05","18:00","14.0","","10.1","","77","","33","","28","","32.2","","99.66","","","","","","Mostly Cloudy"
"1999-09-05 19:00","1999","09","05","19:00","12.6","","9.3","","80","","32","","26","","32.2","","99.76","","","","","","Mostly Cloudy"
"1999-09-05 20:00","1999","09","05","20:00","11.7","","9.1","","84","","33","","13","","32.2","","99.89","","","","","","Mostly Cloudy"
"1999-09-05 21:00","1999","09","05","21:00"
"1999-09-05 22:00","1999","09","05","22:00"
"1999-09-05 23:00","1999","09","05","23:00"
"1999-09-06 00:00","1999","09","06","00:00"
"1999-09-06 01:00","1999","09","06","01:00"
"1999-09-06 02:00","1999","09","06","02:00"
"1999-09-06 03:00","1999","09","06","03:00"
"1999-09-06 04:00","1999","09","06","04:00"
"1999-09-06 05:00","1999","09","06","05:00","10.1","","8.9","","92","","23","","9","","24.1","","100.36","","","","","","Mostly Cloudy"
"1999-09-06 06:00","1999","09","06","06:00","9.5","","8.7","","95","","","","0","","24.1","","100.43","","","","","","Mostly Cloudy"
"1999-09-06 07:00","1999","09","06","07:00","9.5","","8.8","","95","","24","","9","","32.2","","100.50","","","","","","Mostly Cloudy"
"1999-09-06 08:00","1999","09","06","08:00","10.7","","9.4","","92","","","","0","","32.2","","100.53","","","","","","Mostly Cloudy"
"1999-09-06 09:00","1999","09","06","09:00","12.7","","10.0","","84","","","","0","","32.2","","100.60","","","","","","Mostly Cloudy"
"1999-09-06 10:00","1999","09","06","10:00","14.8","","8.2","","65","","30","","6","","32.2","","100.66","","","","","","Mostly Cloudy"
"1999-09-06 11:00","1999","09","06","11:00","15.7","","8.8","","63","","","","0","","32.2","","100.70","","","","","","Mostly Cloudy"
"1999-09-06 12:00","1999","09","06","12:00","14.6","","9.4","","71","","9","","19","","32.2","","100.70","","","","","","Mostly Cloudy"
"1999-09-06 13:00","1999","09","06","13:00","16.0","","8.8","","62","","18","","9","","32.2","","100.73","","","","","","Mostly Cloudy"
"1999-09-06 14:00","1999","09","06","14:00","16.6","","8.5","","59","","9","","9","","32.2","","100.73","","","","","","Mostly Cloudy"
"1999-09-06 15:00","1999","09","06","15:00","16.4","","7.3","","55","","6","","9","","32.2","","100.76","","","","","","Mostly Cloudy"
"1999-09-06 16:00","1999","09","06","16:00","16.9","","6.0","","49","","33","","13","","32.2","","100.76","","","","","","Mainly Clear"
"1999-09-06 17:00","1999","09","06","17:00","16.9","","6.0","","49","","33","","19","","32.2","","100.80","","","","","","Mainly Clear"
"1999-09-06 18:00","1999","09","06","18:00","15.3","","5.9","","53","","34","","19","","32.2","","100.83","","","","","","Mainly Clear"
"1999-09-06 19:00","1999","09","06","19:00","13.3","","7.2","","67","","","","0","","32.2","","100.86","","","","","","Mainly Clear"
"1999-09-06 20:00","1999","09","06","20:00","11.9","","5.9","","67","","","","0","","32.2","","100.93","","","","","","Mainly Clear"
"1999-09-06 21:00","1999","09","06","21:00"
"1999-09-06 22:00","1999","09","06","22:00"
"1999-09-06 23:00","1999","09","06","23:00"
"1999-09-07 00:00","1999","09","07","00:00"
"1999-09-07 01:00","1999","09","07","01:00"
"1999-09-07 02:00","1999","09","07","02:00"
"1999-09-07 03:00","1999","09","07","03:00"
"1999-09-07 04:00","1999","09","07","04:00"
"1999-09-07 05:00","1999","09","07","05:00","3.8","","3.7","","99","","","","0","","32.2","","101.17","","","","","","Mainly Clear"
"1999-09-07 06:00","1999","09","07","06:00","4.1","","3.7","","97","","27","","4","","32.2","","101.17","","","","","","Mainly Clear"
"1999-09-07 07:00","1999","09","07","07:00","4.6","","4.0","","96","","","","0","","32.2","","101.20","","","","","","Mainly Clear"
"1999-09-07 08:00","1999","09","07","08:00","10.5","","8.0","","84","","","","0","","32.2","","101.23","","","","","","Mainly Clear"
"1999-09-07 09:00","1999","09","07","09:00","13.1","","8.0","","71","","","","0","","32.2","","101.23","","","","","","Mainly Clear"
"1999-09-07 10:00","1999","09","07","10:00","14.4","","8.3","","67","","9","","6","","32.2","","101.23","","","","","","Mainly Clear"
"1999-09-07 11:00","1999","09","07","11:00","14.9","","8.2","","64","","","","0","","32.2","","101.20","","","","","","Mainly Clear"
"1999-09-07 12:00","1999","09","07","12:00","16.2","","6.9","","54","","","","0","","32.2","","101.13","","","","","","Mainly Clear"
"1999-09-07 13:00","1999","09","07","13:00","17.0","","7.7","","54","","15","","13","","32.2","","101.17","","","","","","Mainly Clear"
"1999-09-07 14:00","1999","09","07","14:00","16.9","","7.6","","54","","10","","9","","32.2","","101.17","","","","","","Mostly Cloudy"
"1999-09-07 15:00","1999","09","07","15:00","16.9","","7.3","","53","","11","","6","","32.2","","101.10","","","","","","Mostly Cloudy"
"1999-09-07 16:00","1999","09","07","16:00","17.9","","8.5","","54","","9","","9","","32.2","","101.07","","","","","","Mostly Cloudy"
"1999-09-07 17:00","1999","09","07","17:00","17.1","","7.6","","54","","10","","7","","32.2","","101.00","","","","","","Mainly Clear"
"1999-09-07 18:00","1999","09","07","18:00","16.1","","7.9","","58","","","","0","","32.2","","100.96","","","","","","Clear"
"1999-09-07 19:00","1999","09","07","19:00","13.7","","8.5","","71","","","","0","","32.2","","100.90","","","","","","Clear"
"1999-09-07 20:00","1999","09","07","20:00","10.3","","8.9","","91","","","","0","","32.2","","100.90","","","","","","Clear"
"1999-09-07 21:00","1999","09","07","21:00"
"1999-09-07 22:00","1999","09","07","22:00"
"1999-09-07 23:00","1999","09","07","23:00"
"1999-09-08 00:00","1999","09","08","00:00"
"1999-09-08 01:00","1999","09","08","01:00"
"1999-09-08 02:00","1999","09","08","02:00"
"1999-09-08 03:00","1999","09","08","03:00"
"1999-09-08 04:00","1999","09","08","04:00"
"1999-09-08 05:00","1999","09","08","05:00","5.4","","5.0","","97","","33","","7","","32.2","","100.60","","","","","","Clear"
"1999-09-08 06:00","1999","09","08","06:00","4.5","","4.1","","97","","32","","7","","32.2","","100.56","","","","","","Clear"
"1999-09-08 07:00","1999","09","08","07:00","5.7","","5.2","","97","","33","","7","","32.2","","100.50","","","","","","Mainly Clear"
"1999-09-08 08:00","1999","09","08","08:00","10.9","","8.9","","87","","","","0","","32.2","","100.46","","","","","","Mainly Clear"
"1999-09-08 09:00","1999","09","08","09:00","14.9","","8.5","","66","","","","0","","32.2","","100.40","","","","","","Mainly Clear"
"1999-09-08 10:00","1999","09","08","10:00","16.9","","9.1","","60","","","","0","","32.2","","100.36","","","","","","Clear"
"1999-09-08 11:00","1999","09","08","11:00","18.1","","9.6","","58","","4","","7","","32.2","","100.33","","","","","","Mainly Clear"
"1999-09-08 12:00","1999","09","08","12:00","19.4","","9.6","","53","","12","","11","","32.2","","100.23","","","","","","Clear"
"1999-09-08 13:00","1999","09","08","13:00","19.6","","10.1","","54","","6","","9","","32.2","","100.23","","","","","","Mainly Clear"
"1999-09-08 14:00","1999","09","08","14:00","20.7","","9.4","","48","","10","","11","","32.2","","100.16","","","","","","Mainly Clear"
"1999-09-08 15:00","1999","09","08","15:00","21.0","","8.2","","44","","13","","9","","32.2","","100.06","","","","","","Mainly Clear"
"1999-09-08 16:00","1999","09","08","16:00","21.1","","8.3","","44","","13","","7","","32.2","","99.96","","","","","","Mainly Clear"
"1999-09-08 17:00","1999","09","08","17:00","20.0","","6.8","","42","","10","","4","","32.2","","99.89","","","","","","Mainly Clear"
"1999-09-08 18:00","1999","09","08","18:00","17.9","","9.2","","57","","","","0","","32.2","","99.86","","","","","","Mainly Clear"
"1999-09-08 19:00","1999","09","08","19:00","15.7","","10.2","","70","","","","0","","32.2","","99.83","","","","","","Mainly Clear"
"1999-09-08 20:00","1999","09","08","20:00","12.6","","10.4","","86","","","","0","","25.0","","99.83","","","","","","Mainly Clear"
"1999-09-08 21:00","1999","09","08","21:00"
"1999-09-08 22:00","1999","09","08","22:00"
"1999-09-08 23:00","1999","09","08","23:00"
"1999-09-09 00:00","1999","09","09","00:00"
"1999-09-09 01:00","1999","09","09","01:00"
"1999-09-09 02:00","1999","09","09","02:00"
"1999-09-09 03:00","1999","09","09","03:00"
"1999-09-09 04:00","1999","09","09","04:00"
"1999-09-09 05:00","1999","09","09","05:00","12.5","","11.3","","92","","32","","13","","24.1","","100.06","","","","","","Rain Showers"
"1999-09-09 06:00","1999","09","09","06:00","12.3","","10.6","","89","","30","","13","","24.1","","100.09","","","","","","Cloudy"
"1999-09-09 07:00","1999","09","09","07:00","12.3","","10.4","","88","","32","","19","","24.1","","100.23","","","","","","Mostly Cloudy"
"1999-09-09 08:00","1999","09","09","08:00","13.3","","10.3","","82","","32","","19","","32.2","","100.26","","","","","","Mainly Clear"
"1999-09-09 09:00","1999","09","09","09:00","15.2","","9.9","","71","","35","","22","","32.2","","100.33","","","","","","Mainly Clear"
"1999-09-09 10:00","1999","09","09","10:00","16.7","","7.9","","56","","31","","33","","32.2","","100.33","","","","","","Mainly Clear"
"1999-09-09 11:00","1999","09","09","11:00","17.1","","5.6","","47","","33","","30","","32.2","","100.36","","","","","","Mainly Clear"
"1999-09-09 12:00","1999","09","09","12:00","17.9","","7.6","","51","","2","","20","","32.2","","100.43","","","","","","Mainly Clear"
"1999-09-09 13:00","1999","09","09","13:00","18.7","","4.9","","40","","35","","22","","32.2","","100.46","","","","","","Mainly Clear"
"1999-09-09 14:00","1999","09","09","14:00","19.4","","2.3","","32","","34","","22","","32.2","","100.46","","","","","","Mainly Clear"
"1999-09-09 15:00","1999","09","09","15:00","17.6","","6.1","","47","","33","","19","","32.2","","100.50","","","","","","Mainly Clear"
"1999-09-09 16:00","1999","09","09","16:00","17.7","","5.2","","44","","33","","22","","32.2","","100.50","","","","","","Mainly Clear"
"1999-09-09 17:00","1999","09","09","17:00","17.6","","3.7","","40","","33","","20","","32.2","","100.53","","","","","","Mainly Clear"
"1999-09-09 18:00","1999","09","09","18:00","16.1","","4.1","","45","","32","","20","","32.2","","100.53","","","","","","Mainly Clear"
"1999-09-09 19:00","1999","09","09","19:00","14.1","","4.2","","51","","31","","19","","32.2","","100.56","","","","","","Mainly Clear"
"1999-09-09 20:00","1999","09","09","20:00","12.8","","3.5","","53","","31","","19","","32.2","","100.63","","","","","","Mainly Clear"
"1999-09-09 21:00","1999","09","09","21:00"
"1999-09-09 22:00","1999","09","09","22:00"
"1999-09-09 23:00","1999","09","09","23:00"
"1999-09-10 00:00","1999","09","10","00:00"
"1999-09-10 01:00","1999","09","10","01:00"
"1999-09-10 02:00","1999","09","10","02:00"
"1999-09-10 03:00","1999","09","10","03:00"
"1999-09-10 04:00","1999","09","10","04:00"
"1999-09-10 05:00","1999","09","10","05:00","7.0","","4.0","","81","","30","","19","","32.2","","100.83","","","","","","Mainly Clear"
"1999-09-10 06:00","1999","09","10","06:00","8.5","","4.2","","74","","32","","19","","32.2","","100.86","","","","","","Mainly Clear"
"1999-09-10 07:00","1999","09","10","07:00","10.0","","4.4","","68","","29","","19","","32.2","","100.86","","","","","","Mostly Cloudy"
"1999-09-10 08:00","1999","09","10","08:00","12.0","","5.9","","66","","32","","22","","32.2","","100.90","","","","","","Mostly Cloudy"
"1999-09-10 09:00","1999","09","10","09:00","13.6","","6.2","","61","","30","","19","","32.2","","100.93","","","","","","Mainly Clear"
"1999-09-10 10:00","1999","09","10","10:00","15.1","","6.0","","54","","32","","19","","32.2","","100.96","","","","","","Mainly Clear"
"1999-09-10 11:00","1999","09","10","11:00","16.3","","5.7","","49","","31","","19","","32.2","","100.96","","","","","","Mainly Clear"
"1999-09-10 12:00","1999","09","10","12:00","17.7","","5.9","","46","","35","","13","","32.2","","100.93","","","","","","Clear"
"1999-09-10 13:00","1999","09","10","13:00","18.7","","5.4","","42","","33","","19","","32.2","","100.90","","","","","","Clear"
"1999-09-10 14:00","1999","09","10","14:00","19.6","","6.4","","42","","30","","9","","32.2","","100.90","","","","","","Mainly Clear"
"1999-09-10 15:00","1999","09","10","15:00","20.1","","4.5","","36","","35","","9","","32.2","","100.86","","","","","","Clear"
"1999-09-10 16:00","1999","09","10","16:00","20.3","","4.3","","35","","30","","19","","32.2","","100.86","","","","","","Clear"
"1999-09-10 17:00","1999","09","10","17:00","19.2","","3.5","","35","","33","","19","","32.2","","100.83","","","","","","Mainly Clear"
"1999-09-10 18:00","1999","09","10","18:00","17.2","","4.3","","42","","33","","22","","32.2","","100.83","","","","","","Mainly Clear"
"1999-09-10 19:00","1999","09","10","19:00","14.3","","5.0","","54","","30","","9","","32.2","","100.83","","","","","","Mainly Clear"
"1999-09-10 20:00","1999","09","10","20:00","14.3","","4.7","","52","","30","","9","","32.2","","100.86","","","","","","Mainly Clear"
"1999-09-10 21:00","1999","09","10","21:00"
"1999-09-10 22:00","1999","09","10","22:00"
"1999-09-10 23:00","1999","09","10","23:00"
"1999-09-11 00:00","1999","09","11","00:00"
"1999-09-11 01:00","1999","09","11","01:00"
"1999-09-11 02:00","1999","09","11","02:00"
"1999-09-11 03:00","1999","09","11","03:00"
"1999-09-11 04:00","1999","09","11","04:00"
"1999-09-11 05:00","1999","09","11","05:00","7.3","","6.1","","92","","32","","7","","32.2","","101.20","","","","","","Mainly Clear"
"1999-09-11 06:00","1999","09","11","06:00","8.3","","6.7","","90","","32","","9","","32.2","","101.23","","","","","","Mainly Clear"
"1999-09-11 07:00","1999","09","11","07:00","8.4","","7.1","","92","","32","","6","","32.2","","101.27","","","","","","Mainly Clear"
"1999-09-11 08:00","1999","09","11","08:00","11.9","","8.7","","81","","32","","13","","32.2","","101.30","","","","","","Mainly Clear"
"1999-09-11 09:00","1999","09","11","09:00","14.1","","8.9","","71","","33","","15","","32.2","","101.30","","","","","","Mainly Clear"
"1999-09-11 10:00","1999","09","11","10:00","15.7","","9.1","","65","","36","","6","","32.2","","101.33","","","","","","Mainly Clear"
"1999-09-11 11:00","1999","09","11","11:00","17.3","","9.9","","62","","8","","11","","32.2","","101.30","","","","","","Mainly Clear"
"1999-09-11 12:00","1999","09","11","12:00","18.3","","9.6","","57","","11","","11","","32.2","","101.30","","","","","","Clear"
"1999-09-11 13:00","1999","09","11","13:00","19.3","","9.8","","54","","11","","9","","32.2","","101.27","","","","","","Clear"
"1999-09-11 14:00","1999","09","11","14:00","21.2","","9.7","","48","","8","","11","","32.2","","101.23","","","","","","Clear"
"1999-09-11 15:00","1999","09","11","15:00","22.2","","10.3","","47","","10","","7","","32.2","","101.17","","","","","","Clear"
"1999-09-11 16:00","1999","09","11","16:00","22.3","","9.1","","43","","10","","7","","32.2","","101.10","","","","","","Clear"
"1999-09-11 17:00","1999","09","11","17:00","22.9","","8.6","","40","","","","0","","32.2","","101.07","","","","","","Clear"
"1999-09-11 18:00","1999","09","11","18:00","19.9","","10.9","","56","","11","","4","","32.2","","101.07","","","","","","Clear"
"1999-09-11 19:00","1999","09","11","19:00","14.8","","11.2","","79","","","","0","","32.2","","101.07","","","","","","Clear"
"1999-09-11 20:00","1999","09","11","20:00","12.8","","10.8","","88","","32","","4","","32.2","","101.10","","","","","","Clear"
"1999-09-11 21:00","1999","09","11","21:00"
"1999-09-11 22:00","1999","09","11","22:00"
"1999-09-11 23:00","1999","09","11","23:00"
"1999-09-12 00:00","1999","09","12","00:00"
"1999-09-12 01:00","1999","09","12","01:00"
"1999-09-12 02:00","1999","09","12","02:00"
"1999-09-12 03:00","1999","09","12","03:00"
"1999-09-12 04:00","1999","09","12","04:00"
"1999-09-12 05:00","1999","09","12","05:00","5.9","","5.6","","98","","27","","6","","24.1","","101.17","","","","","","Clear"
"1999-09-12 06:00","1999","09","12","06:00","5.4","","5.1","","98","","","","0","","24.1","","101.20","","","","","","Mainly Clear"
"1999-09-12 07:00","1999","09","12","07:00","6.6","","6.2","","97","","","","0","","24.1","","101.20","","","","","","Mainly Clear"
"1999-09-12 08:00","1999","09","12","08:00","11.7","","10.1","","90","","","","0","","24.1","","101.20","","","","","","Mainly Clear"
"1999-09-12 09:00","1999","09","12","09:00","16.8","","10.8","","68","","","","0","","24.1","","101.17","","","","","","Clear"
"1999-09-12 10:00","1999","09","12","10:00","20.5","","9.6","","50","","","","0","","24.1","","101.13","","","","","","Clear"
"1999-09-12 11:00","1999","09","12","11:00","21.8","","10.4","","48","","8","","7","","32.2","","101.10","","","","","","Clear"
"1999-09-12 12:00","1999","09","12","12:00","22.8","","10.4","","45","","12","","9","","32.2","","101.03","","","","","","Clear"
"1999-09-12 13:00","1999","09","12","13:00","23.7","","9.5","","41","","10","","9","","32.2","","101.00","","25","","","","Mainly Clear"
"1999-09-12 14:00","1999","09","12","14:00","24.1","","8.5","","37","","","","0","","32.2","","100.96","","25","","","","Mainly Clear"
"1999-09-12 15:00","1999","09","12","15:00","25.0","","7.6","","33","","15","","6","","32.2","","100.90","","25","","","","Mainly Clear"
"1999-09-12 16:00","1999","09","12","16:00","25.2","","7.7","","33","","8","","7","","32.2","","100.83","","25","","","","Mainly Clear"
"1999-09-12 17:00","1999","09","12","17:00","24.4","","10.0","","40","","9","","7","","32.2","","100.76","","26","","","","Mainly Clear"
"1999-09-12 18:00","1999","09","12","18:00","22.5","","10.5","","47","","15","","6","","32.2","","100.73","","","","","","Mainly Clear"
"1999-09-12 19:00","1999","09","12","19:00","16.1","","12.0","","77","","","","0","","32.2","","100.70","","","","","","Mainly Clear"
"1999-09-12 20:00","1999","09","12","20:00","12.8","","11.0","","89","","34","","7","","32.2","","100.70","","","","","","Mainly Clear"
"1999-09-12 21:00","1999","09","12","21:00"
"1999-09-12 22:00","1999","09","12","22:00"
"1999-09-12 23:00","1999","09","12","23:00"
"1999-09-13 00:00","1999","09","13","00:00"
"1999-09-13 01:00","1999","09","13","01:00"
"1999-09-13 02:00","1999","09","13","02:00"
"1999-09-13 03:00","1999","09","13","03:00"
"1999-09-13 04:00","1999","09","13","04:00"
"1999-09-13 05:00","1999","09","13","05:00","6.2","","5.5","","95","","","","0","","32.2","","100.66","","","","","","Mainly Clear"
"1999-09-13 06:00","1999","09","13","06:00","5.1","","4.4","","95","","","","0","","32.2","","100.66","","","","","","Clear"
"1999-09-13 07:00","1999","09","13","07:00","6.6","","5.0","","90","","","","0","","32.2","","100.65","","","","","","Clear"
"1999-09-13 08:00","1999","09","13","08:00","13.3","","9.6","","78","","","","0","","32.2","","100.66","","","","","","Clear"
"1999-09-13 09:00","1999","09","13","09:00","19.2","","9.9","","55","","","","0","","32.2","","100.63","","","","","","Clear"
"1999-09-13 10:00","1999","09","13","10:00","21.7","","9.4","","45","","","","0","","32.2","","100.63","","","","","","Clear"
"1999-09-13 11:00","1999","09","13","11:00","23.2","","12.7","","52","","12","","9","","32.2","","100.63","","26","","","","Clear"
"1999-09-13 12:00","1999","09","13","12:00","24.3","","8.6","","37","","9","","6","","32.2","","100.63","","25","","","","Clear"
"1999-09-13 13:00","1999","09","13","13:00","25.4","","9.0","","35","","9","","7","","32.2","","100.60","","26","","","","Clear"
"1999-09-13 14:00","1999","09","13","14:00","25.7","","8.0","","32","","8","","9","","32.2","","100.53","","26","","","","Clear"
"1999-09-13 15:00","1999","09","13","15:00","27.0","","7.4","","29","","11","","13","","32.2","","100.50","","27","","","","Clear"
"1999-09-13 16:00","1999","09","13","16:00","26.6","","9.4","","34","","8","","7","","32.2","","100.43","","28","","","","Clear"
"1999-09-13 17:00","1999","09","13","17:00","25.6","","7.5","","32","","9","","4","","32.2","","100.40","","26","","","","Clear"
"1999-09-13 18:00","1999","09","13","18:00","22.6","","9.7","","44","","","","0","","32.2","","100.36","","","","","","Clear"
"1999-09-13 19:00","1999","09","13","19:00","16.6","","11.7","","73","","33","","4","","32.2","","100.40","","","","","","Mainly Clear"
"1999-09-13 20:00","1999","09","13","20:00","13.5","","11.2","","86","","32","","4","","32.2","","100.40","","","","","","Mainly Clear"
"1999-09-13 21:00","1999","09","13","21:00"
"1999-09-13 22:00","1999","09","13","22:00"
"1999-09-13 23:00","1999","09","13","23:00"
"1999-09-14 00:00","1999","09","14","00:00"
"1999-09-14 01:00","1999","09","14","01:00"
"1999-09-14 02:00","1999","09","14","02:00"
"1999-09-14 03:00","1999","09","14","03:00"
"1999-09-14 04:00","1999","09","14","04:00"
"1999-09-14 05:00","1999","09","14","05:00","9.1","","7.5","","90","","30","","4","","24.1","","100.40","","","","","","Mainly Clear"
"1999-09-14 06:00","1999","09","14","06:00","7.9","","6.9","","93","","31","","4","","32.2","","100.43","","","","","","Mainly Clear"
"1999-09-14 07:00","1999","09","14","07:00","10.1","","8.6","","90","","30","","4","","32.2","","100.46","","","","","","Mostly Cloudy"
"1999-09-14 08:00","1999","09","14","08:00","13.9","","9.2","","73","","35","","9","","32.2","","100.43","","","","","","Mostly Cloudy"
"1999-09-14 09:00","1999","09","14","09:00","16.2","","10.0","","67","","32","","13","","32.2","","100.43","","","","","","Mainly Clear"
"1999-09-14 10:00","1999","09","14","10:00","19.4","","10.0","","55","","33","","9","","32.2","","100.43","","","","","","Mostly Cloudy"
"1999-09-14 11:00","1999","09","14","11:00","21.7","","12.5","","56","","","","0","","32.2","","100.40","","","","","","Mainly Clear"
"1999-09-14 12:00","1999","09","14","12:00","22.1","","12.7","","55","","9","","15","","32.2","","100.36","","25","","","","Mainly Clear"
"1999-09-14 13:00","1999","09","14","13:00","23.3","","11.0","","46","","9","","13","","32.2","","100.33","","25","","","","Mainly Clear"
"1999-09-14 14:00","1999","09","14","14:00","23.5","","10.9","","45","","7","","11","","32.2","","100.26","","25","","","","Clear"
"1999-09-14 15:00","1999","09","14","15:00","23.9","","12.3","","48","","7","","7","","32.2","","100.23","","26","","","","Clear"
"1999-09-14 16:00","1999","09","14","16:00","24.1","","10.7","","43","","6","","7","","32.2","","100.16","","26","","","","Clear"
"1999-09-14 17:00","1999","09","14","17:00","23.2","","11.1","","46","","34","","9","","32.2","","100.13","","25","","","","Clear"
"1999-09-14 18:00","1999","09","14","18:00","20.8","","12.0","","57","","32","","15","","32.2","","100.13","","","","","","Clear"
"1999-09-14 19:00","1999","09","14","19:00","16.6","","10.3","","66","","31","","9","","32.2","","100.13","","","","","","Mainly Clear"
"1999-09-14 20:00","1999","09","14","20:00","14.3","","9.2","","71","","29","","17","","32.2","","100.19","","","","","","Clear"
"1999-09-14 21:00","1999","09","14","21:00"
"1999-09-14 22:00","1999","09","14","22:00"
"1999-09-14 23:00","1999","09","14","23:00"
"1999-09-15 00:00","1999","09","15","00:00"
"1999-09-15 01:00","1999","09","15","01:00"
"1999-09-15 02:00","1999","09","15","02:00"
"1999-09-15 03:00","1999","09","15","03:00"
"1999-09-15 04:00","1999","09","15","04:00"
"1999-09-15 05:00","1999","09","15","05:00","9.6","","7.6","","87","","30","","11","","32.2","","100.23","","","","","","Clear"
"1999-09-15 06:00","1999","09","15","06:00","9.8","","7.8","","87","","30","","15","","32.2","","100.23","","","","","","Mostly Cloudy"
"1999-09-15 07:00","1999","09","15","07:00","10.6","","8.2","","85","","30","","15","","32.2","","100.26","","","","","","Mostly Cloudy"
"1999-09-15 08:00","1999","09","15","08:00","12.1","","8.4","","78","","30","","11","","32.2","","100.29","","","","","","Mainly Clear"
"1999-09-15 09:00","1999","09","15","09:00","13.9","","8.1","","68","","30","","11","","32.2","","100.29","","","","","","Mainly Clear"
"1999-09-15 10:00","1999","09","15","10:00","15.9","","8.7","","62","","33","","19","","32.2","","100.29","","","","","","Mainly Clear"
"1999-09-15 11:00","1999","09","15","11:00","17.4","","8.5","","56","","33","","6","","32.2","","100.29","","","","","","Mostly Cloudy"
"1999-09-15 12:00","1999","09","15","12:00","19.0","","9.9","","56","","","","0","","32.2","","100.26","","","","","","Mainly Clear"
"1999-09-15 13:00","1999","09","15","13:00","20.1","","9.7","","51","","","","0","","32.2","","100.23","","","","","","Mainly Clear"
"1999-09-15 14:00","1999","09","15","14:00","20.8","","9.4","","48","","3","","6","","32.2","","100.23","","","","","","Mostly Cloudy"
"1999-09-15 15:00","1999","09","15","15:00","21.5","","9.1","","45","","3","","9","","32.2","","100.19","","","","","","Mainly Clear"
"1999-09-15 16:00","1999","09","15","16:00","20.6","","8.1","","45","","2","","11","","32.2","","100.16","","","","","","Mostly Cloudy"
"1999-09-15 17:00","1999","09","15","17:00","21.0","","8.7","","45","","3","","4","","32.2","","100.16","","","","","","Mostly Cloudy"
"1999-09-15 18:00","1999","09","15","18:00","18.4","","7.1","","48","","1","","9","","32.2","","100.13","","","","","","Mostly Cloudy"
"1999-09-15 19:00","1999","09","15","19:00","15.3","","8.6","","64","","","","0","","32.2","","100.19","","","","","","Mostly Cloudy"
"1999-09-15 20:00","1999","09","15","20:00","12.1","","9.3","","83","","","","0","","32.2","","100.23","","","","","","Mainly Clear"
"1999-09-15 21:00","1999","09","15","21:00"
"1999-09-15 22:00","1999","09","15","22:00"
"1999-09-15 23:00","1999","09","15","23:00"
"1999-09-16 00:00","1999","09","16","00:00"
"1999-09-16 01:00","1999","09","16","01:00"
"1999-09-16 02:00","1999","09","16","02:00"
"1999-09-16 03:00","1999","09","16","03:00"
"1999-09-16 04:00","1999","09","16","04:00"
"1999-09-16 05:00","1999","09","16","05:00","9.5","","8.9","","96","","3","","4","","32.2","","100.33","","","","","","Mainly Clear"
"1999-09-16 06:00","1999","09","16","06:00","8.8","","8.2","","96","","29","","7","","32.2","","100.33","","","","","","Mostly Cloudy"
"1999-09-16 07:00","1999","09","16","07:00","9.8","","9.1","","95","","27","","7","","32.2","","100.40","","","","","","Mainly Clear"
"1999-09-16 08:00","1999","09","16","08:00","13.8","","11.0","","83","","29","","11","","32.2","","100.40","","","","","","Mostly Cloudy"
"1999-09-16 09:00","1999","09","16","09:00","14.7","","10.9","","78","","3","","6","","32.2","","100.43","","","","","","Mostly Cloudy"
"1999-09-16 10:00","1999","09","16","10:00","15.6","","10.9","","74","","35","","7","","32.2","","100.43","","","","","","Mostly Cloudy"
"1999-09-16 11:00","1999","09","16","11:00","16.1","","11.6","","75","","9","","6","","32.2","","100.46","","","","","","Mostly Cloudy"
"1999-09-16 12:00","1999","09","16","12:00","16.2","","11.3","","73","","","","0","","32.2","","100.50","","","","","","Mostly Cloudy"
"1999-09-16 13:00","1999","09","16","13:00","17.4","","11.1","","66","","","","0","","32.2","","100.46","","","","","","Mostly Cloudy"
"1999-09-16 14:00","1999","09","16","14:00","18.9","","11.2","","61","","5","","9","","32.2","","100.46","","","","","","Mostly Cloudy"
"1999-09-16 15:00","1999","09","16","15:00","18.6","","11.1","","62","","8","","15","","32.2","","100.46","","","","","","Mainly Clear"
"1999-09-16 16:00","1999","09","16","16:00","18.4","","11.2","","63","","10","","11","","32.2","","100.46","","","","","","Mainly Clear"
"1999-09-16 17:00","1999","09","16","17:00","17.7","","10.7","","64","","11","","9","","32.2","","100.43","","","","","","Mainly Clear"
"1999-09-16 18:00","1999","09","16","18:00","16.6","","10.9","","69","","12","","4","","32.2","","100.46","","","","","","Clear"
"1999-09-16 19:00","1999","09","16","19:00","13.9","","10.8","","82","","","","0","","32.2","","100.46","","","","","","Clear"
"1999-09-16 20:00","1999","09","16","20:00","11.7","","9.7","","88","","","","0","","32.2","","100.56","","","","","","Clear"
"1999-09-16 21:00","1999","09","16","21:00"
"1999-09-16 22:00","1999","09","16","22:00"
"1999-09-16 23:00","1999","09","16","23:00"
"1999-09-17 00:00","1999","09","17","00:00"
"1999-09-17 01:00","1999","09","17","01:00"
"1999-09-17 02:00","1999","09","17","02:00"
"1999-09-17 03:00","1999","09","17","03:00"
"1999-09-17 04:00","1999","09","17","04:00"
"1999-09-17 05:00","1999","09","17","05:00","8.0","","7.4","","96","","31","","9","","32.2","","100.80","","","","","","Mainly Clear"
"1999-09-17 06:00","1999","09","17","06:00","10.0","","8.7","","92","","34","","13","","32.2","","100.80","","","","","","Mainly Clear"
"1999-09-17 07:00","1999","09","17","07:00","10.2","","8.8","","91","","33","","9","","32.2","","100.83","","","","","","Mainly Clear"
"1999-09-17 08:00","1999","09","17","08:00","12.6","","10.0","","84","","31","","15","","32.2","","100.83","","","","","","Mainly Clear"
"1999-09-17 09:00","1999","09","17","09:00","14.6","","10.2","","75","","33","","19","","32.2","","100.86","","","","","","Mainly Clear"
"1999-09-17 10:00","1999","09","17","10:00","16.6","","11.1","","70","","32","","9","","32.2","","100.90","","","","","","Mainly Clear"
"1999-09-17 11:00","1999","09","17","11:00","18.4","","10.8","","61","","36","","9","","32.2","","100.83","","","","","","Clear"
"1999-09-17 12:00","1999","09","17","12:00","19.1","","11.0","","59","","10","","9","","32.2","","100.80","","","","","","Clear"
"1999-09-17 13:00","1999","09","17","13:00","19.3","","11.0","","59","","12","","15","","32.2","","100.76","","","","","","Mainly Clear"
"1999-09-17 14:00","1999","09","17","14:00","19.6","","11.1","","58","","12","","9","","32.2","","100.73","","","","","","Mainly Clear"
"1999-09-17 15:00","1999","09","17","15:00","21.6","","12.2","","55","","9","","13","","32.2","","100.63","","","","","","Mainly Clear"
"1999-09-17 16:00","1999","09","17","16:00","21.1","","11.6","","55","","6","","9","","32.2","","100.60","","","","","","Mainly Clear"
"1999-09-17 17:00","1999","09","17","17:00","21.1","","11.9","","56","","8","","9","","32.2","","100.56","","","","","","Mainly Clear"
"1999-09-17 18:00","1999","09","17","18:00","18.9","","11.1","","61","","32","","9","","32.2","","100.56","","","","","","Mainly Clear"
"1999-09-17 19:00","1999","09","17","19:00","15.6","","10.4","","71","","31","","6","","32.2","","100.60","","","","","","Mainly Clear"
"1999-09-17 20:00","1999","09","17","20:00","14.4","","9.6","","73","","31","","9","","32.2","","100.63","","","","","","Mainly Clear"
"1999-09-17 21:00","1999","09","17","21:00"
"1999-09-17 22:00","1999","09","17","22:00"
"1999-09-17 23:00","1999","09","17","23:00"
"1999-09-18 00:00","1999","09","18","00:00"
"1999-09-18 01:00","1999","09","18","01:00"
"1999-09-18 02:00","1999","09","18","02:00"
"1999-09-18 03:00","1999","09","18","03:00"
"1999-09-18 04:00","1999","09","18","04:00"
"1999-09-18 05:00","1999","09","18","05:00","10.8","","8.1","","83","","33","","19","","32.2","","100.56","","","","","","Mainly Clear"
"1999-09-18 06:00","1999","09","18","06:00","8.9","","7.4","","90","","32","","9","","32.2","","100.60","","","","","","Mainly Clear"
"1999-09-18 07:00","1999","09","18","07:00","10.2","","8.0","","86","","30","","9","","32.2","","100.63","","","","","","Mainly Clear"
"1999-09-18 08:00","1999","09","18","08:00","13.5","","9.2","","75","","32","","17","","32.2","","100.60","","","","","","Mostly Cloudy"
"1999-09-18 09:00","1999","09","18","09:00","17.0","","9.7","","62","","35","","11","","32.2","","100.56","","","","","","Mostly Cloudy"
"1999-09-18 10:00","1999","09","18","10:00","18.2","","10.2","","60","","35","","17","","32.2","","100.53","","","","","","Mostly Cloudy"
"1999-09-18 11:00","1999","09","18","11:00","20.2","","10.0","","52","","35","","9","","32.2","","100.46","","","","","","Mostly Cloudy"
"1999-09-18 12:00","1999","09","18","12:00","20.3","","11.8","","58","","","","0","","32.2","","100.43","","","","","","Mostly Cloudy"
"1999-09-18 13:00","1999","09","18","13:00","22.4","","12.0","","52","","6","","9","","32.2","","100.33","","25","","","","Mostly Cloudy"
"1999-09-18 14:00","1999","09","18","14:00","23.3","","12.3","","50","","10","","6","","32.2","","100.26","","26","","","","Mainly Clear"
"1999-09-18 15:00","1999","09","18","15:00","24.1","","11.7","","46","","6","","9","","32.2","","100.16","","26","","","","Mainly Clear"
"1999-09-18 16:00","1999","09","18","16:00","24.0","","11.6","","46","","","","0","","32.2","","100.16","","26","","","","Mainly Clear"
"1999-09-18 17:00","1999","09","18","17:00","24.5","","11.9","","45","","","","0","","32.2","","100.13","","27","","","","Mainly Clear"
"1999-09-18 18:00","1999","09","18","18:00","22.1","","11.1","","50","","33","","6","","32.2","","100.09","","","","","","Mainly Clear"
"1999-09-18 19:00","1999","09","18","19:00","16.2","","12.7","","80","","30","","6","","32.2","","100.09","","","","","","Mainly Clear"
"1999-09-18 20:00","1999","09","18","20:00","14.3","","11.5","","83","","","","0","","32.2","","100.09","","","","","","Mainly Clear"
"1999-09-18 21:00","1999","09","18","21:00"
"1999-09-18 22:00","1999","09","18","22:00"
"1999-09-18 23:00","1999","09","18","23:00"
"1999-09-19 00:00","1999","09","19","00:00"
"1999-09-19 01:00","1999","09","19","01:00"
"1999-09-19 02:00","1999","09","19","02:00"
"1999-09-19 03:00","1999","09","19","03:00"
"1999-09-19 04:00","1999","09","19","04:00"
"1999-09-19 05:00","1999","09","19","05:00","10.8","","8.9","","88","","32","","9","","32.2","","99.99","","","","","","Clear"
"1999-09-19 06:00","1999","09","19","06:00","11.8","","9.2","","84","","31","","7","","32.2","","99.99","","","","","","Clear"
"1999-09-19 07:00","1999","09","19","07:00","11.0","","8.6","","85","","","","0","","32.2","","100.06","","","","","","Clear"
"1999-09-19 08:00","1999","09","19","08:00","15.5","","10.0","","70","","34","","6","","32.2","","100.09","","","","","","Clear"
"1999-09-19 09:00","1999","09","19","09:00","17.9","","10.8","","63","","34","","6","","32.2","","100.13","","","","","","Clear"
"1999-09-19 10:00","1999","09","19","10:00","20.4","","11.4","","56","","33","","9","","32.2","","100.13","","","","","","Clear"
"1999-09-19 11:00","1999","09","19","11:00","22.2","","11.9","","52","","33","","11","","32.2","","100.09","","","","","","Clear"
"1999-09-19 12:00","1999","09","19","12:00","22.9","","13.1","","54","","10","","9","","32.2","","100.09","","26","","","","Clear"
"1999-09-19 13:00","1999","09","19","13:00","24.0","","13.0","","50","","9","","9","","32.2","","100.06","","27","","","","Clear"
"1999-09-19 14:00","1999","09","19","14:00","25.0","","13.3","","48","","14","","9","","32.2","","100.03","","28","","","","Clear"
"1999-09-19 15:00","1999","09","19","15:00","25.4","","12.8","","46","","13","","9","","32.2","","99.99","","28","","","","Clear"
"1999-09-19 16:00","1999","09","19","16:00","25.8","","12.2","","43","","34","","9","","32.2","","99.99","","28","","","","Clear"
"1999-09-19 17:00","1999","09","19","17:00","24.8","","13.3","","49","","35","","13","","32.2","","100.03","","28","","","","Clear"
"1999-09-19 18:00","1999","09","19","18:00","21.9","","13.4","","58","","32","","13","","32.2","","100.06","","25","","","","Clear"
"1999-09-19 19:00","1999","09","19","19:00","19.2","","13.4","","69","","31","","7","","32.2","","100.06","","","","","","Clear"
"1999-09-19 20:00","1999","09","19","20:00","17.1","","13.0","","77","","32","","9","","32.2","","100.16","","","","","","Clear"
"1999-09-19 21:00","1999","09","19","21:00"
"1999-09-19 22:00","1999","09","19","22:00"
"1999-09-19 23:00","1999","09","19","23:00"
"1999-09-20 00:00","1999","09","20","00:00"
"1999-09-20 01:00","1999","09","20","01:00"
"1999-09-20 02:00","1999","09","20","02:00"
"1999-09-20 03:00","1999","09","20","03:00"
"1999-09-20 04:00","1999","09","20","04:00"
"1999-09-20 05:00","1999","09","20","05:00","12.1","","10.7","","91","","31","","15","","32.2","","100.43","","","","","","Clear"
"1999-09-20 06:00","1999","09","20","06:00","12.0","","10.1","","88","","31","","19","","32.2","","100.43","","","","","","Clear"
"1999-09-20 07:00","1999","09","20","07:00","12.5","","10.7","","89","","31","","19","","32.2","","100.50","","","","","","Mainly Clear"
"1999-09-20 08:00","1999","09","20","08:00","14.7","","11.5","","81","","31","","20","","32.2","","100.53","","","","","","Mainly Clear"
"1999-09-20 09:00","1999","09","20","09:00","16.4","","11.4","","72","","31","","20","","32.2","","100.60","","","","","","Mainly Clear"
"1999-09-20 10:00","1999","09","20","10:00","18.3","","11.4","","64","","31","","20","","32.2","","100.63","","","","","","Clear"
"1999-09-20 11:00","1999","09","20","11:00","19.6","","11.7","","60","","31","","11","","32.2","","100.63","","","","","","Clear"
"1999-09-20 12:00","1999","09","20","12:00","21.7","","12.5","","56","","31","","15","","32.2","","100.56","","","","","","Mainly Clear"
"1999-09-20 13:00","1999","09","20","13:00","22.7","","13.5","","56","","9","","13","","32.2","","100.53","","26","","","","Mainly Clear"
"1999-09-20 14:00","1999","09","20","14:00","23.3","","13.4","","54","","12","","9","","32.2","","100.50","","26","","","","Mainly Clear"
"1999-09-20 15:00","1999","09","20","15:00","22.9","","12.0","","50","","12","","9","","32.2","","100.50","","25","","","","Mainly Clear"
"1999-09-20 16:00","1999","09","20","16:00","23.7","","12.9","","51","","4","","7","","32.2","","100.50","","26","","","","Mainly Clear"
"1999-09-20 17:00","1999","09","20","17:00","22.2","","12.9","","56","","30","","7","","32.2","","100.50","","25","","","","Mainly Clear"
"1999-09-20 18:00","1999","09","20","18:00","20.5","","11.6","","57","","30","","7","","32.2","","100.50","","","","","","Mainly Clear"
"1999-09-20 19:00","1999","09","20","19:00","17.8","","11.1","","65","","33","","9","","32.2","","100.50","","","","","","Mainly Clear"
"1999-09-20 20:00","1999","09","20","20:00","15.8","","10.4","","70","","33","","11","","32.2","","100.56","","","","","","Mainly Clear"
"1999-09-20 21:00","1999","09","20","21:00"
"1999-09-20 22:00","1999","09","20","22:00"
"1999-09-20 23:00","1999","09","20","23:00"
"1999-09-21 00:00","1999","09","21","00:00"
"1999-09-21 01:00","1999","09","21","01:00"
"1999-09-21 02:00","1999","09","21","02:00"
"1999-09-21 03:00","1999","09","21","03:00"
"1999-09-21 04:00","1999","09","21","04:00"
"1999-09-21 05:00","1999","09","21","05:00","10.7","","7.9","","83","","33","","15","","32.2","","100.56","","","","","","Clear"
"1999-09-21 06:00","1999","09","21","06:00","10.0","","7.4","","84","","33","","9","","32.2","","100.56","","","","","","Mainly Clear"
"1999-09-21 07:00","1999","09","21","07:00","10.7","","8.0","","83","","33","","9","","32.2","","100.56","","","","","","Mainly Clear"
"1999-09-21 08:00","1999","09","21","08:00","12.8","","9.9","","83","","33","","9","","32.2","","100.60","","","","","","Mainly Clear"
"1999-09-21 09:00","1999","09","21","09:00","14.4","","9.3","","71","","33","","9","","32.2","","100.60","","","","","","Mainly Clear"
"1999-09-21 10:00","1999","09","21","10:00","16.6","","9.5","","63","","33","","6","","32.2","","100.60","","","","","","Mainly Clear"
"1999-09-21 11:00","1999","09","21","11:00","18.9","","10.2","","57","","33","","6","","32.2","","100.53","","","","","","Mainly Clear"
"1999-09-21 12:00","1999","09","21","12:00","19.3","","10.9","","58","","9","","6","","32.2","","100.50","","","","","","Mainly Clear"
"1999-09-21 13:00","1999","09","21","13:00","21.6","","12.3","","55","","10","","9","","32.2","","100.43","","","","","","Mainly Clear"
"1999-09-21 14:00","1999","09","21","14:00","21.5","","11.6","","53","","9","","7","","32.2","","100.33","","","","","","Mainly Clear"
"1999-09-21 15:00","1999","09","21","15:00","22.5","","12.0","","51","","8","","7","","32.2","","100.29","","25","","","","Mainly Clear"
"1999-09-21 16:00","1999","09","21","16:00","22.5","","12.5","","53","","8","","9","","32.2","","100.26","","25","","","","Mainly Clear"
"1999-09-21 17:00","1999","09","21","17:00","21.8","","12.4","","55","","8","","7","","32.2","","100.23","","","","","","Mainly Clear"
"1999-09-21 18:00","1999","09","21","18:00","19.6","","12.7","","64","","16","","4","","32.2","","100.19","","","","","","Mainly Clear"
"1999-09-21 19:00","1999","09","21","19:00","15.6","","12.4","","81","","","","0","","32.2","","100.19","","","","","","Mainly Clear"
"1999-09-21 20:00","1999","09","21","20:00","13.6","","12.2","","91","","","","0","","32.2","","100.23","","","","","","Mainly Clear"
"1999-09-21 21:00","1999","09","21","21:00"
"1999-09-21 22:00","1999","09","21","22:00"
"1999-09-21 23:00","1999","09","21","23:00"
"1999-09-22 00:00","1999","09","22","00:00"
"1999-09-22 01:00","1999","09","22","01:00"
"1999-09-22 02:00","1999","09","22","02:00"
"1999-09-22 03:00","1999","09","22","03:00"
"1999-09-22 04:00","1999","09","22","04:00"
"1999-09-22 05:00","1999","09","22","05:00","8.5","","8.1","","97","","","","0","","32.2","","100.33","","","","","","Mainly Clear"
"1999-09-22 06:00","1999","09","22","06:00","7.7","","7.3","","97","","","","0","","32.2","","100.29","","","","","","Mainly Clear"
"1999-09-22 07:00","1999","09","22","07:00","7.6","","7.2","","97","","","","0","","32.2","","100.33","","","","","","Mainly Clear"
"1999-09-22 08:00","1999","09","22","08:00","12.6","","11.4","","92","","","","0","","32.2","","100.33","","","","","","Mainly Clear"
"1999-09-22 09:00","1999","09","22","09:00","16.5","","11.7","","73","","","","0","","32.2","","100.33","","","","","","Mainly Clear"
"1999-09-22 10:00","1999","09","22","10:00","18.5","","12.4","","68","","12","","9","","32.2","","100.36","","","","","","Mainly Clear"
"1999-09-22 11:00","1999","09","22","11:00","18.9","","12.4","","66","","9","","11","","32.2","","100.36","","","","","","Mostly Cloudy"
"1999-09-22 12:00","1999","09","22","12:00","18.3","","12.3","","68","","9","","9","","32.2","","100.33","","","","","","Mostly Cloudy"
"1999-09-22 13:00","1999","09","22","13:00","19.7","","12.9","","65","","10","","13","","32.2","","100.29","","","","","","Mostly Cloudy"
"1999-09-22 14:00","1999","09","22","14:00","19.7","","13.2","","66","","13","","15","","32.2","","100.19","","","","","","Mostly Cloudy"
"1999-09-22 15:00","1999","09","22","15:00","19.4","","12.7","","65","","10","","13","","32.2","","100.16","","","","","","Mostly Cloudy"
"1999-09-22 16:00","1999","09","22","16:00","19.3","","12.4","","64","","10","","7","","32.2","","100.09","","","","","","Mainly Clear"
"1999-09-22 17:00","1999","09","22","17:00","18.7","","12.9","","69","","8","","7","","32.2","","99.99","","","","","","Mostly Cloudy"
"1999-09-22 18:00","1999","09","22","18:00","16.8","","12.6","","76","","","","0","","32.2","","99.93","","","","","","Mostly Cloudy"
"1999-09-22 19:00","1999","09","22","19:00","14.0","","11.9","","87","","33","","7","","32.2","","99.86","","","","","","Mostly Cloudy"
"1999-09-22 20:00","1999","09","22","20:00","13.5","","12.4","","93","","","","0","","32.2","","99.79","","","","","","Mostly Cloudy"
"1999-09-22 21:00","1999","09","22","21:00"
"1999-09-22 22:00","1999","09","22","22:00"
"1999-09-22 23:00","1999","09","22","23:00"
"1999-09-23 00:00","1999","09","23","00:00"
"1999-09-23 01:00","1999","09","23","01:00"
"1999-09-23 02:00","1999","09","23","02:00"
"1999-09-23 03:00","1999","09","23","03:00"
"1999-09-23 04:00","1999","09","23","04:00"
"1999-09-23 05:00","1999","09","23","05:00","11.6","","10.6","","94","","","","0","","9.7","","99.79","","","","","","Rain Showers,Fog"
"1999-09-23 06:00","1999","09","23","06:00","11.2","","10.6","","96","","","","0","","19.3","","99.83","","","","","","Mostly Cloudy"
"1999-09-23 07:00","1999","09","23","07:00","11.4","","10.8","","96","","32","","7","","19.3","","99.86","","","","","","Mostly Cloudy"
"1999-09-23 08:00","1999","09","23","08:00","12.0","","11.2","","95","","34","","9","","9.7","","99.93","","","","","","Fog"
"1999-09-23 09:00","1999","09","23","09:00","12.7","","11.0","","89","","32","","6","","12.9","","99.96","","","","","","Mostly Cloudy"
"1999-09-23 10:00","1999","09","23","10:00","13.2","","10.1","","81","","","","0","","19.3","","99.99","","","","","","Mostly Cloudy"
"1999-09-23 11:00","1999","09","23","11:00","14.0","","10.6","","80","","36","","15","","19.3","","100.06","","","","","","Mostly Cloudy"
"1999-09-23 12:00","1999","09","23","12:00","14.4","","8.2","","66","","33","","28","","19.3","","100.09","","","","","","Mostly Cloudy"
"1999-09-23 13:00","1999","09","23","13:00","14.4","","8.9","","70","","32","","24","","32.2","","100.09","","","","","","Mostly Cloudy"
"1999-09-23 14:00","1999","09","23","14:00","16.4","","8.4","","59","","33","","19","","32.2","","100.09","","","","","","Mainly Clear"
"1999-09-23 15:00","1999","09","23","15:00","15.4","","8.2","","62","","31","","19","","32.2","","100.16","","","","","","Mostly Cloudy"
"1999-09-23 16:00","1999","09","23","16:00","14.8","","7.5","","62","","33","","19","","32.2","","100.16","","","","","","Mostly Cloudy"
"1999-09-23 17:00","1999","09","23","17:00","13.0","","7.6","","70","","34","","22","","32.2","","100.19","","","","","","Mostly Cloudy"
"1999-09-23 18:00","1999","09","23","18:00","12.0","","6.3","","68","","31","","19","","32.2","","100.23","","","","","","Mainly Clear"
"1999-09-23 19:00","1999","09","23","19:00","9.9","","5.8","","76","","33","","17","","32.2","","100.29","","","","","","Mostly Cloudy"
"1999-09-23 20:00","1999","09","23","20:00","9.8","","6.6","","80","","30","","13","","32.2","","100.36","","","","","","Mostly Cloudy"
"1999-09-23 21:00","1999","09","23","21:00"
"1999-09-23 22:00","1999","09","23","22:00"
"1999-09-23 23:00","1999","09","23","23:00"
"1999-09-24 00:00","1999","09","24","00:00"
"1999-09-24 01:00","1999","09","24","01:00"
"1999-09-24 02:00","1999","09","24","02:00"
"1999-09-24 03:00","1999","09","24","03:00"
"1999-09-24 04:00","1999","09","24","04:00"
"1999-09-24 05:00","1999","09","24","05:00","4.8","","4.2","","96","","","","0","","32.2","","100.50","","","","","","Mostly Cloudy"
"1999-09-24 06:00","1999","09","24","06:00","5.2","","4.7","","97","","","","0","","32.2","","100.43","","","","","","Cloudy"
"1999-09-24 07:00","1999","09","24","07:00","6.2","","5.7","","97","","","","0","","32.2","","100.43","","","","","","Cloudy"
"1999-09-24 08:00","1999","09","24","08:00","7.9","","6.9","","93","","","","0","","32.2","","100.43","","","","","","Cloudy"
"1999-09-24 09:00","1999","09","24","09:00","9.5","","7.2","","86","","","","0","","32.2","","100.36","","","","","","Cloudy"
"1999-09-24 10:00","1999","09","24","10:00","10.4","","8.3","","87","","10","","4","","16.1","","100.33","","","","","","Cloudy"
"1999-09-24 11:00","1999","09","24","11:00","11.4","","9.0","","85","","11","","6","","16.1","","100.23","","","","","","Cloudy"
"1999-09-24 12:00","1999","09","24","12:00","12.1","","9.1","","82","","11","","11","","32.2","","100.09","","","","","","Rain Showers"
"1999-09-24 13:00","1999","09","24","13:00","12.4","","8.1","","75","","12","","26","","32.2","","99.99","","","","","","Cloudy"
"1999-09-24 14:00","1999","09","24","14:00","12.1","","8.8","","80","","13","","26","","19.3","","99.93","","","","","","Rain Showers"
"1999-09-24 15:00","1999","09","24","15:00","10.9","","9.5","","91","","12","","28","","19.3","","99.72","","","","","","Rain Showers"
"1999-09-24 16:00","1999","09","24","16:00","10.5","","9.6","","94","","12","","19","","12.9","","99.52","","","","","","Rain Showers"
"1999-09-24 17:00","1999","09","24","17:00","10.7","","9.7","","94","","13","","26","","12.9","","99.32","","","","","","Rain"
"1999-09-24 18:00","1999","09","24","18:00","10.1","","8.3","","89","","15","","30","","12.9","","99.15","","","","","","Rain"
"1999-09-24 19:00","1999","09","24","19:00","9.6","","8.7","","94","","13","","28","","12.9","","98.92","","","","","","Rain"
"1999-09-24 20:00","1999","09","24","20:00","10.2","","9.4","","95","","14","","44","","9.7","","98.82","","","","","","Moderate Rain,Fog"
"1999-09-24 21:00","1999","09","24","21:00"
"1999-09-24 22:00","1999","09","24","22:00"
"1999-09-24 23:00","1999","09","24","23:00"
"1999-09-25 00:00","1999","09","25","00:00"
"1999-09-25 01:00","1999","09","25","01:00"
"1999-09-25 02:00","1999","09","25","02:00"
"1999-09-25 03:00","1999","09","25","03:00"
"1999-09-25 04:00","1999","09","25","04:00"
"1999-09-25 05:00","1999","09","25","05:00","10.4","","4.0","","64","","31","","28","","25.0","","100.16","","","","","","Mainly Clear"
"1999-09-25 06:00","1999","09","25","06:00","9.3","","4.6","","72","","32","","26","","32.2","","100.29","","","","","","Mainly Clear"
"1999-09-25 07:00","1999","09","25","07:00","9.9","","4.0","","67","","30","","24","","32.2","","100.40","","","","","","Mainly Clear"
"1999-09-25 08:00","1999","09","25","08:00","11.6","","4.3","","61","","31","","22","","32.2","","100.60","","","","","","Mainly Clear"
"1999-09-25 09:00","1999","09","25","09:00","12.0","","3.8","","57","","31","","26","","32.2","","100.73","","","","","","Mainly Clear"
"1999-09-25 10:00","1999","09","25","10:00","13.5","","4.1","","53","","32","","26","","32.2","","100.86","","","","","","Mainly Clear"
"1999-09-25 11:00","1999","09","25","11:00","13.9","","4.4","","53","","34","","33","","32.2","","100.96","","","","","","Mainly Clear"
"1999-09-25 12:00","1999","09","25","12:00","14.9","","4.6","","50","","32","","22","","32.2","","101.00","","","","","","Mainly Clear"
"1999-09-25 13:00","1999","09","25","13:00","14.9","","4.7","","50","","32","","37","","32.2","","101.10","","","","","","Mainly Clear"
"1999-09-25 14:00","1999","09","25","14:00","15.5","","3.5","","45","","31","","28","","32.2","","101.10","","","","","","Mainly Clear"
"1999-09-25 15:00","1999","09","25","15:00","15.2","","3.1","","44","","31","","22","","32.2","","101.10","","","","","","Mainly Clear"
"1999-09-25 16:00","1999","09","25","16:00","14.9","","3.2","","45","","31","","19","","32.2","","101.10","","","","","","Mainly Clear"
"1999-09-25 17:00","1999","09","25","17:00","13.5","","3.8","","52","","33","","22","","32.2","","101.13","","","","","","Mostly Cloudy"
"1999-09-25 18:00","1999","09","25","18:00","12.2","","4.3","","58","","33","","17","","32.2","","101.17","","","","","","Mostly Cloudy"
"1999-09-25 19:00","1999","09","25","19:00","9.5","","4.6","","71","","31","","15","","32.2","","101.20","","","","","","Mostly Cloudy"
"1999-09-25 20:00","1999","09","25","20:00","8.3","","5.1","","80","","31","","15","","32.2","","101.23","","","","","","Mostly Cloudy"
"1999-09-25 21:00","1999","09","25","21:00"
"1999-09-25 22:00","1999","09","25","22:00"
"1999-09-25 23:00","1999","09","25","23:00"
"1999-09-26 00:00","1999","09","26","00:00"
"1999-09-26 01:00","1999","09","26","01:00"
"1999-09-26 02:00","1999","09","26","02:00"
"1999-09-26 03:00","1999","09","26","03:00"
"1999-09-26 04:00","1999","09","26","04:00"
"1999-09-26 05:00","1999","09","26","05:00","5.5","","3.9","","89","","28","","4","","32.2","","101.40","","","","","","Cloudy"
"1999-09-26 06:00","1999","09","26","06:00","8.6","","3.6","","71","","32","","19","","32.2","","101.43","","","","","","Mostly Cloudy"
"1999-09-26 07:00","1999","09","26","07:00","7.6","","4.3","","80","","31","","17","","32.2","","101.43","","","","","","Mostly Cloudy"
"1999-09-26 08:00","1999","09","26","08:00","10.0","","4.7","","70","","34","","17","","32.2","","101.47","","","","","","Mainly Clear"
"1999-09-26 09:00","1999","09","26","09:00","11.5","","5.2","","65","","34","","19","","32.2","","101.47","","","","","","Mainly Clear"
"1999-09-26 10:00","1999","09","26","10:00","13.2","","4.5","","56","","33","","19","","32.2","","101.47","","","","","","Mainly Clear"
"1999-09-26 11:00","1999","09","26","11:00","14.1","","4.5","","52","","35","","19","","32.2","","101.47","","","","","","Mainly Clear"
"1999-09-26 12:00","1999","09","26","12:00","14.4","","4.4","","51","","34","","20","","32.2","","101.47","","","","","","Mainly Clear"
"1999-09-26 13:00","1999","09","26","13:00","15.0","","4.9","","51","","3","","20","","32.2","","101.43","","","","","","Mainly Clear"
"1999-09-26 14:00","1999","09","26","14:00","15.5","","4.7","","49","","35","","19","","32.2","","101.37","","","","","","Mainly Clear"
"1999-09-26 15:00","1999","09","26","15:00","15.7","","1.9","","39","","36","","19","","32.2","","101.33","","","","","","Mainly Clear"
"1999-09-26 16:00","1999","09","26","16:00","14.9","","2.2","","42","","35","","28","","32.2","","101.33","","","","","","Mainly Clear"
"1999-09-26 17:00","1999","09","26","17:00","13.7","","2.1","","45","","35","","19","","32.2","","101.30","","","","","","Mainly Clear"
"1999-09-26 18:00","1999","09","26","18:00","12.5","","1.2","","46","","1","","9","","32.2","","101.30","","","","","","Mainly Clear"
"1999-09-26 19:00","1999","09","26","19:00","10.2","","2.4","","58","","30","","9","","32.2","","101.30","","","","","","Mainly Clear"
"1999-09-26 20:00","1999","09","26","20:00","9.8","","1.9","","58","","30","","9","","32.2","","101.33","","","","","","Mainly Clear"
"1999-09-26 21:00","1999","09","26","21:00"
"1999-09-26 22:00","1999","09","26","22:00"
"1999-09-26 23:00","1999","09","26","23:00"
"1999-09-27 00:00","1999","09","27","00:00"
"1999-09-27 01:00","1999","09","27","01:00"
"1999-09-27 02:00","1999","09","27","02:00"
"1999-09-27 03:00","1999","09","27","03:00"
"1999-09-27 04:00","1999","09","27","04:00"
"1999-09-27 05:00","1999","09","27","05:00","4.2","","2.0","","86","","30","","15","","32.2","","101.53","","","","","","Mainly Clear"
"1999-09-27 06:00","1999","09","27","06:00","3.8","","1.7","","86","","30","","13","","32.2","","101.60","","","","","","Mainly Clear"
"1999-09-27 07:00","1999","09","27","07:00","3.7","","1.9","","88","","28","","19","","32.2","","101.64","","","","","","Mostly Cloudy"
"1999-09-27 08:00","1999","09","27","08:00","8.0","","3.7","","74","","31","","17","","32.2","","101.70","","","","","","Mainly Clear"
"1999-09-27 09:00","1999","09","27","09:00","10.1","","5.0","","71","","31","","22","","32.2","","101.77","","","","","","Mainly Clear"
"1999-09-27 10:00","1999","09","27","10:00","11.6","","4.7","","63","","31","","9","","32.2","","101.77","","","","","","Mainly Clear"
"1999-09-27 11:00","1999","09","27","11:00","13.1","","4.4","","55","","31","","9","","32.2","","101.77","","","","","","Mostly Cloudy"
"1999-09-27 12:00","1999","09","27","12:00","13.5","","5.7","","59","","9","","13","","32.2","","101.80","","","","","","Mostly Cloudy"
"1999-09-27 13:00","1999","09","27","13:00","13.8","","6.0","","59","","12","","20","","32.2","","101.77","","","","","","Mostly Cloudy"
"1999-09-27 14:00","1999","09","27","14:00","13.3","","5.8","","60","","12","","19","","32.2","","101.77","","","","","","Mainly Clear"
"1999-09-27 15:00","1999","09","27","15:00","13.5","","5.6","","59","","11","","13","","32.2","","101.74","","","","","","Mostly Cloudy"
"1999-09-27 16:00","1999","09","27","16:00","14.0","","4.8","","54","","9","","9","","32.2","","101.74","","","","","","Mainly Clear"
"1999-09-27 17:00","1999","09","27","17:00","12.5","","5.2","","61","","12","","9","","32.2","","101.70","","","","","","Mainly Clear"
"1999-09-27 18:00","1999","09","27","18:00","10.0","","5.8","","75","","","","0","","32.2","","101.70","","","","","","Mainly Clear"
"1999-09-27 19:00","1999","09","27","19:00","6.2","","5.0","","92","","","","0","","32.2","","101.70","","","","","","Mainly Clear"
"1999-09-27 20:00","1999","09","27","20:00","4.4","","3.8","","96","","","","0","","32.2","","101.70","","","","","","Mainly Clear"
"1999-09-27 21:00","1999","09","27","21:00"
"1999-09-27 22:00","1999","09","27","22:00"
"1999-09-27 23:00","1999","09","27","23:00"
"1999-09-28 00:00","1999","09","28","00:00"
"1999-09-28 01:00","1999","09","28","01:00"
"1999-09-28 02:00","1999","09","28","02:00"
"1999-09-28 03:00","1999","09","28","03:00"
"1999-09-28 04:00","1999","09","28","04:00"
"1999-09-28 05:00","1999","09","28","05:00","6.2","","5.4","","95","","","","0","","12.9","","101.47","","","","","","Cloudy"
"1999-09-28 06:00","1999","09","28","06:00","6.3","","5.5","","95","","31","","4","","32.2","","101.50","","","","","","Cloudy"
"1999-09-28 07:00","1999","09","28","07:00","6.8","","6.1","","95","","","","0","","32.2","","101.50","","","","","","Cloudy"
"1999-09-28 08:00","1999","09","28","08:00","7.7","","7.1","","96","","","","0","","32.2","","101.47","","","","","","Cloudy"
"1999-09-28 09:00","1999","09","28","09:00","9.2","","7.1","","87","","","","0","","32.2","","101.43","","","","","","Cloudy"
"1999-09-28 10:00","1999","09","28","10:00","10.6","","7.8","","83","","12","","9","","32.2","","101.37","","","","","","Cloudy"
"1999-09-28 11:00","1999","09","28","11:00","11.5","","7.5","","76","","12","","15","","32.2","","101.33","","","","","","Cloudy"
"1999-09-28 12:00","1999","09","28","12:00","12.8","","6.9","","67","","12","","24","","32.2","","101.27","","","","","","Mostly Cloudy"
"1999-09-28 13:00","1999","09","28","13:00","14.0","","5.9","","58","","12","","24","","32.2","","101.20","","","","","","Mostly Cloudy"
"1999-09-28 14:00","1999","09","28","14:00","13.4","","6.5","","63","","9","","22","","32.2","","101.03","","","","","","Mostly Cloudy"
"1999-09-28 15:00","1999","09","28","15:00","12.8","","6.4","","65","","12","","19","","32.2","","100.96","","","","","","Mostly Cloudy"
"1999-09-28 16:00","1999","09","28","16:00","12.6","","6.4","","66","","10","","9","","32.2","","100.86","","","","","","Mostly Cloudy"
"1999-09-28 17:00","1999","09","28","17:00","12.5","","6.3","","66","","9","","4","","32.2","","100.76","","","","","","Mostly Cloudy"
"1999-09-28 18:00","1999","09","28","18:00","11.8","","5.8","","67","","8","","4","","32.2","","100.73","","","","","","Mostly Cloudy"
"1999-09-28 19:00","1999","09","28","19:00","11.2","","7.3","","77","","31","","11","","32.2","","100.76","","","","","","Cloudy"
"1999-09-28 20:00","1999","09","28","20:00","10.0","","8.4","","90","","31","","7","","19.3","","100.76","","","","","","Rain Showers"
"1999-09-28 21:00","1999","09","28","21:00"
"1999-09-28 22:00","1999","09","28","22:00"
"1999-09-28 23:00","1999","09","28","23:00"
"1999-09-29 00:00","1999","09","29","00:00"
"1999-09-29 01:00","1999","09","29","01:00"
"1999-09-29 02:00","1999","09","29","02:00"
"1999-09-29 03:00","1999","09","29","03:00"
"1999-09-29 04:00","1999","09","29","04:00"
"1999-09-29 05:00","1999","09","29","05:00","6.0","","5.8","","99","","32","","9","","24.1","","101.03","","","","","","Mostly Cloudy"
"1999-09-29 06:00","1999","09","29","06:00","7.4","","6.8","","96","","34","","9","","32.2","","101.07","","","","","","Mainly Clear"
"1999-09-29 07:00","1999","09","29","07:00","6.5","","6.0","","97","","30","","9","","32.2","","101.10","","","","","","Mostly Cloudy"
"1999-09-29 08:00","1999","09","29","08:00","10.2","","8.6","","90","","30","","9","","32.2","","101.13","","","","","","Mostly Cloudy"
"1999-09-29 09:00","1999","09","29","09:00","11.7","","8.6","","81","","30","","19","","32.2","","101.17","","","","","","Mainly Clear"
"1999-09-29 10:00","1999","09","29","10:00","13.0","","7.9","","71","","33","","19","","32.2","","101.17","","","","","","Mainly Clear"
"1999-09-29 11:00","1999","09","29","11:00","14.0","","8.0","","67","","33","","15","","32.2","","101.20","","","","","","Mainly Clear"
"1999-09-29 12:00","1999","09","29","12:00","15.0","","7.0","","59","","32","","19","","32.2","","101.20","","","","","","Mainly Clear"
"1999-09-29 13:00","1999","09","29","13:00","15.6","","6.7","","55","","35","","19","","32.2","","101.13","","","","","","Mainly Clear"
"1999-09-29 14:00","1999","09","29","14:00","15.7","","6.9","","56","","31","","17","","32.2","","101.10","","","","","","Mainly Clear"
"1999-09-29 15:00","1999","09","29","15:00","15.6","","7.6","","59","","35","","11","","32.2","","101.10","","","","","","Mainly Clear"
"1999-09-29 16:00","1999","09","29","16:00","15.7","","7.6","","59","","34","","11","","32.2","","101.07","","","","","","Mainly Clear"
"1999-09-29 17:00","1999","09","29","17:00","14.7","","7.4","","62","","35","","15","","32.2","","101.07","","","","","","Clear"
"1999-09-29 18:00","1999","09","29","18:00","12.4","","7.5","","72","","29","","4","","32.2","","101.07","","","","","","Clear"
"1999-09-29 19:00","1999","09","29","19:00","9.2","","6.9","","86","","31","","9","","32.2","","101.10","","","","","","Clear"
"1999-09-29 20:00","1999","09","29","20:00","8.1","","5.9","","86","","30","","9","","32.2","","101.10","","","","","","Clear"
"1999-09-29 21:00","1999","09","29","21:00"
"1999-09-29 22:00","1999","09","29","22:00"
"1999-09-29 23:00","1999","09","29","23:00"
"1999-09-30 00:00","1999","09","30","00:00"
"1999-09-30 01:00","1999","09","30","01:00"
"1999-09-30 02:00","1999","09","30","02:00"
"1999-09-30 03:00","1999","09","30","03:00"
"1999-09-30 04:00","1999","09","30","04:00"
"1999-09-30 05:00","1999","09","30","05:00","6.9","","5.4","","90","","33","","15","","25.0","","101.07","","","","","","Clear"
"1999-09-30 06:00","1999","09","30","06:00","6.3","","5.2","","93","","31","","15","","32.2","","101.07","","","","","","Clear"
"1999-09-30 07:00","1999","09","30","07:00","6.3","","5.4","","94","","31","","15","","32.2","","101.07","","","","","","Clear"
"1999-09-30 08:00","1999","09","30","08:00","9.5","","7.3","","86","","34","","19","","32.2","","101.10","","","","","","Clear"
"1999-09-30 09:00","1999","09","30","09:00","11.3","","7.6","","78","","32","","26","","32.2","","101.10","","","","","","Clear"
"1999-09-30 10:00","1999","09","30","10:00","12.8","","7.4","","70","","31","","22","","32.2","","101.03","","","","","","Clear"
"1999-09-30 11:00","1999","09","30","11:00","14.5","","7.8","","64","","30","","22","","32.2","","101.00","","","","","","Clear"
"1999-09-30 12:00","1999","09","30","12:00","15.5","","7.3","","58","","34","","22","","32.2","","101.00","","","","","","Clear"
"1999-09-30 13:00","1999","09","30","13:00","15.9","","7.3","","57","","2","","13","","32.2","","100.90","","","","","","Clear"
"1999-09-30 14:00","1999","09","30","14:00","16.9","","7.7","","55","","35","","11","","32.2","","100.90","","","","","","Mainly Clear"
"1999-09-30 15:00","1999","09","30","15:00","16.1","","6.5","","53","","33","","15","","32.2","","100.86","","","","","","Mainly Clear"
"1999-09-30 16:00","1999","09","30","16:00","15.3","","6.4","","55","","1","","22","","32.2","","100.83","","","","","","Clear"
"1999-09-30 17:00","1999","09","30","17:00","14.0","","5.3","","56","","32","","15","","32.2","","100.80","","","","","","Clear"
"1999-09-30 18:00","1999","09","30","18:00","10.8","","3.6","","61","","30","","13","","32.2","","100.83","","","","","","Clear"
"1999-09-30 19:00","1999","09","30","19:00","9.5","","2.9","","63","","27","","4","","32.2","","100.86","","","","","","Clear"
"1999-09-30 20:00","1999","09","30","20:00","6.9","","3.0","","76","","32","","20","","32.2","","100.90","","","","","","Clear"
"1999-09-30 21:00","1999","09","30","21:00"
"1999-09-30 22:00","1999","09","30","22:00"
"1999-09-30 23:00","1999","09","30","23:00"
