"Station Name","CAMPBELL RIVER A"
"Province","BRITISH COLUMBIA"
"Latitude","49.95"
"Longitude","-125.27"
"Elevation","108.80"
"Climate Identifier","1021261"
"WMO Identifier",""
"TC Identifier","YBL"
"All times are specified in Local Standard Time (LST). Add 1 hour to adjust for Daylight Saving Time where and when it is observed."

"Legend"
"E","Estimated"
"M","Missing"
"NA","Not Available"

"Date/Time","Year","Month","Day","Time","Temp (°C)","Temp Flag","Dew Point Temp (°C)","Dew Point Temp Flag","Rel Hum (%)","Rel Hum Flag","Wind Dir (10s deg)","Wind Dir Flag","Wind Spd (km/h)","Wind Spd Flag","Visibility (km)","Visibility Flag","Stn Press (kPa)","Stn Press Flag","Hmdx","Hmdx Flag","Wind Chill","Wind Chill Flag","Weather"
"1983-12-01 00:00","1983","12","01","00:00"
"1983-12-01 01:00","1983","12","01","01:00"
"1983-12-01 02:00","1983","12","01","02:00"
"1983-12-01 03:00","1983","12","01","03:00"
"1983-12-01 04:00","1983","12","01","04:00"
"1983-12-01 05:00","1983","12","01","05:00"
"1983-12-01 06:00","1983","12","01","06:00","-7.7","","-8.4","","95","","30","","6","","24.1","","100.30","","","","-11","","Clear"
"1983-12-01 07:00","1983","12","01","07:00","-8.0","","-9.2","","91","","30","","7","","24.1","","100.30","","","","-12","","Clear"
"1983-12-01 08:00","1983","12","01","08:00","-8.5","","-9.6","","92","","30","","7","","24.1","","100.30","","","","-12","","Clear"
"1983-12-01 09:00","1983","12","01","09:00","-6.8","","-7.8","","93","","31","","9","","24.1","","100.33","","","","-11","","Mainly Clear"
"1983-12-01 10:00","1983","12","01","10:00","-3.5","","-4.5","","93","","","","0","","24.1","","100.36","","","","","","Mainly Clear"
"1983-12-01 11:00","1983","12","01","11:00","-1.4","","-2.7","","91","","","","0","","24.1","","100.33","","","","","","Mostly Cloudy"
"1983-12-01 12:00","1983","12","01","12:00","0.1","","-2.3","","84","","","","0","","24.1","","100.33","","","","","","Mostly Cloudy"
"1983-12-01 13:00","1983","12","01","13:00","1.8","","-3.2","","69","","","","0","","24.1","","100.23","","","","","","Mainly Clear"
"1983-12-01 14:00","1983","12","01","14:00","1.9","","-4.1","","64","","16","","6","","24.1","","100.23","","","","","","Mainly Clear"
"1983-12-01 15:00","1983","12","01","15:00","0.6","","-1.9","","83","","","","0","","24.1","","100.20","","","","","","Mostly Cloudy"
"1983-12-01 16:00","1983","12","01","16:00","-0.8","","-1.6","","94","","","","0","","24.1","","100.13","","","","","","Mostly Cloudy"
"1983-12-01 17:00","1983","12","01","17:00","-2.0","","-2.5","","96","","","","0","","24.1","","100.13","","","","","","Mostly Cloudy"
"1983-12-01 18:00","1983","12","01","18:00","-2.6","","-3.2","","96","","","","0","","24.1","","100.13","","","","","","Mostly Cloudy"
"1983-12-01 19:00","1983","12","01","19:00","-2.4","","-2.7","","98","","","","0","","24.1","","100.10","","","","","","Mostly Cloudy"
"1983-12-01 20:00","1983","12","01","20:00","-2.8","","-3.2","","97","","","","0","","24.1","","100.06","","","","","","Cloudy"
"1983-12-01 21:00","1983","12","01","21:00","-2.7","","-3.2","","96","","","","0","","24.1","","100.03","","","","","","Cloudy"
"1983-12-01 22:00","1983","12","01","22:00"
"1983-12-01 23:00","1983","12","01","23:00"
"1983-12-02 00:00","1983","12","02","00:00"
"1983-12-02 01:00","1983","12","02","01:00"
"1983-12-02 02:00","1983","12","02","02:00"
"1983-12-02 03:00","1983","12","02","03:00"
"1983-12-02 04:00","1983","12","02","04:00"
"1983-12-02 05:00","1983","12","02","05:00"
"1983-12-02 06:00","1983","12","02","06:00","-1.6","","-2.1","","96","","","","0","","24.1","","100.00","","","","","","Mostly Cloudy"
"1983-12-02 07:00","1983","12","02","07:00","-1.8","","-2.3","","96","","","","0","","24.1","","99.93","","","","","","Mostly Cloudy"
"1983-12-02 08:00","1983","12","02","08:00","-1.7","","-2.0","","98","","","","0","","24.1","","99.93","","","","","","Mostly Cloudy"
"1983-12-02 09:00","1983","12","02","09:00","-1.6","","-2.3","","95","","","","0","","24.1","","99.93","","","","","","Cloudy"
"1983-12-02 10:00","1983","12","02","10:00","-0.6","","-1.4","","94","","31","","7","","24.1","","100.00","","","","-3","","Snow"
"1983-12-02 11:00","1983","12","02","11:00","0.1","","-0.6","","95","","30","","6","","2.4","","100.00","","","","","","Snow"
"1983-12-02 12:00","1983","12","02","12:00","0.3","","-0.2","","96","","","","0","","4.8","","99.93","","","","","","Snow"
"1983-12-02 13:00","1983","12","02","13:00","0.6","","-0.1","","95","","","","0","","8.0","","99.89","","","","","","Snow"
"1983-12-02 14:00","1983","12","02","14:00","0.7","","0.1","","96","","","","0","","11.3","","99.89","","","","","","Cloudy"
"1983-12-02 15:00","1983","12","02","15:00","0.7","","0.2","","96","","","","0","","16.1","","99.86","","","","","","Cloudy"
"1983-12-02 16:00","1983","12","02","16:00","0.5","","0.1","","97","","","","0","","12.9","","99.86","","","","","","Cloudy"
"1983-12-02 17:00","1983","12","02","17:00","0.1","","-0.2","","98","","","","0","","12.9","","99.83","","","","","","Cloudy"
"1983-12-02 18:00","1983","12","02","18:00","0.0","","-0.2","","98","","","","0","","12.9","","99.83","","","","","","Cloudy"
"1983-12-02 19:00","1983","12","02","19:00","-0.1","","-0.4","","98","","","","0","","12.9","","99.83","","","","","","Cloudy"
"1983-12-02 20:00","1983","12","02","20:00","-0.4","","-0.4","","100","","","","0","","16.1","","99.79","","","","","","Cloudy"
"1983-12-02 21:00","1983","12","02","21:00","-0.3","","-0.4","","99","","","","0","","16.1","","99.79","","","","","","Cloudy"
"1983-12-02 22:00","1983","12","02","22:00"
"1983-12-02 23:00","1983","12","02","23:00"
"1983-12-03 00:00","1983","12","03","00:00"
"1983-12-03 01:00","1983","12","03","01:00"
"1983-12-03 02:00","1983","12","03","02:00"
"1983-12-03 03:00","1983","12","03","03:00"
"1983-12-03 04:00","1983","12","03","04:00"
"1983-12-03 05:00","1983","12","03","05:00"
"1983-12-03 06:00","1983","12","03","06:00","0.0","","0.0","","100","","","","0","","4.8","","99.79","","","","","","Snow Showers"
"1983-12-03 07:00","1983","12","03","07:00","0.2","","0.1","","99","","","","0","","6.4","","99.79","","","","","","Snow Showers"
"1983-12-03 08:00","1983","12","03","08:00","0.2","","0.1","","99","","","","0","","24.1","","99.79","","","","","","Cloudy"
"1983-12-03 09:00","1983","12","03","09:00","0.2","","0.0","","98","","31","","6","","24.1","","99.83","","","","","","Cloudy"
"1983-12-03 10:00","1983","12","03","10:00","0.3","","0.2","","100","","","","0","","24.1","","99.83","","","","","","Cloudy"
"1983-12-03 11:00","1983","12","03","11:00","0.8","","0.5","","98","","","","0","","24.1","","99.83","","","","","","Mostly Cloudy"
"1983-12-03 12:00","1983","12","03","12:00","1.5","","0.2","","91","","","","0","","24.1","","99.79","","","","","","Mostly Cloudy"
"1983-12-03 13:00","1983","12","03","13:00","2.8","","0.3","","84","","","","0","","24.1","","99.73","","","","","","Mainly Clear"
"1983-12-03 14:00","1983","12","03","14:00","2.7","","-0.5","","79","","31","","6","","24.1","","99.69","","","","","","Mainly Clear"
"1983-12-03 15:00","1983","12","03","15:00","2.1","","0.0","","86","","","","0","","24.1","","99.69","","","","","","Mainly Clear"
"1983-12-03 16:00","1983","12","03","16:00","0.2","","-0.2","","97","","","","0","","24.1","","99.69","","","","","","Mainly Clear"
"1983-12-03 17:00","1983","12","03","17:00","-0.7","","-1.0","","98","","30","","6","","24.1","","99.73","","","","-3","","Mainly Clear"
"1983-12-03 18:00","1983","12","03","18:00","-1.6","","-2.2","","96","","30","","6","","24.1","","99.79","","","","-4","","Mainly Clear"
"1983-12-03 19:00","1983","12","03","19:00","-2.3","","-2.9","","96","","","","0","","24.1","","99.79","","","","","","Mainly Clear"
"1983-12-03 20:00","1983","12","03","20:00","-2.6","","-2.7","","99","","","","0","","24.1","","99.83","","","","","","Mainly Clear"
"1983-12-03 21:00","1983","12","03","21:00","-2.6","","-3.2","","96","","","","0","","24.1","","99.89","","","","","","Mainly Clear"
"1983-12-03 22:00","1983","12","03","22:00"
"1983-12-03 23:00","1983","12","03","23:00"
"1983-12-04 00:00","1983","12","04","00:00"
"1983-12-04 01:00","1983","12","04","01:00"
"1983-12-04 02:00","1983","12","04","02:00"
"1983-12-04 03:00","1983","12","04","03:00"
"1983-12-04 04:00","1983","12","04","04:00"
"1983-12-04 05:00","1983","12","04","05:00"
"1983-12-04 06:00","1983","12","04","06:00","-1.4","","-1.4","","100","","31","","7","","9.7","","100.30","","","","-4","","Snow Showers"
"1983-12-04 07:00","1983","12","04","07:00","-1.2","","-1.4","","99","","","","0","","9.7","","100.33","","","","","","Snow Showers"
"1983-12-04 08:00","1983","12","04","08:00","-0.8","","-0.9","","99","","","","0","","1.2","","100.36","","","","","","Snow Showers"
"1983-12-04 09:00","1983","12","04","09:00","-0.5","","-0.5","","100","","","","0","","4.8","","100.43","","","","","","Snow Showers"
"1983-12-04 10:00","1983","12","04","10:00","-0.1","","-0.1","","100","","","","0","","3.2","","100.50","","","","","","Snow Showers"
"1983-12-04 11:00","1983","12","04","11:00","0.5","","0.4","","99","","","","0","","4.8","","100.50","","","","","","Snow Showers,Fog"
"1983-12-04 12:00","1983","12","04","12:00","0.5","","0.4","","99","","10","","9","","4.8","","100.50","","","","","","Rain,Snow,Fog"
"1983-12-04 13:00","1983","12","04","13:00","0.5","","0.5","","100","","","","0","","2.4","","100.50","","","","","","Rain,Snow,Fog"
"1983-12-04 14:00","1983","12","04","14:00","0.5","","0.5","","100","","","","0","","3.2","","100.46","","","","","","Rain,Snow,Fog"
"1983-12-04 15:00","1983","12","04","15:00","0.5","","0.4","","99","","","","0","","3.2","","100.46","","","","","","Rain,Snow,Fog"
"1983-12-04 16:00","1983","12","04","16:00","0.2","","0.2","","100","","","","0","","1.6","","100.50","","","","","","Rain,Fog"
"1983-12-04 17:00","1983","12","04","17:00","0.2","","0.2","","100","","","","0","","1.6","","100.50","","","","","","Rain,Fog"
"1983-12-04 18:00","1983","12","04","18:00","0.4","","0.3","","99","","","","0","","3.2","","100.50","","","","","","Snow,Fog"
"1983-12-04 19:00","1983","12","04","19:00","0.4","","0.3","","99","","","","0","","3.2","","100.46","","","","","","Snow,Fog"
"1983-12-04 20:00","1983","12","04","20:00","0.4","","0.3","","99","","","","0","","3.2","","100.46","","","","","","Rain,Fog"
"1983-12-04 21:00","1983","12","04","21:00","0.5","","0.4","","99","","","","0","","4.8","","100.43","","","","","","Rain,Fog"
"1983-12-04 22:00","1983","12","04","22:00"
"1983-12-04 23:00","1983","12","04","23:00"
"1983-12-05 00:00","1983","12","05","00:00"
"1983-12-05 01:00","1983","12","05","01:00"
"1983-12-05 02:00","1983","12","05","02:00"
"1983-12-05 03:00","1983","12","05","03:00"
"1983-12-05 04:00","1983","12","05","04:00"
"1983-12-05 05:00","1983","12","05","05:00"
"1983-12-05 06:00","1983","12","05","06:00","0.4","","0.3","","99","","32","","9","","4.8","","100.40","","","","","","Drizzle,Fog"
"1983-12-05 07:00","1983","12","05","07:00","0.5","","0.4","","99","","30","","6","","12.9","","100.40","","","","","","Cloudy"
"1983-12-05 08:00","1983","12","05","08:00","0.4","","0.3","","99","","","","0","","24.1","","100.40","","","","","","Mostly Cloudy"
"1983-12-05 09:00","1983","12","05","09:00","0.2","","0.1","","99","","30","","6","","24.1","","100.40","","","","","","Mainly Clear"
"1983-12-05 10:00","1983","12","05","10:00","0.6","","0.6","","100","","31","","6","","24.1","","100.40","","","","","","Mainly Clear"
"1983-12-05 11:00","1983","12","05","11:00","2.0","","1.1","","94","","29","","6","","24.1","","100.40","","","","","","Mainly Clear"
"1983-12-05 12:00","1983","12","05","12:00","2.8","","0.7","","86","","29","","15","","24.1","","100.33","","","","","","Mainly Clear"
"1983-12-05 13:00","1983","12","05","13:00","3.8","","1.1","","83","","29","","6","","24.1","","100.33","","","","","","Mainly Clear"
"1983-12-05 14:00","1983","12","05","14:00","3.9","","1.1","","82","","28","","9","","24.1","","100.30","","","","","","Mainly Clear"
"1983-12-05 15:00","1983","12","05","15:00","2.7","","0.9","","88","","27","","6","","24.1","","100.30","","","","","","Mainly Clear"
"1983-12-05 16:00","1983","12","05","16:00","0.0","","-0.3","","98","","","","0","","24.1","","100.30","","","","","","Mainly Clear"
"1983-12-05 17:00","1983","12","05","17:00","-2.0","","-2.4","","97","","","","0","","19.3","","100.30","","","","","","Clear"
"1983-12-05 18:00","1983","12","05","18:00","-1.8","","-2.0","","98","","","","0","","19.3","","100.30","","","","","","Clear"
"1983-12-05 19:00","1983","12","05","19:00","-3.1","","-3.4","","98","","","","0","","24.1","","100.30","","","","","","Clear"
"1983-12-05 20:00","1983","12","05","20:00","-3.0","","-3.1","","99","","","","0","","24.1","","100.26","","","","","","Clear"
"1983-12-05 21:00","1983","12","05","21:00","-3.1","","-3.2","","99","","30","","4","","24.1","","100.26","","","","-5","","Clear"
"1983-12-05 22:00","1983","12","05","22:00"
"1983-12-05 23:00","1983","12","05","23:00"
"1983-12-06 00:00","1983","12","06","00:00"
"1983-12-06 01:00","1983","12","06","01:00"
"1983-12-06 02:00","1983","12","06","02:00"
"1983-12-06 03:00","1983","12","06","03:00"
"1983-12-06 04:00","1983","12","06","04:00"
"1983-12-06 05:00","1983","12","06","05:00"
"1983-12-06 06:00","1983","12","06","06:00","-3.8","","-4.3","","96","","","","0","","24.1","","100.13","","","","","","Clear"
"1983-12-06 07:00","1983","12","06","07:00","-5.1","","-6.0","","93","","","","0","","24.1","","100.13","","","","","","Mainly Clear"
"1983-12-06 08:00","1983","12","06","08:00","-3.6","","-4.0","","97","","","","0","","24.1","","100.13","","","","","","Mostly Cloudy"
"1983-12-06 09:00","1983","12","06","09:00","-3.2","","-3.8","","96","","29","","6","","24.1","","100.13","","","","-6","","Mainly Clear"
"1983-12-06 10:00","1983","12","06","10:00","-1.4","","-1.9","","96","","30","","6","","24.1","","100.16","","","","-4","","Mainly Clear"
"1983-12-06 11:00","1983","12","06","11:00","-0.2","","-1.3","","93","","31","","6","","24.1","","100.20","","","","-2","","Mainly Clear"
"1983-12-06 12:00","1983","12","06","12:00","1.4","","-0.9","","85","","31","","6","","24.1","","100.16","","","","","","Mainly Clear"
"1983-12-06 13:00","1983","12","06","13:00","2.7","","-1.4","","74","","29","","6","","24.1","","100.13","","","","","","Clear"
"1983-12-06 14:00","1983","12","06","14:00","3.2","","-1.1","","73","","","","0","","24.1","","100.16","","","","","","Clear"
"1983-12-06 15:00","1983","12","06","15:00","1.8","","0.0","","88","","","","0","","24.1","","100.16","","","","","","Clear"
"1983-12-06 16:00","1983","12","06","16:00","-1.0","","-1.4","","97","","","","0","","24.1","","100.20","","","","","","Mainly Clear"
"1983-12-06 17:00","1983","12","06","17:00","-2.0","","-2.3","","98","","","","0","","24.1","","100.20","","","","","","Clear"
"1983-12-06 18:00","1983","12","06","18:00","-3.1","","-3.2","","99","","","","0","","24.1","","100.23","","","","","","Clear"
"1983-12-06 19:00","1983","12","06","19:00","-3.6","","-4.1","","96","","","","0","","24.1","","100.30","","","","","","Clear"
"1983-12-06 20:00","1983","12","06","20:00","-4.0","","-4.2","","98","","","","0","","24.1","","100.33","","","","","","Clear"
"1983-12-06 21:00","1983","12","06","21:00","-5.1","","-5.3","","99","","","","0","","24.1","","100.40","","","","","","Clear"
"1983-12-06 22:00","1983","12","06","22:00"
"1983-12-06 23:00","1983","12","06","23:00"
"1983-12-07 00:00","1983","12","07","00:00"
"1983-12-07 01:00","1983","12","07","01:00"
"1983-12-07 02:00","1983","12","07","02:00"
"1983-12-07 03:00","1983","12","07","03:00"
"1983-12-07 04:00","1983","12","07","04:00"
"1983-12-07 05:00","1983","12","07","05:00"
"1983-12-07 06:00","1983","12","07","06:00","-2.5","","-3.1","","96","","","","0","","6.4","","100.30","","","","","","Fog"
"1983-12-07 07:00","1983","12","07","07:00","-2.1","","-2.7","","96","","30","","7","","6.4","","100.23","","","","-5","","Fog"
"1983-12-07 08:00","1983","12","07","08:00","-1.8","","-2.4","","96","","31","","6","","12.9","","100.13","","","","-4","","Cloudy"
"1983-12-07 09:00","1983","12","07","09:00","-1.4","","-2.1","","95","","","","0","","19.3","","100.10","","","","","","Cloudy"
"1983-12-07 10:00","1983","12","07","10:00","-1.3","","-1.7","","97","","","","0","","24.1","","100.03","","","","","","Mostly Cloudy"
"1983-12-07 11:00","1983","12","07","11:00","-0.9","","-1.3","","97","","","","0","","24.1","","99.89","","","","","","Mostly Cloudy"
"1983-12-07 12:00","1983","12","07","12:00","1.0","","-1.6","","83","","12","","6","","24.1","","99.76","","","","","","Mostly Cloudy"
"1983-12-07 13:00","1983","12","07","13:00","2.0","","-1.9","","75","","14","","11","","24.1","","99.63","","","","","","Cloudy"
"1983-12-07 14:00","1983","12","07","14:00","1.5","","-2.7","","73","","12","","9","","24.1","","99.43","","","","","","Cloudy"
"1983-12-07 15:00","1983","12","07","15:00","1.8","","-2.1","","75","","","","0","","24.1","","99.26","","","","","","Cloudy"
"1983-12-07 16:00","1983","12","07","16:00","0.7","","-1.7","","84","","9","","7","","24.1","","99.16","","","","","","Cloudy"
"1983-12-07 17:00","1983","12","07","17:00","0.4","","-1.7","","86","","","","0","","24.1","","99.02","","","","","","Cloudy"
"1983-12-07 18:00","1983","12","07","18:00","0.6","","-1.4","","86","","","","0","","4.8","","98.96","","","","","","Snow"
"1983-12-07 19:00","1983","12","07","19:00","0.4","","-0.6","","93","","14","","7","","4.8","","98.89","","","","","","Snow"
"1983-12-07 20:00","1983","12","07","20:00","0.3","","-0.6","","94","","10","","7","","4.8","","98.89","","","","","","Snow"
"1983-12-07 21:00","1983","12","07","21:00","-0.3","","-0.4","","99","","12","","7","","4.8","","98.89","","","","-3","","Snow"
"1983-12-07 22:00","1983","12","07","22:00"
"1983-12-07 23:00","1983","12","07","23:00"
"1983-12-08 00:00","1983","12","08","00:00"
"1983-12-08 01:00","1983","12","08","01:00"
"1983-12-08 02:00","1983","12","08","02:00"
"1983-12-08 03:00","1983","12","08","03:00"
"1983-12-08 04:00","1983","12","08","04:00"
"1983-12-08 05:00","1983","12","08","05:00"
"1983-12-08 06:00","1983","12","08","06:00","0.9","","0.6","","98","","12","","7","","4.8","","98.69","","","","","","Rain,Snow,Fog"
"1983-12-08 07:00","1983","12","08","07:00","0.5","","0.5","","100","","13","","4","","4.8","","98.69","","","","","","Rain,Fog"
"1983-12-08 08:00","1983","12","08","08:00","0.4","","0.3","","99","","","","0","","9.7","","98.72","","","","","","Rain,Fog"
"1983-12-08 09:00","1983","12","08","09:00","1.2","","1.2","","100","","","","0","","8.0","","98.82","","","","","","Rain,Fog"
"1983-12-08 10:00","1983","12","08","10:00","0.6","","0.5","","99","","31","","9","","16.1","","98.92","","","","","","Rain"
"1983-12-08 11:00","1983","12","08","11:00","1.1","","1.0","","99","","31","","9","","16.1","","99.02","","","","","","Rain"
"1983-12-08 12:00","1983","12","08","12:00","1.5","","1.3","","98","","32","","11","","16.1","","99.09","","","","","","Rain Showers"
"1983-12-08 13:00","1983","12","08","13:00","2.3","","2.2","","100","","32","","11","","24.1","","99.12","","","","","","Cloudy"
"1983-12-08 14:00","1983","12","08","14:00","2.3","","2.1","","99","","30","","9","","24.1","","99.19","","","","","","Cloudy"
"1983-12-08 15:00","1983","12","08","15:00","2.2","","2.1","","99","","33","","6","","24.1","","99.29","","","","","","Cloudy"
"1983-12-08 16:00","1983","12","08","16:00","2.4","","2.1","","98","","30","","7","","24.1","","99.29","","","","","","Cloudy"
"1983-12-08 17:00","1983","12","08","17:00","1.0","","0.8","","98","","9","","6","","24.1","","99.29","","","","","","Cloudy"
"1983-12-08 18:00","1983","12","08","18:00","0.6","","0.5","","99","","","","0","","24.1","","99.32","","","","","","Cloudy"
"1983-12-08 19:00","1983","12","08","19:00","0.2","","0.1","","99","","","","0","","24.1","","99.36","","","","","","Mostly Cloudy"
"1983-12-08 20:00","1983","12","08","20:00","0.0","","0.0","","100","","","","0","","24.1","","99.36","","","","","","Cloudy"
"1983-12-08 21:00","1983","12","08","21:00","0.0","","0.0","","100","","","","0","","24.1","","99.36","","","","","","Cloudy"
"1983-12-08 22:00","1983","12","08","22:00"
"1983-12-08 23:00","1983","12","08","23:00"
"1983-12-09 00:00","1983","12","09","00:00"
"1983-12-09 01:00","1983","12","09","01:00"
"1983-12-09 02:00","1983","12","09","02:00"
"1983-12-09 03:00","1983","12","09","03:00"
"1983-12-09 04:00","1983","12","09","04:00"
"1983-12-09 05:00","1983","12","09","05:00"
"1983-12-09 06:00","1983","12","09","06:00","0.6","","0.6","","100","","31","","7","","2.4","","98.96","","","","","","Drizzle,Fog"
"1983-12-09 07:00","1983","12","09","07:00","1.6","","1.6","","100","","32","","9","","2.4","","98.89","","","","","","Fog"
"1983-12-09 08:00","1983","12","09","08:00","1.4","","1.4","","100","","32","","7","","4.8","","98.82","","","","","","Drizzle,Fog"
"1983-12-09 09:00","1983","12","09","09:00","1.6","","1.5","","99","","32","","7","","8.0","","98.79","","","","","","Fog"
"1983-12-09 10:00","1983","12","09","10:00","2.7","","2.6","","99","","29","","13","","11.3","","98.72","","","","","","Cloudy"
"1983-12-09 11:00","1983","12","09","11:00","2.9","","2.7","","99","","31","","9","","11.3","","98.65","","","","","","Mostly Cloudy"
"1983-12-09 12:00","1983","12","09","12:00","2.8","","2.7","","100","","30","","9","","12.9","","98.49","","","","","","Mostly Cloudy"
"1983-12-09 13:00","1983","12","09","13:00","4.5","","3.2","","91","","31","","15","","16.1","","98.42","","","","","","Mostly Cloudy"
"1983-12-09 14:00","1983","12","09","14:00","3.6","","2.7","","94","","31","","7","","19.3","","98.39","","","","","","Cloudy"
"1983-12-09 15:00","1983","12","09","15:00","2.8","","2.3","","97","","31","","7","","24.1","","98.35","","","","","","Mostly Cloudy"
"1983-12-09 16:00","1983","12","09","16:00","2.9","","2.6","","98","","31","","9","","24.1","","98.32","","","","","","Mostly Cloudy"
"1983-12-09 17:00","1983","12","09","17:00","2.7","","2.3","","97","","32","","15","","24.1","","98.32","","","","","","Mostly Cloudy"
"1983-12-09 18:00","1983","12","09","18:00","1.9","","1.4","","96","","30","","19","","24.1","","98.28","","","","","","Mostly Cloudy"
"1983-12-09 19:00","1983","12","09","19:00","1.3","","0.8","","96","","30","","15","","24.1","","98.32","","","","","","Mainly Clear"
"1983-12-09 20:00","1983","12","09","20:00","1.1","","0.7","","97","","30","","17","","24.1","","98.32","","","","","","Mainly Clear"
"1983-12-09 21:00","1983","12","09","21:00","0.1","","-0.4","","96","","28","","11","","24.1","","98.35","","","","","","Clear"
"1983-12-09 22:00","1983","12","09","22:00"
"1983-12-09 23:00","1983","12","09","23:00"
"1983-12-10 00:00","1983","12","10","00:00"
"1983-12-10 01:00","1983","12","10","01:00"
"1983-12-10 02:00","1983","12","10","02:00"
"1983-12-10 03:00","1983","12","10","03:00"
"1983-12-10 04:00","1983","12","10","04:00"
"1983-12-10 05:00","1983","12","10","05:00"
"1983-12-10 06:00","1983","12","10","06:00","-2.3","","-2.4","","99","","","","0","","24.1","","99.09","","","","","","Cloudy"
"1983-12-10 07:00","1983","12","10","07:00","-3.0","","-3.2","","98","","","","0","","24.1","","99.22","","","","","","Cloudy"
"1983-12-10 08:00","1983","12","10","08:00","-2.8","","-3.0","","98","","31","","11","","24.1","","99.36","","","","-7","","Mostly Cloudy"
"1983-12-10 09:00","1983","12","10","09:00","-1.3","","-1.6","","98","","","","0","","24.1","","99.46","","","","","","Cloudy"
"1983-12-10 10:00","1983","12","10","10:00","-0.5","","-0.7","","98","","29","","6","","24.1","","99.56","","","","-3","","Cloudy"
"1983-12-10 11:00","1983","12","10","11:00","0.1","","0.0","","99","","","","0","","24.1","","99.59","","","","","","Cloudy"
"1983-12-10 12:00","1983","12","10","12:00","0.9","","0.6","","98","","9","","11","","24.1","","99.59","","","","","","Cloudy"
"1983-12-10 13:00","1983","12","10","13:00","2.1","","1.4","","95","","","","0","","19.3","","99.59","","","","","","Cloudy"
"1983-12-10 14:00","1983","12","10","14:00","2.5","","1.5","","93","","10","","7","","19.3","","99.56","","","","","","Cloudy"
"1983-12-10 15:00","1983","12","10","15:00","1.9","","1.0","","94","","12","","6","","19.3","","99.56","","","","","","Cloudy"
"1983-12-10 16:00","1983","12","10","16:00","3.4","","2.6","","95","","13","","13","","16.1","","99.59","","","","","","Rain Showers"
"1983-12-10 17:00","1983","12","10","17:00","3.5","","3.3","","98","","13","","24","","11.3","","99.59","","","","","","Rain"
"1983-12-10 18:00","1983","12","10","18:00","4.7","","3.9","","94","","13","","22","","8.0","","99.63","","","","","","Rain,Fog"
"1983-12-10 19:00","1983","12","10","19:00","4.2","","3.7","","97","","14","","19","","8.0","","99.69","","","","","","Rain,Fog"
"1983-12-10 20:00","1983","12","10","20:00","3.7","","2.8","","94","","15","","15","","8.0","","99.69","","","","","","Rain,Fog"
"1983-12-10 21:00","1983","12","10","21:00","3.6","","3.3","","98","","16","","13","","8.0","","99.69","","","","","","Rain,Fog"
"1983-12-10 22:00","1983","12","10","22:00"
"1983-12-10 23:00","1983","12","10","23:00"
"1983-12-11 00:00","1983","12","11","00:00"
"1983-12-11 01:00","1983","12","11","01:00"
"1983-12-11 02:00","1983","12","11","02:00"
"1983-12-11 03:00","1983","12","11","03:00"
"1983-12-11 04:00","1983","12","11","04:00"
"1983-12-11 05:00","1983","12","11","05:00"
"1983-12-11 06:00","1983","12","11","06:00","3.3","","2.3","","93","","15","","15","","24.1","","99.79","","","","","","Cloudy"
"1983-12-11 07:00","1983","12","11","07:00","3.8","","2.7","","93","","15","","20","","24.1","","99.79","","","","","","Rain Showers"
"1983-12-11 08:00","1983","12","11","08:00","3.8","","2.5","","91","","12","","13","","24.1","","99.83","","","","","","Mostly Cloudy"
"1983-12-11 09:00","1983","12","11","09:00","4.2","","2.6","","89","","11","","15","","24.1","","99.83","","","","","","Mostly Cloudy"
"1983-12-11 10:00","1983","12","11","10:00","5.0","","3.0","","87","","12","","15","","24.1","","99.83","","","","","","Mainly Clear"
"1983-12-11 11:00","1983","12","11","11:00","6.0","","3.6","","85","","12","","11","","24.1","","99.86","","","","","","Mainly Clear"
"1983-12-11 12:00","1983","12","11","12:00","6.2","","3.0","","80","","12","","19","","24.1","","99.79","","","","","","Mainly Clear"
"1983-12-11 13:00","1983","12","11","13:00","7.0","","3.9","","81","","13","","19","","24.1","","99.79","","","","","","Mainly Clear"
"1983-12-11 14:00","1983","12","11","14:00","7.0","","2.8","","74","","13","","22","","24.1","","99.73","","","","","","Mostly Cloudy"
"1983-12-11 15:00","1983","12","11","15:00","7.4","","3.1","","74","","11","","15","","24.1","","99.76","","","","","","Mostly Cloudy"
"1983-12-11 16:00","1983","12","11","16:00","5.9","","3.0","","82","","12","","13","","24.1","","99.79","","","","","","Mostly Cloudy"
"1983-12-11 17:00","1983","12","11","17:00","1.3","","0.5","","95","","","","0","","24.1","","99.89","","","","","","Mainly Clear"
"1983-12-11 18:00","1983","12","11","18:00","0.3","","-0.2","","96","","30","","9","","24.1","","99.89","","","","","","Mainly Clear"
"1983-12-11 19:00","1983","12","11","19:00","0.0","","-0.1","","99","","30","","7","","24.1","","99.93","","","","-2","","Mostly Cloudy"
"1983-12-11 20:00","1983","12","11","20:00","-0.7","","-1.0","","98","","26","","6","","24.1","","100.00","","","","-3","","Mostly Cloudy"
"1983-12-11 21:00","1983","12","11","21:00","0.3","","-0.1","","97","","32","","4","","24.1","","100.03","","","","","","Mainly Clear"
"1983-12-11 22:00","1983","12","11","22:00"
"1983-12-11 23:00","1983","12","11","23:00"
"1983-12-12 00:00","1983","12","12","00:00"
"1983-12-12 01:00","1983","12","12","01:00"
"1983-12-12 02:00","1983","12","12","02:00"
"1983-12-12 03:00","1983","12","12","03:00"
"1983-12-12 04:00","1983","12","12","04:00"
"1983-12-12 05:00","1983","12","12","05:00"
"1983-12-12 06:00","1983","12","12","06:00","3.9","","3.4","","97","","15","","17","","8.0","","99.89","","","","","","Rain,Fog"
"1983-12-12 07:00","1983","12","12","07:00","4.2","","3.8","","97","","16","","22","","6.4","","99.83","","","","","","Rain,Fog"
"1983-12-12 08:00","1983","12","12","08:00","4.2","","3.7","","97","","14","","22","","4.8","","99.79","","","","","","Rain,Fog"
"1983-12-12 09:00","1983","12","12","09:00","5.1","","4.0","","93","","13","","31","","4.8","","99.69","","","","","","Rain,Fog"
"1983-12-12 10:00","1983","12","12","10:00","5.1","","4.4","","95","","15","","33","","4.8","","99.69","","","","","","Moderate Rain,Fog"
"1983-12-12 11:00","1983","12","12","11:00","4.9","","4.0","","94","","14","","39","","4.8","","99.59","","","","","","Moderate Rain,Fog"
"1983-12-12 12:00","1983","12","12","12:00","4.8","","3.9","","94","","13","","37","","6.4","","99.49","","","","","","Moderate Rain,Fog"
"1983-12-12 13:00","1983","12","12","13:00","4.8","","3.8","","93","","13","","33","","6.4","","99.39","","","","","","Moderate Rain,Fog"
"1983-12-12 14:00","1983","12","12","14:00","4.2","","3.2","","93","","13","","28","","8.0","","99.36","","","","","","Moderate Rain,Fog"
"1983-12-12 15:00","1983","12","12","15:00","4.1","","3.1","","93","","15","","19","","9.7","","99.36","","","","","","Rain,Fog"
"1983-12-12 16:00","1983","12","12","16:00","3.8","","3.1","","95","","15","","19","","8.0","","99.39","","","","","","Rain,Fog"
"1983-12-12 17:00","1983","12","12","17:00","3.9","","3.5","","97","","14","","22","","8.0","","99.39","","","","","","Rain,Fog"
"1983-12-12 18:00","1983","12","12","18:00","3.5","","3.3","","98","","16","","9","","8.0","","99.43","","","","","","Rain,Fog"
"1983-12-12 19:00","1983","12","12","19:00","3.5","","3.1","","97","","","","0","","8.0","","99.46","","","","","","Fog"
"1983-12-12 20:00","1983","12","12","20:00","3.3","","3.1","","99","","15","","6","","8.0","","99.46","","","","","","Rain Showers,Fog"
"1983-12-12 21:00","1983","12","12","21:00","4.2","","4.0","","98","","15","","15","","8.0","","99.46","","","","","","Rain Showers,Fog"
"1983-12-12 22:00","1983","12","12","22:00"
"1983-12-12 23:00","1983","12","12","23:00"
"1983-12-13 00:00","1983","12","13","00:00"
"1983-12-13 01:00","1983","12","13","01:00"
"1983-12-13 02:00","1983","12","13","02:00"
"1983-12-13 03:00","1983","12","13","03:00"
"1983-12-13 04:00","1983","12","13","04:00"
"1983-12-13 05:00","1983","12","13","05:00"
"1983-12-13 06:00","1983","12","13","06:00","0.3","","0.1","","99","","28","","9","","24.1","","99.79","","","","","","Mainly Clear"
"1983-12-13 07:00","1983","12","13","07:00","-0.6","","-0.7","","99","","","","0","","24.1","","99.83","","","","","","Mainly Clear"
"1983-12-13 08:00","1983","12","13","08:00","-0.2","","-0.6","","97","","","","0","","24.1","","99.96","","","","","","Mainly Clear"
"1983-12-13 09:00","1983","12","13","09:00","0.0","","-0.2","","98","","30","","7","","24.1","","100.00","","","","-2","","Mainly Clear"
"1983-12-13 10:00","1983","12","13","10:00","1.4","","1.3","","99","","","","0","","24.1","","100.20","","","","","","Mainly Clear"
"1983-12-13 11:00","1983","12","13","11:00","5.4","","4.8","","96","","30","","7","","24.1","","100.23","","","","","","Mainly Clear"
"1983-12-13 12:00","1983","12","13","12:00","6.1","","5.7","","97","","","","0","","24.1","","100.23","","","","","","Mainly Clear"
"1983-12-13 13:00","1983","12","13","13:00","8.6","","6.6","","87","","","","0","","24.1","","100.26","","","","","","Mainly Clear"
"1983-12-13 14:00","1983","12","13","14:00","6.1","","5.4","","95","","","","0","","24.1","","100.30","","","","","","Mostly Cloudy"
"1983-12-13 15:00","1983","12","13","15:00","5.9","","5.6","","98","","","","0","","24.1","","100.40","","","","","","Mostly Cloudy"
"1983-12-13 16:00","1983","12","13","16:00","4.5","","4.5","","100","","","","0","","24.1","","100.40","","","","","","Mostly Cloudy"
"1983-12-13 17:00","1983","12","13","17:00","3.5","","3.5","","100","","31","","7","","24.1","","100.43","","","","","","Cloudy"
"1983-12-13 18:00","1983","12","13","18:00","2.3","","2.3","","100","","","","0","","24.1","","100.36","","","","","","Mostly Cloudy"
"1983-12-13 19:00","1983","12","13","19:00","1.2","","1.2","","100","","","","0","","24.1","","100.33","","","","","","Mostly Cloudy"
"1983-12-13 20:00","1983","12","13","20:00","0.5","","0.5","","100","","31","","7","","24.1","","100.40","","","","","","Mostly Cloudy"
"1983-12-13 21:00","1983","12","13","21:00","0.6","","0.6","","100","","31","","6","","24.1","","100.43","","","","","","Mostly Cloudy"
"1983-12-13 22:00","1983","12","13","22:00"
"1983-12-13 23:00","1983","12","13","23:00"
"1983-12-14 00:00","1983","12","14","00:00"
"1983-12-14 01:00","1983","12","14","01:00"
"1983-12-14 02:00","1983","12","14","02:00"
"1983-12-14 03:00","1983","12","14","03:00"
"1983-12-14 04:00","1983","12","14","04:00"
"1983-12-14 05:00","1983","12","14","05:00"
"1983-12-14 06:00","1983","12","14","06:00","-0.1","","-0.3","","99","","31","","9","","16.1","","100.57","","","","-3","","Mainly Clear"
"1983-12-14 07:00","1983","12","14","07:00","-1.3","","-1.6","","98","","32","","6","","19.3","","100.60","","","","-4","","Mainly Clear"
"1983-12-14 08:00","1983","12","14","08:00","-0.8","","-1.2","","97","","31","","9","","24.1","","100.60","","","","-4","","Mainly Clear"
"1983-12-14 09:00","1983","12","14","09:00","-0.9","","-1.2","","98","","31","","7","","24.1","","100.60","","","","-3","","Mainly Clear"
"1983-12-14 10:00","1983","12","14","10:00","1.4","","1.3","","99","","35","","11","","24.1","","100.63","","","","","","Mainly Clear"
"1983-12-14 11:00","1983","12","14","11:00","2.4","","2.1","","98","","32","","7","","24.1","","100.70","","","","","","Mostly Cloudy"
"1983-12-14 12:00","1983","12","14","12:00","3.8","","2.9","","94","","31","","15","","24.1","","100.70","","","","","","Mainly Clear"
"1983-12-14 13:00","1983","12","14","13:00","5.1","","3.0","","86","","31","","11","","24.1","","100.63","","","","","","Mainly Clear"
"1983-12-14 14:00","1983","12","14","14:00","5.3","","2.8","","84","","31","","7","","24.1","","100.60","","","","","","Mainly Clear"
"1983-12-14 15:00","1983","12","14","15:00","5.6","","3.2","","85","","","","0","","24.1","","100.67","","","","","","Mainly Clear"
"1983-12-14 16:00","1983","12","14","16:00","2.8","","2.2","","96","","","","0","","24.1","","100.70","","","","","","Mainly Clear"
"1983-12-14 17:00","1983","12","14","17:00","0.7","","0.7","","100","","32","","6","","24.1","","100.73","","","","","","Mainly Clear"
"1983-12-14 18:00","1983","12","14","18:00","-0.7","","-0.9","","99","","31","","9","","24.1","","100.73","","","","-4","","Mainly Clear"
"1983-12-14 19:00","1983","12","14","19:00","0.6","","0.0","","96","","29","","11","","24.1","","100.73","","","","","","Mainly Clear"
"1983-12-14 20:00","1983","12","14","20:00","-0.1","","-0.5","","97","","26","","13","","24.1","","100.80","","","","-4","","Clear"
"1983-12-14 21:00","1983","12","14","21:00","-1.1","","-1.3","","99","","","","0","","24.1","","100.83","","","","","","Clear"
"1983-12-14 22:00","1983","12","14","22:00"
"1983-12-14 23:00","1983","12","14","23:00"
"1983-12-15 00:00","1983","12","15","00:00"
"1983-12-15 01:00","1983","12","15","01:00"
"1983-12-15 02:00","1983","12","15","02:00"
"1983-12-15 03:00","1983","12","15","03:00"
"1983-12-15 04:00","1983","12","15","04:00"
"1983-12-15 05:00","1983","12","15","05:00"
"1983-12-15 06:00","1983","12","15","06:00","-3.8","","-4.3","","96","","","","0","","24.1","","101.07","","","","","","Mainly Clear"
"1983-12-15 07:00","1983","12","15","07:00","-2.4","","-3.6","","91","","","","0","","24.1","","101.07","","","","","","Mainly Clear"
"1983-12-15 08:00","1983","12","15","08:00","-3.4","","-4.1","","95","","","","0","","24.1","","101.07","","","","","","Mainly Clear"
"1983-12-15 09:00","1983","12","15","09:00","-3.2","","-3.8","","96","","","","0","","24.1","","101.10","","","","","","Mainly Clear"
"1983-12-15 10:00","1983","12","15","10:00","-1.6","","-2.3","","95","","","","0","","24.1","","101.14","","","","","","Mainly Clear"
"1983-12-15 11:00","1983","12","15","11:00","1.8","","1.3","","96","","","","0","","24.1","","101.14","","","","","","Mainly Clear"
"1983-12-15 12:00","1983","12","15","12:00","3.5","","1.3","","85","","","","0","","24.1","","101.14","","","","","","Mainly Clear"
"1983-12-15 13:00","1983","12","15","13:00","4.7","","0.4","","73","","","","0","","24.1","","101.10","","","","","","Mainly Clear"
"1983-12-15 14:00","1983","12","15","14:00","5.1","","1.5","","77","","","","0","","24.1","","101.10","","","","","","Mainly Clear"
"1983-12-15 15:00","1983","12","15","15:00","3.4","","0.3","","80","","","","0","","24.1","","101.10","","","","","","Mainly Clear"
"1983-12-15 16:00","1983","12","15","16:00","0.4","","-0.6","","93","","","","0","","24.1","","101.07","","","","","","Mainly Clear"
"1983-12-15 17:00","1983","12","15","17:00","-1.2","","-1.4","","99","","","","0","","24.1","","101.03","","","","","","Mainly Clear"
"1983-12-15 18:00","1983","12","15","18:00","-0.5","","-0.8","","98","","27","","6","","24.1","","101.03","","","","-3","","Mostly Cloudy"
"1983-12-15 19:00","1983","12","15","19:00","-0.4","","-0.7","","98","","31","","6","","24.1","","101.00","","","","-2","","Mostly Cloudy"
"1983-12-15 20:00","1983","12","15","20:00","-0.7","","-1.0","","98","","30","","7","","24.1","","100.93","","","","-3","","Mostly Cloudy"
"1983-12-15 21:00","1983","12","15","21:00","-0.9","","-1.1","","98","","","","0","","24.1","","101.00","","","","","","Mostly Cloudy"
"1983-12-15 22:00","1983","12","15","22:00"
"1983-12-15 23:00","1983","12","15","23:00"
"1983-12-16 00:00","1983","12","16","00:00"
"1983-12-16 01:00","1983","12","16","01:00"
"1983-12-16 02:00","1983","12","16","02:00"
"1983-12-16 03:00","1983","12","16","03:00"
"1983-12-16 04:00","1983","12","16","04:00"
"1983-12-16 05:00","1983","12","16","05:00"
"1983-12-16 06:00","1983","12","16","06:00","-2.1","","-2.6","","96","","","","0","","24.1","","101.14","","","","","","Mainly Clear"
"1983-12-16 07:00","1983","12","16","07:00","-1.1","","-1.2","","99","","","","0","","24.1","","101.14","","","","","","Mainly Clear"
"1983-12-16 08:00","1983","12","16","08:00","-1.6","","-1.9","","98","","","","0","","24.1","","101.17","","","","","","Mostly Cloudy"
"1983-12-16 09:00","1983","12","16","09:00","-2.3","","-2.6","","98","","","","0","","24.1","","101.20","","","","","","Mostly Cloudy"
"1983-12-16 10:00","1983","12","16","10:00","-1.6","","-2.0","","97","","","","0","","24.1","","101.27","","","","","","Mostly Cloudy"
"1983-12-16 11:00","1983","12","16","11:00","0.1","","-0.4","","96","","32","","7","","24.1","","101.30","","","","","","Mostly Cloudy"
"1983-12-16 12:00","1983","12","16","12:00","1.6","","-1.9","","77","","31","","11","","24.1","","101.30","","","","","","Mostly Cloudy"
"1983-12-16 13:00","1983","12","16","13:00","2.7","","-1.5","","74","","28","","7","","24.1","","101.24","","","","","","Mostly Cloudy"
"1983-12-16 14:00","1983","12","16","14:00","3.6","","-2.5","","64","","","","0","","24.1","","101.24","","","","","","Mostly Cloudy"
"1983-12-16 15:00","1983","12","16","15:00","2.2","","-2.6","","70","","","","0","","24.1","","101.24","","","","","","Mostly Cloudy"
"1983-12-16 16:00","1983","12","16","16:00","-1.0","","-1.4","","97","","","","0","","24.1","","101.24","","","","","","Mostly Cloudy"
"1983-12-16 17:00","1983","12","16","17:00","-2.4","","-3.2","","94","","","","0","","24.1","","101.24","","","","","","Mostly Cloudy"
"1983-12-16 18:00","1983","12","16","18:00","-2.6","","-3.3","","95","","","","0","","24.1","","101.27","","","","","","Mostly Cloudy"
"1983-12-16 19:00","1983","12","16","19:00","-2.8","","-3.2","","97","","","","0","","24.1","","101.27","","","","","","Mostly Cloudy"
"1983-12-16 20:00","1983","12","16","20:00","-4.2","","-4.4","","99","","30","","7","","24.1","","101.30","","","","-7","","Mostly Cloudy"
"1983-12-16 21:00","1983","12","16","21:00","-4.6","","-5.1","","96","","","","0","","24.1","","101.34","","","","","","Mostly Cloudy"
"1983-12-16 22:00","1983","12","16","22:00"
"1983-12-16 23:00","1983","12","16","23:00"
"1983-12-17 00:00","1983","12","17","00:00"
"1983-12-17 01:00","1983","12","17","01:00"
"1983-12-17 02:00","1983","12","17","02:00"
"1983-12-17 03:00","1983","12","17","03:00"
"1983-12-17 04:00","1983","12","17","04:00"
"1983-12-17 05:00","1983","12","17","05:00"
"1983-12-17 06:00","1983","12","17","06:00","-6.2","","-7.6","","90","","","","0","","24.1","","101.64","","","","","","Mostly Cloudy"
"1983-12-17 07:00","1983","12","17","07:00","-6.2","","-7.3","","92","","","","0","","24.1","","101.64","","","","","","Mainly Clear"
"1983-12-17 08:00","1983","12","17","08:00","-7.2","","-8.0","","94","","31","","7","","24.1","","101.64","","","","-11","","Mainly Clear"
"1983-12-17 09:00","1983","12","17","09:00","-5.8","","-6.7","","93","","31","","6","","24.1","","101.74","","","","-9","","Mostly Cloudy"
"1983-12-17 10:00","1983","12","17","10:00","-3.9","","-5.3","","90","","","","0","","24.1","","101.77","","","","","","Mostly Cloudy"
"1983-12-17 11:00","1983","12","17","11:00","-2.5","","-3.8","","91","","31","","6","","24.1","","101.81","","","","-5","","Mostly Cloudy"
"1983-12-17 12:00","1983","12","17","12:00","-1.1","","-3.1","","86","","","","0","","24.1","","101.74","","","","","","Mostly Cloudy"
"1983-12-17 13:00","1983","12","17","13:00","-0.2","","-2.7","","83","","","","0","","24.1","","101.74","","","","","","Mostly Cloudy"
"1983-12-17 14:00","1983","12","17","14:00","0.1","","-2.4","","83","","","","0","","24.1","","101.71","","","","","","Mostly Cloudy"
"1983-12-17 15:00","1983","12","17","15:00","0.0","","-3.5","","77","","","","0","","24.1","","101.67","","","","","","Cloudy"
"1983-12-17 16:00","1983","12","17","16:00","-0.2","","-2.4","","85","","","","0","","24.1","","101.71","","","","","","Cloudy"
"1983-12-17 17:00","1983","12","17","17:00","-0.8","","-2.2","","90","","","","0","","24.1","","101.74","","","","","","Cloudy"
"1983-12-17 18:00","1983","12","17","18:00","-1.4","","-2.0","","96","","","","0","","24.1","","101.67","","","","","","Cloudy"
"1983-12-17 19:00","1983","12","17","19:00","-1.8","","-2.5","","95","","","","0","","24.1","","101.64","","","","","","Cloudy"
"1983-12-17 20:00","1983","12","17","20:00","-1.9","","-2.5","","96","","","","0","","24.1","","101.64","","","","","","Cloudy"
"1983-12-17 21:00","1983","12","17","21:00","-1.8","","-2.6","","94","","30","","6","","24.1","","101.64","","","","-4","","Cloudy"
"1983-12-17 22:00","1983","12","17","22:00"
"1983-12-17 23:00","1983","12","17","23:00"
"1983-12-18 00:00","1983","12","18","00:00"
"1983-12-18 01:00","1983","12","18","01:00"
"1983-12-18 02:00","1983","12","18","02:00"
"1983-12-18 03:00","1983","12","18","03:00"
"1983-12-18 04:00","1983","12","18","04:00"
"1983-12-18 05:00","1983","12","18","05:00"
"1983-12-18 06:00","1983","12","18","06:00","-7.4","","-8.1","","95","","","","0","","24.1","","101.57","","","","","","Mainly Clear"
"1983-12-18 07:00","1983","12","18","07:00","-8.1","","-9.2","","92","","29","","6","","24.1","","101.54","","","","-11","","Mainly Clear"
"1983-12-18 08:00","1983","12","18","08:00","-7.8","","-8.6","","94","","30","","6","","24.1","","101.54","","","","-11","","Mainly Clear"
"1983-12-18 09:00","1983","12","18","09:00","-7.2","","-8.2","","93","","","","0","","24.1","","101.57","","","","","","Clear"
"1983-12-18 10:00","1983","12","18","10:00","-4.8","","-5.6","","94","","","","0","","24.1","","101.60","","","","","","Mainly Clear"
"1983-12-18 11:00","1983","12","18","11:00","-2.0","","-3.3","","91","","","","0","","24.1","","101.60","","","","","","Mainly Clear"
"1983-12-18 12:00","1983","12","18","12:00","-0.4","","-3.5","","79","","","","0","","24.1","","101.57","","","","","","Mostly Cloudy"
"1983-12-18 13:00","1983","12","18","13:00","0.4","","-1.7","","86","","","","0","","24.1","","101.54","","","","","","Mostly Cloudy"
"1983-12-18 14:00","1983","12","18","14:00","0.7","","-4.8","","67","","","","0","","24.1","","101.44","","","","","","Mostly Cloudy"
"1983-12-18 15:00","1983","12","18","15:00","0.9","","-5.2","","64","","","","0","","24.1","","101.40","","","","","","Mainly Clear"
"1983-12-18 16:00","1983","12","18","16:00","-1.8","","-4.2","","83","","","","0","","24.1","","101.37","","","","","","Mainly Clear"
"1983-12-18 17:00","1983","12","18","17:00","-3.0","","-4.3","","91","","","","0","","24.1","","101.34","","","","","","Mostly Cloudy"
"1983-12-18 18:00","1983","12","18","18:00","-2.5","","-3.6","","92","","","","0","","24.1","","101.34","","","","","","Mostly Cloudy"
"1983-12-18 19:00","1983","12","18","19:00","-1.7","","-3.6","","87","","23","","6","","24.1","","101.27","","","","-4","","Cloudy"
"1983-12-18 20:00","1983","12","18","20:00","-1.9","","-3.5","","89","","","","0","","24.1","","101.24","","","","","","Mostly Cloudy"
"1983-12-18 21:00","1983","12","18","21:00","-2.0","","-3.0","","93","","","","0","","24.1","","101.20","","","","","","Mostly Cloudy"
"1983-12-18 22:00","1983","12","18","22:00"
"1983-12-18 23:00","1983","12","18","23:00"
"1983-12-19 00:00","1983","12","19","00:00"
"1983-12-19 01:00","1983","12","19","01:00"
"1983-12-19 02:00","1983","12","19","02:00"
"1983-12-19 03:00","1983","12","19","03:00"
"1983-12-19 04:00","1983","12","19","04:00"
"1983-12-19 05:00","1983","12","19","05:00"
"1983-12-19 06:00","1983","12","19","06:00","-7.3","","-8.0","","95","","","","0","","24.1","","101.14","","","","","","Mainly Clear"
"1983-12-19 07:00","1983","12","19","07:00","-5.9","","-6.6","","95","","30","","13","","24.1","","101.17","","","","-11","","Clear"
"1983-12-19 08:00","1983","12","19","08:00","-5.7","","-7.2","","89","","28","","11","","24.1","","101.20","","","","-10","","Clear"
"1983-12-19 09:00","1983","12","19","09:00","-5.2","","-6.5","","91","","29","","11","","24.1","","101.24","","","","-10","","Clear"
"1983-12-19 10:00","1983","12","19","10:00","-2.9","","-6.5","","76","","28","","15","","24.1","","101.27","","","","-8","","Clear"
"1983-12-19 11:00","1983","12","19","11:00","-1.7","","-7.5","","65","","28","","15","","24.1","","101.27","","","","-7","","Clear"
"1983-12-19 12:00","1983","12","19","12:00","-0.7","","-8.6","","55","","30","","22","","25.0","","101.27","","","","-6","","Clear"
"1983-12-19 13:00","1983","12","19","13:00","0.3","","-10.5","","44","","30","","22","","25.0","","101.27","","","","","","Clear"
"1983-12-19 14:00","1983","12","19","14:00","-0.3","","-14.9","","32","","32","","19","","24.1","","101.27","","","","-5","","Clear"
"1983-12-19 15:00","1983","12","19","15:00","-0.6","","-15.2","","32","","32","","15","","24.1","","101.27","","","","-5","","Clear"
"1983-12-19 16:00","1983","12","19","16:00","-1.9","","-15.0","","36","","31","","17","","24.1","","101.27","","","","-7","","Clear"
"1983-12-19 17:00","1983","12","19","17:00","-5.0","","-14.4","","48","","31","","15","","24.1","","101.27","","","","-11","","Clear"
"1983-12-19 18:00","1983","12","19","18:00","-5.8","","-14.4","","50","","31","","13","","24.1","","101.30","","","","-11","","Clear"
"1983-12-19 19:00","1983","12","19","19:00","-5.8","","-13.6","","54","","29","","11","","24.1","","101.37","","","","-11","","Clear"
"1983-12-19 20:00","1983","12","19","20:00","-7.2","","-13.6","","60","","31","","11","","24.1","","101.40","","","","-12","","Clear"
"1983-12-19 21:00","1983","12","19","21:00","-8.8","","-13.7","","67","","31","","7","","24.1","","101.40","","","","-13","","Clear"
"1983-12-19 22:00","1983","12","19","22:00"
"1983-12-19 23:00","1983","12","19","23:00"
"1983-12-20 00:00","1983","12","20","00:00"
"1983-12-20 01:00","1983","12","20","01:00"
"1983-12-20 02:00","1983","12","20","02:00"
"1983-12-20 03:00","1983","12","20","03:00"
"1983-12-20 04:00","1983","12","20","04:00"
"1983-12-20 05:00","1983","12","20","05:00"
"1983-12-20 06:00","1983","12","20","06:00","-12.6","","-15.6","","78","","29","","7","","25.0","","101.54","","","","-17","","Clear"
"1983-12-20 07:00","1983","12","20","07:00","-12.8","","-15.2","","82","","29","","9","","25.0","","101.54","","","","-18","","Clear"
"1983-12-20 08:00","1983","12","20","08:00","-12.9","","-15.2","","83","","30","","9","","25.0","","101.50","","","","-18","","Clear"
"1983-12-20 09:00","1983","12","20","09:00","-11.3","","-15.3","","72","","31","","7","","25.0","","101.50","","","","-16","","Clear"
"1983-12-20 10:00","1983","12","20","10:00","-8.3","","-14.5","","61","","30","","6","","25.0","","101.54","","","","-12","","Clear"
"1983-12-20 11:00","1983","12","20","11:00","-6.1","","-14.3","","52","","27","","15","","25.0","","101.54","","","","-12","","Clear"
"1983-12-20 12:00","1983","12","20","12:00","-4.9","","-15.5","","43","","27","","13","","25.0","","101.47","","","","-10","","Clear"
"1983-12-20 13:00","1983","12","20","13:00","-4.2","","-15.2","","42","","29","","19","","25.0","","101.44","","","","-10","","Clear"
"1983-12-20 14:00","1983","12","20","14:00","-3.9","","-15.5","","40","","28","","15","","25.0","","101.44","","","","-9","","Clear"
"1983-12-20 15:00","1983","12","20","15:00","-4.3","","-15.1","","42","","23","","13","","24.1","","101.44","","","","-9","","Clear"
"1983-12-20 16:00","1983","12","20","16:00","-5.5","","-15.7","","44","","26","","13","","25.0","","101.40","","","","-11","","Clear"
"1983-12-20 17:00","1983","12","20","17:00","-7.5","","-15.1","","54","","29","","9","","24.1","","101.44","","","","-12","","Clear"
"1983-12-20 18:00","1983","12","20","18:00","-9.4","","-14.3","","67","","30","","11","","24.1","","101.44","","","","-15","","Clear"
"1983-12-20 19:00","1983","12","20","19:00","-9.1","","-13.9","","68","","29","","17","","24.1","","101.44","","","","-16","","Clear"
"1983-12-20 20:00","1983","12","20","20:00","-9.2","","-13.7","","70","","31","","9","","24.1","","101.44","","","","-14","","Clear"
"1983-12-20 21:00","1983","12","20","21:00","-9.5","","-14.0","","70","","28","","11","","24.1","","101.47","","","","-15","","Clear"
"1983-12-20 22:00","1983","12","20","22:00"
"1983-12-20 23:00","1983","12","20","23:00"
"1983-12-21 00:00","1983","12","21","00:00"
"1983-12-21 01:00","1983","12","21","01:00"
"1983-12-21 02:00","1983","12","21","02:00"
"1983-12-21 03:00","1983","12","21","03:00"
"1983-12-21 04:00","1983","12","21","04:00"
"1983-12-21 05:00","1983","12","21","05:00"
"1983-12-21 06:00","1983","12","21","06:00","-9.6","","-15.7","","61","","32","","11","","25.0","","101.54","","","","-15","","Clear"
"1983-12-21 07:00","1983","12","21","07:00","-12.2","","-15.1","","79","","29","","6","","25.0","","101.54","","","","-16","","Clear"
"1983-12-21 08:00","1983","12","21","08:00","-11.4","","-15.3","","73","","32","","13","","25.0","","101.57","","","","-18","","Clear"
"1983-12-21 09:00","1983","12","21","09:00","-9.8","","-14.8","","67","","31","","15","","24.1","","101.64","","","","-16","","Clear"
"1983-12-21 10:00","1983","12","21","10:00","-7.6","","-13.6","","62","","31","","11","","24.1","","101.67","","","","-13","","Mainly Clear"
"1983-12-21 11:00","1983","12","21","11:00","-5.0","","-14.4","","48","","31","","15","","24.1","","101.67","","","","-11","","Mainly Clear"
"1983-12-21 12:00","1983","12","21","12:00","-4.2","","-14.3","","45","","30","","19","","24.1","","101.64","","","","-10","","Mainly Clear"
"1983-12-21 13:00","1983","12","21","13:00","-3.6","","-14.4","","43","","29","","11","","24.1","","101.57","","","","-8","","Mainly Clear"
"1983-12-21 14:00","1983","12","21","14:00","-3.2","","-15.7","","37","","29","","11","","24.1","","101.57","","","","-7","","Mainly Clear"
"1983-12-21 15:00","1983","12","21","15:00","-3.6","","-14.8","","41","","29","","19","","24.1","","101.57","","","","-10","","Mainly Clear"
"1983-12-21 16:00","1983","12","21","16:00","-4.9","","-15.4","","43","","27","","9","","24.1","","101.57","","","","-9","","Mainly Clear"
"1983-12-21 17:00","1983","12","21","17:00","-7.8","","-14.4","","59","","26","","13","","24.1","","101.60","","","","-14","","Clear"
"1983-12-21 18:00","1983","12","21","18:00","-8.3","","-14.3","","62","","29","","11","","24.1","","101.47","","","","-14","","Clear"
"1983-12-21 19:00","1983","12","21","19:00","-10.2","","-14.6","","70","","32","","11","","24.1","","101.60","","","","-16","","Clear"
"1983-12-21 20:00","1983","12","21","20:00","-8.8","","-14.2","","65","","31","","11","","24.1","","101.64","","","","-14","","Clear"
"1983-12-21 21:00","1983","12","21","21:00","-9.3","","-13.8","","70","","30","","7","","24.1","","101.67","","","","-13","","Mainly Clear"
"1983-12-21 22:00","1983","12","21","22:00"
"1983-12-21 23:00","1983","12","21","23:00"
"1983-12-22 00:00","1983","12","22","00:00"
"1983-12-22 01:00","1983","12","22","01:00"
"1983-12-22 02:00","1983","12","22","02:00"
"1983-12-22 03:00","1983","12","22","03:00"
"1983-12-22 04:00","1983","12","22","04:00"
"1983-12-22 05:00","1983","12","22","05:00"
"1983-12-22 06:00","1983","12","22","06:00","-11.7","","-15.6","","73","","30","","11","","25.0","","101.97","","","","-18","","Clear"
"1983-12-22 07:00","1983","12","22","07:00","-13.2","","-16.0","","80","","30","","9","","25.0","","102.01","","","","-19","","Clear"
"1983-12-22 08:00","1983","12","22","08:00","-12.6","","-16.3","","74","","31","","11","","25.0","","102.07","","","","-19","","Clear"
"1983-12-22 09:00","1983","12","22","09:00","-11.7","","-16.2","","69","","26","","17","","25.0","","102.18","","","","-19","","Mainly Clear"
"1983-12-22 10:00","1983","12","22","10:00","-8.6","","-13.9","","65","","30","","11","","25.0","","102.21","","","","-14","","Mainly Clear"
"1983-12-22 11:00","1983","12","22","11:00","-6.5","","-16.0","","47","","29","","11","","25.0","","102.24","","","","-11","","Mainly Clear"
"1983-12-22 12:00","1983","12","22","12:00","-5.9","","-19.8","","32","","31","","19","","25.0","","102.24","","","","-13","","Mainly Clear"
"1983-12-22 13:00","1983","12","22","13:00","-4.7","","-22.3","","24","","34","","6","","25.0","","102.24","","","","-7","","Clear"
"1983-12-22 14:00","1983","12","22","14:00","-6.6","","-24.1","","23","","32","","9","","25.0","","102.21","","","","-11","","Clear"
"1983-12-22 15:00","1983","12","22","15:00","-4.6","","-23.4","","21","","32","","15","","25.0","","102.21","","","","-10","","Clear"
"1983-12-22 16:00","1983","12","22","16:00","-6.3","","-20.7","","31","","27","","11","","25.0","","102.24","","","","-11","","Clear"
"1983-12-22 17:00","1983","12","22","17:00","-9.1","","-17.7","","49","","30","","7","","24.1","","102.21","","","","-13","","Mainly Clear"
"1983-12-22 18:00","1983","12","22","18:00","-10.6","","-17.2","","58","","27","","7","","24.1","","102.21","","","","-15","","Mainly Clear"
"1983-12-22 19:00","1983","12","22","19:00","-10.7","","-17.3","","58","","31","","11","","24.1","","102.21","","","","-16","","Clear"
"1983-12-22 20:00","1983","12","22","20:00","-12.3","","-17.3","","66","","27","","7","","24.1","","102.21","","","","-17","","Clear"
"1983-12-22 21:00","1983","12","22","21:00","-11.6","","-17.8","","60","","26","","11","","24.1","","102.21","","","","-18","","Clear"
"1983-12-22 22:00","1983","12","22","22:00"
"1983-12-22 23:00","1983","12","22","23:00"
"1983-12-23 00:00","1983","12","23","00:00"
"1983-12-23 01:00","1983","12","23","01:00"
"1983-12-23 02:00","1983","12","23","02:00"
"1983-12-23 03:00","1983","12","23","03:00"
"1983-12-23 04:00","1983","12","23","04:00"
"1983-12-23 05:00","1983","12","23","05:00"
"1983-12-23 06:00","1983","12","23","06:00","-16.1","","-19.0","","78","","29","","7","","25.0","","102.18","","","","-21","","Clear"
"1983-12-23 07:00","1983","12","23","07:00","-15.9","","-18.6","","79","","29","","11","","25.0","","102.18","","","","-23","","Clear"
"1983-12-23 08:00","1983","12","23","08:00","-16.3","","-19.6","","75","","27","","6","","25.0","","102.18","","","","-21","","Clear"
"1983-12-23 09:00","1983","12","23","09:00","-14.7","","-17.9","","77","","29","","9","","24.1","","102.18","","","","-20","","Clear"
"1983-12-23 10:00","1983","12","23","10:00","-10.6","","-13.5","","79","","","","0","","24.1","","102.14","","","","","","Mainly Clear"
"1983-12-23 11:00","1983","12","23","11:00","-5.6","","-12.7","","57","","31","","7","","24.1","","102.14","","","","-9","","Mainly Clear"
"1983-12-23 12:00","1983","12","23","12:00","-3.9","","-13.0","","49","","","","0","","24.1","","102.14","","","","","","Mainly Clear"
"1983-12-23 13:00","1983","12","23","13:00","-3.0","","-15.0","","39","","","","0","","24.1","","102.07","","","","","","Mainly Clear"
"1983-12-23 14:00","1983","12","23","14:00","-4.4","","-13.3","","50","","","","0","","24.1","","102.07","","","","","","Mainly Clear"
"1983-12-23 15:00","1983","12","23","15:00","-3.8","","-14.2","","44","","12","","9","","24.1","","102.07","","","","-8","","Mostly Cloudy"
"1983-12-23 16:00","1983","12","23","16:00","-4.1","","-13.8","","47","","","","0","","24.1","","102.07","","","","","","Mainly Clear"
"1983-12-23 17:00","1983","12","23","17:00","-4.6","","-23.4","","21","","2","","13","","24.1","","102.11","","","","-10","","Mainly Clear"
"1983-12-23 18:00","1983","12","23","18:00","-5.1","","-24.3","","21","","2","","15","","24.1","","102.11","","","","-11","","Mainly Clear"
"1983-12-23 19:00","1983","12","23","19:00","-5.6","","-24.3","","21","","2","","19","","24.1","","102.11","","","","-12","","Mainly Clear"
"1983-12-23 20:00","1983","12","23","20:00","-5.6","","-23.6","","23","","7","","15","","24.1","","102.11","","","","-11","","Clear"
"1983-12-23 21:00","1983","12","23","21:00","-5.0","","-23.7","","21","","8","","9","","24.1","","102.18","","","","-9","","Clear"
"1983-12-23 22:00","1983","12","23","22:00"
"1983-12-23 23:00","1983","12","23","23:00"
"1983-12-24 00:00","1983","12","24","00:00"
"1983-12-24 01:00","1983","12","24","01:00"
"1983-12-24 02:00","1983","12","24","02:00"
"1983-12-24 03:00","1983","12","24","03:00"
"1983-12-24 04:00","1983","12","24","04:00"
"1983-12-24 05:00","1983","12","24","05:00"
"1983-12-24 06:00","1983","12","24","06:00","-17.0","","-19.9","","78","","29","","7","","25.0","","101.64","","","","-22","","Clear"
"1983-12-24 07:00","1983","12","24","07:00","-17.3","","-20.4","","77","","28","","11","","25.0","","101.54","","","","-24","","Clear"
"1983-12-24 08:00","1983","12","24","08:00","-17.1","","-20.0","","78","","30","","7","","25.0","","101.47","","","","-22","","Clear"
"1983-12-24 09:00","1983","12","24","09:00","-16.5","","-19.6","","77","","31","","7","","25.0","","101.37","","","","-22","","Clear"
"1983-12-24 10:00","1983","12","24","10:00","-12.0","","-14.4","","82","","27","","7","","25.0","","101.34","","","","-16","","Clear"
"1983-12-24 11:00","1983","12","24","11:00","-7.0","","-13.6","","59","","32","","9","","25.0","","101.27","","","","-11","","Clear"
"1983-12-24 12:00","1983","12","24","12:00","-3.9","","-14.3","","44","","29","","7","","25.0","","101.10","","","","-7","","Clear"
"1983-12-24 13:00","1983","12","24","13:00","-1.6","","-17.7","","28","","","","0","","25.0","","100.93","","","","","","Clear"
"1983-12-24 14:00","1983","12","24","14:00","-1.3","","-23.3","","17","","12","","15","","24.1","","100.80","","","","-6","","Mainly Clear"
"1983-12-24 15:00","1983","12","24","15:00","-1.3","","-22.6","","18","","14","","15","","24.1","","100.70","","","","-6","","Mainly Clear"
"1983-12-24 16:00","1983","12","24","16:00","-5.4","","-16.4","","41","","12","","6","","24.1","","100.63","","","","-8","","Mainly Clear"
"1983-12-24 17:00","1983","12","24","17:00","-9.0","","-13.5","","70","","31","","7","","24.1","","100.60","","","","-13","","Mainly Clear"
"1983-12-24 18:00","1983","12","24","18:00","-7.5","","-11.4","","74","","32","","6","","24.1","","100.50","","","","-11","","Cloudy"
"1983-12-24 19:00","1983","12","24","19:00","-7.0","","-11.4","","71","","29","","6","","24.1","","100.46","","","","-10","","Cloudy"
"1983-12-24 20:00","1983","12","24","20:00","-6.5","","-11.0","","70","","30","","6","","24.1","","100.43","","","","-9","","Cloudy"
"1983-12-24 21:00","1983","12","24","21:00","-6.3","","-10.0","","75","","30","","9","","24.1","","100.46","","","","-11","","Cloudy"
"1983-12-24 22:00","1983","12","24","22:00"
"1983-12-24 23:00","1983","12","24","23:00"
"1983-12-25 00:00","1983","12","25","00:00"
"1983-12-25 01:00","1983","12","25","01:00"
"1983-12-25 02:00","1983","12","25","02:00"
"1983-12-25 03:00","1983","12","25","03:00"
"1983-12-25 04:00","1983","12","25","04:00"
"1983-12-25 05:00","1983","12","25","05:00"
"1983-12-25 06:00","1983","12","25","06:00","-3.1","","-7.0","","74","","25","","4","","24.1","","99.93","","","","-5","","Cloudy"
"1983-12-25 07:00","1983","12","25","07:00","-3.1","","-5.9","","81","","31","","6","","24.1","","99.86","","","","-6","","Cloudy"
"1983-12-25 08:00","1983","12","25","08:00","-3.1","","-6.6","","77","","","","0","","19.3","","99.79","","","","","","Cloudy"
"1983-12-25 09:00","1983","12","25","09:00","-2.9","","-5.2","","84","","28","","4","","24.1","","99.73","","","","-4","","Freezing Rain"
"1983-12-25 10:00","1983","12","25","10:00","-2.0","","-6.2","","73","","","","0","","24.1","","99.69","","","","","","Freezing Rain"
"1983-12-25 11:00","1983","12","25","11:00","-1.0","","-5.8","","70","","","","0","","24.1","","99.56","","","","","","Freezing Rain"
"1983-12-25 12:00","1983","12","25","12:00","-0.2","","-6.7","","61","","30","","7","","24.1","","99.39","","","","-3","","Cloudy"
"1983-12-25 13:00","1983","12","25","13:00","0.0","","-6.0","","64","","","","0","","24.1","","99.29","","","","","","Cloudy"
"1983-12-25 14:00","1983","12","25","14:00","0.2","","-6.1","","62","","35","","6","","16.1","","99.16","","","","","","Ice Pellets"
"1983-12-25 15:00","1983","12","25","15:00","-0.1","","-5.3","","68","","","","0","","16.1","","99.06","","","","","","Ice Pellets"
"1983-12-25 16:00","1983","12","25","16:00","-0.3","","-1.9","","89","","","","0","","24.1","","98.96","","","","","","Cloudy"
"1983-12-25 17:00","1983","12","25","17:00","-0.9","","-3.0","","86","","","","0","","19.3","","98.89","","","","","","Ice Pellets"
"1983-12-25 18:00","1983","12","25","18:00","-1.1","","-3.3","","85","","","","0","","6.4","","98.82","","","","","","Snow"
"1983-12-25 19:00","1983","12","25","19:00","-1.8","","-2.6","","94","","","","0","","1.6","","98.82","","","","","","Snow"
"1983-12-25 20:00","1983","12","25","20:00","-1.8","","-2.3","","96","","","","0","","2.4","","98.82","","","","","","Snow"
"1983-12-25 21:00","1983","12","25","21:00","-1.8","","-2.1","","98","","12","","6","","1.2","","98.89","","","","-4","","Snow"
"1983-12-25 22:00","1983","12","25","22:00"
"1983-12-25 23:00","1983","12","25","23:00"
"1983-12-26 00:00","1983","12","26","00:00"
"1983-12-26 01:00","1983","12","26","01:00"
"1983-12-26 02:00","1983","12","26","02:00"
"1983-12-26 03:00","1983","12","26","03:00"
"1983-12-26 04:00","1983","12","26","04:00"
"1983-12-26 05:00","1983","12","26","05:00"
"1983-12-26 06:00","1983","12","26","06:00","0.1","","0.1","","100","","","","0","","3.2","","99.36","","","","","","Rain,Snow,Fog"
"1983-12-26 07:00","1983","12","26","07:00","1.1","","0.8","","98","","20","","4","","11.3","","99.46","","","","","","Mostly Cloudy"
"1983-12-26 08:00","1983","12","26","08:00","0.5","","0.3","","98","","28","","4","","24.1","","99.56","","","","","","Mostly Cloudy"
"1983-12-26 09:00","1983","12","26","09:00","0.1","","0.1","","100","","31","","7","","24.1","","99.69","","","","","","Mostly Cloudy"
"1983-12-26 10:00","1983","12","26","10:00","0.5","","0.4","","99","","33","","7","","24.1","","99.79","","","","","","Mostly Cloudy"
"1983-12-26 11:00","1983","12","26","11:00","1.0","","0.4","","96","","31","","11","","24.1","","99.83","","","","","","Mostly Cloudy"
"1983-12-26 12:00","1983","12","26","12:00","1.6","","1.2","","97","","29","","11","","16.1","","99.89","","","","","","Mostly Cloudy"
"1983-12-26 13:00","1983","12","26","13:00","1.8","","1.6","","99","","30","","9","","16.1","","99.89","","","","","","Cloudy"
"1983-12-26 14:00","1983","12","26","14:00","1.8","","1.3","","96","","32","","7","","19.3","","99.89","","","","","","Cloudy"
"1983-12-26 15:00","1983","12","26","15:00","1.8","","1.4","","97","","32","","6","","24.1","","99.89","","","","","","Cloudy"
"1983-12-26 16:00","1983","12","26","16:00","1.8","","1.4","","97","","32","","9","","12.9","","99.93","","","","","","Cloudy"
"1983-12-26 17:00","1983","12","26","17:00","0.8","","0.6","","99","","","","0","","12.9","","99.96","","","","","","Rain"
"1983-12-26 18:00","1983","12","26","18:00","1.1","","0.9","","98","","31","","7","","24.1","","100.00","","","","","","Cloudy"
"1983-12-26 19:00","1983","12","26","19:00","0.6","","0.6","","100","","32","","4","","24.1","","100.03","","","","","","Cloudy"
"1983-12-26 20:00","1983","12","26","20:00","0.7","","0.6","","99","","30","","6","","24.1","","100.06","","","","","","Cloudy"
"1983-12-26 21:00","1983","12","26","21:00","0.6","","0.4","","98","","","","0","","24.1","","100.13","","","","","","Cloudy"
"1983-12-26 22:00","1983","12","26","22:00"
"1983-12-26 23:00","1983","12","26","23:00"
"1983-12-27 00:00","1983","12","27","00:00"
"1983-12-27 01:00","1983","12","27","01:00"
"1983-12-27 02:00","1983","12","27","02:00"
"1983-12-27 03:00","1983","12","27","03:00"
"1983-12-27 04:00","1983","12","27","04:00"
"1983-12-27 05:00","1983","12","27","05:00"
"1983-12-27 06:00","1983","12","27","06:00","-2.8","","-3.4","","96","","29","","6","","24.1","","100.53","","","","-5","","Mainly Clear"
"1983-12-27 07:00","1983","12","27","07:00","-2.7","","-4.1","","90","","28","","13","","24.1","","100.63","","","","-7","","Mainly Clear"
"1983-12-27 08:00","1983","12","27","08:00","-3.5","","-5.1","","89","","31","","7","","24.1","","100.70","","","","-6","","Clear"
"1983-12-27 09:00","1983","12","27","09:00","-2.1","","-4.2","","85","","29","","11","","24.1","","100.73","","","","-6","","Clear"
"1983-12-27 10:00","1983","12","27","10:00","-2.6","","-3.2","","96","","28","","11","","24.1","","100.87","","","","-7","","Clear"
"1983-12-27 11:00","1983","12","27","11:00","-0.8","","-2.4","","89","","30","","11","","24.1","","100.97","","","","-5","","Clear"
"1983-12-27 12:00","1983","12","27","12:00","0.7","","-3.2","","75","","31","","9","","24.1","","101.03","","","","","","Clear"
"1983-12-27 13:00","1983","12","27","13:00","1.0","","-3.6","","71","","30","","15","","24.1","","101.07","","","","","","Mainly Clear"
"1983-12-27 14:00","1983","12","27","14:00","2.1","","-3.0","","69","","32","","6","","24.1","","101.10","","","","","","Mainly Clear"
"1983-12-27 15:00","1983","12","27","15:00","0.9","","-2.4","","79","","","","0","","24.1","","101.20","","","","","","Mainly Clear"
"1983-12-27 16:00","1983","12","27","16:00","0.6","","-1.4","","86","","","","0","","24.1","","101.20","","","","","","Mainly Clear"
"1983-12-27 17:00","1983","12","27","17:00","-3.9","","-3.9","","100","","","","0","","25.0","","101.24","","","","","","Clear"
"1983-12-27 18:00","1983","12","27","18:00","-3.3","","-3.7","","97","","30","","6","","25.0","","101.27","","","","-6","","Clear"
"1983-12-27 19:00","1983","12","27","19:00","-3.3","","-3.6","","98","","27","","6","","25.0","","101.27","","","","-6","","Clear"
"1983-12-27 20:00","1983","12","27","20:00","-2.7","","-3.1","","97","","31","","4","","25.0","","101.27","","","","-4","","Mostly Cloudy"
"1983-12-27 21:00","1983","12","27","21:00","-3.4","","-3.5","","99","","30","","7","","25.0","","101.30","","","","-6","","Mostly Cloudy"
"1983-12-27 22:00","1983","12","27","22:00"
"1983-12-27 23:00","1983","12","27","23:00"
"1983-12-28 00:00","1983","12","28","00:00"
"1983-12-28 01:00","1983","12","28","01:00"
"1983-12-28 02:00","1983","12","28","02:00"
"1983-12-28 03:00","1983","12","28","03:00"
"1983-12-28 04:00","1983","12","28","04:00"
"1983-12-28 05:00","1983","12","28","05:00"
"1983-12-28 06:00","1983","12","28","06:00","-3.2","","-3.5","","98","","","","0","","16.1","","101.27","","","","","","Mostly Cloudy"
"1983-12-28 07:00","1983","12","28","07:00","-3.3","","-3.5","","98","","32","","6","","19.3","","101.27","","","","-6","","Mostly Cloudy"
"1983-12-28 08:00","1983","12","28","08:00","-3.4","","-4.3","","94","","","","0","","24.1","","101.27","","","","","","Mostly Cloudy"
"1983-12-28 09:00","1983","12","28","09:00","-4.0","","-4.7","","95","","29","","4","","24.1","","101.27","","","","-6","","Mostly Cloudy"
"1983-12-28 10:00","1983","12","28","10:00","-2.9","","-3.5","","96","","29","","4","","24.1","","101.34","","","","-4","","Mostly Cloudy"
"1983-12-28 11:00","1983","12","28","11:00","-2.1","","-2.7","","96","","","","0","","24.1","","101.30","","","","","","Mostly Cloudy"
"1983-12-28 12:00","1983","12","28","12:00","0.3","","-2.7","","80","","","","0","","24.1","","101.20","","","","","","Mostly Cloudy"
"1983-12-28 13:00","1983","12","28","13:00","0.7","","-2.5","","79","","13","","13","","24.1","","101.17","","","","","","Mostly Cloudy"
"1983-12-28 14:00","1983","12","28","14:00","0.6","","-3.0","","77","","13","","6","","24.1","","101.07","","","","","","Mostly Cloudy"
"1983-12-28 15:00","1983","12","28","15:00","0.8","","-3.4","","74","","8","","4","","24.1","","101.10","","","","","","Mostly Cloudy"
"1983-12-28 16:00","1983","12","28","16:00","-0.5","","-1.5","","93","","","","0","","25.0","","101.07","","","","","","Mostly Cloudy"
"1983-12-28 17:00","1983","12","28","17:00","-2.1","","-2.7","","96","","","","0","","25.0","","101.00","","","","","","Mostly Cloudy"
"1983-12-28 18:00","1983","12","28","18:00","-3.2","","-3.6","","97","","","","0","","25.0","","100.97","","","","","","Mostly Cloudy"
"1983-12-28 19:00","1983","12","28","19:00","-3.4","","-3.5","","99","","","","0","","25.0","","100.93","","","","","","Mostly Cloudy"
"1983-12-28 20:00","1983","12","28","20:00","-3.5","","-3.8","","98","","30","","4","","25.0","","100.93","","","","-5","","Mostly Cloudy"
"1983-12-28 21:00","1983","12","28","21:00","-3.5","","-4.1","","96","","29","","4","","25.0","","100.93","","","","-5","","Mostly Cloudy"
"1983-12-28 22:00","1983","12","28","22:00"
"1983-12-28 23:00","1983","12","28","23:00"
"1983-12-29 00:00","1983","12","29","00:00"
"1983-12-29 01:00","1983","12","29","01:00"
"1983-12-29 02:00","1983","12","29","02:00"
"1983-12-29 03:00","1983","12","29","03:00"
"1983-12-29 04:00","1983","12","29","04:00"
"1983-12-29 05:00","1983","12","29","05:00"
"1983-12-29 06:00","1983","12","29","06:00","-0.5","","-2.6","","86","","","","0","","12.9","","100.67","","","","","","Snow"
"1983-12-29 07:00","1983","12","29","07:00","-1.4","","-2.6","","91","","14","","13","","9.7","","100.60","","","","-6","","Snow"
"1983-12-29 08:00","1983","12","29","08:00","-1.3","","-2.4","","92","","14","","13","","6.4","","100.53","","","","-6","","Snow,Fog"
"1983-12-29 09:00","1983","12","29","09:00","-1.0","","-2.4","","90","","13","","15","","12.9","","100.53","","","","-6","","Cloudy"
"1983-12-29 10:00","1983","12","29","10:00","-0.6","","-1.9","","91","","12","","13","","9.7","","100.50","","","","-5","","Snow"
"1983-12-29 11:00","1983","12","29","11:00","-0.4","","-1.1","","95","","12","","11","","9.7","","100.40","","","","-4","","Snow"
"1983-12-29 12:00","1983","12","29","12:00","-0.3","","-1.0","","95","","12","","13","","8.0","","100.30","","","","-4","","Snow"
"1983-12-29 13:00","1983","12","29","13:00","-0.2","","-0.7","","96","","11","","13","","8.0","","100.20","","","","-4","","Snow"
"1983-12-29 14:00","1983","12","29","14:00","-0.1","","-0.5","","97","","10","","9","","8.0","","100.10","","","","-3","","Snow"
"1983-12-29 15:00","1983","12","29","15:00","-0.2","","-0.3","","100","","11","","7","","1.6","","100.00","","","","-3","","Snow"
"1983-12-29 16:00","1983","12","29","16:00","0.1","","-0.4","","96","","11","","11","","3.2","","99.89","","","","","","Snow"
"1983-12-29 17:00","1983","12","29","17:00","-0.3","","-0.4","","99","","13","","13","","2.4","","99.79","","","","-4","","Snow,Ice Pellets"
"1983-12-29 18:00","1983","12","29","18:00","0.1","","-0.2","","98","","12","","11","","3.2","","99.69","","","","","","Rain,Snow,Fog"
"1983-12-29 19:00","1983","12","29","19:00","0.3","","0.0","","98","","11","","11","","3.2","","99.63","","","","","","Rain,Snow,Fog"
"1983-12-29 20:00","1983","12","29","20:00","0.1","","0.0","","99","","9","","9","","3.2","","99.53","","","","","","Rain,Snow,Fog"
"1983-12-29 21:00","1983","12","29","21:00","0.3","","0.3","","100","","9","","6","","3.2","","99.49","","","","","","Rain,Fog"
"1983-12-29 22:00","1983","12","29","22:00"
"1983-12-29 23:00","1983","12","29","23:00"
"1983-12-30 00:00","1983","12","30","00:00"
"1983-12-30 01:00","1983","12","30","01:00"
"1983-12-30 02:00","1983","12","30","02:00"
"1983-12-30 03:00","1983","12","30","03:00"
"1983-12-30 04:00","1983","12","30","04:00"
"1983-12-30 05:00","1983","12","30","05:00"
"1983-12-30 06:00","1983","12","30","06:00","3.4","","3.4","","100","","14","","13","","3.2","","99.43","","","","","","Rain,Fog"
"1983-12-30 07:00","1983","12","30","07:00","3.6","","3.6","","100","","18","","7","","3.2","","99.46","","","","","","Rain,Fog"
"1983-12-30 08:00","1983","12","30","08:00","4.1","","4.0","","99","","14","","17","","8.0","","99.49","","","","","","Rain,Fog"
"1983-12-30 09:00","1983","12","30","09:00","4.7","","4.2","","97","","13","","17","","9.7","","99.59","","","","","","Fog"
"1983-12-30 10:00","1983","12","30","10:00","5.4","","4.8","","96","","11","","22","","9.7","","99.73","","","","","","Fog"
"1983-12-30 11:00","1983","12","30","11:00","6.2","","5.5","","95","","13","","20","","9.7","","99.79","","","","","","Fog"
"1983-12-30 12:00","1983","12","30","12:00","6.1","","5.4","","95","","12","","9","","12.9","","99.79","","","","","","Mostly Cloudy"
"1983-12-30 13:00","1983","12","30","13:00","6.9","","6.1","","95","","12","","19","","12.9","","99.83","","","","","","Cloudy"
"1983-12-30 14:00","1983","12","30","14:00","7.1","","6.0","","93","","11","","13","","24.1","","99.83","","","","","","Cloudy"
"1983-12-30 15:00","1983","12","30","15:00","6.7","","5.7","","93","","12","","13","","24.1","","99.89","","","","","","Rain Showers"
"1983-12-30 16:00","1983","12","30","16:00","6.5","","5.4","","93","","12","","13","","19.3","","99.96","","","","","","Cloudy"
"1983-12-30 17:00","1983","12","30","17:00","6.2","","4.8","","90","","10","","11","","16.1","","100.03","","","","","","Cloudy"
"1983-12-30 18:00","1983","12","30","18:00","6.1","","4.7","","91","","12","","17","","16.1","","100.10","","","","","","Cloudy"
"1983-12-30 19:00","1983","12","30","19:00","5.9","","4.7","","92","","12","","15","","16.1","","100.16","","","","","","Cloudy"
"1983-12-30 20:00","1983","12","30","20:00","5.9","","5.3","","96","","11","","11","","12.9","","100.30","","","","","","Rain Showers"
"1983-12-30 21:00","1983","12","30","21:00","3.7","","3.5","","98","","","","0","","9.7","","100.40","","","","","","Rain Showers"
"1983-12-30 22:00","1983","12","30","22:00"
"1983-12-30 23:00","1983","12","30","23:00"
"1983-12-31 00:00","1983","12","31","00:00"
"1983-12-31 01:00","1983","12","31","01:00"
"1983-12-31 02:00","1983","12","31","02:00"
"1983-12-31 03:00","1983","12","31","03:00"
"1983-12-31 04:00","1983","12","31","04:00"
"1983-12-31 05:00","1983","12","31","05:00"
"1983-12-31 06:00","1983","12","31","06:00","2.2","","2.1","","99","","","","0","","2.4","","101.24","","","","","","Fog"
"1983-12-31 07:00","1983","12","31","07:00","2.0","","2.0","","100","","","","0","","2.4","","101.37","","","","","","Fog"
"1983-12-31 08:00","1983","12","31","08:00","1.6","","1.6","","100","","29","","4","","0.8","","101.44","","","","","","Fog"
"1983-12-31 09:00","1983","12","31","09:00","1.9","","1.9","","100","","29","","6","","0.4","","101.50","","","","","","Fog"
"1983-12-31 10:00","1983","12","31","10:00","2.7","","2.7","","100","","","","0","","1.2","","101.57","","","","","","Fog"
"1983-12-31 11:00","1983","12","31","11:00","3.2","","3.2","","100","","32","","4","","1.2","","101.57","","","","","","Fog"
"1983-12-31 12:00","1983","12","31","12:00","3.1","","3.1","","100","","","","0","","1.2","","101.60","","","","","","Fog"
"1983-12-31 13:00","1983","12","31","13:00","3.9","","3.9","","100","","","","0","","1.2","","101.64","","","","","","Fog"
"1983-12-31 14:00","1983","12","31","14:00","4.6","","4.6","","100","","","","0","","0.4","","101.67","","","","","","Fog"
"1983-12-31 15:00","1983","12","31","15:00","4.0","","4.0","","100","","","","0","","0.4","","101.71","","","","","","Fog"
"1983-12-31 16:00","1983","12","31","16:00","3.0","","3.0","","100","","","","0","","0.8","","101.67","","","","","","Fog"
"1983-12-31 17:00","1983","12","31","17:00","3.4","","3.4","","100","","","","0","","0.8","","101.71","","","","","","Fog"
"1983-12-31 18:00","1983","12","31","18:00","3.3","","3.3","","100","","","","0","","2.0","","101.77","","","","","","Fog"
"1983-12-31 19:00","1983","12","31","19:00","4.6","","4.6","","100","","13","","6","","0.8","","101.74","","","","","","Fog"
"1983-12-31 20:00","1983","12","31","20:00","5.6","","5.6","","100","","12","","20","","8.0","","101.71","","","","","","Fog"
"1983-12-31 21:00","1983","12","31","21:00","5.8","","5.6","","99","","12","","15","","8.0","","101.71","","","","","","Fog"
"1983-12-31 22:00","1983","12","31","22:00"
"1983-12-31 23:00","1983","12","31","23:00"
