"Station Name","CAMPBELL RIVER A"
"Province","BRITISH COLUMBIA"
"Latitude","49.95"
"Longitude","-125.27"
"Elevation","108.80"
"Climate Identifier","1021261"
"WMO Identifier",""
"TC Identifier","YBL"
"All times are specified in Local Standard Time (LST). Add 1 hour to adjust for Daylight Saving Time where and when it is observed."

"Legend"
"E","Estimated"
"M","Missing"
"NA","Not Available"

"Date/Time","Year","Month","Day","Time","Temp (°C)","Temp Flag","Dew Point Temp (°C)","Dew Point Temp Flag","Rel Hum (%)","Rel Hum Flag","Wind Dir (10s deg)","Wind Dir Flag","Wind Spd (km/h)","Wind Spd Flag","Visibility (km)","Visibility Flag","Stn Press (kPa)","Stn Press Flag","Hmdx","Hmdx Flag","Wind Chill","Wind Chill Flag","Weather"
"1987-12-01 00:00","1987","12","01","00:00","","","","","","","12","","59","","","","","","","","","","NA"
"1987-12-01 01:00","1987","12","01","01:00","","","","","","","12","","56","","","","","","","","","","NA"
"1987-12-01 02:00","1987","12","01","02:00","","","","","","","13","","46","","","","","","","","","","NA"
"1987-12-01 03:00","1987","12","01","03:00","","","","","","","13","","19","","","","","","","","","","NA"
"1987-12-01 04:00","1987","12","01","04:00","","","","","","","13","","15","","","","","","","","","","NA"
"1987-12-01 05:00","1987","12","01","05:00","","","","","","","13","","11","","","","","","","","","","NA"
"1987-12-01 06:00","1987","12","01","06:00","5.8","","5.2","","96","","12","","9","","9.7","","97.22","","","","","","Rain,Fog"
"1987-12-01 07:00","1987","12","01","07:00","5.5","","5.1","","97","","13","","7","","8.0","","97.22","","","","","","Rain,Fog"
"1987-12-01 08:00","1987","12","01","08:00","5.8","","5.3","","97","","","","0","","24.1","","97.22","","","","","","Cloudy"
"1987-12-01 09:00","1987","12","01","09:00","6.1","","5.4","","95","","14","","9","","16.1","","97.26","","","","","","Rain Showers"
"1987-12-01 10:00","1987","12","01","10:00","6.0","","4.8","","92","","13","","11","","12.9","","97.29","","","","","","Rain Showers"
"1987-12-01 11:00","1987","12","01","11:00","6.2","","4.7","","90","","16","","7","","24.1","","97.29","","","","","","Rain Showers"
"1987-12-01 12:00","1987","12","01","12:00","6.5","","4.6","","88","","14","","9","","24.1","","97.36","","","","","","Mostly Cloudy"
"1987-12-01 13:00","1987","12","01","13:00","7.8","","4.8","","81","","12","","15","","24.1","","97.39","","","","","","Mostly Cloudy"
"1987-12-01 14:00","1987","12","01","14:00","6.8","","4.6","","86","","12","","24","","24.1","","97.39","","","","","","Rain Showers"
"1987-12-01 15:00","1987","12","01","15:00","6.3","","4.8","","90","","12","","19","","16.1","","97.46","","","","","","Rain Showers"
"1987-12-01 16:00","1987","12","01","16:00","5.7","","3.6","","86","","14","","22","","19.3","","97.56","","","","","","Rain Showers"
"1987-12-01 17:00","1987","12","01","17:00","5.5","","4.4","","93","","14","","24","","24.1","","97.59","","","","","","Mostly Cloudy"
"1987-12-01 18:00","1987","12","01","18:00","5.5","","4.9","","96","","13","","24","","19.3","","97.66","","","","","","Rain Showers"
"1987-12-01 19:00","1987","12","01","19:00","5.0","","3.8","","92","","12","","13","","19.3","","97.72","","","","","","Mostly Cloudy"
"1987-12-01 20:00","1987","12","01","20:00","6.5","","2.5","","76","","15","","28","","24.1","","97.86","","","","","","Mostly Cloudy"
"1987-12-01 21:00","1987","12","01","21:00","4.8","","3.4","","91","","13","","13","","24.1","","97.93","","","","","","Mostly Cloudy"
"1987-12-01 22:00","1987","12","01","22:00","","","","","","","13","","15","","","","","","","","","","NA"
"1987-12-01 23:00","1987","12","01","23:00","","","","","","","14","","17","","","","","","","","","","NA"
"1987-12-02 00:00","1987","12","02","00:00","","","","","","","15","","17","","","","","","","","","","NA"
"1987-12-02 01:00","1987","12","02","01:00","","","","","","","16","","17","","","","","","","","","","NA"
"1987-12-02 02:00","1987","12","02","02:00","","","","","","","16","","15","","","","","","","","","","NA"
"1987-12-02 03:00","1987","12","02","03:00","","","","","","","","","0","","","","","","","","","","NA"
"1987-12-02 04:00","1987","12","02","04:00","","","","","","","","","0","","","","","","","","","","NA"
"1987-12-02 05:00","1987","12","02","05:00","","","","","","","","","0","","","","","","","","","","NA"
"1987-12-02 06:00","1987","12","02","06:00","2.8","","1.6","","92","","","","0","","24.1","","98.60","","","","","","Mostly Cloudy"
"1987-12-02 07:00","1987","12","02","07:00","1.7","","0.6","","92","","31","","9","","24.1","","98.66","","","","","","Mostly Cloudy"
"1987-12-02 08:00","1987","12","02","08:00","1.8","","0.8","","93","","","","0","","24.1","","98.83","","","","","","Cloudy"
"1987-12-02 09:00","1987","12","02","09:00","2.6","","1.8","","94","","","","0","","24.1","","98.86","","","","","","Cloudy"
"1987-12-02 10:00","1987","12","02","10:00","3.6","","2.6","","93","","","","0","","16.1","","98.90","","","","","","Cloudy"
"1987-12-02 11:00","1987","12","02","11:00","4.2","","3.4","","94","","","","0","","16.1","","98.97","","","","","","Cloudy"
"1987-12-02 12:00","1987","12","02","12:00","4.7","","3.8","","94","","","","0","","24.1","","98.97","","","","","","Cloudy"
"1987-12-02 13:00","1987","12","02","13:00","4.8","","3.5","","91","","18","","4","","16.1","","98.93","","","","","","Rain Showers"
"1987-12-02 14:00","1987","12","02","14:00","5.3","","4.3","","93","","11","","7","","16.1","","98.86","","","","","","Rain Showers"
"1987-12-02 15:00","1987","12","02","15:00","5.3","","3.8","","90","","14","","15","","12.9","","98.80","","","","","","Rain Showers"
"1987-12-02 16:00","1987","12","02","16:00","5.1","","4.1","","93","","13","","15","","4.8","","98.80","","","","","","Rain,Fog"
"1987-12-02 17:00","1987","12","02","17:00","5.8","","4.8","","93","","12","","22","","3.2","","98.73","","","","","","Rain,Fog"
"1987-12-02 18:00","1987","12","02","18:00","5.7","","4.7","","93","","14","","26","","3.2","","98.60","","","","","","Rain,Fog"
"1987-12-02 19:00","1987","12","02","19:00","5.9","","4.8","","93","","13","","19","","3.2","","98.43","","","","","","Rain,Fog"
"1987-12-02 20:00","1987","12","02","20:00","6.3","","5.6","","95","","11","","28","","2.4","","98.16","","","","","","Rain,Fog"
"1987-12-02 21:00","1987","12","02","21:00","6.6","","5.4","","92","","13","","33","","3.2","","98.03","","","","","","Rain,Fog"
"1987-12-02 22:00","1987","12","02","22:00","","","","","","","13","","37","","","","","","","","","","NA"
"1987-12-02 23:00","1987","12","02","23:00","","","","","","","14","","33","","","","","","","","","","NA"
"1987-12-03 00:00","1987","12","03","00:00","","","","","","","16","","33","","","","","","","","","","NA"
"1987-12-03 01:00","1987","12","03","01:00","","","","","","","16","","37","","","","","","","","","","NA"
"1987-12-03 02:00","1987","12","03","02:00","","","","","","","16","","41","","","","","","","","","","NA"
"1987-12-03 03:00","1987","12","03","03:00","","","","","","","14","","56","","","","","","","","","","NA"
"1987-12-03 04:00","1987","12","03","04:00","","","","","","","15","","22","","","","","","","","","","NA"
"1987-12-03 05:00","1987","12","03","05:00","","","","","","","12","","9","","","","","","","","","","NA"
"1987-12-03 06:00","1987","12","03","06:00","6.4","","2.9","","78","","4","","13","","24.1","","98.13","","","","","","Mainly Clear"
"1987-12-03 07:00","1987","12","03","07:00","7.2","","1.8","","68","","35","","17","","24.1","","98.56","","","","","","Mainly Clear"
"1987-12-03 08:00","1987","12","03","08:00","6.2","","2.2","","76","","30","","7","","24.1","","98.80","","","","","","Mostly Cloudy"
"1987-12-03 09:00","1987","12","03","09:00","5.4","","2.6","","82","","","","0","","24.1","","99.07","","","","","","Mostly Cloudy"
"1987-12-03 10:00","1987","12","03","10:00","4.6","","3.0","","89","","","","0","","24.1","","99.27","","","","","","Mostly Cloudy"
"1987-12-03 11:00","1987","12","03","11:00","5.7","","3.7","","87","","33","","6","","24.1","","99.37","","","","","","Mostly Cloudy"
"1987-12-03 12:00","1987","12","03","12:00","6.6","","3.5","","80","","31","","4","","24.1","","99.40","","","","","","Mostly Cloudy"
"1987-12-03 13:00","1987","12","03","13:00","6.6","","3.6","","81","","30","","6","","24.1","","99.40","","","","","","Cloudy"
"1987-12-03 14:00","1987","12","03","14:00","6.5","","3.6","","82","","31","","7","","24.1","","99.40","","","","","","Cloudy"
"1987-12-03 15:00","1987","12","03","15:00","6.2","","4.4","","88","","25","","6","","24.1","","99.40","","","","","","Cloudy"
"1987-12-03 16:00","1987","12","03","16:00","5.7","","4.8","","94","","","","0","","19.3","","99.40","","","","","","Rain Showers"
"1987-12-03 17:00","1987","12","03","17:00","5.2","","4.3","","94","","","","0","","19.3","","99.40","","","","","","Rain"
"1987-12-03 18:00","1987","12","03","18:00","5.0","","4.0","","93","","","","0","","19.3","","99.33","","","","","","Rain"
"1987-12-03 19:00","1987","12","03","19:00","4.8","","4.2","","96","","","","0","","9.7","","99.30","","","","","","Rain,Fog"
"1987-12-03 20:00","1987","12","03","20:00","4.8","","4.1","","95","","","","0","","6.4","","99.27","","","","","","Rain,Fog"
"1987-12-03 21:00","1987","12","03","21:00","5.0","","4.3","","95","","10","","13","","9.7","","99.20","","","","","","Rain,Fog"
"1987-12-03 22:00","1987","12","03","22:00","","","","","","","11","","19","","","","","","","","","","NA"
"1987-12-03 23:00","1987","12","03","23:00","","","","","","","11","","19","","","","","","","","","","NA"
"1987-12-04 00:00","1987","12","04","00:00","","","","","","","11","","22","","","","","","","","","","NA"
"1987-12-04 01:00","1987","12","04","01:00","","","","","","","12","","24","","","","","","","","","","NA"
"1987-12-04 02:00","1987","12","04","02:00","","","","","","","13","","19","","","","","","","","","","NA"
"1987-12-04 03:00","1987","12","04","03:00","","","","","","","11","","15","","","","","","","","","","NA"
"1987-12-04 04:00","1987","12","04","04:00","","","","","","","13","","19","","","","","","","","","","NA"
"1987-12-04 05:00","1987","12","04","05:00","","","","","","","14","","19","","","","","","","","","","NA"
"1987-12-04 06:00","1987","12","04","06:00","5.3","","3.6","","89","","14","","19","","19.3","","99.07","","","","","","Rain Showers"
"1987-12-04 07:00","1987","12","04","07:00","5.2","","3.8","","90","","14","","15","","16.1","","99.10","","","","","","Rain Showers"
"1987-12-04 08:00","1987","12","04","08:00","5.1","","3.1","","87","","13","","26","","19.3","","99.13","","","","","","Rain Showers"
"1987-12-04 09:00","1987","12","04","09:00","5.5","","3.1","","85","","13","","19","","24.1","","99.27","","","","","","Mostly Cloudy"
"1987-12-04 10:00","1987","12","04","10:00","6.8","","2.5","","74","","16","","9","","24.1","","99.27","","","","","","Mainly Clear"
"1987-12-04 11:00","1987","12","04","11:00","7.3","","3.8","","78","","","","0","","24.1","","99.37","","","","","","Mainly Clear"
"1987-12-04 12:00","1987","12","04","12:00","8.2","","1.3","","62","","19","","19","","24.1","","99.40","","","","","","Mainly Clear"
"1987-12-04 13:00","1987","12","04","13:00","9.2","","1.6","","59","","11","","6","","24.1","","99.47","","","","","","Mostly Cloudy"
"1987-12-04 14:00","1987","12","04","14:00","7.6","","4.7","","82","","","","0","","24.1","","99.47","","","","","","Mostly Cloudy"
"1987-12-04 15:00","1987","12","04","15:00","6.8","","3.8","","81","","8","","4","","24.1","","99.47","","","","","","Mainly Clear"
"1987-12-04 16:00","1987","12","04","16:00","3.8","","2.7","","93","","30","","4","","24.1","","99.47","","","","","","Mainly Clear"
"1987-12-04 17:00","1987","12","04","17:00","1.9","","1.2","","95","","28","","4","","24.1","","99.47","","","","","","Mainly Clear"
"1987-12-04 18:00","1987","12","04","18:00","1.8","","0.8","","93","","30","","6","","24.1","","99.40","","","","","","Clear"
"1987-12-04 19:00","1987","12","04","19:00","0.6","","-0.4","","93","","29","","4","","24.1","","99.47","","","","","","Mainly Clear"
"1987-12-04 20:00","1987","12","04","20:00","-0.1","","-1.1","","93","","29","","4","","24.1","","99.44","","","","-1","","Mainly Clear"
"1987-12-04 21:00","1987","12","04","21:00","-0.6","","-1.4","","94","","30","","4","","24.1","","99.44","","","","-2","","Mostly Cloudy"
"1987-12-04 22:00","1987","12","04","22:00","","","","","","","","","0","","","","","","","","","","NA"
"1987-12-04 23:00","1987","12","04","23:00","","","","","","","","","0","","","","","","","","","","NA"
"1987-12-05 00:00","1987","12","05","00:00","","","","","","","","","0","","","","","","","","","","NA"
"1987-12-05 01:00","1987","12","05","01:00","","","","","","","","","0","","","","","","","","","","NA"
"1987-12-05 02:00","1987","12","05","02:00","","","","","","","","","0","","","","","","","","","","NA"
"1987-12-05 03:00","1987","12","05","03:00","","","","","","","","","0","","","","","","","","","","NA"
"1987-12-05 04:00","1987","12","05","04:00","","","","","","","","","0","","","","","","","","","","NA"
"1987-12-05 05:00","1987","12","05","05:00","","","","","","","12","","6","","","","","","","","","","NA"
"1987-12-05 06:00","1987","12","05","06:00","3.6","","2.1","","90","","8","","6","","24.1","","98.97","","","","","","Mostly Cloudy"
"1987-12-05 07:00","1987","12","05","07:00","3.6","","2.0","","89","","11","","13","","24.1","","98.90","","","","","","Mostly Cloudy"
"1987-12-05 08:00","1987","12","05","08:00","3.8","","1.9","","87","","13","","7","","24.1","","98.83","","","","","","Cloudy"
"1987-12-05 09:00","1987","12","05","09:00","4.6","","2.2","","84","","13","","13","","24.1","","98.76","","","","","","Cloudy"
"1987-12-05 10:00","1987","12","05","10:00","4.7","","1.8","","81","","14","","15","","24.1","","98.60","","","","","","Cloudy"
"1987-12-05 11:00","1987","12","05","11:00","5.6","","1.3","","74","","13","","22","","24.1","","98.63","","","","","","Rain"
"1987-12-05 12:00","1987","12","05","12:00","6.4","","2.7","","77","","13","","28","","16.1","","98.56","","","","","","Rain"
"1987-12-05 13:00","1987","12","05","13:00","5.8","","4.2","","90","","12","","22","","6.4","","98.36","","","","","","Rain,Fog"
"1987-12-05 14:00","1987","12","05","14:00","5.7","","4.6","","93","","14","","20","","6.4","","98.36","","","","","","Rain,Fog"
"1987-12-05 15:00","1987","12","05","15:00","5.7","","4.5","","92","","15","","26","","6.4","","98.16","","","","","","Rain,Fog"
"1987-12-05 16:00","1987","12","05","16:00","5.9","","4.7","","92","","15","","37","","6.4","","97.96","","","","","","Rain,Fog"
"1987-12-05 17:00","1987","12","05","17:00","6.1","","4.8","","91","","16","","35","","4.8","","97.86","","","","","","Moderate Rain,Fog"
"1987-12-05 18:00","1987","12","05","18:00","6.5","","5.6","","94","","15","","30","","4.8","","97.72","","","","","","Moderate Rain,Fog"
"1987-12-05 19:00","1987","12","05","19:00","6.7","","5.6","","93","","15","","37","","4.8","","97.66","","","","","","Heavy Rain,Fog"
"1987-12-05 20:00","1987","12","05","20:00","7.3","","5.6","","89","","15","","37","","4.8","","97.62","","","","","","Moderate Rain,Fog"
"1987-12-05 21:00","1987","12","05","21:00","6.1","","5.3","","94","","18","","11","","4.8","","97.72","","","","","","Rain,Fog"
"1987-12-05 22:00","1987","12","05","22:00","","","","","","","17","","15","","","","","","","","","","NA"
"1987-12-05 23:00","1987","12","05","23:00","","","","","","","16","","19","","","","","","","","","","NA"
"1987-12-06 00:00","1987","12","06","00:00","","","","","","","16","","15","","","","","","","","","","NA"
"1987-12-06 01:00","1987","12","06","01:00","","","","","","","15","","11","","","","","","","","","","NA"
"1987-12-06 02:00","1987","12","06","02:00","","","","","","","","","0","","","","","","","","","","NA"
"1987-12-06 03:00","1987","12","06","03:00","","","","","","","","","0","","","","","","","","","","NA"
"1987-12-06 04:00","1987","12","06","04:00","","","","","","","32","","6","","","","","","","","","","NA"
"1987-12-06 05:00","1987","12","06","05:00","","","","","","","33","","9","","","","","","","","","","NA"
"1987-12-06 06:00","1987","12","06","06:00","4.4","","3.8","","96","","","","0","","9.7","","97.42","","","","","","Rain,Fog"
"1987-12-06 07:00","1987","12","06","07:00","4.2","","3.6","","96","","24","","6","","16.1","","97.42","","","","","","Rain Showers"
"1987-12-06 08:00","1987","12","06","08:00","4.1","","3.5","","96","","","","0","","19.3","","97.52","","","","","","Cloudy"
"1987-12-06 09:00","1987","12","06","09:00","4.1","","3.5","","96","","","","0","","24.1","","97.56","","","","","","Mostly Cloudy"
"1987-12-06 10:00","1987","12","06","10:00","5.5","","4.7","","95","","29","","4","","24.1","","97.62","","","","","","Mostly Cloudy"
"1987-12-06 11:00","1987","12","06","11:00","6.0","","5.2","","95","","29","","7","","24.1","","97.72","","","","","","Mostly Cloudy"
"1987-12-06 12:00","1987","12","06","12:00","7.1","","6.1","","93","","","","0","","24.1","","97.76","","","","","","Mostly Cloudy"
"1987-12-06 13:00","1987","12","06","13:00","7.7","","6.4","","91","","","","0","","24.1","","97.76","","","","","","Mostly Cloudy"
"1987-12-06 14:00","1987","12","06","14:00","8.7","","6.8","","88","","","","0","","24.1","","97.76","","","","","","Mostly Cloudy"
"1987-12-06 15:00","1987","12","06","15:00","8.0","","7.3","","95","","","","0","","24.1","","97.89","","","","","","Cloudy"
"1987-12-06 16:00","1987","12","06","16:00","6.9","","6.2","","96","","","","0","","24.1","","97.93","","","","","","Cloudy"
"1987-12-06 17:00","1987","12","06","17:00","6.8","","6.2","","96","","29","","6","","24.1","","98.03","","","","","","Cloudy"
"1987-12-06 18:00","1987","12","06","18:00","6.1","","5.4","","95","","","","0","","24.1","","98.13","","","","","","Cloudy"
"1987-12-06 19:00","1987","12","06","19:00","6.2","","5.5","","95","","","","0","","24.1","","98.19","","","","","","Rain Showers"
"1987-12-06 20:00","1987","12","06","20:00","5.1","","4.6","","97","","","","0","","24.1","","98.23","","","","","","Cloudy"
"1987-12-06 21:00","1987","12","06","21:00","4.6","","3.9","","95","","","","0","","24.1","","98.26","","","","","","Cloudy"
"1987-12-06 22:00","1987","12","06","22:00","","","","","","","","","0","","","","","","","","","","NA"
"1987-12-06 23:00","1987","12","06","23:00","","","","","","","","","0","","","","","","","","","","NA"
"1987-12-07 00:00","1987","12","07","00:00","","","","","","","","","0","","","","","","","","","","NA"
"1987-12-07 01:00","1987","12","07","01:00","","","","","","","","","0","","","","","","","","","","NA"
"1987-12-07 02:00","1987","12","07","02:00","","","","","","","","","0","","","","","","","","","","NA"
"1987-12-07 03:00","1987","12","07","03:00","","","","","","","","","0","","","","","","","","","","NA"
"1987-12-07 04:00","1987","12","07","04:00","","","","","","","","","0","","","","","","","","","","NA"
"1987-12-07 05:00","1987","12","07","05:00","","","","","","","","","0","","","","","","","","","","NA"
"1987-12-07 06:00","1987","12","07","06:00","4.4","","4.0","","97","","31","","4","","4.8","","98.90","","","","","","Rain,Fog"
"1987-12-07 07:00","1987","12","07","07:00","4.3","","3.8","","97","","","","0","","8.0","","98.97","","","","","","Fog"
"1987-12-07 08:00","1987","12","07","08:00","2.4","","2.0","","97","","","","0","","1.6","","99.10","","","","","","Fog"
"1987-12-07 09:00","1987","12","07","09:00","2.3","","2.1","","99","","30","","7","","24.1","","99.20","","","","","","Mostly Cloudy"
"1987-12-07 10:00","1987","12","07","10:00","5.4","","4.2","","92","","","","0","","24.1","","99.30","","","","","","Mainly Clear"
"1987-12-07 11:00","1987","12","07","11:00","6.0","","4.4","","89","","18","","4","","24.1","","99.40","","","","","","Mostly Cloudy"
"1987-12-07 12:00","1987","12","07","12:00","6.8","","4.7","","87","","13","","15","","24.1","","99.40","","","","","","Mostly Cloudy"
"1987-12-07 13:00","1987","12","07","13:00","6.9","","4.9","","87","","14","","19","","24.1","","99.40","","","","","","Rain Showers"
"1987-12-07 14:00","1987","12","07","14:00","6.6","","5.2","","91","","12","","19","","16.1","","99.37","","","","","","Rain"
"1987-12-07 15:00","1987","12","07","15:00","7.2","","6.0","","92","","15","","28","","6.4","","99.30","","","","","","Rain,Fog"
"1987-12-07 16:00","1987","12","07","16:00","6.7","","5.6","","93","","14","","39","","3.2","","99.30","","","","","","Rain,Fog"
"1987-12-07 17:00","1987","12","07","17:00","6.8","","5.6","","92","","13","","44","","3.2","","99.27","","","","","","Rain,Fog"
"1987-12-07 18:00","1987","12","07","18:00","6.8","","5.4","","91","","12","","41","","3.2","","99.20","","","","","","Moderate Rain,Fog"
"1987-12-07 19:00","1987","12","07","19:00","6.8","","5.2","","90","","12","","46","","3.2","","99.13","","","","","","Moderate Rain,Fog"
"1987-12-07 20:00","1987","12","07","20:00","7.0","","5.3","","89","","14","","48","","4.8","","99.07","","","","","","Rain,Fog"
"1987-12-07 21:00","1987","12","07","21:00","7.0","","5.2","","88","","13","","46","","4.8","","99.00","","","","","","Rain,Fog"
"1987-12-07 22:00","1987","12","07","22:00","","","","","","","14","","41","","","","","","","","","","NA"
"1987-12-07 23:00","1987","12","07","23:00","","","","","","","14","","52","","","","","","","","","","NA"
"1987-12-08 00:00","1987","12","08","00:00","","","","","","","14","","52","","","","","","","","","","NA"
"1987-12-08 01:00","1987","12","08","01:00","","","","","","","15","","50","","","","","","","","","","NA"
"1987-12-08 02:00","1987","12","08","02:00","","","","","","","15","","24","","","","","","","","","","NA"
"1987-12-08 03:00","1987","12","08","03:00","","","","","","","15","","37","","","","","","","","","","NA"
"1987-12-08 04:00","1987","12","08","04:00","","","","","","","15","","20","","","","","","","","","","NA"
"1987-12-08 05:00","1987","12","08","05:00","","","","","","","15","","20","","","","","","","","","","NA"
"1987-12-08 06:00","1987","12","08","06:00","5.6","","4.1","","90","","14","","20","","16.1","","98.76","","","","","","Rain Showers"
"1987-12-08 07:00","1987","12","08","07:00","5.2","","3.9","","91","","16","","22","","16.1","","98.86","","","","","","Rain Showers"
"1987-12-08 08:00","1987","12","08","08:00","5.1","","3.5","","89","","16","","22","","24.1","","98.97","","","","","","Cloudy"
"1987-12-08 09:00","1987","12","08","09:00","4.9","","3.1","","88","","13","","15","","24.1","","98.97","","","","","","Mostly Cloudy"
"1987-12-08 10:00","1987","12","08","10:00","4.9","","3.1","","88","","16","","7","","24.1","","99.00","","","","","","Mostly Cloudy"
"1987-12-08 11:00","1987","12","08","11:00","6.3","","3.7","","84","","15","","9","","24.1","","99.07","","","","","","Mostly Cloudy"
"1987-12-08 12:00","1987","12","08","12:00","6.5","","3.4","","80","","13","","19","","24.1","","99.10","","","","","","Cloudy"
"1987-12-08 13:00","1987","12","08","13:00","6.5","","4.5","","87","","14","","19","","24.1","","99.17","","","","","","Rain Showers"
"1987-12-08 14:00","1987","12","08","14:00","6.8","","4.4","","85","","13","","20","","24.1","","99.17","","","","","","Mostly Cloudy"
"1987-12-08 15:00","1987","12","08","15:00","6.3","","5.2","","93","","13","","30","","24.1","","99.17","","","","","","Mostly Cloudy"
"1987-12-08 16:00","1987","12","08","16:00","5.4","","2.9","","84","","14","","15","","24.1","","99.17","","","","","","Mostly Cloudy"
"1987-12-08 17:00","1987","12","08","17:00","5.2","","3.7","","90","","13","","17","","24.1","","99.07","","","","","","Rain"
"1987-12-08 18:00","1987","12","08","18:00","5.0","","2.7","","85","","14","","19","","24.1","","99.03","","","","","","Mostly Cloudy"
"1987-12-08 19:00","1987","12","08","19:00","4.5","","2.8","","89","","20","","6","","24.1","","98.97","","","","","","Rain"
"1987-12-08 20:00","1987","12","08","20:00","4.5","","2.9","","89","","13","","22","","24.1","","98.90","","","","","","Rain"
"1987-12-08 21:00","1987","12","08","21:00","5.7","","3.9","","88","","14","","33","","8.0","","98.83","","","","","","Rain,Fog"
"1987-12-08 22:00","1987","12","08","22:00"
"1987-12-08 23:00","1987","12","08","23:00"
"1987-12-09 00:00","1987","12","09","00:00"
"1987-12-09 01:00","1987","12","09","01:00"
"1987-12-09 02:00","1987","12","09","02:00"
"1987-12-09 03:00","1987","12","09","03:00"
"1987-12-09 04:00","1987","12","09","04:00"
"1987-12-09 05:00","1987","12","09","05:00"
"1987-12-09 06:00","1987","12","09","06:00","2.3","","2.3","","100","","16","","19","","4.8","","97.52","","","","","","Rain,Fog"
"1987-12-09 07:00","1987","12","09","07:00","3.0","","2.8","","98","","12","","19","","6.4","","97.46","","","","","","Rain Showers,Fog"
"1987-12-09 08:00","1987","12","09","08:00","3.9","","3.7","","99","","14","","17","","24.1","","97.42","","","","","","Rain Showers"
"1987-12-09 09:00","1987","12","09","09:00","4.5","","4.1","","97","","15","","20","","11.3","","97.42","","","","","","Rain Showers"
"1987-12-09 10:00","1987","12","09","10:00","5.1","","5.1","","100","","15","","22","","11.3","","97.42","","","","","","Rain Showers"
"1987-12-09 11:00","1987","12","09","11:00","5.3","","5.3","","100","","16","","22","","9.7","","97.32","","","","","","Rain,Fog"
"1987-12-09 12:00","1987","12","09","12:00","6.0","","6.0","","100","","15","","19","","9.7","","97.26","","","","","","Rain,Fog"
"1987-12-09 13:00","1987","12","09","13:00","6.3","","6.1","","99","","16","","20","","9.7","","97.19","","","","","","Rain,Fog"
"1987-12-09 14:00","1987","12","09","14:00","6.7","","6.6","","99","","15","","28","","9.7","","97.12","","","","","","Rain,Fog"
"1987-12-09 15:00","1987","12","09","15:00","6.6","","6.1","","97","","15","","20","","9.7","","97.19","","","","","","Rain,Fog"
"1987-12-09 16:00","1987","12","09","16:00","6.4","","5.6","","95","","15","","15","","19.3","","97.19","","","","","","Rain"
"1987-12-09 17:00","1987","12","09","17:00","5.6","","5.2","","97","","25","","9","","16.1","","97.32","","","","","","Rain"
"1987-12-09 18:00","1987","12","09","18:00","5.0","","4.8","","98","","15","","4","","16.1","","97.39","","","","","","Rain"
"1987-12-09 19:00","1987","12","09","19:00","4.5","","4.2","","98","","","","0","","16.1","","97.59","","","","","","Rain"
"1987-12-09 20:00","1987","12","09","20:00","4.9","","4.7","","99","","20","","9","","16.1","","97.76","","","","","","Rain"
"1987-12-09 21:00","1987","12","09","21:00","3.6","","3.5","","99","","","","0","","24.1","","97.83","","","","","","Mainly Clear"
"1987-12-09 22:00","1987","12","09","22:00","","","","","","","","","0","","","","","","","","","","NA"
"1987-12-09 23:00","1987","12","09","23:00","","","","","","","","","0","","","","","","","","","","NA"
"1987-12-10 00:00","1987","12","10","00:00","","","","","","","","","0","","","","","","","","","","NA"
"1987-12-10 01:00","1987","12","10","01:00","","","","","","","","","0","","","","","","","","","","NA"
"1987-12-10 02:00","1987","12","10","02:00","","","","","","","","","0","","","","","","","","","","NA"
"1987-12-10 03:00","1987","12","10","03:00","","","","","","","","","0","","","","","","","","","","NA"
"1987-12-10 04:00","1987","12","10","04:00","","","","","","","","","0","","","","","","","","","","NA"
"1987-12-10 05:00","1987","12","10","05:00","","","","","","","","","0","","","","","","","","","","NA"
"1987-12-10 06:00","1987","12","10","06:00","3.4","","3.1","","98","","31","","6","","24.1","","98.76","","","","","","Mostly Cloudy"
"1987-12-10 07:00","1987","12","10","07:00","4.3","","3.4","","94","","","","0","","24.1","","98.97","","","","","","Mostly Cloudy"
"1987-12-10 08:00","1987","12","10","08:00","3.6","","3.4","","98","","33","","6","","24.1","","99.17","","","","","","Mostly Cloudy"
"1987-12-10 09:00","1987","12","10","09:00","3.4","","3.1","","98","","","","0","","24.1","","99.27","","","","","","Mostly Cloudy"
"1987-12-10 10:00","1987","12","10","10:00","4.0","","3.6","","97","","","","0","","24.1","","99.47","","","","","","Rain Showers"
"1987-12-10 11:00","1987","12","10","11:00","5.2","","4.8","","97","","32","","30","","16.1","","99.70","","","","","","Rain Showers"
"1987-12-10 12:00","1987","12","10","12:00","3.7","","2.6","","92","","28","","15","","24.1","","99.87","","","","","","Rain Showers"
"1987-12-10 13:00","1987","12","10","13:00","4.8","","3.7","","93","","33","","7","","24.1","","99.90","","","","","","Rain Showers"
"1987-12-10 14:00","1987","12","10","14:00","5.2","","3.9","","91","","32","","6","","24.1","","100.11","","","","","","Mostly Cloudy"
"1987-12-10 15:00","1987","12","10","15:00","5.5","","4.5","","93","","","","0","","24.1","","100.31","","","","","","Mostly Cloudy"
"1987-12-10 16:00","1987","12","10","16:00","4.9","","4.0","","94","","","","0","","24.1","","100.44","","","","","","Cloudy"
"1987-12-10 17:00","1987","12","10","17:00","3.8","","3.6","","99","","","","0","","24.1","","100.54","","","","","","Mostly Cloudy"
"1987-12-10 18:00","1987","12","10","18:00","3.3","","3.2","","100","","","","0","","24.1","","100.71","","","","","","Mostly Cloudy"
"1987-12-10 19:00","1987","12","10","19:00","1.5","","1.4","","99","","","","0","","24.1","","100.84","","","","","","Mainly Clear"
"1987-12-10 20:00","1987","12","10","20:00","0.3","","0.3","","100","","","","0","","24.1","","100.94","","","","","","Mainly Clear"
"1987-12-10 21:00","1987","12","10","21:00","-0.7","","-0.8","","100","","30","","4","","24.1","","101.04","","","","-2","","Mainly Clear"
"1987-12-10 22:00","1987","12","10","22:00","","","","","","","30","","4","","","","","","","","","","NA"
"1987-12-10 23:00","1987","12","10","23:00","","","","","","","30","","6","","","","","","","","","","NA"
"1987-12-11 00:00","1987","12","11","00:00","","","","","","","","","0","","","","","","","","","","NA"
"1987-12-11 01:00","1987","12","11","01:00","","","","","","","","","0","","","","","","","","","","NA"
"1987-12-11 02:00","1987","12","11","02:00","","","","","","","","","0","","","","","","","","","","NA"
"1987-12-11 03:00","1987","12","11","03:00","","","","","","","","","0","","","","","","","","","","NA"
"1987-12-11 04:00","1987","12","11","04:00","","","","","","","","","0","","","","","","","","","","NA"
"1987-12-11 05:00","1987","12","11","05:00","","","","","","","","","0","","","","","","","","","","NA"
"1987-12-11 06:00","1987","12","11","06:00","-1.9","","-1.9","","100","","","","0","","24.1","","101.78","","","","","","Mainly Clear"
"1987-12-11 07:00","1987","12","11","07:00","-2.2","","-2.3","","100","","","","0","","24.1","","101.85","","","","","","Mainly Clear"
"1987-12-11 08:00","1987","12","11","08:00","-2.1","","-2.3","","99","","30","","7","","24.1","","101.95","","","","-5","","Mainly Clear"
"1987-12-11 09:00","1987","12","11","09:00","-1.4","","-1.4","","100","","","","0","","24.1","","102.02","","","","","","Mainly Clear"
"1987-12-11 10:00","1987","12","11","10:00","0.1","","-0.2","","98","","11","","7","","24.1","","102.12","","","","","","Mainly Clear"
"1987-12-11 11:00","1987","12","11","11:00","1.8","","1.3","","96","","","","0","","24.1","","102.19","","","","","","Mainly Clear"
"1987-12-11 12:00","1987","12","11","12:00","2.2","","1.5","","95","","","","0","","24.1","","102.19","","","","","","Mainly Clear"
"1987-12-11 13:00","1987","12","11","13:00","5.6","","1.5","","75","","30","","4","","24.1","","102.19","","","","","","Mainly Clear"
"1987-12-11 14:00","1987","12","11","14:00","5.3","","2.8","","84","","","","0","","24.1","","102.22","","","","","","Mainly Clear"
"1987-12-11 15:00","1987","12","11","15:00","4.5","","3.2","","91","","","","0","","24.1","","102.22","","","","","","Mainly Clear"
"1987-12-11 16:00","1987","12","11","16:00","1.7","","1.4","","98","","30","","4","","24.1","","102.29","","","","","","Mainly Clear"
"1987-12-11 17:00","1987","12","11","17:00","2.2","","-0.3","","83","","29","","17","","24.1","","102.25","","","","","","Mainly Clear"
"1987-12-11 18:00","1987","12","11","18:00","0.5","","-0.2","","95","","28","","9","","24.1","","102.29","","","","","","Mainly Clear"
"1987-12-11 19:00","1987","12","11","19:00","0.8","","0.0","","95","","30","","19","","24.1","","102.35","","","","","","Clear"
"1987-12-11 20:00","1987","12","11","20:00","1.5","","-0.1","","89","","30","","17","","24.1","","102.35","","","","","","Clear"
"1987-12-11 21:00","1987","12","11","21:00","-0.2","","-0.2","","100","","","","0","","24.1","","102.42","","","","","","Clear"
"1987-12-11 22:00","1987","12","11","22:00","","","","","","","","","0","","","","","","","","","","NA"
"1987-12-11 23:00","1987","12","11","23:00","","","","","","","","","0","","","","","","","","","","NA"
"1987-12-12 00:00","1987","12","12","00:00","","","","","","","30","","7","","","","","","","","","","NA"
"1987-12-12 01:00","1987","12","12","01:00","","","","","","","29","","7","","","","","","","","","","NA"
"1987-12-12 02:00","1987","12","12","02:00","","","","","","","30","","4","","","","","","","","","","NA"
"1987-12-12 03:00","1987","12","12","03:00","","","","","","","30","","4","","","","","","","","","","NA"
"1987-12-12 04:00","1987","12","12","04:00","","","","","","","29","","6","","","","","","","","","","NA"
"1987-12-12 05:00","1987","12","12","05:00","","","","","","","29","","7","","","","","","","","","","NA"
"1987-12-12 06:00","1987","12","12","06:00","-0.6","","-1.6","","93","","29","","7","","24.1","","102.62","","","","-3","","Clear"
"1987-12-12 07:00","1987","12","12","07:00","-0.7","","-1.6","","94","","29","","7","","24.1","","102.62","","","","-3","","Clear"
"1987-12-12 08:00","1987","12","12","08:00","-1.0","","-1.7","","95","","29","","6","","24.1","","102.62","","","","-3","","Clear"
"1987-12-12 09:00","1987","12","12","09:00","-0.2","","-0.8","","96","","28","","4","","24.1","","102.62","","","","-1","","Clear"
"1987-12-12 10:00","1987","12","12","10:00","1.4","","-0.9","","85","","31","","9","","24.1","","102.62","","","","","","Clear"
"1987-12-12 11:00","1987","12","12","11:00","3.4","","-0.2","","77","","31","","7","","24.1","","102.62","","","","","","Clear"
"1987-12-12 12:00","1987","12","12","12:00","5.1","","0.4","","71","","32","","11","","24.1","","102.52","","","","","","Mainly Clear"
"1987-12-12 13:00","1987","12","12","13:00","6.0","","0.8","","69","","32","","9","","24.1","","102.49","","","","","","Mainly Clear"
"1987-12-12 14:00","1987","12","12","14:00","5.9","","0.6","","69","","30","","19","","24.1","","102.49","","","","","","Mainly Clear"
"1987-12-12 15:00","1987","12","12","15:00","5.7","","0.2","","68","","30","","19","","24.1","","102.49","","","","","","Clear"
"1987-12-12 16:00","1987","12","12","16:00","4.4","","0.3","","75","","31","","19","","24.1","","102.49","","","","","","Mainly Clear"
"1987-12-12 17:00","1987","12","12","17:00","1.6","","0.4","","92","","","","0","","24.1","","102.49","","","","","","Clear"
"1987-12-12 18:00","1987","12","12","18:00","1.4","","-0.1","","90","","32","","6","","24.1","","102.49","","","","","","Clear"
"1987-12-12 19:00","1987","12","12","19:00","-0.6","","-1.0","","97","","","","0","","24.1","","102.52","","","","","","Clear"
"1987-12-12 20:00","1987","12","12","20:00","-1.2","","-1.6","","97","","","","0","","24.1","","102.49","","","","","","Clear"
"1987-12-12 21:00","1987","12","12","21:00","-1.3","","-1.7","","97","","32","","6","","24.1","","102.49","","","","-4","","Clear"
"1987-12-12 22:00","1987","12","12","22:00","","","","","","","","","0","","","","","","","","","","NA"
"1987-12-12 23:00","1987","12","12","23:00","","","","","","","","","0","","","","","","","","","","NA"
"1987-12-13 00:00","1987","12","13","00:00","","","","","","","","","0","","","","","","","","","","NA"
"1987-12-13 01:00","1987","12","13","01:00","","","","","","","","","0","","","","","","","","","","NA"
"1987-12-13 02:00","1987","12","13","02:00","","","","","","","","","0","","","","","","","","","","NA"
"1987-12-13 03:00","1987","12","13","03:00","","","","","","","","","0","","","","","","","","","","NA"
"1987-12-13 04:00","1987","12","13","04:00","","","","","","","","","0","","","","","","","","","","NA"
"1987-12-13 05:00","1987","12","13","05:00","","","","","","","","","0","","","","","","","","","","NA"
"1987-12-13 06:00","1987","12","13","06:00","-1.6","","-1.8","","99","","","","0","","24.1","","102.22","","","","","","Mostly Cloudy"
"1987-12-13 07:00","1987","12","13","07:00","-1.7","","-1.9","","99","","","","0","","24.1","","102.15","","","","","","Mostly Cloudy"
"1987-12-13 08:00","1987","12","13","08:00","-1.2","","-1.3","","100","","31","","6","","24.1","","102.08","","","","-3","","Mostly Cloudy"
"1987-12-13 09:00","1987","12","13","09:00","-0.9","","-1.0","","99","","","","0","","24.1","","102.05","","","","","","Cloudy"
"1987-12-13 10:00","1987","12","13","10:00","-0.5","","-0.5","","100","","","","0","","24.1","","101.95","","","","","","Cloudy"
"1987-12-13 11:00","1987","12","13","11:00","0.3","","-0.2","","96","","11","","9","","24.1","","101.82","","","","","","Cloudy"
"1987-12-13 12:00","1987","12","13","12:00","0.7","","0.0","","95","","","","0","","24.1","","101.75","","","","","","Cloudy"
"1987-12-13 13:00","1987","12","13","13:00","0.5","","0.5","","100","","","","0","","24.1","","101.65","","","","","","Cloudy"
"1987-12-13 14:00","1987","12","13","14:00","0.9","","0.4","","96","","12","","11","","16.1","","101.48","","","","","","Cloudy"
"1987-12-13 15:00","1987","12","13","15:00","1.9","","0.1","","88","","14","","22","","16.1","","101.31","","","","","","Cloudy"
"1987-12-13 16:00","1987","12","13","16:00","1.7","","0.1","","89","","15","","20","","16.1","","101.18","","","","","","Cloudy"
"1987-12-13 17:00","1987","12","13","17:00","1.4","","0.8","","96","","15","","22","","9.7","","101.04","","","","","","Rain,Fog"
"1987-12-13 18:00","1987","12","13","18:00","1.3","","1.0","","98","","14","","22","","8.0","","100.88","","","","","","Rain,Snow,Fog"
"1987-12-13 19:00","1987","12","13","19:00","2.4","","1.4","","93","","14","","37","","6.4","","100.71","","","","","","Rain,Fog"
"1987-12-13 20:00","1987","12","13","20:00","1.6","","1.0","","96","","14","","37","","6.4","","100.64","","","","","","Rain,Snow,Fog"
"1987-12-13 21:00","1987","12","13","21:00","0.9","","0.5","","97","","14","","43","","1.6","","100.51","","","","","","Snow"
"1987-12-13 22:00","1987","12","13","22:00","","","","","","","14","","41","","","","","","","","","","NA"
"1987-12-13 23:00","1987","12","13","23:00","","","","","","","14","","37","","","","","","","","","","NA"
"1987-12-14 00:00","1987","12","14","00:00","","","","","","","14","","33","","","","","","","","","","NA"
"1987-12-14 01:00","1987","12","14","01:00","","","","","","","14","","37","","","","","","","","","","NA"
"1987-12-14 02:00","1987","12","14","02:00","","","","","","","14","","30","","","","","","","","","","NA"
"1987-12-14 03:00","1987","12","14","03:00","","","","","","","14","","26","","","","","","","","","","NA"
"1987-12-14 04:00","1987","12","14","04:00","","","","","","","13","","22","","","","","","","","","","NA"
"1987-12-14 05:00","1987","12","14","05:00","","","","","","","13","","19","","","","","","","","","","NA"
"1987-12-14 06:00","1987","12","14","06:00","0.6","","0.4","","98","","25","","13","","19.3","","100.11","","","","","","Snow Showers"
"1987-12-14 07:00","1987","12","14","07:00","0.8","","0.6","","99","","31","","13","","12.9","","100.14","","","","","","Rain Showers,Snow Showers"
"1987-12-14 08:00","1987","12","14","08:00","0.2","","0.0","","98","","27","","9","","24.1","","100.21","","","","","","Mainly Clear"
"1987-12-14 09:00","1987","12","14","09:00","-0.2","","-0.3","","100","","","","0","","24.1","","100.24","","","","","","Mainly Clear"
"1987-12-14 10:00","1987","12","14","10:00","0.8","","-0.6","","90","","29","","19","","24.1","","100.24","","","","","","Mainly Clear"
"1987-12-14 11:00","1987","12","14","11:00","1.0","","-0.7","","88","","30","","9","","24.1","","100.24","","","","","","Mainly Clear"
"1987-12-14 12:00","1987","12","14","12:00","1.9","","-0.6","","83","","29","","13","","24.1","","100.27","","","","","","Mainly Clear"
"1987-12-14 13:00","1987","12","14","13:00","2.6","","-0.8","","78","","29","","19","","24.1","","100.27","","","","","","Clear"
"1987-12-14 14:00","1987","12","14","14:00","2.9","","-1.1","","75","","30","","13","","24.1","","100.31","","","","","","Clear"
"1987-12-14 15:00","1987","12","14","15:00","2.9","","-0.4","","79","","31","","17","","24.1","","100.37","","","","","","Clear"
"1987-12-14 16:00","1987","12","14","16:00","2.1","","-0.8","","81","","28","","11","","24.1","","100.44","","","","","","Clear"
"1987-12-14 17:00","1987","12","14","17:00","0.5","","-1.6","","86","","31","","15","","24.1","","100.44","","","","","","Clear"
"1987-12-14 18:00","1987","12","14","18:00","-1.5","","-1.8","","98","","28","","4","","24.1","","100.41","","","","-3","","Clear"
"1987-12-14 19:00","1987","12","14","19:00","-0.5","","-1.3","","94","","32","","7","","24.1","","100.41","","","","-3","","Clear"
"1987-12-14 20:00","1987","12","14","20:00","-2.2","","-2.7","","96","","","","0","","24.1","","100.44","","","","","","Clear"
"1987-12-14 21:00","1987","12","14","21:00","-2.1","","-2.5","","97","","","","0","","24.1","","100.44","","","","","","Clear"
"1987-12-14 22:00","1987","12","14","22:00","","","","","","","","","0","","","","","","","","","","NA"
"1987-12-14 23:00","1987","12","14","23:00","","","","","","","","","0","","","","","","","","","","NA"
"1987-12-15 00:00","1987","12","15","00:00","","","","","","","","","0","","","","","","","","","","NA"
"1987-12-15 01:00","1987","12","15","01:00","","","","","","","","","0","","","","","","","","","","NA"
"1987-12-15 02:00","1987","12","15","02:00","","","","","","","","","0","","","","","","","","","","NA"
"1987-12-15 03:00","1987","12","15","03:00","","","","","","","","","0","","","","","","","","","","NA"
"1987-12-15 04:00","1987","12","15","04:00","","","","","","","4","","4","","","","","","","","","","NA"
"1987-12-15 05:00","1987","12","15","05:00","","","","","","","","","0","","","","","","","","","","NA"
"1987-12-15 06:00","1987","12","15","06:00","-1.3","","-1.5","","98","","30","","4","","24.1","","100.37","","","","-3","","Mostly Cloudy"
"1987-12-15 07:00","1987","12","15","07:00","-1.2","","-1.4","","99","","","","0","","24.1","","100.37","","","","","","Mostly Cloudy"
"1987-12-15 08:00","1987","12","15","08:00","-1.2","","-1.3","","100","","","","0","","24.1","","100.37","","","","","","Cloudy"
"1987-12-15 09:00","1987","12","15","09:00","-1.1","","-1.2","","99","","","","0","","24.1","","100.34","","","","","","Mostly Cloudy"
"1987-12-15 10:00","1987","12","15","10:00","0.3","","-0.5","","94","","","","0","","24.1","","100.34","","","","","","Mostly Cloudy"
"1987-12-15 11:00","1987","12","15","11:00","1.7","","-0.6","","84","","11","","13","","24.1","","100.31","","","","","","Mostly Cloudy"
"1987-12-15 12:00","1987","12","15","12:00","2.1","","-1.1","","79","","13","","17","","24.1","","100.21","","","","","","Mostly Cloudy"
"1987-12-15 13:00","1987","12","15","13:00","2.3","","-0.6","","81","","13","","15","","24.1","","100.14","","","","","","Cloudy"
"1987-12-15 14:00","1987","12","15","14:00","1.9","","-1.0","","81","","11","","9","","24.1","","100.11","","","","","","Cloudy"
"1987-12-15 15:00","1987","12","15","15:00","1.3","","-0.1","","90","","14","","9","","24.1","","100.04","","","","","","Cloudy"
"1987-12-15 16:00","1987","12","15","16:00","0.9","","0.2","","95","","10","","7","","24.1","","100.04","","","","","","Cloudy"
"1987-12-15 17:00","1987","12","15","17:00","1.1","","0.1","","93","","","","0","","24.1","","100.01","","","","","","Cloudy"
"1987-12-15 18:00","1987","12","15","18:00","0.4","","0.3","","99","","","","0","","24.1","","99.94","","","","","","Cloudy"
"1987-12-15 19:00","1987","12","15","19:00","0.3","","0.3","","100","","","","0","","24.1","","99.94","","","","","","Cloudy"
"1987-12-15 20:00","1987","12","15","20:00","0.3","","0.3","","100","","","","0","","24.1","","99.94","","","","","","Cloudy"
"1987-12-15 21:00","1987","12","15","21:00","-0.3","","-0.3","","100","","","","0","","24.1","","99.94","","","","","","Mostly Cloudy"
"1987-12-15 22:00","1987","12","15","22:00","","","","","","","32","","4","","","","","","","","","","NA"
"1987-12-15 23:00","1987","12","15","23:00","","","","","","","32","","4","","","","","","","","","","NA"
"1987-12-16 00:00","1987","12","16","00:00","","","","","","","","","0","","","","","","","","","","NA"
"1987-12-16 01:00","1987","12","16","01:00","","","","","","","","","0","","","","","","","","","","NA"
"1987-12-16 02:00","1987","12","16","02:00","","","","","","","","","0","","","","","","","","","","NA"
"1987-12-16 03:00","1987","12","16","03:00","","","","","","","","","0","","","","","","","","","","NA"
"1987-12-16 04:00","1987","12","16","04:00","","","","","","","","","0","","","","","","","","","","NA"
"1987-12-16 05:00","1987","12","16","05:00","","","","","","","24","","4","","","","","","","","","","NA"
"1987-12-16 06:00","1987","12","16","06:00","-2.5","","-2.6","","99","","","","0","","24.1","","100.01","","","","","","Mostly Cloudy"
"1987-12-16 07:00","1987","12","16","07:00","-2.4","","-2.7","","98","","","","0","","24.1","","100.01","","","","","","Mainly Clear"
"1987-12-16 08:00","1987","12","16","08:00","-2.5","","-2.8","","98","","31","","9","","24.1","","100.07","","","","-6","","Mainly Clear"
"1987-12-16 09:00","1987","12","16","09:00","-2.3","","-3.1","","94","","","","0","","24.1","","100.14","","","","","","Mainly Clear"
"1987-12-16 10:00","1987","12","16","10:00","-1.3","","-2.1","","94","","31","","6","","24.1","","100.14","","","","-4","","Mainly Clear"
"1987-12-16 11:00","1987","12","16","11:00","1.0","","-1.4","","84","","31","","4","","24.1","","100.14","","","","","","Mainly Clear"
"1987-12-16 12:00","1987","12","16","12:00","2.4","","-0.8","","80","","30","","11","","24.1","","100.11","","","","","","Mainly Clear"
"1987-12-16 13:00","1987","12","16","13:00","3.7","","-0.2","","75","","32","","13","","24.1","","100.11","","","","","","Mainly Clear"
"1987-12-16 14:00","1987","12","16","14:00","2.6","","0.1","","84","","33","","15","","24.1","","100.11","","","","","","Mostly Cloudy"
"1987-12-16 15:00","1987","12","16","15:00","2.8","","0.0","","82","","31","","9","","24.1","","100.11","","","","","","Mainly Clear"
"1987-12-16 16:00","1987","12","16","16:00","0.4","","-0.8","","92","","32","","6","","24.1","","100.21","","","","","","Mainly Clear"
"1987-12-16 17:00","1987","12","16","17:00","-1.4","","-1.8","","97","","30","","7","","24.1","","100.24","","","","-4","","Mainly Clear"
"1987-12-16 18:00","1987","12","16","18:00","-2.0","","-2.3","","98","","32","","6","","24.1","","100.31","","","","-4","","Mainly Clear"
"1987-12-16 19:00","1987","12","16","19:00","-2.5","","-2.8","","98","","32","","7","","24.1","","100.34","","","","-5","","Mainly Clear"
"1987-12-16 20:00","1987","12","16","20:00","-2.6","","-2.8","","99","","31","","9","","24.1","","100.41","","","","-6","","Mainly Clear"
"1987-12-16 21:00","1987","12","16","21:00","-3.4","","-3.6","","98","","","","0","","24.1","","100.44","","","","","","Mainly Clear"
"1987-12-16 22:00","1987","12","16","22:00","","","","","","","","","0","","","","","","","","","","NA"
"1987-12-16 23:00","1987","12","16","23:00","","","","","","","","","0","","","","","","","","","","NA"
"1987-12-17 00:00","1987","12","17","00:00","","","","","","","","","0","","","","","","","","","","NA"
"1987-12-17 01:00","1987","12","17","01:00","","","","","","","","","0","","","","","","","","","","NA"
"1987-12-17 02:00","1987","12","17","02:00","","","","","","","","","0","","","","","","","","","","NA"
"1987-12-17 03:00","1987","12","17","03:00","","","","","","","","","0","","","","","","","","","","NA"
"1987-12-17 04:00","1987","12","17","04:00","","","","","","","","","0","","","","","","","","","","NA"
"1987-12-17 05:00","1987","12","17","05:00","","","","","","","","","0","","","","","","","","","","NA"
"1987-12-17 06:00","1987","12","17","06:00","-4.5","","-4.7","","98","","","","0","","25.0","","100.64","","","","","","Mostly Cloudy"
"1987-12-17 07:00","1987","12","17","07:00","-4.5","","-5.0","","96","","31","","4","","25.0","","100.68","","","","-6","","Mostly Cloudy"
"1987-12-17 08:00","1987","12","17","08:00","-4.7","","-4.9","","99","","","","0","","25.0","","100.68","","","","","","Mostly Cloudy"
"1987-12-17 09:00","1987","12","17","09:00","-3.3","","-3.6","","98","","","","0","","24.1","","100.74","","","","","","Mostly Cloudy"
"1987-12-17 10:00","1987","12","17","10:00","-3.3","","-3.5","","98","","","","0","","24.1","","100.78","","","","","","Mostly Cloudy"
"1987-12-17 11:00","1987","12","17","11:00","-2.1","","-2.4","","98","","30","","4","","24.1","","100.78","","","","-4","","Mostly Cloudy"
"1987-12-17 12:00","1987","12","17","12:00","-0.3","","-1.0","","95","","","","0","","24.1","","100.71","","","","","","Mostly Cloudy"
"1987-12-17 13:00","1987","12","17","13:00","0.4","","-0.2","","96","","","","0","","24.1","","100.64","","","","","","Cloudy"
"1987-12-17 14:00","1987","12","17","14:00","1.1","","0.0","","92","","","","0","","24.1","","100.61","","","","","","Cloudy"
"1987-12-17 15:00","1987","12","17","15:00","1.2","","0.4","","94","","","","0","","24.1","","100.54","","","","","","Cloudy"
"1987-12-17 16:00","1987","12","17","16:00","0.4","","0.4","","100","","","","0","","24.1","","100.51","","","","","","Cloudy"
"1987-12-17 17:00","1987","12","17","17:00","0.4","","0.4","","100","","31","","4","","24.1","","100.51","","","","","","Cloudy"
"1987-12-17 18:00","1987","12","17","18:00","0.2","","0.2","","100","","28","","4","","24.1","","100.44","","","","","","Cloudy"
"1987-12-17 19:00","1987","12","17","19:00","0.2","","0.2","","100","","","","0","","24.1","","100.44","","","","","","Cloudy"
"1987-12-17 20:00","1987","12","17","20:00","0.3","","0.3","","100","","","","0","","4.8","","100.41","","","","","","Snow"
"1987-12-17 21:00","1987","12","17","21:00","0.3","","0.3","","100","","13","","11","","2.4","","100.34","","","","","","Snow"
"1987-12-17 22:00","1987","12","17","22:00","","","","","","","14","","7","","","","","","","","","","NA"
"1987-12-17 23:00","1987","12","17","23:00","","","","","","","15","","20","","","","","","","","","","NA"
"1987-12-18 00:00","1987","12","18","00:00","","","","","","","15","","19","","","","","","","","","","NA"
"1987-12-18 01:00","1987","12","18","01:00","","","","","","","16","","6","","","","","","","","","","NA"
"1987-12-18 02:00","1987","12","18","02:00","","","","","","","10","","4","","","","","","","","","","NA"
"1987-12-18 03:00","1987","12","18","03:00","","","","","","","33","","4","","","","","","","","","","NA"
"1987-12-18 04:00","1987","12","18","04:00","","","","","","","30","","6","","","","","","","","","","NA"
"1987-12-18 05:00","1987","12","18","05:00","","","","","","","33","","4","","","","","","","","","","NA"
"1987-12-18 06:00","1987","12","18","06:00","0.3","","0.3","","100","","","","0","","16.1","","100.58","","","","","","Cloudy"
"1987-12-18 07:00","1987","12","18","07:00","0.1","","0.0","","99","","25","","6","","24.1","","100.61","","","","","","Mostly Cloudy"
"1987-12-18 08:00","1987","12","18","08:00","-0.4","","-0.5","","99","","31","","6","","24.1","","100.68","","","","-2","","Mostly Cloudy"
"1987-12-18 09:00","1987","12","18","09:00","-0.6","","-0.9","","98","","31","","11","","24.1","","100.78","","","","-4","","Mainly Clear"
"1987-12-18 10:00","1987","12","18","10:00","-0.3","","-0.6","","98","","","","0","","24.1","","100.88","","","","","","Mainly Clear"
"1987-12-18 11:00","1987","12","18","11:00","1.0","","0.2","","95","","","","0","","24.1","","100.88","","","","","","Mainly Clear"
"1987-12-18 12:00","1987","12","18","12:00","2.3","","1.2","","93","","","","0","","24.1","","100.88","","","","","","Mainly Clear"
"1987-12-18 13:00","1987","12","18","13:00","2.5","","0.7","","88","","29","","7","","24.1","","100.91","","","","","","Mainly Clear"
"1987-12-18 14:00","1987","12","18","14:00","1.8","","0.1","","89","","28","","7","","24.1","","100.91","","","","","","Mainly Clear"
"1987-12-18 15:00","1987","12","18","15:00","3.0","","1.0","","87","","28","","19","","24.1","","100.94","","","","","","Mainly Clear"
"1987-12-18 16:00","1987","12","18","16:00","0.6","","0.1","","96","","","","0","","24.1","","100.94","","","","","","Mainly Clear"
"1987-12-18 17:00","1987","12","18","17:00","-0.8","","-1.0","","98","","29","","7","","24.1","","100.94","","","","-3","","Mainly Clear"
"1987-12-18 18:00","1987","12","18","18:00","0.4","","0.1","","98","","33","","6","","24.1","","100.94","","","","","","Mainly Clear"
"1987-12-18 19:00","1987","12","18","19:00","-1.0","","-1.4","","97","","32","","7","","24.1","","101.04","","","","-4","","Mainly Clear"
"1987-12-18 20:00","1987","12","18","20:00","-1.4","","-1.8","","97","","33","","6","","24.1","","101.04","","","","-4","","Mainly Clear"
"1987-12-18 21:00","1987","12","18","21:00","-1.5","","-1.8","","98","","32","","7","","24.1","","101.08","","","","-4","","Mainly Clear"
"1987-12-18 22:00","1987","12","18","22:00","","","","","","","32","","4","","","","","","","","","","NA"
"1987-12-18 23:00","1987","12","18","23:00","","","","","","","","","0","","","","","","","","","","NA"
"1987-12-19 00:00","1987","12","19","00:00","","","","","","","","","0","","","","","","","","","","NA"
"1987-12-19 01:00","1987","12","19","01:00","","","","","","","","","0","","","","","","","","","","NA"
"1987-12-19 02:00","1987","12","19","02:00","","","","","","","","","0","","","","","","","","","","NA"
"1987-12-19 03:00","1987","12","19","03:00","","","","","","","","","0","","","","","","","","","","NA"
"1987-12-19 04:00","1987","12","19","04:00","","","","","","","","","0","","","","","","","","","","NA"
"1987-12-19 05:00","1987","12","19","05:00","","","","","","","","","0","","","","","","","","","","NA"
"1987-12-19 06:00","1987","12","19","06:00","-0.6","","-0.7","","99","","","","0","","24.1","","101.31","","","","","","Cloudy"
"1987-12-19 07:00","1987","12","19","07:00","-0.6","","-0.7","","99","","","","0","","24.1","","101.35","","","","","","Cloudy"
"1987-12-19 08:00","1987","12","19","08:00","-0.3","","-0.5","","98","","","","0","","24.1","","101.31","","","","","","Cloudy"
"1987-12-19 09:00","1987","12","19","09:00","-0.4","","-0.5","","99","","","","0","","9.7","","101.35","","","","","","Fog"
"1987-12-19 10:00","1987","12","19","10:00","-0.2","","-0.3","","100","","","","0","","9.7","","101.35","","","","","","Fog"
"1987-12-19 11:00","1987","12","19","11:00","0.4","","0.4","","100","","","","0","","6.4","","101.35","","","","","","Fog"
"1987-12-19 12:00","1987","12","19","12:00","0.4","","0.4","","100","","30","","4","","6.4","","101.25","","","","","","Fog"
"1987-12-19 13:00","1987","12","19","13:00","1.8","","1.5","","98","","","","0","","8.0","","101.18","","","","","","Fog"
"1987-12-19 14:00","1987","12","19","14:00","1.5","","1.1","","97","","","","0","","12.9","","101.15","","","","","","Cloudy"
"1987-12-19 15:00","1987","12","19","15:00","1.0","","0.9","","99","","","","0","","16.1","","101.15","","","","","","Cloudy"
"1987-12-19 16:00","1987","12","19","16:00","1.0","","0.9","","99","","","","0","","16.1","","101.18","","","","","","Cloudy"
"1987-12-19 17:00","1987","12","19","17:00","0.9","","0.9","","100","","","","0","","12.9","","101.15","","","","","","Cloudy"
"1987-12-19 18:00","1987","12","19","18:00","0.9","","0.9","","100","","","","0","","12.9","","101.15","","","","","","Cloudy"
"1987-12-19 19:00","1987","12","19","19:00","0.6","","0.6","","100","","","","0","","12.9","","101.01","","","","","","Cloudy"
"1987-12-19 20:00","1987","12","19","20:00","0.5","","0.5","","100","","","","0","","16.1","","100.98","","","","","","Cloudy"
"1987-12-19 21:00","1987","12","19","21:00","0.5","","0.5","","100","","","","0","","16.1","","100.94","","","","","","Cloudy"
"1987-12-19 22:00","1987","12","19","22:00","","","","","","","","","0","","","","","","","","","","NA"
"1987-12-19 23:00","1987","12","19","23:00","","","","","","","15","","13","","","","","","","","","","NA"
"1987-12-20 00:00","1987","12","20","00:00","","","","","","","15","","17","","","","","","","","","","NA"
"1987-12-20 01:00","1987","12","20","01:00","","","","","","","15","","17","","","","","","","","","","NA"
"1987-12-20 02:00","1987","12","20","02:00","","","","","","","16","","15","","","","","","","","","","NA"
"1987-12-20 03:00","1987","12","20","03:00","","","","","","","15","","17","","","","","","","","","","NA"
"1987-12-20 04:00","1987","12","20","04:00","","","","","","","16","","17","","","","","","","","","","NA"
"1987-12-20 05:00","1987","12","20","05:00","","","","","","","15","","17","","","","","","","","","","NA"
"1987-12-20 06:00","1987","12","20","06:00","1.5","","1.3","","98","","12","","19","","4.0","","100.21","","","","","","Rain,Fog"
"1987-12-20 07:00","1987","12","20","07:00","1.7","","0.5","","92","","12","","22","","4.0","","100.14","","","","","","Rain,Fog"
"1987-12-20 08:00","1987","12","20","08:00","2.4","","2.0","","97","","12","","22","","4.0","","100.11","","","","","","Rain,Fog"
"1987-12-20 09:00","1987","12","20","09:00","2.0","","1.8","","98","","13","","20","","3.2","","100.04","","","","","","Rain,Fog"
"1987-12-20 10:00","1987","12","20","10:00","1.6","","1.3","","98","","13","","22","","3.2","","100.04","","","","","","Rain,Fog"
"1987-12-20 11:00","1987","12","20","11:00","1.5","","1.3","","98","","13","","20","","2.4","","99.94","","","","","","Rain,Fog"
"1987-12-20 12:00","1987","12","20","12:00","1.7","","1.6","","99","","13","","15","","3.2","","99.87","","","","","","Rain,Fog"
"1987-12-20 13:00","1987","12","20","13:00","2.2","","1.9","","98","","14","","19","","3.2","","99.70","","","","","","Rain,Fog"
"1987-12-20 14:00","1987","12","20","14:00","1.2","","1.1","","99","","15","","17","","3.2","","99.57","","","","","","Rain,Snow,Fog"
"1987-12-20 15:00","1987","12","20","15:00","1.0","","0.9","","99","","13","","15","","4.8","","99.54","","","","","","Rain,Snow,Fog"
"1987-12-20 16:00","1987","12","20","16:00","1.5","","1.1","","97","","17","","15","","6.4","","99.60","","","","","","Rain,Fog"
"1987-12-20 17:00","1987","12","20","17:00","1.4","","1.4","","100","","12","","4","","8.0","","99.57","","","","","","Rain,Fog"
"1987-12-20 18:00","1987","12","20","18:00","1.4","","1.4","","100","","34","","6","","4.8","","99.64","","","","","","Rain,Snow,Fog"
"1987-12-20 19:00","1987","12","20","19:00","0.8","","0.8","","100","","30","","6","","4.8","","99.74","","","","","","Rain,Fog"
"1987-12-20 20:00","1987","12","20","20:00","0.8","","0.8","","100","","29","","4","","8.0","","99.87","","","","","","Fog"
"1987-12-20 21:00","1987","12","20","21:00","-0.8","","-0.8","","100","","24","","4","","12.9","","99.97","","","","-2","","Mainly Clear"
"1987-12-20 22:00","1987","12","20","22:00","","","","","","","29","","6","","","","","","","","","","NA"
"1987-12-20 23:00","1987","12","20","23:00","","","","","","","30","","4","","","","","","","","","","NA"
"1987-12-21 00:00","1987","12","21","00:00","","","","","","","29","","4","","","","","","","","","","NA"
"1987-12-21 01:00","1987","12","21","01:00","","","","","","","","","0","","","","","","","","","","NA"
"1987-12-21 02:00","1987","12","21","02:00","","","","","","","","","0","","","","","","","","","","NA"
"1987-12-21 03:00","1987","12","21","03:00","","","","","","","","","0","","","","","","","","","","NA"
"1987-12-21 04:00","1987","12","21","04:00","","","","","","","","","0","","","","","","","","","","NA"
"1987-12-21 05:00","1987","12","21","05:00","","","","","","","","","0","","","","","","","","","","NA"
"1987-12-21 06:00","1987","12","21","06:00","-0.6","","-0.7","","99","","30","","9","","16.1","","100.51","","","","-4","","Cloudy"
"1987-12-21 07:00","1987","12","21","07:00","-0.6","","-0.7","","99","","","","0","","16.1","","100.54","","","","","","Cloudy"
"1987-12-21 08:00","1987","12","21","08:00","-0.3","","-0.3","","100","","","","0","","16.1","","100.54","","","","","","Cloudy"
"1987-12-21 09:00","1987","12","21","09:00","-0.3","","-0.4","","99","","31","","9","","24.1","","100.58","","","","-3","","Cloudy"
"1987-12-21 10:00","1987","12","21","10:00","0.3","","0.3","","100","","","","0","","24.1","","100.61","","","","","","Mostly Cloudy"
"1987-12-21 11:00","1987","12","21","11:00","0.2","","0.1","","99","","31","","7","","24.1","","100.61","","","","","","Mostly Cloudy"
"1987-12-21 12:00","1987","12","21","12:00","1.0","","0.9","","99","","30","","4","","24.1","","100.54","","","","","","Mostly Cloudy"
"1987-12-21 13:00","1987","12","21","13:00","3.3","","2.6","","95","","31","","4","","24.1","","100.51","","","","","","Mostly Cloudy"
"1987-12-21 14:00","1987","12","21","14:00","2.5","","2.0","","96","","30","","6","","24.1","","100.51","","","","","","Mostly Cloudy"
"1987-12-21 15:00","1987","12","21","15:00","2.7","","2.3","","97","","30","","4","","24.1","","100.51","","","","","","Mostly Cloudy"
"1987-12-21 16:00","1987","12","21","16:00","2.0","","1.6","","97","","30","","6","","24.1","","100.47","","","","","","Mostly Cloudy"
"1987-12-21 17:00","1987","12","21","17:00","1.2","","1.1","","99","","","","0","","19.3","","100.44","","","","","","Mostly Cloudy"
"1987-12-21 18:00","1987","12","21","18:00","-0.2","","-0.2","","100","","","","0","","12.9","","100.41","","","","","","Mainly Clear"
"1987-12-21 19:00","1987","12","21","19:00","-0.6","","-0.6","","100","","32","","9","","16.1","","100.41","","","","-4","","Mainly Clear"
"1987-12-21 20:00","1987","12","21","20:00","-0.3","","-0.3","","100","","32","","7","","16.1","","100.41","","","","-3","","Mainly Clear"
"1987-12-21 21:00","1987","12","21","21:00","-1.8","","-1.8","","100","","29","","4","","16.1","","100.37","","","","-3","","Mainly Clear"
"1987-12-21 22:00","1987","12","21","22:00","","","","","","","","","0","","","","","","","","","","NA"
"1987-12-21 23:00","1987","12","21","23:00","","","","","","","","","0","","","","","","","","","","NA"
"1987-12-22 00:00","1987","12","22","00:00","","","","","","","30","","4","","","","","","","","","","NA"
"1987-12-22 01:00","1987","12","22","01:00","","","","","","","","","0","","","","","","","","","","NA"
"1987-12-22 02:00","1987","12","22","02:00","","","","","","","31","","6","","","","","","","","","","NA"
"1987-12-22 03:00","1987","12","22","03:00","","","","","","","29","","4","","","","","","","","","","NA"
"1987-12-22 04:00","1987","12","22","04:00","","","","","","","","","0","","","","","","","","","","NA"
"1987-12-22 05:00","1987","12","22","05:00","","","","","","","28","","4","","","","","","","","","","NA"
"1987-12-22 06:00","1987","12","22","06:00","-3.9","","-4.2","","98","","","","0","","24.1","","100.51","","","","","","Mainly Clear"
"1987-12-22 07:00","1987","12","22","07:00","-3.6","","-4.1","","96","","","","0","","24.1","","100.58","","","","","","Mainly Clear"
"1987-12-22 08:00","1987","12","22","08:00","-2.8","","-2.9","","99","","30","","7","","19.3","","100.61","","","","-6","","Snow Showers"
"1987-12-22 09:00","1987","12","22","09:00","-2.7","","-3.0","","98","","","","0","","24.1","","100.68","","","","","","Mostly Cloudy"
"1987-12-22 10:00","1987","12","22","10:00","-1.0","","-1.2","","98","","31","","4","","24.1","","100.74","","","","-2","","Mostly Cloudy"
"1987-12-22 11:00","1987","12","22","11:00","0.1","","0.0","","99","","32","","6","","24.1","","100.81","","","","","","Mostly Cloudy"
"1987-12-22 12:00","1987","12","22","12:00","0.8","","0.0","","95","","29","","7","","24.1","","100.81","","","","","","Mostly Cloudy"
"1987-12-22 13:00","1987","12","22","13:00","1.1","","0.7","","97","","1","","6","","24.1","","100.84","","","","","","Mostly Cloudy"
"1987-12-22 14:00","1987","12","22","14:00","1.3","","0.6","","95","","","","0","","24.1","","100.88","","","","","","Mainly Clear"
"1987-12-22 15:00","1987","12","22","15:00","0.6","","0.4","","98","","","","0","","24.1","","100.94","","","","","","Mainly Clear"
"1987-12-22 16:00","1987","12","22","16:00","-0.6","","-0.6","","100","","","","0","","24.1","","101.04","","","","","","Mainly Clear"
"1987-12-22 17:00","1987","12","22","17:00","-1.7","","-1.8","","100","","","","0","","24.1","","101.08","","","","","","Mainly Clear"
"1987-12-22 18:00","1987","12","22","18:00","-2.7","","-2.7","","100","","","","0","","24.1","","101.18","","","","","","Clear"
"1987-12-22 19:00","1987","12","22","19:00","-2.9","","-2.9","","100","","","","0","","24.1","","101.21","","","","","","Clear"
"1987-12-22 20:00","1987","12","22","20:00","-2.7","","-2.7","","100","","32","","4","","24.1","","101.31","","","","-4","","Clear"
"1987-12-22 21:00","1987","12","22","21:00","-3.7","","-4.0","","98","","","","0","","24.1","","101.38","","","","","","Clear"
"1987-12-22 22:00","1987","12","22","22:00","","","","","","","","","0","","","","","","","","","","NA"
"1987-12-22 23:00","1987","12","22","23:00","","","","","","","26","","7","","","","","","","","","","NA"
"1987-12-23 00:00","1987","12","23","00:00","","","","","","","27","","6","","","","","","","","","","NA"
"1987-12-23 01:00","1987","12","23","01:00","","","","","","","26","","6","","","","","","","","","","NA"
"1987-12-23 02:00","1987","12","23","02:00","","","","","","","27","","9","","","","","","","","","","NA"
"1987-12-23 03:00","1987","12","23","03:00","","","","","","","24","","6","","","","","","","","","","NA"
"1987-12-23 04:00","1987","12","23","04:00","","","","","","","26","","6","","","","","","","","","","NA"
"1987-12-23 05:00","1987","12","23","05:00","","","","","","","","","0","","","","","","","","","","NA"
"1987-12-23 06:00","1987","12","23","06:00","-2.8","","-3.4","","96","","30","","4","","24.1","","102.08","","","","-4","","Mainly Clear"
"1987-12-23 07:00","1987","12","23","07:00","-4.0","","-4.3","","98","","30","","9","","24.1","","102.12","","","","-8","","Mainly Clear"
"1987-12-23 08:00","1987","12","23","08:00","-4.0","","-4.4","","97","","32","","6","","24.1","","102.12","","","","-7","","Mainly Clear"
"1987-12-23 09:00","1987","12","23","09:00","-4.2","","-5.3","","92","","30","","4","","24.1","","102.22","","","","-6","","Mostly Cloudy"
"1987-12-23 10:00","1987","12","23","10:00","-2.9","","-3.5","","96","","31","","4","","24.1","","102.29","","","","-4","","Mostly Cloudy"
"1987-12-23 11:00","1987","12","23","11:00","-1.0","","-1.7","","95","","30","","9","","24.1","","102.35","","","","-4","","Mostly Cloudy"
"1987-12-23 12:00","1987","12","23","12:00","1.4","","-0.7","","86","","30","","19","","24.1","","102.32","","","","","","Mostly Cloudy"
"1987-12-23 13:00","1987","12","23","13:00","2.0","","-0.5","","83","","30","","19","","24.1","","102.32","","","","","","Mostly Cloudy"
"1987-12-23 14:00","1987","12","23","14:00","2.6","","-0.6","","79","","30","","11","","24.1","","102.29","","","","","","Mostly Cloudy"
"1987-12-23 15:00","1987","12","23","15:00","1.8","","-0.5","","85","","32","","6","","24.1","","102.32","","","","","","Mostly Cloudy"
"1987-12-23 16:00","1987","12","23","16:00","0.1","","-1.0","","92","","","","0","","24.1","","102.32","","","","","","Mostly Cloudy"
"1987-12-23 17:00","1987","12","23","17:00","-1.5","","-1.5","","100","","","","0","","24.1","","102.35","","","","","","Mostly Cloudy"
"1987-12-23 18:00","1987","12","23","18:00","-1.3","","-1.3","","100","","","","0","","24.1","","102.32","","","","","","Mostly Cloudy"
"1987-12-23 19:00","1987","12","23","19:00","-1.7","","-1.9","","99","","","","0","","24.1","","102.32","","","","","","Mainly Clear"
"1987-12-23 20:00","1987","12","23","20:00","-2.9","","-2.9","","100","","30","","4","","24.1","","102.29","","","","-4","","Clear"
"1987-12-23 21:00","1987","12","23","21:00","-3.1","","-3.1","","100","","29","","4","","24.1","","102.29","","","","-5","","Clear"
"1987-12-23 22:00","1987","12","23","22:00","","","","","","","30","","4","","","","","","","","","","NA"
"1987-12-23 23:00","1987","12","23","23:00","","","","","","","","","0","","","","","","","","","","NA"
"1987-12-24 00:00","1987","12","24","00:00","","","","","","","","","0","","","","","","","","","","NA"
"1987-12-24 01:00","1987","12","24","01:00","","","","","","","29","","4","","","","","","","","","","NA"
"1987-12-24 02:00","1987","12","24","02:00","","","","","","","30","","4","","","","","","","","","","NA"
"1987-12-24 03:00","1987","12","24","03:00","","","","","","","28","","6","","","","","","","","","","NA"
"1987-12-24 04:00","1987","12","24","04:00","","","","","","","30","","4","","","","","","","","","","NA"
"1987-12-24 05:00","1987","12","24","05:00","","","","","","","30","","6","","","","","","","","","","NA"
"1987-12-24 06:00","1987","12","24","06:00","-4.4","","-4.9","","96","","32","","6","","24.1","","102.12","","","","-7","","Mainly Clear"
"1987-12-24 07:00","1987","12","24","07:00","-4.2","","-4.9","","95","","","","0","","24.1","","102.12","","","","","","Cloudy"
"1987-12-24 08:00","1987","12","24","08:00","-3.5","","-4.1","","96","","","","0","","24.1","","102.12","","","","","","Mostly Cloudy"
"1987-12-24 09:00","1987","12","24","09:00","-3.9","","-4.3","","97","","","","0","","24.1","","102.19","","","","","","Mostly Cloudy"
"1987-12-24 10:00","1987","12","24","10:00","-2.8","","-3.5","","95","","","","0","","24.1","","102.22","","","","","","Mostly Cloudy"
"1987-12-24 11:00","1987","12","24","11:00","-1.4","","-2.5","","92","","","","0","","24.1","","102.25","","","","","","Mostly Cloudy"
"1987-12-24 12:00","1987","12","24","12:00","0.0","","-1.6","","89","","","","0","","24.1","","102.19","","","","","","Mostly Cloudy"
"1987-12-24 13:00","1987","12","24","13:00","1.2","","-0.2","","90","","15","","4","","24.1","","102.12","","","","","","Mostly Cloudy"
"1987-12-24 14:00","1987","12","24","14:00","1.0","","0.2","","95","","12","","4","","24.1","","102.12","","","","","","Mostly Cloudy"
"1987-12-24 15:00","1987","12","24","15:00","0.9","","0.5","","97","","","","0","","24.1","","102.15","","","","","","Mostly Cloudy"
"1987-12-24 16:00","1987","12","24","16:00","0.6","","0.6","","100","","","","0","","24.1","","102.08","","","","","","Mostly Cloudy"
"1987-12-24 17:00","1987","12","24","17:00","0.4","","0.4","","100","","","","0","","24.1","","102.08","","","","","","Mostly Cloudy"
"1987-12-24 18:00","1987","12","24","18:00","0.5","","0.3","","98","","","","0","","24.1","","102.08","","","","","","Mostly Cloudy"
"1987-12-24 19:00","1987","12","24","19:00","0.1","","0.1","","100","","31","","7","","24.1","","102.05","","","","","","Mostly Cloudy"
"1987-12-24 20:00","1987","12","24","20:00","0.0","","0.0","","100","","24","","4","","24.1","","102.02","","","","-1","","Mostly Cloudy"
"1987-12-24 21:00","1987","12","24","21:00","0.1","","0.1","","100","","27","","4","","24.1","","101.98","","","","","","Mostly Cloudy"
"1987-12-24 22:00","1987","12","24","22:00","","","","","","","","","0","","","","","","","","","","NA"
"1987-12-24 23:00","1987","12","24","23:00","","","","","","","","","0","","","","","","","","","","NA"
"1987-12-25 00:00","1987","12","25","00:00","","","","","","","","","0","","","","","","","","","","NA"
"1987-12-25 01:00","1987","12","25","01:00","","","","","","","","","0","","","","","","","","","","NA"
"1987-12-25 02:00","1987","12","25","02:00","","","","","","","","","0","","","","","","","","","","NA"
"1987-12-25 03:00","1987","12","25","03:00","","","","","","","","","0","","","","","","","","","","NA"
"1987-12-25 04:00","1987","12","25","04:00","","","","","","","","","0","","","","","","","","","","NA"
"1987-12-25 05:00","1987","12","25","05:00","","","","","","","","","0","","","","","","","","","","NA"
"1987-12-25 06:00","1987","12","25","06:00","0.0","","0.0","","100","","","","0","","24.1","","101.98","","","","","","Cloudy"
"1987-12-25 07:00","1987","12","25","07:00","0.1","","0.1","","100","","","","0","","24.1","","101.95","","","","","","Cloudy"
"1987-12-25 08:00","1987","12","25","08:00","0.1","","0.1","","100","","","","0","","24.1","","101.92","","","","","","Cloudy"
"1987-12-25 09:00","1987","12","25","09:00","0.2","","0.2","","100","","","","0","","24.1","","101.88","","","","","","Cloudy"
"1987-12-25 10:00","1987","12","25","10:00","0.6","","0.4","","98","","","","0","","24.1","","101.88","","","","","","Cloudy"
"1987-12-25 11:00","1987","12","25","11:00","0.6","","0.6","","100","","","","0","","24.1","","101.88","","","","","","Cloudy"
"1987-12-25 12:00","1987","12","25","12:00","0.9","","0.6","","98","","","","0","","24.1","","101.85","","","","","","Cloudy"
"1987-12-25 13:00","1987","12","25","13:00","0.9","","0.8","","99","","","","0","","24.1","","101.72","","","","","","Cloudy"
"1987-12-25 14:00","1987","12","25","14:00","1.7","","-0.9","","83","","","","0","","24.1","","101.65","","","","","","Cloudy"
"1987-12-25 15:00","1987","12","25","15:00","0.9","","0.4","","96","","","","0","","24.1","","101.65","","","","","","Cloudy"
"1987-12-25 16:00","1987","12","25","16:00","0.6","","0.3","","98","","","","0","","24.1","","101.65","","","","","","Cloudy"
"1987-12-25 17:00","1987","12","25","17:00","0.4","","0.2","","99","","","","0","","24.1","","101.61","","","","","","Cloudy"
"1987-12-25 18:00","1987","12","25","18:00","0.5","","0.3","","98","","31","","6","","24.1","","101.58","","","","","","Cloudy"
"1987-12-25 19:00","1987","12","25","19:00","0.3","","0.3","","100","","","","0","","16.1","","101.55","","","","","","Cloudy"
"1987-12-25 20:00","1987","12","25","20:00","0.2","","0.1","","99","","","","0","","16.1","","101.48","","","","","","Cloudy"
"1987-12-25 21:00","1987","12","25","21:00","0.2","","0.1","","99","","","","0","","16.1","","101.41","","","","","","Cloudy"
"1987-12-25 22:00","1987","12","25","22:00","","","","","","","","","0","","","","","","","","","","NA"
"1987-12-25 23:00","1987","12","25","23:00","","","","","","","","","0","","","","","","","","","","NA"
"1987-12-26 00:00","1987","12","26","00:00","","","","","","","","","0","","","","","","","","","","NA"
"1987-12-26 01:00","1987","12","26","01:00","","","","","","","","","0","","","","","","","","","","NA"
"1987-12-26 02:00","1987","12","26","02:00","","","","","","","","","0","","","","","","","","","","NA"
"1987-12-26 03:00","1987","12","26","03:00","","","","","","","","","0","","","","","","","","","","NA"
"1987-12-26 04:00","1987","12","26","04:00","","","","","","","","","0","","","","","","","","","","NA"
"1987-12-26 05:00","1987","12","26","05:00","","","","","","","","","0","","","","","","","","","","NA"
"1987-12-26 06:00","1987","12","26","06:00","-0.1","","-0.1","","100","","","","0","","24.1","","100.98","","","","","","Cloudy"
"1987-12-26 07:00","1987","12","26","07:00","-0.1","","-0.1","","100","","","","0","","24.1","","100.91","","","","","","Cloudy"
"1987-12-26 08:00","1987","12","26","08:00","0.0","","0.0","","100","","","","0","","19.3","","100.84","","","","","","Cloudy"
"1987-12-26 09:00","1987","12","26","09:00","0.0","","0.0","","100","","","","0","","16.1","","100.81","","","","","","Cloudy"
"1987-12-26 10:00","1987","12","26","10:00","0.3","","0.2","","100","","","","0","","16.1","","100.74","","","","","","Cloudy"
"1987-12-26 11:00","1987","12","26","11:00","0.5","","0.3","","98","","","","0","","16.1","","100.71","","","","","","Cloudy"
"1987-12-26 12:00","1987","12","26","12:00","1.5","","0.1","","90","","","","0","","16.1","","100.64","","","","","","Cloudy"
"1987-12-26 13:00","1987","12","26","13:00","2.2","","0.5","","88","","12","","9","","16.1","","100.61","","","","","","Cloudy"
"1987-12-26 14:00","1987","12","26","14:00","2.6","","0.8","","88","","12","","9","","24.1","","100.54","","","","","","Mostly Cloudy"
"1987-12-26 15:00","1987","12","26","15:00","2.6","","0.4","","85","","11","","11","","24.1","","100.54","","","","","","Mostly Cloudy"
"1987-12-26 16:00","1987","12","26","16:00","2.2","","0.9","","91","","11","","9","","24.1","","100.51","","","","","","Mostly Cloudy"
"1987-12-26 17:00","1987","12","26","17:00","1.8","","0.4","","90","","","","0","","24.1","","100.51","","","","","","Mostly Cloudy"
"1987-12-26 18:00","1987","12","26","18:00","1.3","","0.3","","93","","","","0","","16.1","","100.61","","","","","","Mostly Cloudy"
"1987-12-26 19:00","1987","12","26","19:00","0.5","","0.1","","97","","","","0","","16.1","","100.61","","","","","","Mostly Cloudy"
"1987-12-26 20:00","1987","12","26","20:00","1.0","","0.5","","96","","","","0","","16.1","","100.61","","","","","","Cloudy"
"1987-12-26 21:00","1987","12","26","21:00","1.9","","1.4","","96","","","","0","","16.1","","100.61","","","","","","Cloudy"
"1987-12-26 22:00","1987","12","26","22:00","","","","","","","11","","11","","","","","","","","","","NA"
"1987-12-26 23:00","1987","12","26","23:00","","","","","","","11","","13","","","","","","","","","","NA"
"1987-12-27 00:00","1987","12","27","00:00","","","","","","","12","","17","","","","","","","","","","NA"
"1987-12-27 01:00","1987","12","27","01:00","","","","","","","13","","13","","","","","","","","","","NA"
"1987-12-27 02:00","1987","12","27","02:00","","","","","","","13","","9","","","","","","","","","","NA"
"1987-12-27 03:00","1987","12","27","03:00","","","","","","","15","","11","","","","","","","","","","NA"
"1987-12-27 04:00","1987","12","27","04:00","","","","","","","14","","15","","","","","","","","","","NA"
"1987-12-27 05:00","1987","12","27","05:00","","","","","","","12","","13","","","","","","","","","","NA"
"1987-12-27 06:00","1987","12","27","06:00","4.3","","0.6","","77","","15","","17","","24.1","","100.51","","","","","","Cloudy"
"1987-12-27 07:00","1987","12","27","07:00","4.5","","0.1","","73","","14","","11","","24.1","","100.44","","","","","","Cloudy"
"1987-12-27 08:00","1987","12","27","08:00","3.9","","0.8","","80","","14","","17","","24.1","","100.44","","","","","","Cloudy"
"1987-12-27 09:00","1987","12","27","09:00","3.8","","1.3","","84","","17","","7","","24.1","","100.47","","","","","","Cloudy"
"1987-12-27 10:00","1987","12","27","10:00","3.4","","1.6","","88","","13","","9","","24.1","","100.51","","","","","","Cloudy"
"1987-12-27 11:00","1987","12","27","11:00","4.7","","2.8","","87","","12","","11","","24.1","","100.51","","","","","","Cloudy"
"1987-12-27 12:00","1987","12","27","12:00","4.6","","1.8","","82","","12","","11","","24.1","","100.51","","","","","","Cloudy"
"1987-12-27 13:00","1987","12","27","13:00","5.5","","1.8","","77","","14","","7","","24.1","","100.51","","","","","","Cloudy"
"1987-12-27 14:00","1987","12","27","14:00","6.0","","1.8","","74","","14","","6","","24.1","","100.51","","","","","","Rain"
"1987-12-27 15:00","1987","12","27","15:00","5.4","","2.4","","81","","","","0","","24.1","","100.51","","","","","","Cloudy"
"1987-12-27 16:00","1987","12","27","16:00","4.8","","3.1","","89","","","","0","","24.1","","100.54","","","","","","Cloudy"
"1987-12-27 17:00","1987","12","27","17:00","4.8","","3.4","","91","","11","","7","","24.1","","100.58","","","","","","Cloudy"
"1987-12-27 18:00","1987","12","27","18:00","4.1","","3.5","","96","","10","","7","","24.1","","100.61","","","","","","Rain"
"1987-12-27 19:00","1987","12","27","19:00","4.8","","4.3","","97","","12","","7","","16.1","","100.61","","","","","","Rain"
"1987-12-27 20:00","1987","12","27","20:00","3.6","","3.2","","97","","15","","6","","16.1","","100.61","","","","","","Rain"
"1987-12-27 21:00","1987","12","27","21:00","3.9","","3.7","","99","","","","0","","16.1","","100.61","","","","","","Rain"
"1987-12-27 22:00","1987","12","27","22:00","","","","","","","","","0","","","","","","","","","","NA"
"1987-12-27 23:00","1987","12","27","23:00","","","","","","","","","0","","","","","","","","","","NA"
"1987-12-28 00:00","1987","12","28","00:00","","","","","","","","","0","","","","","","","","","","NA"
"1987-12-28 01:00","1987","12","28","01:00","","","","","","","","","0","","","","","","","","","","NA"
"1987-12-28 02:00","1987","12","28","02:00","","","","","","","","","0","","","","","","","","","","NA"
"1987-12-28 03:00","1987","12","28","03:00","","","","","","","","","0","","","","","","","","","","NA"
"1987-12-28 04:00","1987","12","28","04:00","","","","","","","","","0","","","","","","","","","","NA"
"1987-12-28 05:00","1987","12","28","05:00","","","","","","","","","0","","","","","","","","","","NA"
"1987-12-28 06:00","1987","12","28","06:00","1.5","","1.3","","98","","","","0","","16.1","","100.31","","","","","","Cloudy"
"1987-12-28 07:00","1987","12","28","07:00","1.7","","1.5","","98","","","","0","","16.1","","100.31","","","","","","Rain"
"1987-12-28 08:00","1987","12","28","08:00","1.6","","1.5","","99","","","","0","","8.0","","100.31","","","","","","Rain,Fog"
"1987-12-28 09:00","1987","12","28","09:00","2.2","","2.0","","98","","32","","6","","12.9","","100.31","","","","","","Rain"
"1987-12-28 10:00","1987","12","28","10:00","2.2","","2.0","","98","","","","0","","24.1","","100.31","","","","","","Cloudy"
"1987-12-28 11:00","1987","12","28","11:00","3.2","","2.8","","97","","","","0","","24.1","","100.31","","","","","","Cloudy"
"1987-12-28 12:00","1987","12","28","12:00","3.6","","3.1","","97","","","","0","","24.1","","100.31","","","","","","Cloudy"
"1987-12-28 13:00","1987","12","28","13:00","4.4","","4.2","","99","","","","0","","24.1","","100.27","","","","","","Cloudy"
"1987-12-28 14:00","1987","12","28","14:00","4.4","","4.2","","99","","30","","4","","6.4","","100.21","","","","","","Fog"
"1987-12-28 15:00","1987","12","28","15:00","4.0","","4.0","","100","","","","0","","4.8","","100.14","","","","","","Fog"
"1987-12-28 16:00","1987","12","28","16:00","3.7","","3.7","","100","","","","0","","6.4","","100.14","","","","","","Fog"
"1987-12-28 17:00","1987","12","28","17:00","3.4","","3.4","","100","","","","0","","4.8","","100.14","","","","","","Fog"
"1987-12-28 18:00","1987","12","28","18:00","3.0","","3.0","","100","","","","0","","1.6","","100.07","","","","","","Fog"
"1987-12-28 19:00","1987","12","28","19:00","2.6","","2.6","","100","","","","0","","1.6","","100.07","","","","","","Fog"
"1987-12-28 20:00","1987","12","28","20:00","2.5","","2.5","","100","","","","0","","8.0","","100.07","","","","","","Fog"
"1987-12-28 21:00","1987","12","28","21:00","2.4","","2.4","","100","","31","","4","","8.0","","100.04","","","","","","Fog"
"1987-12-28 22:00","1987","12","28","22:00","","","","","","","","","0","","","","","","","","","","NA"
"1987-12-28 23:00","1987","12","28","23:00","","","","","","","","","0","","","","","","","","","","NA"
"1987-12-29 00:00","1987","12","29","00:00","","","","","","","","","0","","","","","","","","","","NA"
"1987-12-29 01:00","1987","12","29","01:00","","","","","","","","","0","","","","","","","","","","NA"
"1987-12-29 02:00","1987","12","29","02:00","","","","","","","","","0","","","","","","","","","","NA"
"1987-12-29 03:00","1987","12","29","03:00","","","","","","","","","0","","","","","","","","","","NA"
"1987-12-29 04:00","1987","12","29","04:00","","","","","","","","","0","","","","","","","","","","NA"
"1987-12-29 05:00","1987","12","29","05:00","","","","","","","","","0","","","","","","","","","","NA"
"1987-12-29 06:00","1987","12","29","06:00","1.8","","1.8","","100","","","","0","","16.1","","100.11","","","","","","Rain"
"1987-12-29 07:00","1987","12","29","07:00","1.4","","1.4","","100","","","","0","","16.1","","100.14","","","","","","Rain"
"1987-12-29 08:00","1987","12","29","08:00","2.0","","1.9","","99","","","","0","","12.9","","100.17","","","","","","Rain"
"1987-12-29 09:00","1987","12","29","09:00","1.8","","1.7","","100","","32","","4","","12.9","","100.21","","","","","","Rain"
"1987-12-29 10:00","1987","12","29","10:00","2.2","","2.2","","100","","","","0","","12.9","","100.31","","","","","","Rain"
"1987-12-29 11:00","1987","12","29","11:00","2.6","","2.6","","100","","32","","4","","12.9","","100.31","","","","","","Rain"
"1987-12-29 12:00","1987","12","29","12:00","3.4","","3.4","","100","","","","0","","16.1","","100.31","","","","","","Rain"
"1987-12-29 13:00","1987","12","29","13:00","3.8","","3.8","","100","","18","","7","","8.0","","100.31","","","","","","Rain,Fog"
"1987-12-29 14:00","1987","12","29","14:00","4.0","","3.7","","98","","","","0","","8.0","","100.34","","","","","","Rain Showers,Fog"
"1987-12-29 15:00","1987","12","29","15:00","4.1","","3.7","","97","","","","0","","12.9","","100.34","","","","","","Rain Showers"
"1987-12-29 16:00","1987","12","29","16:00","3.8","","3.6","","99","","","","0","","12.9","","100.37","","","","","","Rain Showers"
"1987-12-29 17:00","1987","12","29","17:00","3.0","","3.0","","100","","","","0","","4.8","","100.41","","","","","","Rain Showers,Fog"
"1987-12-29 18:00","1987","12","29","18:00","2.4","","2.4","","100","","","","0","","4.8","","100.41","","","","","","Rain Showers,Fog"
"1987-12-29 19:00","1987","12","29","19:00","1.9","","1.9","","100","","","","0","","4.8","","100.41","","","","","","Rain Showers,Fog"
"1987-12-29 20:00","1987","12","29","20:00","1.5","","1.5","","100","","","","0","","9.7","","100.44","","","","","","Rain Showers,Fog"
"1987-12-29 21:00","1987","12","29","21:00","1.7","","1.7","","100","","","","0","","9.7","","100.44","","","","","","Rain Showers,Fog"
"1987-12-29 22:00","1987","12","29","22:00","","","","","","","","","0","","","","","","","","","","NA"
"1987-12-29 23:00","1987","12","29","23:00","","","","","","","","","0","","","","","","","","","","NA"
"1987-12-30 00:00","1987","12","30","00:00","","","","","","","","","0","","","","","","","","","","NA"
"1987-12-30 01:00","1987","12","30","01:00","","","","","","","","","0","","","","","","","","","","NA"
"1987-12-30 02:00","1987","12","30","02:00","","","","","","","","","0","","","","","","","","","","NA"
"1987-12-30 03:00","1987","12","30","03:00","","","","","","","","","0","","","","","","","","","","NA"
"1987-12-30 04:00","1987","12","30","04:00","","","","","","","","","0","","","","","","","","","","NA"
"1987-12-30 05:00","1987","12","30","05:00","","","","","","","","","0","","","","","","","","","","NA"
"1987-12-30 06:00","1987","12","30","06:00","-0.8","","-1.0","","98","","","","0","","24.1","","100.74","","","","","","Mainly Clear"
"1987-12-30 07:00","1987","12","30","07:00","-0.6","","-0.9","","98","","31","","9","","24.1","","100.81","","","","-4","","Mainly Clear"
"1987-12-30 08:00","1987","12","30","08:00","-0.7","","-0.9","","99","","32","","6","","24.1","","100.84","","","","-3","","Mainly Clear"
"1987-12-30 09:00","1987","12","30","09:00","-1.2","","-1.3","","100","","32","","7","","24.1","","100.88","","","","-4","","Mainly Clear"
"1987-12-30 10:00","1987","12","30","10:00","0.2","","-0.3","","96","","","","0","","24.1","","100.94","","","","","","Mainly Clear"
"1987-12-30 11:00","1987","12","30","11:00","1.8","","0.8","","93","","31","","6","","24.1","","100.94","","","","","","Mainly Clear"
"1987-12-30 12:00","1987","12","30","12:00","3.2","","0.7","","84","","29","","9","","24.1","","100.94","","","","","","Mainly Clear"
"1987-12-30 13:00","1987","12","30","13:00","4.2","","-2.0","","64","","29","","9","","24.1","","100.94","","","","","","Mainly Clear"
"1987-12-30 14:00","1987","12","30","14:00","4.4","","-1.9","","64","","31","","6","","24.1","","100.94","","","","","","Mainly Clear"
"1987-12-30 15:00","1987","12","30","15:00","4.2","","1.1","","80","","30","","4","","24.1","","101.01","","","","","","Clear"
"1987-12-30 16:00","1987","12","30","16:00","0.8","","0.0","","95","","","","0","","24.1","","101.04","","","","","","Mainly Clear"
"1987-12-30 17:00","1987","12","30","17:00","-0.9","","-0.9","","100","","","","0","","24.1","","101.08","","","","","","Clear"
"1987-12-30 18:00","1987","12","30","18:00","-1.5","","-1.5","","100","","32","","4","","24.1","","101.11","","","","-3","","Clear"
"1987-12-30 19:00","1987","12","30","19:00","-1.8","","-1.9","","99","","30","","4","","24.1","","101.15","","","","-3","","Clear"
"1987-12-30 20:00","1987","12","30","20:00","-2.3","","-2.3","","100","","31","","4","","24.1","","101.18","","","","-4","","Clear"
"1987-12-30 21:00","1987","12","30","21:00","-2.7","","-2.7","","100","","28","","4","","24.1","","101.25","","","","-4","","Clear"
"1987-12-30 22:00","1987","12","30","22:00","","","","","","","30","","4","","","","","","","","","","NA"
"1987-12-30 23:00","1987","12","30","23:00","","","","","","","","","0","","","","","","","","","","NA"
"1987-12-31 00:00","1987","12","31","00:00","","","","","","","30","","4","","","","","","","","","","NA"
"1987-12-31 01:00","1987","12","31","01:00","","","","","","","","","0","","","","","","","","","","NA"
"1987-12-31 02:00","1987","12","31","02:00","","","","","","","31","","4","","","","","","","","","","NA"
"1987-12-31 03:00","1987","12","31","03:00","","","","","","","30","","6","","","","","","","","","","NA"
"1987-12-31 04:00","1987","12","31","04:00","","","","","","","","","0","","","","","","","","","","NA"
"1987-12-31 05:00","1987","12","31","05:00","","","","","","","31","","4","","","","","","","","","","NA"
"1987-12-31 06:00","1987","12","31","06:00","-5.6","","-6.3","","95","","31","","6","","24.1","","101.68","","","","-8","","Clear"
"1987-12-31 07:00","1987","12","31","07:00","-5.7","","-6.5","","94","","30","","4","","24.1","","101.75","","","","-8","","Clear"
"1987-12-31 08:00","1987","12","31","08:00","-5.8","","-6.6","","94","","31","","4","","24.1","","101.78","","","","-8","","Mainly Clear"
"1987-12-31 09:00","1987","12","31","09:00","-4.6","","-5.5","","93","","31","","4","","24.1","","101.88","","","","-6","","Mostly Cloudy"
"1987-12-31 10:00","1987","12","31","10:00","-2.9","","-3.7","","94","","","","0","","24.1","","101.95","","","","","","Mostly Cloudy"
"1987-12-31 11:00","1987","12","31","11:00","-1.4","","-2.5","","92","","","","0","","24.1","","101.98","","","","","","Mostly Cloudy"
"1987-12-31 12:00","1987","12","31","12:00","-0.2","","-2.2","","86","","","","0","","24.1","","101.98","","","","","","Mostly Cloudy"
"1987-12-31 13:00","1987","12","31","13:00","0.6","","-1.5","","86","","","","0","","24.1","","101.98","","","","","","Mostly Cloudy"
"1987-12-31 14:00","1987","12","31","14:00","2.3","","-0.9","","80","","","","0","","24.1","","102.02","","","","","","Mainly Clear"
"1987-12-31 15:00","1987","12","31","15:00","1.8","","-0.4","","85","","","","0","","24.1","","102.05","","","","","","Mainly Clear"
"1987-12-31 16:00","1987","12","31","16:00","-0.1","","-1.1","","93","","","","0","","24.1","","102.08","","","","","","Clear"
"1987-12-31 17:00","1987","12","31","17:00","-1.8","","-2.0","","98","","30","","4","","24.1","","102.08","","","","-3","","Clear"
"1987-12-31 18:00","1987","12","31","18:00","-2.6","","-2.7","","99","","","","0","","24.1","","102.12","","","","","","Clear"
"1987-12-31 19:00","1987","12","31","19:00","-3.3","","-3.4","","99","","31","","6","","24.1","","102.15","","","","-6","","Clear"
"1987-12-31 20:00","1987","12","31","20:00","-3.9","","-4.3","","97","","30","","4","","24.1","","102.22","","","","-6","","Clear"
"1987-12-31 21:00","1987","12","31","21:00","-4.4","","-4.7","","98","","30","","4","","24.1","","102.25","","","","-6","","Clear"
"1987-12-31 22:00","1987","12","31","22:00","","","","","","","","","0","","","","","","","","","","NA"
"1987-12-31 23:00","1987","12","31","23:00","","","","","","","","","0","","","","","","","","","","NA"
