"Station Name","CAMPBELL RIVER A"
"Province","BRITISH COLUMBIA"
"Latitude","49.95"
"Longitude","-125.27"
"Elevation","108.80"
"Climate Identifier","1021261"
"WMO Identifier",""
"TC Identifier","YBL"
"All times are specified in Local Standard Time (LST). Add 1 hour to adjust for Daylight Saving Time where and when it is observed."

"Legend"
"E","Estimated"
"M","Missing"
"NA","Not Available"

"Date/Time","Year","Month","Day","Time","Temp (°C)","Temp Flag","Dew Point Temp (°C)","Dew Point Temp Flag","Rel Hum (%)","Rel Hum Flag","Wind Dir (10s deg)","Wind Dir Flag","Wind Spd (km/h)","Wind Spd Flag","Visibility (km)","Visibility Flag","Stn Press (kPa)","Stn Press Flag","Hmdx","Hmdx Flag","Wind Chill","Wind Chill Flag","Weather"
"1998-06-01 00:00","1998","06","01","00:00"
"1998-06-01 01:00","1998","06","01","01:00"
"1998-06-01 02:00","1998","06","01","02:00"
"1998-06-01 03:00","1998","06","01","03:00"
"1998-06-01 04:00","1998","06","01","04:00"
"1998-06-01 05:00","1998","06","01","05:00","10.5","","6.6","","77","","28","","19","","32.2","","100.43","","","","","","Clear"
"1998-06-01 06:00","1998","06","01","06:00","11.3","","6.6","","73","","31","","19","","32.2","","100.40","","","","","","Mainly Clear"
"1998-06-01 07:00","1998","06","01","07:00","12.8","","6.7","","66","","30","","17","","32.2","","100.40","","","","","","Mainly Clear"
"1998-06-01 08:00","1998","06","01","08:00","14.6","","7.1","","61","","31","","22","","32.2","","100.40","","","","","","Mainly Clear"
"1998-06-01 09:00","1998","06","01","09:00","14.9","","6.8","","58","","31","","20","","32.2","","100.40","","","","","","Mainly Clear"
"1998-06-01 10:00","1998","06","01","10:00","16.1","","6.9","","54","","31","","22","","32.2","","100.36","","","","","","Mainly Clear"
"1998-06-01 11:00","1998","06","01","11:00","17.1","","7.9","","55","","3","","11","","32.2","","100.29","","","","","","Mainly Clear"
"1998-06-01 12:00","1998","06","01","12:00","18.6","","8.4","","51","","31","","19","","32.2","","100.26","","","","","","Mainly Clear"
"1998-06-01 13:00","1998","06","01","13:00","18.8","","8.6","","51","","35","","15","","32.2","","100.29","","","","","","Mainly Clear"
"1998-06-01 14:00","1998","06","01","14:00","19.5","","8.8","","50","","6","","7","","32.2","","100.29","","","","","","Mainly Clear"
"1998-06-01 15:00","1998","06","01","15:00","20.2","","9.0","","48","","2","","9","","32.2","","100.23","","","","","","Mainly Clear"
"1998-06-01 16:00","1998","06","01","16:00","21.2","","9.9","","48","","1","","9","","32.2","","100.23","","","","","","Mainly Clear"
"1998-06-01 17:00","1998","06","01","17:00","20.9","","8.8","","46","","3","","9","","32.2","","100.19","","","","","","Mainly Clear"
"1998-06-01 18:00","1998","06","01","18:00","21.0","","8.7","","45","","35","","9","","32.2","","100.19","","","","","","Clear"
"1998-06-01 19:00","1998","06","01","19:00","19.7","","9.6","","52","","33","","11","","32.2","","100.19","","","","","","Clear"
"1998-06-01 20:00","1998","06","01","20:00","17.3","","10.1","","63","","20","","11","","32.2","","100.19","","","","","","Clear"
"1998-06-01 21:00","1998","06","01","21:00"
"1998-06-01 22:00","1998","06","01","22:00"
"1998-06-01 23:00","1998","06","01","23:00"
"1998-06-02 00:00","1998","06","02","00:00"
"1998-06-02 01:00","1998","06","02","01:00"
"1998-06-02 02:00","1998","06","02","02:00"
"1998-06-02 03:00","1998","06","02","03:00"
"1998-06-02 04:00","1998","06","02","04:00"
"1998-06-02 05:00","1998","06","02","05:00","10.2","","7.6","","84","","31","","6","","32.2","","100.40","","","","","","Clear"
"1998-06-02 06:00","1998","06","02","06:00","12.0","","8.2","","78","","33","","7","","32.2","","100.40","","","","","","Clear"
"1998-06-02 07:00","1998","06","02","07:00","15.1","","9.3","","68","","33","","9","","32.2","","100.40","","","","","","Clear"
"1998-06-02 08:00","1998","06","02","08:00","17.5","","9.7","","60","","34","","4","","32.2","","100.36","","","","","","Clear"
"1998-06-02 09:00","1998","06","02","09:00","20.2","","10.1","","52","","31","","11","","32.2","","100.33","","","","","","Clear"
"1998-06-02 10:00","1998","06","02","10:00","22.2","","12.1","","53","","8","","13","","32.2","","100.29","","25","","","","Clear"
"1998-06-02 11:00","1998","06","02","11:00","23.4","","11.0","","46","","8","","11","","32.2","","100.26","","25","","","","Clear"
"1998-06-02 12:00","1998","06","02","12:00","24.3","","7.6","","34","","5","","13","","32.2","","100.19","","25","","","","Mainly Clear"
"1998-06-02 13:00","1998","06","02","13:00","24.8","","5.2","","28","","3","","7","","32.2","","100.16","","","","","","Mainly Clear"
"1998-06-02 14:00","1998","06","02","14:00","25.5","","5.9","","28","","4","","9","","32.2","","100.09","","25","","","","Mainly Clear"
"1998-06-02 15:00","1998","06","02","15:00","26.2","","4.4","","25","","7","","6","","32.2","","100.06","","25","","","","Mainly Clear"
"1998-06-02 16:00","1998","06","02","16:00","26.4","","5.2","","26","","","","0","","32.2","","99.99","","26","","","","Mainly Clear"
"1998-06-02 17:00","1998","06","02","17:00","26.5","","0.3","","18","","17","","7","","32.2","","99.96","","","","","","Mainly Clear"
"1998-06-02 18:00","1998","06","02","18:00","26.2","","1.3","","20","","","","0","","32.2","","99.96","","","","","","Mainly Clear"
"1998-06-02 19:00","1998","06","02","19:00","25.2","","7.2","","32","","","","0","","32.2","","99.96","","25","","","","Mainly Clear"
"1998-06-02 20:00","1998","06","02","20:00","19.5","","10.6","","56","","","","0","","32.2","","99.89","","","","","","Mainly Clear"
"1998-06-02 21:00","1998","06","02","21:00"
"1998-06-02 22:00","1998","06","02","22:00"
"1998-06-02 23:00","1998","06","02","23:00"
"1998-06-03 00:00","1998","06","03","00:00"
"1998-06-03 01:00","1998","06","03","01:00"
"1998-06-03 02:00","1998","06","03","02:00"
"1998-06-03 03:00","1998","06","03","03:00"
"1998-06-03 04:00","1998","06","03","04:00"
"1998-06-03 05:00","1998","06","03","05:00","10.2","","7.6","","84","","","","0","","32.2","","100.06","","","","","","Mainly Clear"
"1998-06-03 06:00","1998","06","03","06:00","11.7","","9.2","","85","","","","0","","32.2","","100.09","","","","","","Mainly Clear"
"1998-06-03 07:00","1998","06","03","07:00","16.3","","9.1","","62","","35","","6","","32.2","","100.13","","","","","","Mainly Clear"
"1998-06-03 08:00","1998","06","03","08:00","18.5","","8.5","","52","","35","","6","","32.2","","100.13","","","","","","Mainly Clear"
"1998-06-03 09:00","1998","06","03","09:00","18.8","","10.7","","59","","10","","6","","32.2","","100.13","","","","","","Mainly Clear"
"1998-06-03 10:00","1998","06","03","10:00","20.5","","11.2","","55","","8","","9","","32.2","","100.13","","","","","","Mainly Clear"
"1998-06-03 11:00","1998","06","03","11:00","20.6","","11.9","","57","","9","","9","","32.2","","100.09","","","","","","Mainly Clear"
"1998-06-03 12:00","1998","06","03","12:00","20.4","","13.1","","63","","9","","19","","32.2","","100.06","","","","","","Mainly Clear"
"1998-06-03 13:00","1998","06","03","13:00","21.5","","10.6","","50","","9","","19","","32.2","","100.03","","","","","","Mainly Clear"
"1998-06-03 14:00","1998","06","03","14:00","22.3","","11.0","","49","","7","","11","","32.2","","99.99","","","","","","Mainly Clear"
"1998-06-03 15:00","1998","06","03","15:00","22.9","","9.2","","42","","9","","9","","32.2","","99.93","","","","","","Mainly Clear"
"1998-06-03 16:00","1998","06","03","16:00","24.1","","7.3","","34","","8","","9","","32.2","","99.86","","","","","","Mainly Clear"
"1998-06-03 17:00","1998","06","03","17:00","23.3","","12.4","","50","","10","","9","","32.2","","99.83","","26","","","","Mainly Clear"
"1998-06-03 18:00","1998","06","03","18:00","22.4","","10.7","","47","","11","","9","","32.2","","99.79","","","","","","Mainly Clear"
"1998-06-03 19:00","1998","06","03","19:00","21.7","","12.4","","55","","","","0","","32.2","","99.76","","","","","","Mainly Clear"
"1998-06-03 20:00","1998","06","03","20:00","19.7","","12.7","","64","","","","0","","32.2","","99.76","","","","","","Mainly Clear"
"1998-06-03 21:00","1998","06","03","21:00"
"1998-06-03 22:00","1998","06","03","22:00"
"1998-06-03 23:00","1998","06","03","23:00"
"1998-06-04 00:00","1998","06","04","00:00"
"1998-06-04 01:00","1998","06","04","01:00"
"1998-06-04 02:00","1998","06","04","02:00"
"1998-06-04 03:00","1998","06","04","03:00"
"1998-06-04 04:00","1998","06","04","04:00"
"1998-06-04 05:00","1998","06","04","05:00","10.4","","9.2","","92","","30","","6","","32.2","","100.19","","","","","","Mainly Clear"
"1998-06-04 06:00","1998","06","04","06:00","12.9","","11.2","","89","","30","","4","","32.2","","100.23","","","","","","Mostly Cloudy"
"1998-06-04 07:00","1998","06","04","07:00","16.0","","12.9","","82","","3","","6","","32.2","","100.26","","","","","","Mainly Clear"
"1998-06-04 08:00","1998","06","04","08:00","17.5","","12.9","","74","","12","","6","","32.2","","100.29","","","","","","Mainly Clear"
"1998-06-04 09:00","1998","06","04","09:00","18.2","","13.1","","72","","3","","6","","32.2","","100.33","","","","","","Mainly Clear"
"1998-06-04 10:00","1998","06","04","10:00","18.2","","13.2","","73","","6","","9","","32.2","","100.33","","","","","","Mainly Clear"
"1998-06-04 11:00","1998","06","04","11:00","19.0","","12.7","","67","","9","","9","","32.2","","100.33","","","","","","Mainly Clear"
"1998-06-04 12:00","1998","06","04","12:00","19.3","","13.8","","70","","9","","11","","32.2","","100.33","","","","","","Mainly Clear"
"1998-06-04 13:00","1998","06","04","13:00","19.7","","13.3","","67","","7","","13","","32.2","","100.33","","","","","","Mainly Clear"
"1998-06-04 14:00","1998","06","04","14:00","20.0","","12.5","","62","","7","","15","","32.2","","100.29","","","","","","Mainly Clear"
"1998-06-04 15:00","1998","06","04","15:00","20.6","","13.0","","62","","9","","9","","32.2","","100.26","","","","","","Mainly Clear"
"1998-06-04 16:00","1998","06","04","16:00","20.4","","13.6","","65","","9","","19","","32.2","","100.23","","","","","","Mainly Clear"
"1998-06-04 17:00","1998","06","04","17:00","19.8","","13.1","","65","","12","","19","","32.2","","100.19","","","","","","Mainly Clear"
"1998-06-04 18:00","1998","06","04","18:00","19.2","","12.5","","65","","7","","9","","32.2","","100.23","","","","","","Mainly Clear"
"1998-06-04 19:00","1998","06","04","19:00","17.7","","12.7","","73","","9","","9","","32.2","","100.26","","","","","","Mainly Clear"
"1998-06-04 20:00","1998","06","04","20:00","16.0","","11.9","","77","","10","","9","","32.2","","100.33","","","","","","Mainly Clear"
"1998-06-04 21:00","1998","06","04","21:00"
"1998-06-04 22:00","1998","06","04","22:00"
"1998-06-04 23:00","1998","06","04","23:00"
"1998-06-05 00:00","1998","06","05","00:00"
"1998-06-05 01:00","1998","06","05","01:00"
"1998-06-05 02:00","1998","06","05","02:00"
"1998-06-05 03:00","1998","06","05","03:00"
"1998-06-05 04:00","1998","06","05","04:00"
"1998-06-05 05:00","1998","06","05","05:00","12.8","","11.4","","91","","32","","6","","9.7","","100.70","","","","","","Fog"
"1998-06-05 06:00","1998","06","05","06:00","13.4","","11.9","","91","","31","","6","","9.7","","100.73","","","","","","Fog"
"1998-06-05 07:00","1998","06","05","07:00","14.2","","11.8","","85","","","","0","","9.7","","100.73","","","","","","Fog"
"1998-06-05 08:00","1998","06","05","08:00","14.9","","11.5","","80","","","","0","","12.9","","100.76","","","","","","Mostly Cloudy"
"1998-06-05 09:00","1998","06","05","09:00","15.3","","11.6","","79","","","","0","","12.9","","100.80","","","","","","Cloudy"
"1998-06-05 10:00","1998","06","05","10:00","15.8","","12.1","","79","","","","0","","16.1","","100.76","","","","","","Mostly Cloudy"
"1998-06-05 11:00","1998","06","05","11:00","17.4","","12.6","","73","","","","0","","32.2","","100.76","","","","","","Mainly Clear"
"1998-06-05 12:00","1998","06","05","12:00","19.6","","13.7","","69","","9","","7","","32.2","","100.73","","","","","","Mainly Clear"
"1998-06-05 13:00","1998","06","05","13:00","18.9","","12.5","","66","","10","","19","","32.2","","100.70","","","","","","Mainly Clear"
"1998-06-05 14:00","1998","06","05","14:00","20.1","","12.6","","62","","11","","13","","32.2","","100.66","","","","","","Mainly Clear"
"1998-06-05 15:00","1998","06","05","15:00","21.0","","13.1","","61","","8","","6","","32.2","","100.63","","","","","","Mainly Clear"
"1998-06-05 16:00","1998","06","05","16:00","20.7","","12.8","","61","","6","","9","","32.2","","100.60","","","","","","Mainly Clear"
"1998-06-05 17:00","1998","06","05","17:00","20.3","","12.3","","60","","8","","9","","32.2","","100.56","","","","","","Mainly Clear"
"1998-06-05 18:00","1998","06","05","18:00","20.9","","12.6","","59","","12","","4","","32.2","","100.46","","","","","","Mainly Clear"
"1998-06-05 19:00","1998","06","05","19:00","19.7","","13.1","","66","","","","0","","32.2","","100.46","","","","","","Clear"
"1998-06-05 20:00","1998","06","05","20:00","17.9","","12.3","","70","","","","0","","32.2","","100.46","","","","","","Clear"
"1998-06-05 21:00","1998","06","05","21:00"
"1998-06-05 22:00","1998","06","05","22:00"
"1998-06-05 23:00","1998","06","05","23:00"
"1998-06-06 00:00","1998","06","06","00:00"
"1998-06-06 01:00","1998","06","06","01:00"
"1998-06-06 02:00","1998","06","06","02:00"
"1998-06-06 03:00","1998","06","06","03:00"
"1998-06-06 04:00","1998","06","06","04:00"
"1998-06-06 05:00","1998","06","06","05:00","10.0","","8.9","","93","","31","","6","","32.2","","100.60","","","","","","Mainly Clear"
"1998-06-06 06:00","1998","06","06","06:00","11.3","","9.7","","90","","30","","9","","32.2","","100.60","","","","","","Mainly Clear"
"1998-06-06 07:00","1998","06","06","07:00","13.5","","10.0","","79","","30","","19","","32.2","","100.60","","","","","","Mainly Clear"
"1998-06-06 08:00","1998","06","06","08:00","15.1","","10.2","","73","","30","","15","","32.2","","100.56","","","","","","Mainly Clear"
"1998-06-06 09:00","1998","06","06","09:00","16.7","","11.0","","69","","7","","9","","32.2","","100.53","","","","","","Mostly Cloudy"
"1998-06-06 10:00","1998","06","06","10:00","18.8","","12.1","","65","","9","","9","","32.2","","100.46","","","","","","Mostly Cloudy"
"1998-06-06 11:00","1998","06","06","11:00","18.9","","11.7","","63","","11","","19","","32.2","","100.43","","","","","","Mostly Cloudy"
"1998-06-06 12:00","1998","06","06","12:00","20.4","","12.6","","61","","9","","19","","32.2","","100.40","","","","","","Mostly Cloudy"
"1998-06-06 13:00","1998","06","06","13:00","20.2","","12.5","","61","","7","","9","","32.2","","100.29","","","","","","Mostly Cloudy"
"1998-06-06 14:00","1998","06","06","14:00","22.2","","12.7","","55","","6","","15","","32.2","","100.26","","25","","","","Mostly Cloudy"
"1998-06-06 15:00","1998","06","06","15:00","22.6","","12.7","","54","","5","","9","","32.2","","100.16","","25","","","","Mainly Clear"
"1998-06-06 16:00","1998","06","06","16:00","23.0","","12.6","","52","","3","","9","","32.2","","100.09","","26","","","","Clear"
"1998-06-06 17:00","1998","06","06","17:00","22.6","","12.8","","54","","11","","15","","32.2","","100.09","","25","","","","Clear"
"1998-06-06 18:00","1998","06","06","18:00","22.3","","11.7","","51","","35","","13","","32.2","","100.06","","","","","","Clear"
"1998-06-06 19:00","1998","06","06","19:00","21.5","","10.7","","50","","34","","7","","32.2","","100.09","","","","","","Mainly Clear"
"1998-06-06 20:00","1998","06","06","20:00","19.6","","11.2","","58","","29","","15","","32.2","","99.99","","","","","","Clear"
"1998-06-06 21:00","1998","06","06","21:00"
"1998-06-06 22:00","1998","06","06","22:00"
"1998-06-06 23:00","1998","06","06","23:00"
"1998-06-07 00:00","1998","06","07","00:00"
"1998-06-07 01:00","1998","06","07","01:00"
"1998-06-07 02:00","1998","06","07","02:00"
"1998-06-07 03:00","1998","06","07","03:00"
"1998-06-07 04:00","1998","06","07","04:00"
"1998-06-07 05:00","1998","06","07","05:00","10.6","","8.9","","89","","30","","9","","32.2","","100.16","","","","","","Mainly Clear"
"1998-06-07 06:00","1998","06","07","06:00","12.2","","9.7","","85","","33","","13","","32.2","","100.16","","","","","","Mainly Clear"
"1998-06-07 07:00","1998","06","07","07:00","14.5","","10.4","","76","","32","","19","","32.2","","100.16","","","","","","Mainly Clear"
"1998-06-07 08:00","1998","06","07","08:00","16.4","","10.7","","69","","31","","19","","32.2","","100.13","","","","","","Mainly Clear"
"1998-06-07 09:00","1998","06","07","09:00","18.9","","12.3","","66","","","","0","","32.2","","100.09","","","","","","Mainly Clear"
"1998-06-07 10:00","1998","06","07","10:00","20.7","","14.1","","66","","7","","9","","32.2","","100.06","","","","","","Mainly Clear"
"1998-06-07 11:00","1998","06","07","11:00","21.9","","13.8","","60","","12","","4","","32.2","","100.06","","25","","","","Mainly Clear"
"1998-06-07 12:00","1998","06","07","12:00","22.5","","13.0","","55","","7","","9","","32.2","","100.03","","25","","","","Mostly Cloudy"
"1998-06-07 13:00","1998","06","07","13:00","24.5","","13.9","","52","","6","","11","","32.2","","99.96","","28","","","","Mostly Cloudy"
"1998-06-07 14:00","1998","06","07","14:00","27.1","","10.7","","36","","7","","6","","32.2","","99.89","","29","","","","Mainly Clear"
"1998-06-07 15:00","1998","06","07","15:00","28.4","","9.4","","30","","","","0","","32.2","","99.86","","29","","","","Mostly Cloudy"
"1998-06-07 16:00","1998","06","07","16:00","28.4","","10.4","","33","","6","","6","","32.2","","99.83","","30","","","","Mostly Cloudy"
"1998-06-07 17:00","1998","06","07","17:00","29.1","","8.3","","27","","32","","4","","32.2","","99.76","","30","","","","Mostly Cloudy"
"1998-06-07 18:00","1998","06","07","18:00","28.4","","10.1","","32","","","","0","","32.2","","99.76","","30","","","","Mostly Cloudy"
"1998-06-07 19:00","1998","06","07","19:00","29.0","","6.8","","25","","","","0","","32.2","","99.76","","29","","","","Mostly Cloudy"
"1998-06-07 20:00","1998","06","07","20:00","24.2","","12.0","","46","","31","","4","","32.2","","99.76","","26","","","","Mainly Clear"
"1998-06-07 21:00","1998","06","07","21:00"
"1998-06-07 22:00","1998","06","07","22:00"
"1998-06-07 23:00","1998","06","07","23:00"
"1998-06-08 00:00","1998","06","08","00:00"
"1998-06-08 01:00","1998","06","08","01:00"
"1998-06-08 02:00","1998","06","08","02:00"
"1998-06-08 03:00","1998","06","08","03:00"
"1998-06-08 04:00","1998","06","08","04:00"
"1998-06-08 05:00","1998","06","08","05:00","13.3","","10.4","","83","","26","","4","","32.2","","100.06","","","","","","Clear"
"1998-06-08 06:00","1998","06","08","06:00","15.1","","11.8","","81","","32","","4","","32.2","","100.09","","","","","","Clear"
"1998-06-08 07:00","1998","06","08","07:00","18.2","","12.5","","69","","11","","7","","32.2","","100.16","","","","","","Mainly Clear"
"1998-06-08 08:00","1998","06","08","08:00","20.3","","12.8","","62","","32","","4","","32.2","","100.16","","","","","","Clear"
"1998-06-08 09:00","1998","06","08","09:00","21.4","","12.7","","58","","3","","7","","32.2","","100.16","","","","","","Mainly Clear"
"1998-06-08 10:00","1998","06","08","10:00","22.7","","14.0","","58","","3","","7","","32.2","","100.19","","26","","","","Mainly Clear"
"1998-06-08 11:00","1998","06","08","11:00","21.6","","15.2","","67","","9","","13","","32.2","","100.23","","26","","","","Mainly Clear"
"1998-06-08 12:00","1998","06","08","12:00","22.1","","14.5","","62","","7","","9","","32.2","","100.19","","26","","","","Mainly Clear"
"1998-06-08 13:00","1998","06","08","13:00","23.1","","13.6","","55","","9","","13","","32.2","","100.16","","26","","","","Mainly Clear"
"1998-06-08 14:00","1998","06","08","14:00","22.9","","14.0","","57","","9","","15","","32.2","","100.13","","26","","","","Mainly Clear"
"1998-06-08 15:00","1998","06","08","15:00","22.9","","13.2","","54","","9","","13","","32.2","","100.06","","26","","","","Mainly Clear"
"1998-06-08 16:00","1998","06","08","16:00","23.6","","13.2","","52","","12","","15","","32.2","","100.06","","27","","","","Mostly Cloudy"
"1998-06-08 17:00","1998","06","08","17:00","22.7","","12.5","","53","","9","","9","","32.2","","100.03","","25","","","","Mostly Cloudy"
"1998-06-08 18:00","1998","06","08","18:00","22.7","","13.5","","56","","8","","9","","32.2","","100.03","","26","","","","Mostly Cloudy"
"1998-06-08 19:00","1998","06","08","19:00","21.1","","14.4","","66","","8","","7","","32.2","","100.03","","25","","","","Mostly Cloudy"
"1998-06-08 20:00","1998","06","08","20:00","19.5","","14.2","","71","","10","","7","","32.2","","99.96","","","","","","Mostly Cloudy"
"1998-06-08 21:00","1998","06","08","21:00"
"1998-06-08 22:00","1998","06","08","22:00"
"1998-06-08 23:00","1998","06","08","23:00"
"1998-06-09 00:00","1998","06","09","00:00"
"1998-06-09 01:00","1998","06","09","01:00"
"1998-06-09 02:00","1998","06","09","02:00"
"1998-06-09 03:00","1998","06","09","03:00"
"1998-06-09 04:00","1998","06","09","04:00"
"1998-06-09 05:00","1998","06","09","05:00","14.4","","13.5","","94","","2","","6","","16.1","","100.09","","","","","","Cloudy"
"1998-06-09 06:00","1998","06","09","06:00","14.9","","13.5","","91","","","","0","","16.1","","100.13","","","","","","Cloudy"
"1998-06-09 07:00","1998","06","09","07:00","14.9","","13.3","","90","","","","0","","16.1","","100.13","","","","","","Cloudy"
"1998-06-09 08:00","1998","06","09","08:00","15.1","","12.9","","87","","12","","9","","16.1","","100.13","","","","","","Cloudy"
"1998-06-09 09:00","1998","06","09","09:00","15.7","","12.6","","82","","13","","11","","16.1","","100.09","","","","","","Cloudy"
"1998-06-09 10:00","1998","06","09","10:00","15.7","","13.4","","86","","13","","9","","16.1","","100.06","","","","","","Rain"
"1998-06-09 11:00","1998","06","09","11:00","15.5","","13.2","","86","","10","","15","","16.1","","100.06","","","","","","Rain"
"1998-06-09 12:00","1998","06","09","12:00","15.3","","13.7","","90","","10","","9","","16.1","","100.03","","","","","","Rain"
"1998-06-09 13:00","1998","06","09","13:00","15.0","","13.7","","92","","9","","9","","16.1","","99.96","","","","","","Rain"
"1998-06-09 14:00","1998","06","09","14:00","14.8","","13.2","","90","","9","","19","","16.1","","99.93","","","","","","Rain"
"1998-06-09 15:00","1998","06","09","15:00","14.9","","14.1","","95","","9","","9","","12.9","","99.86","","","","","","Rain"
"1998-06-09 16:00","1998","06","09","16:00","13.7","","12.5","","92","","8","","9","","12.9","","99.83","","","","","","Rain"
"1998-06-09 17:00","1998","06","09","17:00","13.7","","13.1","","96","","9","","7","","4.8","","99.79","","","","","","Rain,Fog"
"1998-06-09 18:00","1998","06","09","18:00","13.9","","13.4","","97","","9","","9","","3.2","","99.72","","","","","","Rain,Fog"
"1998-06-09 19:00","1998","06","09","19:00","13.8","","13.2","","96","","9","","9","","2.4","","99.69","","","","","","Rain,Fog"
"1998-06-09 20:00","1998","06","09","20:00","13.5","","13.0","","97","","","","0","","2.4","","99.66","","","","","","Rain,Fog"
"1998-06-09 21:00","1998","06","09","21:00"
"1998-06-09 22:00","1998","06","09","22:00"
"1998-06-09 23:00","1998","06","09","23:00"
"1998-06-10 00:00","1998","06","10","00:00"
"1998-06-10 01:00","1998","06","10","01:00"
"1998-06-10 02:00","1998","06","10","02:00"
"1998-06-10 03:00","1998","06","10","03:00"
"1998-06-10 04:00","1998","06","10","04:00"
"1998-06-10 05:00","1998","06","10","05:00","11.8","","10.9","","94","","31","","7","","24.1","","99.79","","","","","","Cloudy"
"1998-06-10 06:00","1998","06","10","06:00","12.3","","11.0","","92","","30","","11","","24.1","","99.83","","","","","","Cloudy"
"1998-06-10 07:00","1998","06","10","07:00","12.8","","10.5","","86","","30","","9","","24.1","","99.86","","","","","","Cloudy"
"1998-06-10 08:00","1998","06","10","08:00","13.7","","11.3","","85","","30","","9","","24.1","","99.89","","","","","","Cloudy"
"1998-06-10 09:00","1998","06","10","09:00","14.6","","10.6","","77","","33","","13","","24.1","","99.89","","","","","","Mostly Cloudy"
"1998-06-10 10:00","1998","06","10","10:00","15.6","","10.3","","71","","30","","19","","24.1","","99.93","","","","","","Cloudy"
"1998-06-10 11:00","1998","06","10","11:00","17.1","","10.9","","67","","27","","15","","24.1","","99.93","","","","","","Mostly Cloudy"
"1998-06-10 12:00","1998","06","10","12:00","16.5","","11.2","","71","","35","","11","","24.1","","99.99","","","","","","Mostly Cloudy"
"1998-06-10 13:00","1998","06","10","13:00","17.5","","11.0","","66","","32","","9","","32.2","","100.03","","","","","","Mostly Cloudy"
"1998-06-10 14:00","1998","06","10","14:00","18.2","","11.0","","63","","33","","9","","32.2","","100.03","","","","","","Mostly Cloudy"
"1998-06-10 15:00","1998","06","10","15:00","17.9","","10.1","","60","","1","","19","","32.2","","100.03","","","","","","Mainly Clear"
"1998-06-10 16:00","1998","06","10","16:00","18.0","","9.8","","59","","34","","20","","32.2","","100.03","","","","","","Mainly Clear"
"1998-06-10 17:00","1998","06","10","17:00","17.5","","9.6","","60","","35","","22","","32.2","","100.06","","","","","","Mainly Clear"
"1998-06-10 18:00","1998","06","10","18:00","17.2","","9.8","","62","","35","","11","","32.2","","100.06","","","","","","Mainly Clear"
"1998-06-10 19:00","1998","06","10","19:00","16.4","","9.0","","62","","32","","28","","32.2","","100.13","","","","","","Mainly Clear"
"1998-06-10 20:00","1998","06","10","20:00","14.3","","7.9","","65","","31","","28","","32.2","","100.19","","","","","","Mainly Clear"
"1998-06-10 21:00","1998","06","10","21:00"
"1998-06-10 22:00","1998","06","10","22:00"
"1998-06-10 23:00","1998","06","10","23:00"
"1998-06-11 00:00","1998","06","11","00:00"
"1998-06-11 01:00","1998","06","11","01:00"
"1998-06-11 02:00","1998","06","11","02:00"
"1998-06-11 03:00","1998","06","11","03:00"
"1998-06-11 04:00","1998","06","11","04:00"
"1998-06-11 05:00","1998","06","11","05:00","8.6","","6.9","","89","","30","","7","","32.2","","100.53","","","","","","Mainly Clear"
"1998-06-11 06:00","1998","06","11","06:00","11.3","","8.3","","82","","30","","15","","32.2","","100.56","","","","","","Mainly Clear"
"1998-06-11 07:00","1998","06","11","07:00","13.5","","8.0","","69","","32","","32","","32.2","","100.60","","","","","","Mainly Clear"
"1998-06-11 08:00","1998","06","11","08:00","14.9","","7.5","","61","","31","","30","","32.2","","100.63","","","","","","Mainly Clear"
"1998-06-11 09:00","1998","06","11","09:00","16.5","","7.9","","57","","29","","22","","32.2","","100.66","","","","","","Mainly Clear"
"1998-06-11 10:00","1998","06","11","10:00","17.1","","8.0","","55","","33","","19","","32.2","","100.63","","","","","","Mainly Clear"
"1998-06-11 11:00","1998","06","11","11:00","17.5","","9.1","","58","","32","","19","","32.2","","100.63","","","","","","Mainly Clear"
"1998-06-11 12:00","1998","06","11","12:00","18.3","","8.8","","54","","34","","20","","32.2","","100.63","","","","","","Mainly Clear"
"1998-06-11 13:00","1998","06","11","13:00","18.9","","9.3","","54","","1","","28","","32.2","","100.60","","","","","","Mainly Clear"
"1998-06-11 14:00","1998","06","11","14:00","19.1","","8.1","","49","","36","","28","","32.2","","100.56","","","","","","Mostly Cloudy"
"1998-06-11 15:00","1998","06","11","15:00","19.7","","7.1","","44","","36","","22","","32.2","","100.53","","","","","","Mostly Cloudy"
"1998-06-11 16:00","1998","06","11","16:00","20.2","","5.3","","38","","33","","28","","32.2","","100.53","","","","","","Mainly Clear"
"1998-06-11 17:00","1998","06","11","17:00","19.6","","6.3","","42","","33","","19","","32.2","","100.50","","","","","","Clear"
"1998-06-11 18:00","1998","06","11","18:00","19.3","","5.7","","41","","33","","28","","32.2","","100.50","","","","","","Clear"
"1998-06-11 19:00","1998","06","11","19:00","18.2","","5.4","","43","","32","","28","","32.2","","100.46","","","","","","Clear"
"1998-06-11 20:00","1998","06","11","20:00","16.3","","4.3","","45","","31","","28","","32.2","","100.46","","","","","","Clear"
"1998-06-11 21:00","1998","06","11","21:00"
"1998-06-11 22:00","1998","06","11","22:00"
"1998-06-11 23:00","1998","06","11","23:00"
"1998-06-12 00:00","1998","06","12","00:00"
"1998-06-12 01:00","1998","06","12","01:00"
"1998-06-12 02:00","1998","06","12","02:00"
"1998-06-12 03:00","1998","06","12","03:00"
"1998-06-12 04:00","1998","06","12","04:00"
"1998-06-12 05:00","1998","06","12","05:00","9.2","","4.9","","74","","27","","9","","32.2","","100.70","","","","","","Mainly Clear"
"1998-06-12 06:00","1998","06","12","06:00","10.6","","5.3","","70","","30","","7","","32.2","","100.73","","","","","","Mainly Clear"
"1998-06-12 07:00","1998","06","12","07:00","13.6","","6.2","","61","","30","","22","","32.2","","100.73","","","","","","Mainly Clear"
"1998-06-12 08:00","1998","06","12","08:00","15.1","","6.6","","57","","31","","22","","32.2","","100.73","","","","","","Mainly Clear"
"1998-06-12 09:00","1998","06","12","09:00","16.5","","7.1","","54","","32","","28","","32.2","","100.73","","","","","","Mainly Clear"
"1998-06-12 10:00","1998","06","12","10:00","17.8","","7.0","","49","","31","","28","","32.2","","100.66","","","","","","Mainly Clear"
"1998-06-12 11:00","1998","06","12","11:00","19.3","","7.8","","47","","30","","28","","32.2","","100.63","","","","","","Mainly Clear"
"1998-06-12 12:00","1998","06","12","12:00","20.0","","8.6","","48","","32","","28","","32.2","","100.63","","","","","","Mainly Clear"
"1998-06-12 13:00","1998","06","12","13:00","20.8","","8.1","","44","","35","","19","","32.2","","100.53","","","","","","Mainly Clear"
"1998-06-12 14:00","1998","06","12","14:00","21.8","","7.5","","40","","35","","24","","32.2","","100.50","","","","","","Mainly Clear"
"1998-06-12 15:00","1998","06","12","15:00","22.9","","4.9","","31","","33","","22","","32.2","","100.43","","","","","","Mainly Clear"
"1998-06-12 16:00","1998","06","12","16:00","23.4","","5.2","","31","","32","","28","","32.2","","100.43","","","","","","Mainly Clear"
"1998-06-12 17:00","1998","06","12","17:00","23.1","","5.8","","33","","32","","28","","32.2","","100.36","","","","","","Mainly Clear"
"1998-06-12 18:00","1998","06","12","18:00","22.2","","5.2","","33","","31","","30","","32.2","","100.36","","","","","","Mainly Clear"
"1998-06-12 19:00","1998","06","12","19:00","20.7","","5.2","","36","","31","","24","","32.2","","100.36","","","","","","Mainly Clear"
"1998-06-12 20:00","1998","06","12","20:00","17.5","","4.9","","43","","32","","33","","32.2","","100.40","","","","","","Mainly Clear"
"1998-06-12 21:00","1998","06","12","21:00"
"1998-06-12 22:00","1998","06","12","22:00"
"1998-06-12 23:00","1998","06","12","23:00"
"1998-06-13 00:00","1998","06","13","00:00"
"1998-06-13 01:00","1998","06","13","01:00"
"1998-06-13 02:00","1998","06","13","02:00"
"1998-06-13 03:00","1998","06","13","03:00"
"1998-06-13 04:00","1998","06","13","04:00"
"1998-06-13 05:00","1998","06","13","05:00","11.2","","6.0","","70","","31","","19","","32.2","","100.43","","","","","","Mainly Clear"
"1998-06-13 06:00","1998","06","13","06:00","13.4","","6.0","","61","","30","","20","","32.2","","100.46","","","","","","Mainly Clear"
"1998-06-13 07:00","1998","06","13","07:00","15.5","","6.0","","53","","32","","32","","32.2","","100.50","","","","","","Mainly Clear"
"1998-06-13 08:00","1998","06","13","08:00","16.5","","6.5","","52","","34","","28","","32.2","","100.50","","","","","","Mainly Clear"
"1998-06-13 09:00","1998","06","13","09:00","17.1","","7.9","","55","","34","","19","","32.2","","100.60","","","","","","Mainly Clear"
"1998-06-13 10:00","1998","06","13","10:00","17.4","","6.1","","47","","32","","28","","32.2","","100.63","","","","","","Mainly Clear"
"1998-06-13 11:00","1998","06","13","11:00","18.7","","7.7","","49","","34","","30","","32.2","","100.63","","","","","","Mainly Clear"
"1998-06-13 12:00","1998","06","13","12:00","19.4","","6.9","","44","","32","","28","","32.2","","100.70","","","","","","Mainly Clear"
"1998-06-13 13:00","1998","06","13","13:00","19.2","","7.5","","47","","1","","22","","32.2","","100.70","","","","","","Mainly Clear"
"1998-06-13 14:00","1998","06","13","14:00","19.8","","7.6","","45","","1","","22","","32.2","","100.73","","","","","","Mainly Clear"
"1998-06-13 15:00","1998","06","13","15:00","19.9","","7.6","","45","","36","","28","","32.2","","100.80","","","","","","Mainly Clear"
"1998-06-13 16:00","1998","06","13","16:00","19.9","","8.5","","48","","3","","22","","32.2","","100.80","","","","","","Mostly Cloudy"
"1998-06-13 17:00","1998","06","13","17:00","19.7","","5.6","","40","","34","","26","","32.2","","100.83","","","","","","Mainly Clear"
"1998-06-13 18:00","1998","06","13","18:00","18.9","","5.7","","42","","31","","26","","32.2","","100.83","","","","","","Mostly Cloudy"
"1998-06-13 19:00","1998","06","13","19:00","16.4","","6.7","","53","","31","","22","","32.2","","100.90","","","","","","Mostly Cloudy"
"1998-06-13 20:00","1998","06","13","20:00","15.4","","6.4","","55","","33","","20","","32.2","","100.90","","","","","","Mostly Cloudy"
"1998-06-13 21:00","1998","06","13","21:00"
"1998-06-13 22:00","1998","06","13","22:00"
"1998-06-13 23:00","1998","06","13","23:00"
"1998-06-14 00:00","1998","06","14","00:00"
"1998-06-14 01:00","1998","06","14","01:00"
"1998-06-14 02:00","1998","06","14","02:00"
"1998-06-14 03:00","1998","06","14","03:00"
"1998-06-14 04:00","1998","06","14","04:00"
"1998-06-14 05:00","1998","06","14","05:00","10.9","","9.4","","90","","","","0","","24.1","","101.37","","","","","","Rain Showers"
"1998-06-14 06:00","1998","06","14","06:00","11.3","","9.5","","89","","24","","6","","24.1","","101.40","","","","","","Rain"
"1998-06-14 07:00","1998","06","14","07:00","11.7","","10.1","","90","","","","0","","24.1","","101.43","","","","","","Rain"
"1998-06-14 08:00","1998","06","14","08:00","12.4","","10.1","","86","","13","","6","","19.3","","101.43","","","","","","Rain"
"1998-06-14 09:00","1998","06","14","09:00","13.1","","10.2","","83","","10","","9","","19.3","","101.40","","","","","","Rain Showers"
"1998-06-14 10:00","1998","06","14","10:00","13.1","","9.1","","77","","6","","9","","19.3","","101.40","","","","","","Rain Showers"
"1998-06-14 11:00","1998","06","14","11:00","13.9","","9.2","","73","","9","","9","","19.3","","101.37","","","","","","Cloudy"
"1998-06-14 12:00","1998","06","14","12:00","13.5","","9.8","","78","","3","","9","","16.1","","101.40","","","","","","Rain Showers"
"1998-06-14 13:00","1998","06","14","13:00","13.5","","10.8","","84","","12","","9","","16.1","","101.30","","","","","","Rain Showers"
"1998-06-14 14:00","1998","06","14","14:00","13.4","","11.0","","85","","7","","6","","16.1","","101.30","","","","","","Rain Showers"
"1998-06-14 15:00","1998","06","14","15:00","14.0","","11.2","","83","","5","","4","","16.1","","101.27","","","","","","Rain Showers"
"1998-06-14 16:00","1998","06","14","16:00","13.3","","11.4","","88","","11","","9","","12.9","","101.20","","","","","","Rain Showers"
"1998-06-14 17:00","1998","06","14","17:00","12.9","","11.8","","93","","","","0","","11.3","","101.10","","","","","","Rain Showers"
"1998-06-14 18:00","1998","06","14","18:00","13.3","","12.2","","93","","7","","13","","11.3","","100.96","","","","","","Cloudy"
"1998-06-14 19:00","1998","06","14","19:00","13.0","","11.9","","93","","8","","9","","11.3","","100.90","","","","","","Cloudy"
"1998-06-14 20:00","1998","06","14","20:00","12.9","","11.6","","92","","4","","4","","11.3","","100.73","","","","","","Cloudy"
"1998-06-14 21:00","1998","06","14","21:00"
"1998-06-14 22:00","1998","06","14","22:00"
"1998-06-14 23:00","1998","06","14","23:00"
"1998-06-15 00:00","1998","06","15","00:00"
"1998-06-15 01:00","1998","06","15","01:00"
"1998-06-15 02:00","1998","06","15","02:00"
"1998-06-15 03:00","1998","06","15","03:00"
"1998-06-15 04:00","1998","06","15","04:00"
"1998-06-15 05:00","1998","06","15","05:00","8.6","","5.1","","79","","31","","7","","32.2","","100.43","","","","","","Mainly Clear"
"1998-06-15 06:00","1998","06","15","06:00","9.4","","5.4","","76","","32","","19","","32.2","","100.43","","","","","","Mostly Cloudy"
"1998-06-15 07:00","1998","06","15","07:00","10.1","","5.8","","75","","33","","4","","32.2","","100.43","","","","","","Mainly Clear"
"1998-06-15 08:00","1998","06","15","08:00","12.4","","5.1","","61","","33","","28","","32.2","","100.43","","","","","","Mainly Clear"
"1998-06-15 09:00","1998","06","15","09:00","14.1","","4.5","","52","","34","","28","","32.2","","100.36","","","","","","Mainly Clear"
"1998-06-15 10:00","1998","06","15","10:00","15.5","","5.3","","51","","34","","28","","32.2","","100.29","","","","","","Mainly Clear"
"1998-06-15 11:00","1998","06","15","11:00","15.3","","5.9","","53","","35","","26","","32.2","","100.26","","","","","","Mostly Cloudy"
"1998-06-15 12:00","1998","06","15","12:00","15.6","","6.6","","55","","3","","26","","32.2","","100.23","","","","","","Mostly Cloudy"
"1998-06-15 13:00","1998","06","15","13:00","16.4","","5.6","","49","","30","","28","","32.2","","100.23","","","","","","Mostly Cloudy"
"1998-06-15 14:00","1998","06","15","14:00","17.7","","7.2","","50","","31","","33","","48.3","","100.26","","","","","","Mostly Cloudy"
"1998-06-15 15:00","1998","06","15","15:00"
"1998-06-15 16:00","1998","06","15","16:00","17.1","","4.2","","42","","31","","33","","48.3","","100.26","","","","","","Mostly Cloudy"
"1998-06-15 17:00","1998","06","15","17:00","16.9","","5.8","","48","","32","","35","","48.3","","100.29","","","","","","Mainly Clear"
"1998-06-15 18:00","1998","06","15","18:00","16.4","","6.0","","50","","29","","30","","48.3","","100.33","","","","","","Mainly Clear"
"1998-06-15 19:00","1998","06","15","19:00","15.2","","5.7","","53","","30","","37","","48.3","","100.40","","","","","","Clear"
"1998-06-15 20:00","1998","06","15","20:00","13.8","","5.5","","57","","31","","33","","48.3","","100.43","","","","","","Clear"
"1998-06-15 21:00","1998","06","15","21:00"
"1998-06-15 22:00","1998","06","15","22:00"
"1998-06-15 23:00","1998","06","15","23:00"
"1998-06-16 00:00","1998","06","16","00:00"
"1998-06-16 01:00","1998","06","16","01:00"
"1998-06-16 02:00","1998","06","16","02:00"
"1998-06-16 03:00","1998","06","16","03:00"
"1998-06-16 04:00","1998","06","16","04:00"
"1998-06-16 05:00","1998","06","16","05:00","9.6","","6.7","","82","","32","","24","","32.2","","100.63","","","","","","Clear"
"1998-06-16 06:00","1998","06","16","06:00","10.4","","7.0","","79","","33","","22","","32.2","","100.66","","","","","","Clear"
"1998-06-16 07:00","1998","06","16","07:00","12.5","","7.6","","72","","31","","19","","32.2","","100.66","","","","","","Clear"
"1998-06-16 08:00","1998","06","16","08:00","14.3","","7.9","","65","","32","","13","","32.2","","100.66","","","","","","Mainly Clear"
"1998-06-16 09:00","1998","06","16","09:00","16.4","","8.7","","60","","21","","4","","32.2","","100.63","","","","","","Mostly Cloudy"
"1998-06-16 10:00","1998","06","16","10:00","17.5","","9.6","","60","","10","","11","","32.2","","100.63","","","","","","Mainly Clear"
"1998-06-16 11:00","1998","06","16","11:00","17.6","","9.6","","59","","7","","13","","32.2","","100.63","","","","","","Mainly Clear"
"1998-06-16 12:00","1998","06","16","12:00","18.8","","9.9","","56","","10","","7","","32.2","","100.60","","","","","","Mainly Clear"
"1998-06-16 13:00","1998","06","16","13:00","20.3","","9.7","","51","","12","","9","","32.2","","100.60","","","","","","Mostly Cloudy"
"1998-06-16 14:00","1998","06","16","14:00","20.1","","9.9","","52","","9","","11","","32.2","","100.53","","","","","","Mostly Cloudy"
"1998-06-16 15:00","1998","06","16","15:00","21.1","","9.8","","48","","9","","9","","32.2","","100.53","","","","","","Mostly Cloudy"
"1998-06-16 16:00","1998","06","16","16:00","20.7","","9.9","","50","","9","","15","","32.2","","100.50","","","","","","Mostly Cloudy"
"1998-06-16 17:00","1998","06","16","17:00","20.4","","9.8","","51","","7","","9","","32.2","","100.46","","","","","","Mostly Cloudy"
"1998-06-16 18:00","1998","06","16","18:00","20.3","","9.5","","50","","8","","6","","32.2","","100.50","","","","","","Mostly Cloudy"
"1998-06-16 19:00","1998","06","16","19:00","19.1","","11.4","","61","","10","","6","","32.2","","100.53","","","","","","Mostly Cloudy"
"1998-06-16 20:00","1998","06","16","20:00","16.9","","10.5","","66","","","","0","","32.2","","100.53","","","","","","Mostly Cloudy"
"1998-06-16 21:00","1998","06","16","21:00"
"1998-06-16 22:00","1998","06","16","22:00"
"1998-06-16 23:00","1998","06","16","23:00"
"1998-06-17 00:00","1998","06","17","00:00"
"1998-06-17 01:00","1998","06","17","01:00"
"1998-06-17 02:00","1998","06","17","02:00"
"1998-06-17 03:00","1998","06","17","03:00"
"1998-06-17 04:00","1998","06","17","04:00"
"1998-06-17 05:00","1998","06","17","05:00","12.3","","9.2","","81","","","","0","","32.2","","100.46","","","","","","Cloudy"
"1998-06-17 06:00","1998","06","17","06:00","12.4","","9.7","","84","","","","0","","32.2","","100.43","","","","","","Cloudy"
"1998-06-17 07:00","1998","06","17","07:00","12.4","","10.2","","86","","29","","4","","32.2","","100.43","","","","","","Rain Showers"
"1998-06-17 08:00","1998","06","17","08:00","12.4","","10.7","","89","","","","0","","32.2","","100.43","","","","","","Rain Showers"
"1998-06-17 09:00","1998","06","17","09:00","12.5","","10.8","","89","","","","0","","32.2","","100.43","","","","","","Rain Showers"
"1998-06-17 10:00","1998","06","17","10:00","13.0","","10.7","","86","","","","0","","16.1","","100.43","","","","","","Rain Showers"
"1998-06-17 11:00","1998","06","17","11:00","14.0","","10.7","","80","","8","","4","","16.1","","100.43","","","","","","Cloudy"
"1998-06-17 12:00","1998","06","17","12:00","14.6","","10.3","","75","","11","","9","","16.1","","100.43","","","","","","Cloudy"
"1998-06-17 13:00","1998","06","17","13:00","15.6","","10.6","","72","","9","","6","","16.1","","100.40","","","","","","Cloudy"
"1998-06-17 14:00","1998","06","17","14:00","14.5","","10.8","","78","","8","","15","","16.1","","100.40","","","","","","Cloudy"
"1998-06-17 15:00","1998","06","17","15:00","14.6","","10.8","","78","","12","","15","","16.1","","100.40","","","","","","Cloudy"
"1998-06-17 16:00","1998","06","17","16:00","15.6","","10.7","","73","","12","","11","","16.1","","100.36","","","","","","Cloudy"
"1998-06-17 17:00","1998","06","17","17:00","15.3","","10.3","","72","","10","","7","","16.1","","100.36","","","","","","Cloudy"
"1998-06-17 18:00","1998","06","17","18:00","15.0","","11.3","","79","","4","","7","E","16.1","","100.33","","","","","","Cloudy"
"1998-06-17 19:00","1998","06","17","19:00","13.8","","10.9","","83","","8","","7","","16.1","","100.33","","","","","","Cloudy"
"1998-06-17 20:00","1998","06","17","20:00","12.5","","10.3","","86","","12","","7","","16.1","","100.33","","","","","","Cloudy"
"1998-06-17 21:00","1998","06","17","21:00"
"1998-06-17 22:00","1998","06","17","22:00"
"1998-06-17 23:00","1998","06","17","23:00"
"1998-06-18 00:00","1998","06","18","00:00"
"1998-06-18 01:00","1998","06","18","01:00"
"1998-06-18 02:00","1998","06","18","02:00"
"1998-06-18 03:00","1998","06","18","03:00"
"1998-06-18 04:00","1998","06","18","04:00"
"1998-06-18 05:00","1998","06","18","05:00","11.1","","10.1","","94","","30","","9","","8.0","","100.29","","","","","","Rain Showers,Fog"
"1998-06-18 06:00","1998","06","18","06:00","10.6","","9.6","","94","","33","","11","","8.0","","100.29","","","","","","Rain Showers,Fog"
"1998-06-18 07:00","1998","06","18","07:00","10.6","","9.7","","94","","30","","7","","9.7","","100.29","","","","","","Rain Showers"
"1998-06-18 08:00","1998","06","18","08:00","10.7","","9.6","","93","","30","","7","","8.0","","100.33","","","","","","Rain Showers,Fog"
"1998-06-18 09:00","1998","06","18","09:00","11.0","","9.7","","92","","30","","7","","8.0","","100.36","","","","","","Rain Showers,Fog"
"1998-06-18 10:00","1998","06","18","10:00","11.2","","10.0","","92","","30","","9","","8.0","","100.40","","","","","","Rain Showers,Fog"
"1998-06-18 11:00","1998","06","18","11:00","11.7","","9.9","","89","","30","","9","","8.0","","100.43","","","","","","Rain Showers,Fog"
"1998-06-18 12:00","1998","06","18","12:00","12.1","","10.5","","90","","33","","9","","8.0","","100.50","","","","","","Rain Showers,Fog"
"1998-06-18 13:00","1998","06","18","13:00","13.4","","10.8","","84","","31","","13","","24.1","","100.50","","","","","","Rain Showers"
"1998-06-18 14:00","1998","06","18","14:00","13.8","","10.3","","79","","36","","6","","32.2","","100.50","","","","","","Mostly Cloudy"
"1998-06-18 15:00","1998","06","18","15:00","16.1","","11.0","","72","","33","","9","","32.2","","100.50","","","","","","Mainly Clear"
"1998-06-18 16:00","1998","06","18","16:00","15.1","","10.5","","74","","8","","7","","32.2","","100.50","","","","","","Mainly Clear"
"1998-06-18 17:00","1998","06","18","17:00","16.8","","11.2","","70","","6","","7","","32.2","","100.50","","","","","","Mainly Clear"
"1998-06-18 18:00","1998","06","18","18:00","16.6","","10.7","","68","","7","","6","","32.2","","100.53","","","","","","Mainly Clear"
"1998-06-18 19:00","1998","06","18","19:00","16.1","","11.7","","75","","","","0","","32.2","","100.53","","","","","","Mainly Clear"
"1998-06-18 20:00","1998","06","18","20:00","14.8","","11.6","","81","","","","0","","32.2","","100.53","","","","","","Mainly Clear"
"1998-06-18 21:00","1998","06","18","21:00"
"1998-06-18 22:00","1998","06","18","22:00"
"1998-06-18 23:00","1998","06","18","23:00"
"1998-06-19 00:00","1998","06","19","00:00"
"1998-06-19 01:00","1998","06","19","01:00"
"1998-06-19 02:00","1998","06","19","02:00"
"1998-06-19 03:00","1998","06","19","03:00"
"1998-06-19 04:00","1998","06","19","04:00"
"1998-06-19 05:00","1998","06","19","05:00","8.6","","7.4","","92","","28","","6","","32.2","","100.63","","","","","","Mainly Clear"
"1998-06-19 06:00","1998","06","19","06:00","10.6","","8.6","","87","","28","","9","","32.2","","100.66","","","","","","Mainly Clear"
"1998-06-19 07:00","1998","06","19","07:00","14.0","","10.1","","77","","33","","9","","32.2","","100.73","","","","","","Mainly Clear"
"1998-06-19 08:00","1998","06","19","08:00","14.7","","9.7","","72","","31","","22","","32.2","","100.73","","","","","","Mainly Clear"
"1998-06-19 09:00","1998","06","19","09:00","16.0","","10.1","","68","","31","","11","","32.2","","100.73","","","","","","Mainly Clear"
"1998-06-19 10:00","1998","06","19","10:00","17.6","","10.8","","64","","31","","13","","32.2","","100.70","","","","","","Mainly Clear"
"1998-06-19 11:00","1998","06","19","11:00"
"1998-06-19 12:00","1998","06","19","12:00","17.9","","11.5","","66","","9","","11","","32.2","","100.73","","","","","","Mainly Clear"
"1998-06-19 13:00","1998","06","19","13:00","18.4","","11.2","","63","","9","","13","","32.2","","100.73","","","","","","Mainly Clear"
"1998-06-19 14:00","1998","06","19","14:00","19.0","","11.6","","62","","11","","9","","32.2","","100.73","","","","","","Mainly Clear"
"1998-06-19 15:00","1998","06","19","15:00","20.0","","12.1","","60","","11","","9","","32.2","","100.73","","","","","","Mainly Clear"
"1998-06-19 16:00","1998","06","19","16:00","20.0","","12.0","","60","","9","","9","","32.2","","100.70","","","","","","Mainly Clear"
"1998-06-19 17:00","1998","06","19","17:00","19.4","","12.2","","63","","9","","9","","32.2","","100.66","","","","","","Mainly Clear"
"1998-06-19 18:00","1998","06","19","18:00","18.9","","11.9","","64","","10","","9","","32.2","","100.66","","","","","","Mainly Clear"
"1998-06-19 19:00","1998","06","19","19:00","18.1","","11.4","","65","","10","","9","","32.2","","100.70","","","","","","Mainly Clear"
"1998-06-19 20:00","1998","06","19","20:00","15.8","","11.5","","76","","","","0","","32.2","","100.70","","","","","","Mainly Clear"
"1998-06-19 21:00","1998","06","19","21:00"
"1998-06-19 22:00","1998","06","19","22:00"
"1998-06-19 23:00","1998","06","19","23:00"
"1998-06-20 00:00","1998","06","20","00:00"
"1998-06-20 01:00","1998","06","20","01:00"
"1998-06-20 02:00","1998","06","20","02:00"
"1998-06-20 03:00","1998","06","20","03:00"
"1998-06-20 04:00","1998","06","20","04:00"
"1998-06-20 05:00","1998","06","20","05:00","12.3","","10.7","","90","","31","","9","","24.1","","100.76","","","","","","Mostly Cloudy"
"1998-06-20 06:00","1998","06","20","06:00","12.8","","10.8","","88","","30","","9","","24.1","","100.73","","","","","","Cloudy"
"1998-06-20 07:00","1998","06","20","07:00","13.9","","11.0","","83","","30","","9","","24.1","","100.73","","","","","","Cloudy"
"1998-06-20 08:00","1998","06","20","08:00","14.9","","11.0","","77","","32","","19","","24.1","","100.73","","","","","","Mostly Cloudy"
"1998-06-20 09:00","1998","06","20","09:00","16.6","","11.8","","73","","32","","15","","24.1","","100.70","","","","","","Mostly Cloudy"
"1998-06-20 10:00","1998","06","20","10:00","18.2","","12.9","","71","","35","","9","","24.1","","100.70","","","","","","Mostly Cloudy"
"1998-06-20 11:00","1998","06","20","11:00","18.5","","12.9","","70","","12","","9","","24.1","","100.66","","","","","","Mostly Cloudy"
"1998-06-20 12:00","1998","06","20","12:00","19.5","","13.0","","66","","11","","9","","32.2","","100.63","","","","","","Mainly Clear"
"1998-06-20 13:00","1998","06","20","13:00","21.0","","13.7","","63","","6","","9","","32.2","","100.53","","","","","","Mainly Clear"
"1998-06-20 14:00","1998","06","20","14:00","21.2","","13.1","","60","","6","","13","","32.2","","100.46","","","","","","Mainly Clear"
"1998-06-20 15:00","1998","06","20","15:00","22.2","","13.5","","58","","7","","7","","32.2","","100.40","","25","","","","Mainly Clear"
"1998-06-20 16:00","1998","06","20","16:00","23.6","","14.4","","56","","3","","4","","32.2","","100.33","","27","","","","Mainly Clear"
"1998-06-20 17:00","1998","06","20","17:00","23.9","","13.9","","54","","34","","4","","32.2","","100.26","","27","","","","Mainly Clear"
"1998-06-20 18:00","1998","06","20","18:00","23.5","","13.6","","54","","36","","6","","32.2","","100.23","","27","","","","Mainly Clear"
"1998-06-20 19:00","1998","06","20","19:00","22.9","","14.7","","60","","36","","15","","32.2","","100.26","","27","","","","Mainly Clear"
"1998-06-20 20:00","1998","06","20","20:00","20.3","","12.8","","62","","30","","7","","32.2","","100.26","","","","","","Mainly Clear"
"1998-06-20 21:00","1998","06","20","21:00"
"1998-06-20 22:00","1998","06","20","22:00"
"1998-06-20 23:00","1998","06","20","23:00"
"1998-06-21 00:00","1998","06","21","00:00"
"1998-06-21 01:00","1998","06","21","01:00"
"1998-06-21 02:00","1998","06","21","02:00"
"1998-06-21 03:00","1998","06","21","03:00"
"1998-06-21 04:00","1998","06","21","04:00"
"1998-06-21 05:00","1998","06","21","05:00","10.6","","9.3","","92","","28","","6","","32.2","","100.40","","","","","","Mainly Clear"
"1998-06-21 06:00","1998","06","21","06:00","11.7","","9.7","","88","","29","","7","","32.2","","100.43","","","","","","Mainly Clear"
"1998-06-21 07:00","1998","06","21","07:00","14.2","","10.7","","79","","31","","15","","32.2","","100.43","","","","","","Mainly Clear"
"1998-06-21 08:00","1998","06","21","08:00","15.7","","10.7","","72","","30","","13","","32.2","","100.43","","","","","","Clear"
"1998-06-21 09:00","1998","06","21","09:00","17.8","","12.0","","69","","32","","13","","32.2","","100.43","","","","","","Mainly Clear"
"1998-06-21 10:00","1998","06","21","10:00","20.0","","12.9","","64","","31","","7","","32.2","","100.36","","","","","","Clear"
"1998-06-21 11:00","1998","06","21","11:00","21.3","","13.7","","62","","15","","9","","32.2","","100.33","","","","","","Mainly Clear"
"1998-06-21 12:00","1998","06","21","12:00","21.8","","13.8","","60","","9","","11","","32.2","","100.29","","25","","","","Mainly Clear"
"1998-06-21 13:00","1998","06","21","13:00","23.5","","14.4","","57","","4","","11","","32.2","","100.23","","27","","","","Mainly Clear"
"1998-06-21 14:00","1998","06","21","14:00","24.2","","14.5","","55","","5","","9","","32.2","","100.19","","28","","","","Mainly Clear"
"1998-06-21 15:00","1998","06","21","15:00","25.6","","15.2","","53","","14","","4","","32.2","","100.13","","30","","","","Mainly Clear"
"1998-06-21 16:00","1998","06","21","16:00","26.0","","14.5","","49","","3","","11","","32.2","","100.06","","30","","","","Mainly Clear"
"1998-06-21 17:00","1998","06","21","17:00","26.0","","14.7","","50","","11","","9","","32.2","","99.99","","30","","","","Clear"
"1998-06-21 18:00","1998","06","21","18:00","25.2","","11.6","","43","","31","","13","","32.2","","99.99","","27","","","","Mainly Clear"
"1998-06-21 19:00","1998","06","21","19:00","23.8","","8.0","","36","","31","","9","","32.2","","100.03","","","","","","Mainly Clear"
"1998-06-21 20:00","1998","06","21","20:00","19.7","","9.0","","50","","29","","17","","32.2","","100.03","","","","","","Mostly Cloudy"
"1998-06-21 21:00","1998","06","21","21:00"
"1998-06-21 22:00","1998","06","21","22:00"
"1998-06-21 23:00","1998","06","21","23:00"
"1998-06-22 00:00","1998","06","22","00:00"
"1998-06-22 01:00","1998","06","22","01:00"
"1998-06-22 02:00","1998","06","22","02:00"
"1998-06-22 03:00","1998","06","22","03:00"
"1998-06-22 04:00","1998","06","22","04:00"
"1998-06-22 05:00","1998","06","22","05:00","13.0","","9.5","","79","","","","0","","32.2","","100.09","","","","","","Mostly Cloudy"
"1998-06-22 06:00","1998","06","22","06:00","13.6","","9.8","","78","","29","","9","","32.2","","100.09","","","","","","Mostly Cloudy"
"1998-06-22 07:00","1998","06","22","07:00","14.7","","9.9","","73","","28","","9","","32.2","","100.13","","","","","","Mostly Cloudy"
"1998-06-22 08:00","1998","06","22","08:00","15.2","","10.0","","71","","33","","9","","32.2","","100.13","","","","","","Mostly Cloudy"
"1998-06-22 09:00","1998","06","22","09:00","17.6","","10.8","","64","","33","","9","","32.2","","100.13","","","","","","Mostly Cloudy"
"1998-06-22 10:00","1998","06","22","10:00","19.1","","11.8","","63","","6","","9","","32.2","","100.13","","","","","","Mostly Cloudy"
"1998-06-22 11:00","1998","06","22","11:00","19.8","","12.3","","62","","6","","9","","32.2","","100.09","","","","","","Mostly Cloudy"
"1998-06-22 12:00","1998","06","22","12:00","21.5","","12.4","","56","","","","0","","32.2","","100.09","","","","","","Mostly Cloudy"
"1998-06-22 13:00","1998","06","22","13:00","22.6","","12.7","","54","","9","","19","","32.2","","100.06","","25","","","","Mostly Cloudy"
"1998-06-22 14:00","1998","06","22","14:00","22.3","","11.6","","51","","7","","6","","32.2","","99.99","","","","","","Mostly Cloudy"
"1998-06-22 15:00","1998","06","22","15:00","23.7","","12.6","","50","","7","","9","","48.3","","99.96","","26","","","","Mostly Cloudy"
"1998-06-22 16:00","1998","06","22","16:00","23.0","","11.9","","50","","10","","9","","32.2","","99.96","","25","","","","Mostly Cloudy"
"1998-06-22 17:00","1998","06","22","17:00","22.9","","12.7","","53","","","","0","","48.3","","99.93","","26","","","","Mostly Cloudy"
"1998-06-22 18:00","1998","06","22","18:00","22.4","","12.1","","52","","34","","11","","48.3","","99.89","","25","","","","Mostly Cloudy"
"1998-06-22 19:00","1998","06","22","19:00","21.2","","12.0","","56","","33","","7","","48.3","","99.93","","","","","","Mostly Cloudy"
"1998-06-22 20:00","1998","06","22","20:00","20.1","","12.8","","63","","31","","4","","48.3","","99.93","","","","","","Mostly Cloudy"
"1998-06-22 21:00","1998","06","22","21:00"
"1998-06-22 22:00","1998","06","22","22:00"
"1998-06-22 23:00","1998","06","22","23:00"
"1998-06-23 00:00","1998","06","23","00:00"
"1998-06-23 01:00","1998","06","23","01:00"
"1998-06-23 02:00","1998","06","23","02:00"
"1998-06-23 03:00","1998","06","23","03:00"
"1998-06-23 04:00","1998","06","23","04:00"
"1998-06-23 05:00","1998","06","23","05:00","14.1","","10.8","","81","","","","0","","32.2","","99.96","","","","","","Cloudy"
"1998-06-23 06:00","1998","06","23","06:00","14.3","","10.8","","79","","","","0","","32.2","","99.96","","","","","","Mostly Cloudy"
"1998-06-23 07:00","1998","06","23","07:00","14.2","","10.9","","81","","31","","4","","32.2","","99.99","","","","","","Mostly Cloudy"
"1998-06-23 08:00","1998","06","23","08:00","14.5","","11.3","","81","","","","0","","32.2","","99.96","","","","","","Mostly Cloudy"
"1998-06-23 09:00","1998","06","23","09:00","15.1","","11.2","","78","","","","0","","32.2","","99.99","","","","","","Cloudy"
"1998-06-23 10:00","1998","06","23","10:00","16.6","","11.9","","74","","8","","13","","32.2","","99.96","","","","","","Mostly Cloudy"
"1998-06-23 11:00","1998","06","23","11:00","16.4","","11.5","","73","","9","","9","","32.2","","99.96","","","","","","Mostly Cloudy"
"1998-06-23 12:00","1998","06","23","12:00","15.6","","11.6","","77","","10","","9","","32.2","","99.93","","","","","","Cloudy"
"1998-06-23 13:00","1998","06","23","13:00","16.3","","11.4","","73","","10","","11","","32.2","","99.89","","","","","","Cloudy"
"1998-06-23 14:00","1998","06","23","14:00","16.1","","13.0","","82","","12","","9","","24.1","","99.86","","","","","","Rain Showers"
"1998-06-23 15:00","1998","06","23","15:00","15.6","","13.3","","86","","10","","13","","24.1","","99.83","","","","","","Cloudy"
"1998-06-23 16:00","1998","06","23","16:00","15.1","","13.5","","90","","11","","9","","16.1","","99.76","","","","","","Rain Showers"
"1998-06-23 17:00","1998","06","23","17:00","14.6","","13.7","","94","","12","","9","","4.8","","99.76","","","","","","Rain Showers,Fog"
"1998-06-23 18:00","1998","06","23","18:00","14.6","","13.7","","94","","12","","13","","8.0","","99.69","","","","","","Rain Showers,Fog"
"1998-06-23 19:00","1998","06","23","19:00","14.2","","13.2","","94","","11","","11","","4.8","","99.66","","","","","","Drizzle,Fog"
"1998-06-23 20:00","1998","06","23","20:00","13.8","","12.9","","94","","10","","7","","19.3","","99.59","","","","","","Cloudy"
"1998-06-23 21:00","1998","06","23","21:00"
"1998-06-23 22:00","1998","06","23","22:00"
"1998-06-23 23:00","1998","06","23","23:00"
"1998-06-24 00:00","1998","06","24","00:00"
"1998-06-24 01:00","1998","06","24","01:00"
"1998-06-24 02:00","1998","06","24","02:00"
"1998-06-24 03:00","1998","06","24","03:00"
"1998-06-24 04:00","1998","06","24","04:00"
"1998-06-24 05:00","1998","06","24","05:00","11.4","","10.6","","95","","13","","9","","3.2","","99.26","","","","","","Drizzle,Fog"
"1998-06-24 06:00","1998","06","24","06:00","11.6","","10.1","","91","","11","","6","","3.2","","99.19","","","","","","Rain,Drizzle,Fog"
"1998-06-24 07:00","1998","06","24","07:00","12.1","","11.0","","93","","17","","7","","9.7","","99.15","","","","","","Fog"
"1998-06-24 08:00","1998","06","24","08:00","12.7","","11.6","","93","","12","","13","","9.7","","99.12","","","","","","Fog"
"1998-06-24 09:00","1998","06","24","09:00","12.6","","11.5","","93","","12","","19","","8.0","","99.12","","","","","","Fog"
"1998-06-24 10:00","1998","06","24","10:00","13.4","","12.0","","91","","11","","13","","8.0","","99.09","","","","","","Fog"
"1998-06-24 11:00","1998","06","24","11:00","13.7","","12.0","","89","","10","","20","","11.3","","99.05","","","","","","Cloudy"
"1998-06-24 12:00","1998","06","24","12:00","13.5","","11.9","","90","","10","","28","","9.7","","99.05","","","","","","Rain Showers,Fog"
"1998-06-24 13:00","1998","06","24","13:00","14.6","","14.0","","96","","11","","22","","9.7","","99.02","","","","","","Rain Showers,Fog"
"1998-06-24 14:00","1998","06","24","14:00","13.8","","12.5","","92","","10","","22","","8.0","","99.02","","","","","","Rain Showers,Fog"
"1998-06-24 15:00","1998","06","24","15:00","13.8","","13.2","","96","","12","","24","","6.4","","99.02","","","","","","Rain Showers,Fog"
"1998-06-24 16:00","1998","06","24","16:00","14.1","","13.1","","94","","12","","28","","6.4","","99.02","","","","","","Rain Showers,Fog"
"1998-06-24 17:00","1998","06","24","17:00","13.9","","12.7","","92","","11","","7","","8.0","","98.99","","","","","","Rain Showers,Fog"
"1998-06-24 18:00","1998","06","24","18:00","11.7","","10.5","","92","","31","","22","","12.9","","99.09","","","","","","Rain Showers"
"1998-06-24 19:00","1998","06","24","19:00","11.4","","10.6","","95","","31","","17","","16.1","","99.15","","","","","","Rain Showers"
"1998-06-24 20:00","1998","06","24","20:00","11.2","","9.9","","92","","31","","17","","16.1","","99.19","","","","","","Rain Showers"
"1998-06-24 21:00","1998","06","24","21:00"
"1998-06-24 22:00","1998","06","24","22:00"
"1998-06-24 23:00","1998","06","24","23:00"
"1998-06-25 00:00","1998","06","25","00:00"
"1998-06-25 01:00","1998","06","25","01:00"
"1998-06-25 02:00","1998","06","25","02:00"
"1998-06-25 03:00","1998","06","25","03:00"
"1998-06-25 04:00","1998","06","25","04:00"
"1998-06-25 05:00","1998","06","25","05:00","9.9","","9.4","","97","","","","0","","16.1","","99.42","","","","","","Rain"
"1998-06-25 06:00","1998","06","25","06:00","10.4","","9.4","","94","","","","0","","16.1","","99.46","","","","","","Rain"
"1998-06-25 07:00","1998","06","25","07:00","11.1","","10.4","","95","","","","0","","8.0","","99.56","","","","","","Rain,Fog"
"1998-06-25 08:00","1998","06","25","08:00","11.4","","10.7","","95","","9","","6","","8.0","","99.59","","","","","","Rain,Fog"
"1998-06-25 09:00","1998","06","25","09:00","12.6","","11.1","","91","","7","","6","","9.7","","99.62","","","","","","Rain,Fog"
"1998-06-25 10:00","1998","06","25","10:00","13.4","","10.3","","81","","13","","6","","16.1","","99.66","","","","","","Mostly Cloudy"
"1998-06-25 11:00","1998","06","25","11:00","14.8","","10.4","","75","","12","","11","","24.1","","99.69","","","","","","Mostly Cloudy"
"1998-06-25 12:00","1998","06","25","12:00","15.7","","9.2","","65","","12","","15","","24.1","","99.72","","","","","","Mostly Cloudy"
"1998-06-25 13:00","1998","06","25","13:00","16.6","","9.4","","62","","7","","11","","24.1","","99.72","","","","","","Mostly Cloudy"
"1998-06-25 14:00","1998","06","25","14:00","16.9","","9.1","","60","","12","","11","","24.1","","99.76","","","","","","Mostly Cloudy"
"1998-06-25 15:00","1998","06","25","15:00","17.1","","8.9","","58","","12","","6","","24.1","","99.79","","","","","","Mostly Cloudy"
"1998-06-25 16:00","1998","06","25","16:00","16.6","","10.0","","65","","9","","7","","24.1","","99.83","","","","","","Mainly Clear"
"1998-06-25 17:00","1998","06","25","17:00","16.6","","8.5","","59","","10","","7","","24.1","","99.83","","","","","","Mainly Clear"
"1998-06-25 18:00","1998","06","25","18:00","15.7","","9.8","","68","","10","","7","","24.1","","99.86","","","","","","Mainly Clear"
"1998-06-25 19:00","1998","06","25","19:00","15.1","","9.8","","71","","","","0","","24.1","","99.86","","","","","","Mainly Clear"
"1998-06-25 20:00","1998","06","25","20:00","13.8","","9.7","","76","","","","0","","24.1","","99.89","","","","","","Mostly Cloudy"
"1998-06-25 21:00","1998","06","25","21:00"
"1998-06-25 22:00","1998","06","25","22:00"
"1998-06-25 23:00","1998","06","25","23:00"
"1998-06-26 00:00","1998","06","26","00:00"
"1998-06-26 01:00","1998","06","26","01:00"
"1998-06-26 02:00","1998","06","26","02:00"
"1998-06-26 03:00","1998","06","26","03:00"
"1998-06-26 04:00","1998","06","26","04:00"
"1998-06-26 05:00","1998","06","26","05:00","8.2","","7.1","","93","","","","0","","24.1","","100.29","","","","","","Mainly Clear"
"1998-06-26 06:00","1998","06","26","06:00","10.1","","9.0","","93","","28","","6","","24.1","","100.33","","","","","","Mainly Clear"
"1998-06-26 07:00","1998","06","26","07:00","13.1","","9.9","","81","","13","","6","","24.1","","100.40","","","","","","Mainly Clear"
"1998-06-26 08:00","1998","06","26","08:00","15.4","","9.4","","67","","30","","6","","24.1","","100.43","","","","","","Mainly Clear"
"1998-06-26 09:00","1998","06","26","09:00","16.7","","9.7","","63","","30","","15","","24.1","","100.46","","","","","","Mainly Clear"
"1998-06-26 10:00","1998","06","26","10:00","17.1","","10.3","","64","","9","","6","","24.1","","100.46","","","","","","Mainly Clear"
"1998-06-26 11:00","1998","06","26","11:00","18.0","","10.0","","59","","33","","7","","24.1","","100.50","","","","","","Mostly Cloudy"
"1998-06-26 12:00","1998","06","26","12:00","17.8","","10.0","","60","","9","","9","","24.1","","100.50","","","","","","Mostly Cloudy"
"1998-06-26 13:00","1998","06","26","13:00","18.9","","10.1","","57","","","","0","","32.2","","100.50","","","","","","Mainly Clear"
"1998-06-26 14:00","1998","06","26","14:00","18.3","","10.0","","58","","9","","9","","32.2","","100.56","","","","","","Mostly Cloudy"
"1998-06-26 15:00","1998","06","26","15:00","19.5","","10.7","","57","","","","0","","32.2","","100.60","","","","","","Mostly Cloudy"
"1998-06-26 16:00","1998","06","26","16:00","18.9","","10.3","","57","","10","","6","","32.2","","100.63","","","","","","Mostly Cloudy"
"1998-06-26 17:00","1998","06","26","17:00","19.3","","10.7","","57","","9","","7","","32.2","","100.63","","","","","","Mostly Cloudy"
"1998-06-26 18:00","1998","06","26","18:00","18.6","","11.9","","65","","","","0","","32.2","","100.63","","","","","","Mostly Cloudy"
"1998-06-26 19:00","1998","06","26","19:00","17.9","","10.2","","61","","34","","7","","32.2","","100.70","","","","","","Mostly Cloudy"
"1998-06-26 20:00","1998","06","26","20:00","16.6","","9.6","","63","","2","","9","","32.2","","100.73","","","","","","Mostly Cloudy"
"1998-06-26 21:00","1998","06","26","21:00"
"1998-06-26 22:00","1998","06","26","22:00"
"1998-06-26 23:00","1998","06","26","23:00"
"1998-06-27 00:00","1998","06","27","00:00"
"1998-06-27 01:00","1998","06","27","01:00"
"1998-06-27 02:00","1998","06","27","02:00"
"1998-06-27 03:00","1998","06","27","03:00"
"1998-06-27 04:00","1998","06","27","04:00"
"1998-06-27 05:00","1998","06","27","05:00","12.3","","9.7","","84","","28","","9","","24.1","","101.00","","","","","","Mostly Cloudy"
"1998-06-27 06:00","1998","06","27","06:00","12.6","","9.9","","84","","31","","11","","24.1","","101.00","","","","","","Mainly Clear"
"1998-06-27 07:00","1998","06","27","07:00","14.6","","10.0","","74","","","","0","","24.1","","101.00","","","","","","Mainly Clear"
"1998-06-27 08:00","1998","06","27","08:00","15.2","","10.1","","72","","33","","6","","24.1","","101.00","","","","","","Mainly Clear"
"1998-06-27 09:00","1998","06","27","09:00","16.4","","11.1","","71","","6","","11","","24.1","","100.96","","","","","","Mainly Clear"
"1998-06-27 10:00","1998","06","27","10:00","17.8","","10.9","","64","","12","","11","","24.1","","100.93","","","","","","Mainly Clear"
"1998-06-27 11:00","1998","06","27","11:00","18.6","","11.5","","63","","12","","13","","24.1","","100.90","","","","","","Mainly Clear"
"1998-06-27 12:00","1998","06","27","12:00","19.6","","11.7","","60","","9","","15","","24.1","","100.90","","","","","","Mainly Clear"
"1998-06-27 13:00","1998","06","27","13:00","20.6","","11.0","","54","","16","","9","","32.2","","100.90","","","","","","Mainly Clear"
"1998-06-27 14:00","1998","06","27","14:00","20.5","","11.0","","54","","10","","7","","32.2","","100.86","","","","","","Mostly Cloudy"
"1998-06-27 15:00","1998","06","27","15:00","20.8","","10.7","","52","","9","","15","","32.2","","100.80","","","","","","Mainly Clear"
"1998-06-27 16:00","1998","06","27","16:00","21.6","","10.6","","50","","12","","9","","32.2","","100.76","","","","","","Mainly Clear"
"1998-06-27 17:00","1998","06","27","17:00","21.9","","10.7","","49","","","","0","","32.2","","100.70","","","","","","Mainly Clear"
"1998-06-27 18:00","1998","06","27","18:00","22.1","","10.2","","47","","9","","6","","32.2","","100.66","","","","","","Mainly Clear"
"1998-06-27 19:00","1998","06","27","19:00","20.9","","10.9","","53","","11","","6","","32.2","","100.66","","","","","","Mainly Clear"
"1998-06-27 20:00","1998","06","27","20:00","19.3","","10.4","","56","","34","","9","","32.2","","100.66","","","","","","Mainly Clear"
"1998-06-27 21:00","1998","06","27","21:00"
"1998-06-27 22:00","1998","06","27","22:00"
"1998-06-27 23:00","1998","06","27","23:00"
"1998-06-28 00:00","1998","06","28","00:00"
"1998-06-28 01:00","1998","06","28","01:00"
"1998-06-28 02:00","1998","06","28","02:00"
"1998-06-28 03:00","1998","06","28","03:00"
"1998-06-28 04:00","1998","06","28","04:00"
"1998-06-28 05:00","1998","06","28","05:00","11.1","","8.5","","84","","31","","15","","32.2","","100.63","","","","","","Clear"
"1998-06-28 06:00","1998","06","28","06:00","11.8","","9.1","","84","","32","","15","","32.2","","100.63","","","","","","Clear"
"1998-06-28 07:00","1998","06","28","07:00","14.2","","9.9","","75","","32","","19","","32.2","","100.63","","","","","","Clear"
"1998-06-28 08:00","1998","06","28","08:00","16.4","","10.2","","67","","32","","13","","32.2","","100.60","","","","","","Clear"
"1998-06-28 09:00","1998","06","28","09:00","18.4","","11.1","","62","","30","","9","","32.2","","100.56","","","","","","Mainly Clear"
"1998-06-28 10:00","1998","06","28","10:00","20.5","","12.1","","59","","27","","9","","32.2","","100.53","","","","","","Mainly Clear"
"1998-06-28 11:00","1998","06","28","11:00","21.9","","13.8","","60","","10","","15","","32.2","","100.50","","25","","","","Mainly Clear"
"1998-06-28 12:00","1998","06","28","12:00","21.9","","13.0","","57","","9","","19","","32.2","","100.46","","25","","","","Mainly Clear"
"1998-06-28 13:00","1998","06","28","13:00","22.9","","12.3","","51","","4","","9","","32.2","","100.43","","25","","","","Mainly Clear"
"1998-06-28 14:00","1998","06","28","14:00","24.0","","13.3","","51","","9","","9","","32.2","","100.40","","27","","","","Mainly Clear"
"1998-06-28 15:00","1998","06","28","15:00","24.7","","13.5","","50","","12","","9","","32.2","","100.36","","28","","","","Mostly Cloudy"
"1998-06-28 16:00","1998","06","28","16:00","25.3","","13.8","","49","","10","","15","","32.2","","100.33","","29","","","","Mostly Cloudy"
"1998-06-28 17:00","1998","06","28","17:00","25.5","","13.7","","48","","9","","9","","32.2","","100.29","","29","","","","Mostly Cloudy"
"1998-06-28 18:00","1998","06","28","18:00","24.8","","12.6","","47","","9","","9","","32.2","","100.29","","27","","","","Mostly Cloudy"
"1998-06-28 19:00","1998","06","28","19:00","23.8","","14.0","","54","","29","","9","","32.2","","100.29","","27","","","","Mostly Cloudy"
"1998-06-28 20:00","1998","06","28","20:00","21.9","","13.3","","58","","30","","11","","32.2","","100.33","","25","","","","Mostly Cloudy"
"1998-06-28 21:00","1998","06","28","21:00"
"1998-06-28 22:00","1998","06","28","22:00"
"1998-06-28 23:00","1998","06","28","23:00"
"1998-06-29 00:00","1998","06","29","00:00"
"1998-06-29 01:00","1998","06","29","01:00"
"1998-06-29 02:00","1998","06","29","02:00"
"1998-06-29 03:00","1998","06","29","03:00"
"1998-06-29 04:00","1998","06","29","04:00"
"1998-06-29 05:00","1998","06","29","05:00","12.5","","9.8","","84","","","","0","","32.2","","100.53","","","","","","Mainly Clear"
"1998-06-29 06:00","1998","06","29","06:00","13.7","","10.4","","80","","31","","7","","32.2","","100.53","","","","","","Mostly Cloudy"
"1998-06-29 07:00","1998","06","29","07:00","16.7","","11.5","","71","","32","","9","","32.2","","100.53","","","","","","Mostly Cloudy"
"1998-06-29 08:00","1998","06","29","08:00","18.4","","11.3","","63","","32","","6","","32.2","","100.56","","","","","","Mostly Cloudy"
"1998-06-29 09:00","1998","06","29","09:00","20.7","","13.5","","63","","7","","9","","32.2","","100.53","","","","","","Mainly Clear"
"1998-06-29 10:00","1998","06","29","10:00","21.3","","13.2","","60","","5","","9","","32.2","","100.53","","","","","","Mainly Clear"
"1998-06-29 11:00","1998","06","29","11:00","22.1","","14.2","","61","","7","","9","","32.2","","100.53","","26","","","","Mainly Clear"
"1998-06-29 12:00","1998","06","29","12:00","22.1","","14.2","","61","","7","","9","","32.2","","100.53","","26","","","","Mainly Clear"
"1998-06-29 13:00","1998","06","29","13:00","25.0","","15.3","","55","","7","","7","","32.2","","100.46","","29","","","","Mostly Cloudy"
"1998-06-29 14:00","1998","06","29","14:00","25.6","","14.2","","49","","6","","9","","32.2","","100.43","","29","","","","Mostly Cloudy"
"1998-06-29 15:00","1998","06","29","15:00","25.8","","14.4","","49","","8","","7","","32.2","","100.40","","29","","","","Mostly Cloudy"
"1998-06-29 16:00","1998","06","29","16:00","25.5","","15.4","","54","","7","","7","","32.2","","100.36","","30","","","","Mostly Cloudy"
"1998-06-29 17:00","1998","06","29","17:00","26.6","","13.7","","45","","7","","7","","32.2","","100.33","","30","","","","Mostly Cloudy"
"1998-06-29 18:00","1998","06","29","18:00","27.0","","13.0","","42","","","","0","","32.2","","100.33","","30","","","","Mostly Cloudy"
"1998-06-29 19:00","1998","06","29","19:00","24.3","","14.2","","53","","28","","11","","32.2","","100.33","","28","","","","Mainly Clear"
"1998-06-29 20:00","1998","06","29","20:00","21.8","","14.4","","63","","30","","4","","32.2","","100.33","","25","","","","Mainly Clear"
"1998-06-29 21:00","1998","06","29","21:00"
"1998-06-29 22:00","1998","06","29","22:00"
"1998-06-29 23:00","1998","06","29","23:00"
"1998-06-30 00:00","1998","06","30","00:00"
"1998-06-30 01:00","1998","06","30","01:00"
"1998-06-30 02:00","1998","06","30","02:00"
"1998-06-30 03:00","1998","06","30","03:00"
"1998-06-30 04:00","1998","06","30","04:00"
"1998-06-30 05:00","1998","06","30","05:00","15.4","","12.4","","82","","28","","9","","32.2","","100.43","","","","","","Clear"
"1998-06-30 06:00","1998","06","30","06:00","16.5","","13.0","","80","","30","","9","","32.2","","100.43","","","","","","Mainly Clear"
"1998-06-30 07:00","1998","06","30","07:00","19.2","","13.6","","70","","32","","11","","32.2","","100.46","","","","","","Clear"
"1998-06-30 08:00","1998","06","30","08:00","21.3","","13.4","","61","","31","","7","","32.2","","100.50","","","","","","Clear"
"1998-06-30 09:00","1998","06","30","09:00","22.8","","15.4","","63","","10","","9","","32.2","","100.50","","27","","","","Clear"
"1998-06-30 10:00","1998","06","30","10:00","23.3","","15.2","","60","","9","","9","","32.2","","100.50","","27","","","","Mainly Clear"
"1998-06-30 11:00","1998","06","30","11:00","24.5","","14.9","","55","","7","","11","","32.2","","100.46","","28","","","","Mainly Clear"
"1998-06-30 12:00","1998","06","30","12:00","25.5","","15.0","","52","","5","","11","","32.2","","100.43","","29","","","","Mainly Clear"
"1998-06-30 13:00","1998","06","30","13:00","26.3","","14.6","","49","","7","","9","","32.2","","100.43","","30","","","","Mainly Clear"
"1998-06-30 14:00","1998","06","30","14:00","27.4","","13.9","","43","","7","","11","","48.3","","100.36","","31","","","","Mainly Clear"
"1998-06-30 15:00","1998","06","30","15:00","28.1","","13.7","","41","","9","","7","","48.3","","100.33","","31","","","","Mainly Clear"
"1998-06-30 16:00","1998","06","30","16:00","29.2","","13.4","","38","","","","0","","48.3","","100.29","","32","","","","Mainly Clear"
"1998-06-30 17:00","1998","06","30","17:00","28.8","","12.9","","38","","","","0","","48.3","","100.26","","32","","","","Mainly Clear"
"1998-06-30 18:00","1998","06","30","18:00","28.1","","10.5","","33","","30","","9","","48.3","","100.26","","30","","","","Mainly Clear"
"1998-06-30 19:00","1998","06","30","19:00","26.8","","15.0","","48","","31","","7","","48.3","","100.26","","31","","","","Mainly Clear"
"1998-06-30 20:00","1998","06","30","20:00","24.6","","11.7","","44","","29","","9","","48.3","","100.29","","27","","","","Clear"
"1998-06-30 21:00","1998","06","30","21:00"
"1998-06-30 22:00","1998","06","30","22:00"
"1998-06-30 23:00","1998","06","30","23:00"
