"Station Name","CAMPBELL RIVER A"
"Province","BRITISH COLUMBIA"
"Latitude","49.95"
"Longitude","-125.27"
"Elevation","108.80"
"Climate Identifier","1021261"
"WMO Identifier",""
"TC Identifier","YBL"
"All times are specified in Local Standard Time (LST). Add 1 hour to adjust for Daylight Saving Time where and when it is observed."

"Legend"
"E","Estimated"
"M","Missing"
"NA","Not Available"

"Date/Time","Year","Month","Day","Time","Temp (°C)","Temp Flag","Dew Point Temp (°C)","Dew Point Temp Flag","Rel Hum (%)","Rel Hum Flag","Wind Dir (10s deg)","Wind Dir Flag","Wind Spd (km/h)","Wind Spd Flag","Visibility (km)","Visibility Flag","Stn Press (kPa)","Stn Press Flag","Hmdx","Hmdx Flag","Wind Chill","Wind Chill Flag","Weather"
"1998-03-01 00:00","1998","03","01","00:00"
"1998-03-01 01:00","1998","03","01","01:00"
"1998-03-01 02:00","1998","03","01","02:00"
"1998-03-01 03:00","1998","03","01","03:00"
"1998-03-01 04:00","1998","03","01","04:00"
"1998-03-01 05:00","1998","03","01","05:00"
"1998-03-01 06:00","1998","03","01","06:00","3.3","","2.6","","95","","","","0","","24.1","","100.46","","","","","","Mostly Cloudy"
"1998-03-01 07:00","1998","03","01","07:00","2.7","","2.1","","96","","","","0","","32.2","","100.46","","","","","","Mostly Cloudy"
"1998-03-01 08:00","1998","03","01","08:00","3.2","","2.6","","96","","","","0","","32.2","","100.53","","","","","","Mostly Cloudy"
"1998-03-01 09:00","1998","03","01","09:00","4.6","","3.6","","93","","32","","4","","32.2","","100.53","","","","","","Rain Showers"
"1998-03-01 10:00","1998","03","01","10:00","6.9","","5.0","","88","","6","","4","","32.2","","100.53","","","","","","Mainly Clear"
"1998-03-01 11:00","1998","03","01","11:00","8.3","","4.7","","78","","13","","6","","32.2","","100.53","","","","","","Mainly Clear"
"1998-03-01 12:00","1998","03","01","12:00","8.6","","5.2","","79","","8","","11","","32.2","","100.53","","","","","","Mainly Clear"
"1998-03-01 13:00","1998","03","01","13:00","9.7","","5.7","","76","","11","","13","","32.2","","100.46","","","","","","Mainly Clear"
"1998-03-01 14:00","1998","03","01","14:00","9.0","","6.0","","81","","9","","13","","32.2","","100.43","","","","","","Mainly Clear"
"1998-03-01 15:00","1998","03","01","15:00","8.1","","4.3","","77","","9","","13","","32.2","","100.40","","","","","","Mainly Clear"
"1998-03-01 16:00","1998","03","01","16:00","7.1","","4.6","","84","","11","","22","","32.2","","100.40","","","","","","Mainly Clear"
"1998-03-01 17:00","1998","03","01","17:00","7.1","","5.9","","92","","10","","19","","24.1","","100.36","","","","","","Mostly Cloudy"
"1998-03-01 18:00","1998","03","01","18:00","6.4","","4.7","","89","","9","","13","","24.1","","100.29","","","","","","Mainly Clear"
"1998-03-01 19:00","1998","03","01","19:00","4.9","","4.0","","94","","","","0","","24.1","","100.29","","","","","","Mainly Clear"
"1998-03-01 20:00","1998","03","01","20:00","4.7","","3.7","","93","","12","","4","","24.1","","100.26","","","","","","Mainly Clear"
"1998-03-01 21:00","1998","03","01","21:00","5.4","","4.0","","91","","","","0","","19.3","","100.26","","","","","","Mostly Cloudy"
"1998-03-01 22:00","1998","03","01","22:00"
"1998-03-01 23:00","1998","03","01","23:00"
"1998-03-02 00:00","1998","03","02","00:00"
"1998-03-02 01:00","1998","03","02","01:00"
"1998-03-02 02:00","1998","03","02","02:00"
"1998-03-02 03:00","1998","03","02","03:00"
"1998-03-02 04:00","1998","03","02","04:00"
"1998-03-02 05:00","1998","03","02","05:00"
"1998-03-02 06:00","1998","03","02","06:00","-0.4","","-1.3","","94","","","","0","","24.1","","99.93","","","","","","Mostly Cloudy"
"1998-03-02 07:00","1998","03","02","07:00","0.8","","0.1","","95","","30","","4","","24.1","","99.89","","","","","","Mostly Cloudy"
"1998-03-02 08:00","1998","03","02","08:00","1.3","","0.5","","94","","","","0","","24.1","","99.89","","","","","","Mostly Cloudy"
"1998-03-02 09:00","1998","03","02","09:00","2.6","","2.0","","96","","","","0","","24.1","","99.89","","","","","","Mostly Cloudy"
"1998-03-02 10:00","1998","03","02","10:00","5.0","","2.7","","85","","33","","19","","32.2","","99.89","","","","","","Mostly Cloudy"
"1998-03-02 11:00","1998","03","02","11:00","7.1","","3.1","","76","","33","","19","","32.2","","99.86","","","","","","Mostly Cloudy"
"1998-03-02 12:00","1998","03","02","12:00","8.5","","3.2","","69","","9","","13","","32.2","","99.86","","","","","","Mostly Cloudy"
"1998-03-02 13:00","1998","03","02","13:00","7.8","","3.8","","76","","6","","9","","24.1","","99.83","","","","","","Mostly Cloudy"
"1998-03-02 14:00","1998","03","02","14:00","6.2","","3.5","","83","","6","","9","","24.1","","99.83","","","","","","Mostly Cloudy"
"1998-03-02 15:00","1998","03","02","15:00","7.4","","3.7","","77","","14","","9","","24.1","","99.83","","","","","","Mostly Cloudy"
"1998-03-02 16:00","1998","03","02","16:00","6.0","","3.0","","81","","","","0","","32.2","","99.86","","","","","","Mostly Cloudy"
"1998-03-02 17:00","1998","03","02","17:00","5.0","","2.9","","86","","","","0","","32.2","","99.86","","","","","","Mostly Cloudy"
"1998-03-02 18:00","1998","03","02","18:00","4.0","","2.9","","93","","","","0","","32.2","","99.86","","","","","","Mostly Cloudy"
"1998-03-02 19:00","1998","03","02","19:00","4.2","","1.8","","84","","26","","4","","32.2","","99.89","","","","","","Mostly Cloudy"
"1998-03-02 20:00","1998","03","02","20:00","3.1","","1.0","","86","","29","","7","","32.2","","99.89","","","","","","Mostly Cloudy"
"1998-03-02 21:00","1998","03","02","21:00","2.2","","0.4","","88","","28","","4","","32.2","","99.89","","","","","","Mostly Cloudy"
"1998-03-02 22:00","1998","03","02","22:00"
"1998-03-02 23:00","1998","03","02","23:00"
"1998-03-03 00:00","1998","03","03","00:00"
"1998-03-03 01:00","1998","03","03","01:00"
"1998-03-03 02:00","1998","03","03","02:00"
"1998-03-03 03:00","1998","03","03","03:00"
"1998-03-03 04:00","1998","03","03","04:00"
"1998-03-03 05:00","1998","03","03","05:00"
"1998-03-03 06:00","1998","03","03","06:00","-1.6","","-2.6","","93","","","","0","","32.2","","100.06","","","","","","Mainly Clear"
"1998-03-03 07:00","1998","03","03","07:00","-1.7","","-2.6","","94","","","","0","","32.2","","100.09","","","","","","Mainly Clear"
"1998-03-03 08:00","1998","03","03","08:00","-1.4","","-2.5","","92","","","","0","","32.2","","100.13","","","","","","Mainly Clear"
"1998-03-03 09:00","1998","03","03","09:00","1.8","","0.2","","89","","","","0","","32.2","","100.16","","","","","","Mainly Clear"
"1998-03-03 10:00","1998","03","03","10:00","3.0","","1.1","","87","","30","","4","","32.2","","100.19","","","","","","Mainly Clear"
"1998-03-03 11:00","1998","03","03","11:00","5.9","","0.6","","69","","30","","4","","32.2","","100.19","","","","","","Mostly Cloudy"
"1998-03-03 12:00","1998","03","03","12:00","6.2","","0.9","","69","","30","","15","","32.2","","100.23","","","","","","Mostly Cloudy"
"1998-03-03 13:00","1998","03","03","13:00","7.7","","2.3","","69","","9","","9","","32.2","","100.19","","","","","","Mostly Cloudy"
"1998-03-03 14:00","1998","03","03","14:00","7.7","","1.9","","67","","","","0","","32.2","","100.16","","","","","","Mostly Cloudy"
"1998-03-03 15:00","1998","03","03","15:00","8.1","","2.1","","66","","5","","7","","32.2","","100.16","","","","","","Mostly Cloudy"
"1998-03-03 16:00","1998","03","03","16:00","7.9","","1.3","","63","","9","","6","","32.2","","100.16","","","","","","Mostly Cloudy"
"1998-03-03 17:00","1998","03","03","17:00","7.7","","0.7","","61","","12","","6","","32.2","","100.16","","","","","","Mainly Clear"
"1998-03-03 18:00","1998","03","03","18:00","6.2","","1.0","","69","","15","","4","","32.2","","100.16","","","","","","Mainly Clear"
"1998-03-03 19:00","1998","03","03","19:00","3.3","","1.3","","87","","","","0","","32.2","","100.16","","","","","","Mainly Clear"
"1998-03-03 20:00","1998","03","03","20:00","1.7","","0.5","","92","","","","0","","25.0","","100.23","","","","","","Mainly Clear"
"1998-03-03 21:00","1998","03","03","21:00","1.2","","-0.3","","90","","27","","6","","25.0","","100.23","","","","","","Mainly Clear"
"1998-03-03 22:00","1998","03","03","22:00"
"1998-03-03 23:00","1998","03","03","23:00"
"1998-03-04 00:00","1998","03","04","00:00"
"1998-03-04 01:00","1998","03","04","01:00"
"1998-03-04 02:00","1998","03","04","02:00"
"1998-03-04 03:00","1998","03","04","03:00"
"1998-03-04 04:00","1998","03","04","04:00"
"1998-03-04 05:00","1998","03","04","05:00"
"1998-03-04 06:00","1998","03","04","06:00","-2.3","","-3.3","","93","","30","","6","","32.2","","100.46","","","","-5","","Mostly Cloudy"
"1998-03-04 07:00","1998","03","04","07:00","-1.8","","-2.9","","92","","30","","9","","32.2","","100.46","","","","-5","","Mainly Clear"
"1998-03-04 08:00","1998","03","04","08:00","-1.3","","-2.1","","94","","","","0","","32.2","","100.53","","","","","","Mostly Cloudy"
"1998-03-04 09:00","1998","03","04","09:00","1.2","","-0.3","","90","","27","","9","","32.2","","100.53","","","","","","Mostly Cloudy"
"1998-03-04 10:00","1998","03","04","10:00","3.4","","1.0","","84","","34","","4","","32.2","","100.53","","","","","","Mostly Cloudy"
"1998-03-04 11:00","1998","03","04","11:00","5.0","","1.3","","77","","","","0","","32.2","","100.53","","","","","","Mostly Cloudy"
"1998-03-04 12:00","1998","03","04","12:00","6.5","","1.7","","71","","","","0","","32.2","","100.56","","","","","","Mainly Clear"
"1998-03-04 13:00","1998","03","04","13:00","6.5","","1.1","","68","","","","0","","32.2","","100.53","","","","","","Mostly Cloudy"
"1998-03-04 14:00","1998","03","04","14:00","7.6","","0.6","","61","","9","","7","","32.2","","100.53","","","","","","Mainly Clear"
"1998-03-04 15:00","1998","03","04","15:00","7.9","","0.0","","57","","10","","7","","32.2","","100.53","","","","","","Mainly Clear"
"1998-03-04 16:00","1998","03","04","16:00","7.5","","-0.7","","56","","13","","9","","32.2","","100.53","","","","","","Mainly Clear"
"1998-03-04 17:00","1998","03","04","17:00","7.5","","-1.2","","54","","","","0","","32.2","","100.50","","","","","","Mainly Clear"
"1998-03-04 18:00","1998","03","04","18:00","4.8","","0.1","","72","","","","0","","32.2","","100.53","","","","","","Mainly Clear"
"1998-03-04 19:00","1998","03","04","19:00","2.2","","0.0","","85","","","","0","","32.2","","100.56","","","","","","Mainly Clear"
"1998-03-04 20:00","1998","03","04","20:00","0.0","","-1.2","","92","","","","0","","32.2","","100.53","","","","","","Mainly Clear"
"1998-03-04 21:00","1998","03","04","21:00","-0.9","","-2.2","","91","","","","0","","32.2","","100.53","","","","","","Mainly Clear"
"1998-03-04 22:00","1998","03","04","22:00"
"1998-03-04 23:00","1998","03","04","23:00"
"1998-03-05 00:00","1998","03","05","00:00"
"1998-03-05 01:00","1998","03","05","01:00"
"1998-03-05 02:00","1998","03","05","02:00"
"1998-03-05 03:00","1998","03","05","03:00"
"1998-03-05 04:00","1998","03","05","04:00"
"1998-03-05 05:00","1998","03","05","05:00"
"1998-03-05 06:00","1998","03","05","06:00","-2.9","","-3.9","","93","","","","0","","32.2","","100.60","","","","","","Mainly Clear"
"1998-03-05 07:00","1998","03","05","07:00","-2.8","","-3.9","","92","","","","0","","32.2","","100.56","","","","","","Mostly Cloudy"
"1998-03-05 08:00","1998","03","05","08:00","-1.8","","-2.8","","93","","","","0","","32.2","","100.56","","","","","","Mostly Cloudy"
"1998-03-05 09:00","1998","03","05","09:00","-0.6","","-1.6","","93","","","","0","","32.2","","100.56","","","","","","Mostly Cloudy"
"1998-03-05 10:00","1998","03","05","10:00","4.9","","-3.8","","53","","","","0","","32.2","","100.56","","","","","","Mainly Clear"
"1998-03-05 11:00","1998","03","05","11:00","6.0","","-3.5","","50","","34","","7","","32.2","","100.53","","","","","","Mainly Clear"
"1998-03-05 12:00","1998","03","05","12:00","7.7","","-2.0","","50","","8","","9","","32.2","","100.50","","","","","","Mainly Clear"
"1998-03-05 13:00","1998","03","05","13:00","7.7","","-1.8","","51","","12","","11","","32.2","","100.46","","","","","","Mainly Clear"
"1998-03-05 14:00","1998","03","05","14:00","7.0","","-2.1","","52","","12","","13","","32.2","","100.43","","","","","","Mainly Clear"
"1998-03-05 15:00","1998","03","05","15:00","7.7","","-2.4","","49","","12","","7","","32.2","","100.43","","","","","","Mainly Clear"
"1998-03-05 16:00","1998","03","05","16:00","7.8","","-3.3","","45","","","","0","","32.2","","100.36","","","","","","Mainly Clear"
"1998-03-05 17:00","1998","03","05","17:00","6.1","","-1.6","","58","","","","0","","32.2","","100.36","","","","","","Mainly Clear"
"1998-03-05 18:00","1998","03","05","18:00","5.5","","-0.6","","65","","","","0","","32.2","","100.36","","","","","","Mainly Clear"
"1998-03-05 19:00","1998","03","05","19:00","3.7","","-0.3","","75","","","","0","","32.2","","100.36","","","","","","Mostly Cloudy"
"1998-03-05 20:00","1998","03","05","20:00","2.9","","-0.3","","79","","","","0","","32.2","","100.36","","","","","","Mostly Cloudy"
"1998-03-05 21:00","1998","03","05","21:00","2.0","","-0.2","","85","","","","0","","32.2","","100.36","","","","","","Mostly Cloudy"
"1998-03-05 22:00","1998","03","05","22:00"
"1998-03-05 23:00","1998","03","05","23:00"
"1998-03-06 00:00","1998","03","06","00:00"
"1998-03-06 01:00","1998","03","06","01:00"
"1998-03-06 02:00","1998","03","06","02:00"
"1998-03-06 03:00","1998","03","06","03:00"
"1998-03-06 04:00","1998","03","06","04:00"
"1998-03-06 05:00","1998","03","06","05:00"
"1998-03-06 06:00","1998","03","06","06:00","-3.7","","-5.0","","91","","","","0","","32.2","","100.50","","","","","","Clear"
"1998-03-06 07:00","1998","03","06","07:00","-4.4","","-5.7","","91","","26","","4","","32.2","","100.53","","","","-6","","Clear"
"1998-03-06 08:00","1998","03","06","08:00","-2.7","","-3.9","","91","","","","0","","32.2","","100.53","","","","","","Clear"
"1998-03-06 09:00","1998","03","06","09:00","1.4","","-1.4","","82","","32","","4","","32.2","","100.53","","","","","","Clear"
"1998-03-06 10:00","1998","03","06","10:00","4.6","","-3.2","","57","","32","","7","","32.2","","100.53","","","","","","Clear"
"1998-03-06 11:00","1998","03","06","11:00","5.8","","-5.1","","45","","6","","4","","32.2","","100.53","","","","","","Clear"
"1998-03-06 12:00","1998","03","06","12:00","7.2","","-4.7","","42","","4","","6","","32.2","","100.53","","","","","","Mainly Clear"
"1998-03-06 13:00","1998","03","06","13:00","7.2","","-5.5","","40","","2","","7","","32.2","","100.53","","","","","","Mainly Clear"
"1998-03-06 14:00","1998","03","06","14:00","8.0","","-7.1","","33","","10","","9","","32.2","","100.46","","","","","","Mainly Clear"
"1998-03-06 15:00","1998","03","06","15:00","7.3","","-6.9","","36","","12","","6","","32.2","","100.46","","","","","","Mainly Clear"
"1998-03-06 16:00","1998","03","06","16:00","7.0","","-3.9","","46","","13","","7","","32.2","","100.46","","","","","","Mostly Cloudy"
"1998-03-06 17:00","1998","03","06","17:00","6.7","","-4.3","","45","","11","","9","","32.2","","100.46","","","","","","Mostly Cloudy"
"1998-03-06 18:00","1998","03","06","18:00","5.8","","-3.0","","53","","","","0","","32.2","","100.46","","","","","","Mostly Cloudy"
"1998-03-06 19:00","1998","03","06","19:00","4.8","","-0.8","","67","","","","0","","32.2","","100.46","","","","","","Cloudy"
"1998-03-06 20:00","1998","03","06","20:00","4.2","","-0.7","","70","","","","0","","24.1","","100.46","","","","","","Cloudy"
"1998-03-06 21:00","1998","03","06","21:00","3.8","","-0.5","","73","","","","0","","24.1","","100.50","","","","","","Cloudy"
"1998-03-06 22:00","1998","03","06","22:00"
"1998-03-06 23:00","1998","03","06","23:00"
"1998-03-07 00:00","1998","03","07","00:00"
"1998-03-07 01:00","1998","03","07","01:00"
"1998-03-07 02:00","1998","03","07","02:00"
"1998-03-07 03:00","1998","03","07","03:00"
"1998-03-07 04:00","1998","03","07","04:00"
"1998-03-07 05:00","1998","03","07","05:00"
"1998-03-07 06:00","1998","03","07","06:00","1.6","","0.4","","92","","","","0","","24.1","","100.46","","","","","","Cloudy"
"1998-03-07 07:00","1998","03","07","07:00","2.0","","0.7","","91","","","","0","","24.1","","100.43","","","","","","Cloudy"
"1998-03-07 08:00","1998","03","07","08:00","2.2","","0.7","","90","","","","0","","24.1","","100.43","","","","","","Mostly Cloudy"
"1998-03-07 09:00","1998","03","07","09:00","3.5","","1.3","","85","","","","0","","24.1","","100.43","","","","","","Mostly Cloudy"
"1998-03-07 10:00","1998","03","07","10:00","4.8","","1.6","","80","","11","","9","","24.1","","100.43","","","","","","Mostly Cloudy"
"1998-03-07 11:00","1998","03","07","11:00","5.5","","1.8","","77","","8","","11","","24.1","","100.43","","","","","","Mostly Cloudy"
"1998-03-07 12:00","1998","03","07","12:00","5.9","","0.9","","70","","11","","11","","24.1","","100.40","","","","","","Mostly Cloudy"
"1998-03-07 13:00","1998","03","07","13:00","6.7","","-0.8","","59","","11","","19","","24.1","","100.33","","","","","","Mostly Cloudy"
"1998-03-07 14:00","1998","03","07","14:00","7.3","","-1.5","","54","","12","","19","","24.1","","100.26","","","","","","Mostly Cloudy"
"1998-03-07 15:00","1998","03","07","15:00","7.2","","-2.0","","52","","12","","19","","24.1","","100.23","","","","","","Cloudy"
"1998-03-07 16:00","1998","03","07","16:00","7.2","","-2.7","","49","","12","","19","","24.1","","100.16","","","","","","Cloudy"
"1998-03-07 17:00","1998","03","07","17:00","6.6","","-3.3","","49","","12","","19","","24.1","","100.13","","","","","","Cloudy"
"1998-03-07 18:00","1998","03","07","18:00","5.9","","-2.8","","54","","10","","19","","24.1","","100.06","","","","","","Cloudy"
"1998-03-07 19:00","1998","03","07","19:00","5.4","","-2.4","","57","","12","","9","","24.1","","100.03","","","","","","Cloudy"
"1998-03-07 20:00","1998","03","07","20:00","5.4","","-2.0","","59","","12","","9","","24.1","","100.03","","","","","","Cloudy"
"1998-03-07 21:00","1998","03","07","21:00","4.8","","-0.6","","68","","12","","9","","24.1","","100.03","","","","","","Cloudy"
"1998-03-07 22:00","1998","03","07","22:00"
"1998-03-07 23:00","1998","03","07","23:00"
"1998-03-08 00:00","1998","03","08","00:00"
"1998-03-08 01:00","1998","03","08","01:00"
"1998-03-08 02:00","1998","03","08","02:00"
"1998-03-08 03:00","1998","03","08","03:00"
"1998-03-08 04:00","1998","03","08","04:00"
"1998-03-08 05:00","1998","03","08","05:00"
"1998-03-08 06:00","1998","03","08","06:00","2.9","","2.0","","94","","12","","6","","8.0","","100.06","","","","","","Rain Showers,Fog"
"1998-03-08 07:00","1998","03","08","07:00","2.9","","2.0","","94","","9","","6","","6.4","","100.13","","","","","","Rain Showers,Fog"
"1998-03-08 08:00","1998","03","08","08:00","3.0","","2.1","","94","","","","0","","4.8","","100.16","","","","","","Rain Showers,Fog"
"1998-03-08 09:00","1998","03","08","09:00","3.3","","2.6","","95","","9","","7","","4.8","","100.19","","","","","","Rain Showers,Fog"
"1998-03-08 10:00","1998","03","08","10:00","4.0","","3.4","","96","","9","","9","","8.0","","100.23","","","","","","Rain Showers,Fog"
"1998-03-08 11:00","1998","03","08","11:00","5.4","","3.5","","88","","9","","9","","11.3","","100.23","","","","","","Cloudy"
"1998-03-08 12:00","1998","03","08","12:00","5.5","","4.2","","91","","12","","11","","8.0","","100.29","","","","","","Fog"
"1998-03-08 13:00","1998","03","08","13:00","5.8","","4.4","","91","","12","","15","","8.0","","100.29","","","","","","Fog"
"1998-03-08 14:00","1998","03","08","14:00","5.7","","4.5","","92","","12","","19","","8.0","","100.33","","","","","","Rain Showers,Fog"
"1998-03-08 15:00","1998","03","08","15:00","6.2","","4.9","","91","","11","","19","","9.7","","100.33","","","","","","Fog"
"1998-03-08 16:00","1998","03","08","16:00","6.6","","5.0","","90","","13","","22","","12.9","","100.33","","","","","","Cloudy"
"1998-03-08 17:00","1998","03","08","17:00","6.5","","4.9","","89","","11","","24","","19.3","","100.33","","","","","","Cloudy"
"1998-03-08 18:00","1998","03","08","18:00","6.6","","5.2","","91","","10","","19","","19.3","","100.36","","","","","","Cloudy"
"1998-03-08 19:00","1998","03","08","19:00","6.1","","4.5","","89","","12","","13","","19.3","","100.36","","","","","","Mostly Cloudy"
"1998-03-08 20:00","1998","03","08","20:00","5.7","","4.4","","91","","12","","13","","19.3","","100.36","","","","","","Mostly Cloudy"
"1998-03-08 21:00","1998","03","08","21:00","5.5","","3.9","","89","","11","","7","","24.1","","100.36","","","","","","Mostly Cloudy"
"1998-03-08 22:00","1998","03","08","22:00"
"1998-03-08 23:00","1998","03","08","23:00"
"1998-03-09 00:00","1998","03","09","00:00"
"1998-03-09 01:00","1998","03","09","01:00"
"1998-03-09 02:00","1998","03","09","02:00"
"1998-03-09 03:00","1998","03","09","03:00"
"1998-03-09 04:00","1998","03","09","04:00"
"1998-03-09 05:00","1998","03","09","05:00"
"1998-03-09 06:00","1998","03","09","06:00","3.9","","3.1","","95","","8","","4","","24.1","","100.23","","","","","","Mostly Cloudy"
"1998-03-09 07:00","1998","03","09","07:00","3.1","","1.9","","92","","29","","7","","32.2","","100.23","","","","","","Mainly Clear"
"1998-03-09 08:00","1998","03","09","08:00","4.0","","3.4","","96","","31","","4","","24.1","","100.33","","","","","","Mainly Clear"
"1998-03-09 09:00","1998","03","09","09:00","5.2","","3.2","","87","","32","","7","","24.1","","100.43","","","","","","Mainly Clear"
"1998-03-09 10:00","1998","03","09","10:00","7.3","","4.6","","83","","","","0","","32.2","","100.43","","","","","","Mainly Clear"
"1998-03-09 11:00","1998","03","09","11:00","8.3","","4.0","","74","","6","","4","","32.2","","100.53","","","","","","Mainly Clear"
"1998-03-09 12:00","1998","03","09","12:00","9.6","","4.5","","70","","11","","11","","32.2","","100.53","","","","","","Mainly Clear"
"1998-03-09 13:00","1998","03","09","13:00","9.5","","4.4","","70","","6","","11","","32.2","","100.56","","","","","","Mainly Clear"
"1998-03-09 14:00","1998","03","09","14:00","8.5","","4.4","","75","","7","","11","","24.1","","100.60","","","","","","Mostly Cloudy"
"1998-03-09 15:00","1998","03","09","15:00","8.4","","5.2","","80","","9","","15","","24.1","","100.66","","","","","","Mostly Cloudy"
"1998-03-09 16:00","1998","03","09","16:00","8.3","","5.4","","82","","10","","19","","24.1","","100.63","","","","","","Mostly Cloudy"
"1998-03-09 17:00","1998","03","09","17:00","7.7","","5.5","","86","","8","","22","","24.1","","100.70","","","","","","Cloudy"
"1998-03-09 18:00","1998","03","09","18:00","7.5","","5.5","","87","","12","","19","","24.1","","100.73","","","","","","Rain"
"1998-03-09 19:00","1998","03","09","19:00","7.1","","6.0","","93","","13","","9","","19.3","","100.76","","","","","","Rain"
"1998-03-09 20:00","1998","03","09","20:00","6.8","","6.0","","95","","9","","9","","9.7","","100.80","","","","","","Rain,Fog"
"1998-03-09 21:00","1998","03","09","21:00","6.8","","6.2","","96","","15","","7","","8.0","","100.83","","","","","","Rain,Fog"
"1998-03-09 22:00","1998","03","09","22:00"
"1998-03-09 23:00","1998","03","09","23:00"
"1998-03-10 00:00","1998","03","10","00:00"
"1998-03-10 01:00","1998","03","10","01:00"
"1998-03-10 02:00","1998","03","10","02:00"
"1998-03-10 03:00","1998","03","10","03:00"
"1998-03-10 04:00","1998","03","10","04:00"
"1998-03-10 05:00","1998","03","10","05:00"
"1998-03-10 06:00","1998","03","10","06:00","6.3","","5.7","","96","","10","","22","","1.6","","100.56","","","","","","Rain,Fog"
"1998-03-10 07:00","1998","03","10","07:00","6.2","","5.3","","94","","11","","22","","2.4","","100.50","","","","","","Rain,Fog"
"1998-03-10 08:00","1998","03","10","08:00","6.2","","4.9","","91","","13","","28","","9.7","","100.43","","","","","","Fog"
"1998-03-10 09:00","1998","03","10","09:00","6.6","","4.8","","88","","14","","7","","9.7","","100.43","","","","","","Fog"
"1998-03-10 10:00","1998","03","10","10:00","6.6","","4.9","","89","","11","","19","","19.3","","100.36","","","","","","Rain Showers"
"1998-03-10 11:00","1998","03","10","11:00","6.5","","5.7","","95","","10","","15","","9.7","","100.33","","","","","","Rain Showers,Fog"
"1998-03-10 12:00","1998","03","10","12:00","6.9","","5.7","","92","","11","","22","","9.7","","100.36","","","","","","Rain Showers,Fog"
"1998-03-10 13:00","1998","03","10","13:00","7.3","","6.0","","91","","11","","22","","8.0","","100.33","","","","","","Rain Showers,Fog"
"1998-03-10 14:00","1998","03","10","14:00","7.9","","5.7","","86","","12","","19","","8.0","","100.33","","","","","","Fog"
"1998-03-10 15:00","1998","03","10","15:00","7.8","","5.2","","84","","13","","19","","12.9","","100.36","","","","","","Cloudy"
"1998-03-10 16:00","1998","03","10","16:00","7.4","","5.4","","87","","12","","28","","12.9","","100.40","","","","","","Rain Showers"
"1998-03-10 17:00","1998","03","10","17:00","7.1","","5.5","","90","","13","","22","","16.1","","100.40","","","","","","Rain Showers"
"1998-03-10 18:00","1998","03","10","18:00","7.2","","5.4","","88","","12","","19","","12.9","","100.43","","","","","","Rain Showers"
"1998-03-10 19:00","1998","03","10","19:00","7.0","","5.8","","92","","12","","22","","12.9","","100.43","","","","","","Rain Showers"
"1998-03-10 20:00","1998","03","10","20:00","7.1","","6.1","","93","","14","","15","","9.7","","100.46","","","","","","Rain Showers,Fog"
"1998-03-10 21:00","1998","03","10","21:00","7.3","","6.6","","95","","13","","19","","6.4","","100.50","","","","","","Rain Showers,Fog"
"1998-03-10 22:00","1998","03","10","22:00"
"1998-03-10 23:00","1998","03","10","23:00"
"1998-03-11 00:00","1998","03","11","00:00"
"1998-03-11 01:00","1998","03","11","01:00"
"1998-03-11 02:00","1998","03","11","02:00"
"1998-03-11 03:00","1998","03","11","03:00"
"1998-03-11 04:00","1998","03","11","04:00"
"1998-03-11 05:00","1998","03","11","05:00"
"1998-03-11 06:00","1998","03","11","06:00","7.3","","6.5","","95","","13","","11","","9.7","","100.63","","","","","","Fog"
"1998-03-11 07:00","1998","03","11","07:00","7.3","","6.5","","95","","14","","7","","9.7","","100.60","","","","","","Drizzle,Fog"
"1998-03-11 08:00","1998","03","11","08:00","7.5","","6.7","","95","","13","","9","","9.7","","100.63","","","","","","Drizzle,Fog"
"1998-03-11 09:00","1998","03","11","09:00","7.7","","6.9","","95","","8","","15","","9.7","","100.66","","","","","","Drizzle,Fog"
"1998-03-11 10:00","1998","03","11","10:00","8.0","","7.2","","95","","12","","9","","9.7","","100.66","","","","","","Drizzle,Fog"
"1998-03-11 11:00","1998","03","11","11:00","8.2","","7.4","","95","","12","","13","","9.7","","100.66","","","","","","Drizzle,Fog"
"1998-03-11 12:00","1998","03","11","12:00","8.4","","7.7","","95","","12","","9","","4.8","","100.63","","","","","","Drizzle,Fog"
"1998-03-11 13:00","1998","03","11","13:00","8.8","","7.7","","93","","14","","19","","9.7","","100.56","","","","","","Drizzle,Fog"
"1998-03-11 14:00","1998","03","11","14:00","9.1","","7.7","","91","","14","","19","","9.7","","100.50","","","","","","Drizzle,Fog"
"1998-03-11 15:00","1998","03","11","15:00","10.3","","8.0","","86","","15","","15","","16.1","","100.43","","","","","","Cloudy"
"1998-03-11 16:00","1998","03","11","16:00","10.2","","7.6","","84","","12","","20","","19.3","","100.36","","","","","","Cloudy"
"1998-03-11 17:00","1998","03","11","17:00","9.9","","7.7","","86","","10","","7","","24.1","","100.26","","","","","","Cloudy"
"1998-03-11 18:00","1998","03","11","18:00","9.0","","7.4","","90","","8","","7","","24.1","","100.26","","","","","","Cloudy"
"1998-03-11 19:00","1998","03","11","19:00","8.8","","7.4","","91","","3","","4","","25.0","","100.19","","","","","","Cloudy"
"1998-03-11 20:00","1998","03","11","20:00","8.5","","7.5","","93","","9","","4","","25.0","","100.16","","","","","","Rain Showers"
"1998-03-11 21:00","1998","03","11","21:00","8.3","","7.5","","95","","","","0","","12.9","","100.16","","","","","","Rain Showers"
"1998-03-11 22:00","1998","03","11","22:00"
"1998-03-11 23:00","1998","03","11","23:00"
"1998-03-12 00:00","1998","03","12","00:00"
"1998-03-12 01:00","1998","03","12","01:00"
"1998-03-12 02:00","1998","03","12","02:00"
"1998-03-12 03:00","1998","03","12","03:00"
"1998-03-12 04:00","1998","03","12","04:00"
"1998-03-12 05:00","1998","03","12","05:00"
"1998-03-12 06:00","1998","03","12","06:00","8.2","","7.9","","98","","9","","11","","4.8","","99.72","","","","","","Rain Showers,Fog"
"1998-03-12 07:00","1998","03","12","07:00","8.2","","7.9","","98","","6","","7","","0.8","","99.72","","","","","","Rain Showers,Fog"
"1998-03-12 08:00","1998","03","12","08:00","8.4","","7.9","","97","","6","","7","","1.2","","99.72","","","","","","Rain,Fog"
"1998-03-12 09:00","1998","03","12","09:00","8.5","","8.2","","98","","9","","6","","1.2","","99.72","","","","","","Rain,Fog"
"1998-03-12 10:00","1998","03","12","10:00","8.7","","8.3","","97","","10","","13","","1.2","","99.72","","","","","","Rain,Fog"
"1998-03-12 11:00","1998","03","12","11:00","8.8","","8.3","","97","","9","","9","","1.6","","99.69","","","","","","Rain,Fog"
"1998-03-12 12:00","1998","03","12","12:00","9.2","","8.8","","97","","11","","13","","4.0","","99.69","","","","","","Rain,Fog"
"1998-03-12 13:00","1998","03","12","13:00","9.4","","8.8","","96","","11","","15","","8.0","","99.69","","","","","","Rain,Fog"
"1998-03-12 14:00","1998","03","12","14:00","9.6","","9.1","","97","","7","","11","","8.0","","99.66","","","","","","Rain,Fog"
"1998-03-12 15:00","1998","03","12","15:00","9.3","","8.8","","97","","9","","7","","6.4","","99.69","","","","","","Rain,Fog"
"1998-03-12 16:00","1998","03","12","16:00","9.5","","9.0","","97","","10","","6","","12.9","","99.66","","","","","","Rain"
"1998-03-12 17:00","1998","03","12","17:00","9.4","","8.5","","94","","10","","7","","16.1","","99.66","","","","","","Rain"
"1998-03-12 18:00","1998","03","12","18:00","8.9","","8.2","","95","","9","","6","","16.1","","99.72","","","","","","Rain"
"1998-03-12 19:00","1998","03","12","19:00","8.7","","8.2","","97","","","","0","","16.1","","99.76","","","","","","Cloudy"
"1998-03-12 20:00","1998","03","12","20:00","8.8","","8.2","","96","","","","0","","16.1","","99.76","","","","","","Cloudy"
"1998-03-12 21:00","1998","03","12","21:00","8.8","","8.3","","97","","","","0","","4.0","","99.83","","","","","","Fog"
"1998-03-12 22:00","1998","03","12","22:00"
"1998-03-12 23:00","1998","03","12","23:00"
"1998-03-13 00:00","1998","03","13","00:00"
"1998-03-13 01:00","1998","03","13","01:00"
"1998-03-13 02:00","1998","03","13","02:00"
"1998-03-13 03:00","1998","03","13","03:00"
"1998-03-13 04:00","1998","03","13","04:00"
"1998-03-13 05:00","1998","03","13","05:00"
"1998-03-13 06:00","1998","03","13","06:00","8.7","","7.9","","95","","","","0","","12.9","","100.03","","","","","","Cloudy"
"1998-03-13 07:00","1998","03","13","07:00","8.5","","7.9","","96","","","","0","","2.0","","100.06","","","","","","Drizzle,Fog"
"1998-03-13 08:00","1998","03","13","08:00","8.7","","8.3","","97","","","","0","","2.4","","100.13","","","","","","Drizzle,Fog"
"1998-03-13 09:00","1998","03","13","09:00","9.0","","8.4","","96","","","","0","","2.4","","100.19","","","","","","Drizzle,Fog"
"1998-03-13 10:00","1998","03","13","10:00","9.7","","8.6","","93","","","","0","","8.0","","100.23","","","","","","Fog"
"1998-03-13 11:00","1998","03","13","11:00","10.1","","9.0","","93","","","","0","","12.9","","100.26","","","","","","Cloudy"
"1998-03-13 12:00","1998","03","13","12:00","10.4","","8.7","","89","","","","0","","12.9","","100.29","","","","","","Cloudy"
"1998-03-13 13:00","1998","03","13","13:00","10.9","","9.5","","91","","8","","9","","12.9","","100.29","","","","","","Cloudy"
"1998-03-13 14:00","1998","03","13","14:00","10.6","","9.0","","90","","","","0","","16.1","","100.26","","","","","","Cloudy"
"1998-03-13 15:00","1998","03","13","15:00","11.2","","9.4","","89","","","","0","","24.1","","100.29","","","","","","Cloudy"
"1998-03-13 16:00","1998","03","13","16:00","11.2","","8.6","","84","","12","","7","","24.1","","100.29","","","","","","Cloudy"
"1998-03-13 17:00","1998","03","13","17:00","11.3","","8.3","","82","","","","0","","24.1","","100.29","","","","","","Cloudy"
"1998-03-13 18:00","1998","03","13","18:00","10.3","","8.9","","91","","","","0","","24.1","","100.33","","","","","","Cloudy"
"1998-03-13 19:00","1998","03","13","19:00","9.3","","8.7","","96","","","","0","","4.8","","100.33","","","","","","Fog"
"1998-03-13 20:00","1998","03","13","20:00","8.9","","8.4","","97","","","","0","","4.8","","100.33","","","","","","Fog"
"1998-03-13 21:00","1998","03","13","21:00","8.8","","8.4","","97","","","","0","","0.4","","100.33","","","","","","Fog"
"1998-03-13 22:00","1998","03","13","22:00"
"1998-03-13 23:00","1998","03","13","23:00"
"1998-03-14 00:00","1998","03","14","00:00"
"1998-03-14 01:00","1998","03","14","01:00"
"1998-03-14 02:00","1998","03","14","02:00"
"1998-03-14 03:00","1998","03","14","03:00"
"1998-03-14 04:00","1998","03","14","04:00"
"1998-03-14 05:00","1998","03","14","05:00"
"1998-03-14 06:00","1998","03","14","06:00","8.4","","7.9","","97","","","","0","","12.9","","100.63","","","","","","Cloudy"
"1998-03-14 07:00","1998","03","14","07:00","8.3","","7.7","","96","","","","0","","16.1","","100.63","","","","","","Cloudy"
"1998-03-14 08:00","1998","03","14","08:00","8.1","","7.5","","96","","","","0","","4.0","","100.70","","","","","","Fog"
"1998-03-14 09:00","1998","03","14","09:00","8.4","","7.5","","94","","","","0","","4.0","","100.70","","","","","","Fog"
"1998-03-14 10:00","1998","03","14","10:00","9.3","","8.1","","92","","8","","6","","4.8","","100.70","","","","","","Fog"
"1998-03-14 11:00","1998","03","14","11:00","9.8","","7.8","","87","","13","","7","","16.1","","100.73","","","","","","Cloudy"
"1998-03-14 12:00","1998","03","14","12:00","9.8","","7.9","","88","","8","","9","","12.9","","100.73","","","","","","Cloudy"
"1998-03-14 13:00","1998","03","14","13:00","9.4","","8.1","","92","","6","","7","","9.7","","100.70","","","","","","Rain Showers,Fog"
"1998-03-14 14:00","1998","03","14","14:00","9.5","","8.0","","90","","10","","11","","16.1","","100.63","","","","","","Cloudy"
"1998-03-14 15:00","1998","03","14","15:00","9.5","","8.1","","91","","9","","13","","16.1","","100.63","","","","","","Rain Showers"
"1998-03-14 16:00","1998","03","14","16:00","9.2","","8.1","","93","","","","0","","12.9","","100.60","","","","","","Rain Showers"
"1998-03-14 17:00","1998","03","14","17:00","9.0","","7.9","","93","","7","","7","","16.1","","100.56","","","","","","Rain Showers"
"1998-03-14 18:00","1998","03","14","18:00","8.7","","7.6","","93","","9","","7","","16.1","","100.56","","","","","","Mostly Cloudy"
"1998-03-14 19:00","1998","03","14","19:00","8.3","","7.3","","93","","9","","4","","16.1","","100.60","","","","","","Cloudy"
"1998-03-14 20:00","1998","03","14","20:00","8.3","","7.5","","95","","","","0","","12.9","","100.63","","","","","","Cloudy"
"1998-03-14 21:00","1998","03","14","21:00","8.3","","7.6","","95","","","","0","","4.8","","100.63","","","","","","Rain Showers,Fog"
"1998-03-14 22:00","1998","03","14","22:00"
"1998-03-14 23:00","1998","03","14","23:00"
"1998-03-15 00:00","1998","03","15","00:00"
"1998-03-15 01:00","1998","03","15","01:00"
"1998-03-15 02:00","1998","03","15","02:00"
"1998-03-15 03:00","1998","03","15","03:00"
"1998-03-15 04:00","1998","03","15","04:00"
"1998-03-15 05:00","1998","03","15","05:00"
"1998-03-15 06:00","1998","03","15","06:00","6.9","","6.6","","98","","","","0","","16.1","","100.56","","","","","","Rain Showers"
"1998-03-15 07:00","1998","03","15","07:00","7.2","","6.6","","96","","","","0","","32.2","","100.56","","","","","","Mostly Cloudy"
"1998-03-15 08:00","1998","03","15","08:00","7.2","","6.6","","96","","31","","4","","32.2","","100.60","","","","","","Mostly Cloudy"
"1998-03-15 09:00","1998","03","15","09:00","8.2","","7.4","","95","","","","0","","9.7","","100.60","","","","","","Fog"
"1998-03-15 10:00","1998","03","15","10:00","8.5","","7.2","","92","","","","0","","9.7","","100.63","","","","","","Fog"
"1998-03-15 11:00","1998","03","15","11:00","9.0","","7.6","","91","","","","0","","9.7","","100.63","","","","","","Fog"
"1998-03-15 12:00","1998","03","15","12:00","9.8","","7.7","","87","","","","0","","12.9","","100.63","","","","","","Cloudy"
"1998-03-15 13:00","1998","03","15","13:00","10.3","","7.9","","85","","8","","6","","16.1","","100.56","","","","","","Cloudy"
"1998-03-15 14:00","1998","03","15","14:00","10.8","","7.3","","79","","9","","6","","24.1","","100.50","","","","","","Mostly Cloudy"
"1998-03-15 15:00","1998","03","15","15:00","11.6","","8.1","","79","","12","","9","","24.1","","100.46","","","","","","Mostly Cloudy"
"1998-03-15 16:00","1998","03","15","16:00","11.2","","7.9","","80","","12","","9","","24.1","","100.43","","","","","","Mostly Cloudy"
"1998-03-15 17:00","1998","03","15","17:00","9.8","","8.0","","89","","12","","9","","24.1","","100.43","","","","","","Mostly Cloudy"
"1998-03-15 18:00","1998","03","15","18:00","9.3","","7.7","","90","","34","","6","","32.2","","100.40","","","","","","Mainly Clear"
"1998-03-15 19:00","1998","03","15","19:00","7.8","","6.3","","90","","34","","9","","32.2","","100.43","","","","","","Mostly Cloudy"
"1998-03-15 20:00","1998","03","15","20:00","7.0","","5.1","","88","","31","","9","","32.2","","100.46","","","","","","Mainly Clear"
"1998-03-15 21:00","1998","03","15","21:00","6.2","","4.9","","91","","30","","9","","32.2","","100.46","","","","","","Mainly Clear"
"1998-03-15 22:00","1998","03","15","22:00"
"1998-03-15 23:00","1998","03","15","23:00"
"1998-03-16 00:00","1998","03","16","00:00"
"1998-03-16 01:00","1998","03","16","01:00"
"1998-03-16 02:00","1998","03","16","02:00"
"1998-03-16 03:00","1998","03","16","03:00"
"1998-03-16 04:00","1998","03","16","04:00"
"1998-03-16 05:00","1998","03","16","05:00"
"1998-03-16 06:00","1998","03","16","06:00","2.6","","0.2","","84","","29","","9","","32.2","","100.50","","","","","","Mainly Clear"
"1998-03-16 07:00","1998","03","16","07:00","3.0","","0.4","","83","","29","","9","","32.2","","100.50","","","","","","Mainly Clear"
"1998-03-16 08:00","1998","03","16","08:00","4.7","","1.3","","79","","30","","19","","32.2","","100.50","","","","","","Mainly Clear"
"1998-03-16 09:00","1998","03","16","09:00","6.4","","1.2","","69","","29","","19","","32.2","","100.53","","","","","","Mainly Clear"
"1998-03-16 10:00","1998","03","16","10:00","8.7","","1.9","","62","","30","","19","","32.2","","100.56","","","","","","Mainly Clear"
"1998-03-16 11:00","1998","03","16","11:00","9.4","","0.2","","53","","29","","19","","32.2","","100.63","","","","","","Mainly Clear"
"1998-03-16 12:00","1998","03","16","12:00","9.8","","-0.5","","49","","31","","28","","32.2","","100.63","","","","","","Mainly Clear"
"1998-03-16 13:00","1998","03","16","13:00","10.9","","0.2","","48","","30","","28","","32.2","","100.66","","","","","","Mainly Clear"
"1998-03-16 14:00","1998","03","16","14:00","11.1","","-0.5","","45","","30","","28","","32.2","","100.66","","","","","","Mainly Clear"
"1998-03-16 15:00","1998","03","16","15:00","11.3","","0.2","","46","","31","","19","","32.2","","100.63","","","","","","Mainly Clear"
"1998-03-16 16:00","1998","03","16","16:00","11.6","","1.0","","48","","30","","24","","32.2","","100.66","","","","","","Mainly Clear"
"1998-03-16 17:00","1998","03","16","17:00","10.3","","-0.5","","47","","31","","26","","32.2","","100.66","","","","","","Mainly Clear"
"1998-03-16 18:00","1998","03","16","18:00","8.9","","0.2","","54","","31","","15","","32.2","","100.73","","","","","","Mainly Clear"
"1998-03-16 19:00","1998","03","16","19:00","6.6","","0.3","","64","","29","","7","","32.2","","100.73","","","","","","Mainly Clear"
"1998-03-16 20:00","1998","03","16","20:00","5.9","","0.8","","70","","30","","13","","32.2","","100.80","","","","","","Clear"
"1998-03-16 21:00","1998","03","16","21:00","4.7","","0.0","","72","","28","","7","","32.2","","100.83","","","","","","Clear"
"1998-03-16 22:00","1998","03","16","22:00"
"1998-03-16 23:00","1998","03","16","23:00"
"1998-03-17 00:00","1998","03","17","00:00"
"1998-03-17 01:00","1998","03","17","01:00"
"1998-03-17 02:00","1998","03","17","02:00"
"1998-03-17 03:00","1998","03","17","03:00"
"1998-03-17 04:00","1998","03","17","04:00"
"1998-03-17 05:00","1998","03","17","05:00"
"1998-03-17 06:00","1998","03","17","06:00","-0.5","","-2.0","","90","","","","0","","32.2","","100.93","","","","","","Clear"
"1998-03-17 07:00","1998","03","17","07:00","-1.3","","-2.7","","90","","29","","4","","32.2","","100.96","","","","-3","","Mainly Clear"
"1998-03-17 08:00","1998","03","17","08:00","1.5","","0.1","","90","","31","","4","","32.2","","101.00","","","","","","Mainly Clear"
"1998-03-17 09:00","1998","03","17","09:00","6.4","","0.9","","68","","","","0","","32.2","","101.00","","","","","","Mainly Clear"
"1998-03-17 10:00","1998","03","17","10:00","7.7","","2.0","","67","","","","0","","32.2","","101.00","","","","","","Mainly Clear"
"1998-03-17 11:00","1998","03","17","11:00","8.7","","2.4","","65","","7","","13","","32.2","","101.00","","","","","","Mainly Clear"
"1998-03-17 12:00","1998","03","17","12:00","9.1","","2.9","","65","","10","","4","","32.2","","101.00","","","","","","Mainly Clear"
"1998-03-17 13:00","1998","03","17","13:00","10.2","","2.6","","59","","7","","9","","32.2","","101.00","","","","","","Mainly Clear"
"1998-03-17 14:00","1998","03","17","14:00","10.2","","2.1","","57","","7","","7","","32.2","","100.96","","","","","","Mainly Clear"
"1998-03-17 15:00","1998","03","17","15:00","9.6","","-0.3","","50","","6","","9","","32.2","","100.93","","","","","","Mostly Cloudy"
"1998-03-17 16:00","1998","03","17","16:00","9.6","","0.5","","53","","8","","6","","32.2","","100.90","","","","","","Mostly Cloudy"
"1998-03-17 17:00","1998","03","17","17:00","9.2","","1.2","","57","","","","0","","32.2","","100.90","","","","","","Mostly Cloudy"
"1998-03-17 18:00","1998","03","17","18:00","7.9","","2.5","","69","","","","0","","32.2","","100.90","","","","","","Mostly Cloudy"
"1998-03-17 19:00","1998","03","17","19:00","6.7","","2.9","","77","","","","0","","32.2","","100.90","","","","","","Mostly Cloudy"
"1998-03-17 20:00","1998","03","17","20:00","5.6","","3.2","","85","","","","0","","32.2","","100.93","","","","","","Mostly Cloudy"
"1998-03-17 21:00","1998","03","17","21:00","5.1","","3.3","","88","","","","0","","32.2","","100.93","","","","","","Mostly Cloudy"
"1998-03-17 22:00","1998","03","17","22:00"
"1998-03-17 23:00","1998","03","17","23:00"
"1998-03-18 00:00","1998","03","18","00:00"
"1998-03-18 01:00","1998","03","18","01:00"
"1998-03-18 02:00","1998","03","18","02:00"
"1998-03-18 03:00","1998","03","18","03:00"
"1998-03-18 04:00","1998","03","18","04:00"
"1998-03-18 05:00","1998","03","18","05:00"
"1998-03-18 06:00","1998","03","18","06:00","2.6","","1.9","","95","","30","","6","","32.2","","101.03","","","","","","Mostly Cloudy"
"1998-03-18 07:00","1998","03","18","07:00","2.7","","2.0","","95","","","","0","","32.2","","101.07","","","","","","Mostly Cloudy"
"1998-03-18 08:00","1998","03","18","08:00","4.5","","3.5","","93","","","","0","","32.2","","101.07","","","","","","Mostly Cloudy"
"1998-03-18 09:00","1998","03","18","09:00","7.3","","4.2","","81","","","","0","","32.2","","101.07","","","","","","Mostly Cloudy"
"1998-03-18 10:00","1998","03","18","10:00","9.9","","4.5","","69","","6","","4","","32.2","","101.07","","","","","","Mainly Clear"
"1998-03-18 11:00","1998","03","18","11:00","10.6","","3.8","","63","","3","","9","","32.2","","101.07","","","","","","Mainly Clear"
"1998-03-18 12:00","1998","03","18","12:00","10.2","","3.9","","65","","13","","6","","32.2","","101.03","","","","","","Mainly Clear"
"1998-03-18 13:00","1998","03","18","13:00","12.2","","4.6","","60","","10","","6","","32.2","","101.00","","","","","","Mainly Clear"
"1998-03-18 14:00","1998","03","18","14:00","12.9","","4.1","","55","","","","0","","32.2","","100.96","","","","","","Mainly Clear"
"1998-03-18 15:00","1998","03","18","15:00","13.0","","3.0","","51","","9","","9","","32.2","","100.93","","","","","","Mainly Clear"
"1998-03-18 16:00","1998","03","18","16:00","13.0","","2.8","","50","","10","","4","","32.2","","100.90","","","","","","Mainly Clear"
"1998-03-18 17:00","1998","03","18","17:00","12.6","","1.8","","48","","8","","6","","32.2","","100.86","","","","","","Mainly Clear"
"1998-03-18 18:00","1998","03","18","18:00","9.9","","1.6","","56","","","","0","","32.2","","100.86","","","","","","Mostly Cloudy"
"1998-03-18 19:00","1998","03","18","19:00","7.3","","2.6","","72","","","","0","","32.2","","100.86","","","","","","Clear"
"1998-03-18 20:00","1998","03","18","20:00","4.8","","2.7","","86","","","","0","","32.2","","100.86","","","","","","Clear"
"1998-03-18 21:00","1998","03","18","21:00","3.2","","1.8","","91","","","","0","","32.2","","100.90","","","","","","Clear"
"1998-03-18 22:00","1998","03","18","22:00"
"1998-03-18 23:00","1998","03","18","23:00"
"1998-03-19 00:00","1998","03","19","00:00"
"1998-03-19 01:00","1998","03","19","01:00"
"1998-03-19 02:00","1998","03","19","02:00"
"1998-03-19 03:00","1998","03","19","03:00"
"1998-03-19 04:00","1998","03","19","04:00"
"1998-03-19 05:00","1998","03","19","05:00"
"1998-03-19 06:00","1998","03","19","06:00","0.4","","-0.5","","94","","","","0","","32.2","","100.80","","","","","","Cloudy"
"1998-03-19 07:00","1998","03","19","07:00","0.8","","0.0","","94","","","","0","","32.2","","100.76","","","","","","Cloudy"
"1998-03-19 08:00","1998","03","19","08:00","2.3","","1.5","","94","","","","0","","32.2","","100.76","","","","","","Cloudy"
"1998-03-19 09:00","1998","03","19","09:00","6.2","","4.2","","87","","","","0","","32.2","","100.73","","","","","","Cloudy"
"1998-03-19 10:00","1998","03","19","10:00","9.0","","2.9","","66","","12","","4","","48.3","","100.73","","","","","","Cloudy"
"1998-03-19 11:00","1998","03","19","11:00","9.8","","1.8","","57","","","","0","","48.3","","100.70","","","","","","Cloudy"
"1998-03-19 12:00","1998","03","19","12:00","10.9","","3.0","","58","","17","","6","","48.3","","100.66","","","","","","Cloudy"
"1998-03-19 13:00","1998","03","19","13:00","10.3","","4.8","","69","","","","0","","48.3","","100.63","","","","","","Rain Showers"
"1998-03-19 14:00","1998","03","19","14:00","9.9","","5.7","","75","","","","0","","48.3","","100.63","","","","","","Rain Showers"
"1998-03-19 15:00","1998","03","19","15:00","10.1","","4.2","","67","","","","0","","32.2","","100.56","","","","","","Cloudy"
"1998-03-19 16:00","1998","03","19","16:00","10.5","","5.5","","71","","","","0","","32.2","","100.53","","","","","","Cloudy"
"1998-03-19 17:00","1998","03","19","17:00","10.3","","4.4","","67","","","","0","","32.2","","100.50","","","","","","Cloudy"
"1998-03-19 18:00","1998","03","19","18:00","9.8","","5.6","","75","","","","0","","32.2","","100.50","","","","","","Cloudy"
"1998-03-19 19:00","1998","03","19","19:00","8.8","","5.7","","81","","","","0","","32.2","","100.46","","","","","","Cloudy"
"1998-03-19 20:00","1998","03","19","20:00","8.3","","6.8","","90","","","","0","","25.0","","100.46","","","","","","Cloudy"
"1998-03-19 21:00","1998","03","19","21:00","8.0","","6.5","","90","","","","0","","25.0","","100.46","","","","","","Cloudy"
"1998-03-19 22:00","1998","03","19","22:00"
"1998-03-19 23:00","1998","03","19","23:00"
"1998-03-20 00:00","1998","03","20","00:00"
"1998-03-20 01:00","1998","03","20","01:00"
"1998-03-20 02:00","1998","03","20","02:00"
"1998-03-20 03:00","1998","03","20","03:00"
"1998-03-20 04:00","1998","03","20","04:00"
"1998-03-20 05:00","1998","03","20","05:00"
"1998-03-20 06:00","1998","03","20","06:00","6.0","","5.5","","97","","28","","4","","32.2","","100.33","","","","","","Mostly Cloudy"
"1998-03-20 07:00","1998","03","20","07:00","6.2","","5.7","","97","","28","","4","","32.2","","100.29","","","","","","Mostly Cloudy"
"1998-03-20 08:00","1998","03","20","08:00","6.9","","6.2","","95","","","","0","","32.2","","100.29","","","","","","Mostly Cloudy"
"1998-03-20 09:00","1998","03","20","09:00","8.1","","6.9","","92","","","","0","","32.2","","100.29","","","","","","Cloudy"
"1998-03-20 10:00","1998","03","20","10:00","9.1","","6.8","","86","","","","0","","32.2","","100.29","","","","","","Cloudy"
"1998-03-20 11:00","1998","03","20","11:00","10.4","","5.9","","74","","","","0","","32.2","","100.26","","","","","","Cloudy"
"1998-03-20 12:00","1998","03","20","12:00","11.9","","5.3","","64","","4","","7","","32.2","","100.19","","","","","","Mostly Cloudy"
"1998-03-20 13:00","1998","03","20","13:00","13.0","","4.7","","57","","7","","11","","32.2","","100.16","","","","","","Mostly Cloudy"
"1998-03-20 14:00","1998","03","20","14:00","12.3","","4.7","","60","","6","","9","","32.2","","100.09","","","","","","Mostly Cloudy"
"1998-03-20 15:00","1998","03","20","15:00","12.4","","4.2","","57","","6","","4","","32.2","","100.03","","","","","","Mostly Cloudy"
"1998-03-20 16:00","1998","03","20","16:00","12.6","","3.7","","55","","10","","4","","32.2","","99.99","","","","","","Mostly Cloudy"
"1998-03-20 17:00","1998","03","20","17:00","12.3","","3.6","","55","","","","0","","32.2","","99.93","","","","","","Mostly Cloudy"
"1998-03-20 18:00","1998","03","20","18:00","11.3","","4.9","","65","","","","0","","32.2","","99.86","","","","","","Mostly Cloudy"
"1998-03-20 19:00","1998","03","20","19:00","9.3","","5.9","","79","","","","0","","32.2","","99.86","","","","","","Mostly Cloudy"
"1998-03-20 20:00","1998","03","20","20:00","8.9","","6.3","","84","","","","0","","32.2","","99.83","","","","","","Cloudy"
"1998-03-20 21:00","1998","03","20","21:00","8.2","","6.7","","90","","","","0","","32.2","","99.83","","","","","","Cloudy"
"1998-03-20 22:00","1998","03","20","22:00"
"1998-03-20 23:00","1998","03","20","23:00"
"1998-03-21 00:00","1998","03","21","00:00"
"1998-03-21 01:00","1998","03","21","01:00"
"1998-03-21 02:00","1998","03","21","02:00"
"1998-03-21 03:00","1998","03","21","03:00"
"1998-03-21 04:00","1998","03","21","04:00"
"1998-03-21 05:00","1998","03","21","05:00"
"1998-03-21 06:00","1998","03","21","06:00","5.7","","4.7","","93","","","","0","","32.2","","99.59","","","","","","Mostly Cloudy"
"1998-03-21 07:00","1998","03","21","07:00","5.9","","5.1","","95","","","","0","","48.3","","99.59","","","","","","Cloudy"
"1998-03-21 08:00","1998","03","21","08:00","6.8","","5.6","","92","","","","0","","48.3","","99.56","","","","","","Cloudy"
"1998-03-21 09:00","1998","03","21","09:00","9.4","","6.8","","84","","","","0","","48.3","","99.52","","","","","","Cloudy"
"1998-03-21 10:00","1998","03","21","10:00","9.4","","6.2","","80","","10","","6","","48.3","","99.52","","","","","","Cloudy"
"1998-03-21 11:00","1998","03","21","11:00","9.4","","6.5","","82","","","","0","","48.3","","99.52","","","","","","Cloudy"
"1998-03-21 12:00","1998","03","21","12:00","9.5","","2.1","","60","","13","","4","","32.2","","99.49","","","","","","Rain"
"1998-03-21 13:00","1998","03","21","13:00","8.8","","7.7","","93","","10","","9","","8.0","","99.56","","","","","","Rain,Fog"
"1998-03-21 14:00","1998","03","21","14:00","8.4","","7.7","","95","","9","","9","","4.8","","99.59","","","","","","Rain,Fog"
"1998-03-21 15:00","1998","03","21","15:00","8.6","","8.1","","97","","9","","15","","6.4","","99.59","","","","","","Rain,Fog"
"1998-03-21 16:00","1998","03","21","16:00","9.0","","8.3","","95","","12","","9","","4.8","","99.59","","","","","","Fog"
"1998-03-21 17:00","1998","03","21","17:00","8.8","","8.0","","95","","12","","13","","4.8","","99.52","","","","","","Rain Showers,Fog"
"1998-03-21 18:00","1998","03","21","18:00","8.8","","8.1","","95","","12","","19","","4.8","","99.52","","","","","","Rain Showers,Fog"
"1998-03-21 19:00","1998","03","21","19:00","8.8","","8.3","","97","","12","","15","","4.8","","99.52","","","","","","Rain,Fog"
"1998-03-21 20:00","1998","03","21","20:00","8.8","","8.0","","95","","10","","15","","4.8","","99.52","","","","","","Rain,Fog"
"1998-03-21 21:00","1998","03","21","21:00","8.8","","8.2","","96","","12","","13","","4.8","","99.49","","","","","","Rain,Fog"
"1998-03-21 22:00","1998","03","21","22:00"
"1998-03-21 23:00","1998","03","21","23:00"
"1998-03-22 00:00","1998","03","22","00:00"
"1998-03-22 01:00","1998","03","22","01:00"
"1998-03-22 02:00","1998","03","22","02:00"
"1998-03-22 03:00","1998","03","22","03:00"
"1998-03-22 04:00","1998","03","22","04:00"
"1998-03-22 05:00","1998","03","22","05:00"
"1998-03-22 06:00","1998","03","22","06:00","9.0","","8.5","","97","","9","","6","","4.8","","99.19","","","","","","Fog"
"1998-03-22 07:00","1998","03","22","07:00","8.9","","8.4","","97","","","","0","","6.4","","99.22","","","","","","Fog"
"1998-03-22 08:00","1998","03","22","08:00","9.2","","8.9","","98","","","","0","","6.4","","99.26","","","","","","Fog"
"1998-03-22 09:00","1998","03","22","09:00","9.4","","7.9","","90","","","","0","","8.0","","99.29","","","","","","Fog"
"1998-03-22 10:00","1998","03","22","10:00","10.9","","9.1","","89","","","","0","","24.1","","99.29","","","","","","Mostly Cloudy"
"1998-03-22 11:00","1998","03","22","11:00","11.7","","9.0","","83","","","","0","","24.1","","99.32","","","","","","Mostly Cloudy"
"1998-03-22 12:00","1998","03","22","12:00","12.9","","8.9","","77","","","","0","","24.1","","99.32","","","","","","Mostly Cloudy"
"1998-03-22 13:00","1998","03","22","13:00","11.2","","8.4","","83","","12","","6","","19.3","","99.49","","","","","","Thunderstorms,Rain Showers"
"1998-03-22 14:00","1998","03","22","14:00","11.2","","8.8","","85","","32","","6","","24.1","","99.59","","","","","","Mostly Cloudy"
"1998-03-22 15:00","1998","03","22","15:00","11.2","","8.8","","85","","","","0","","32.2","","99.56","","","","","","Mostly Cloudy"
"1998-03-22 16:00","1998","03","22","16:00","11.6","","8.5","","81","","","","0","","32.2","","99.66","","","","","","Mostly Cloudy"
"1998-03-22 17:00","1998","03","22","17:00","10.4","","8.6","","89","","2","","4","","24.1","","99.69","","","","","","Rain Showers"
"1998-03-22 18:00","1998","03","22","18:00","8.9","","8.4","","97","","31","","4","","32.2","","99.76","","","","","","Mainly Clear"
"1998-03-22 19:00","1998","03","22","19:00","8.0","","7.2","","95","","","","0","","32.2","","99.79","","","","","","Mainly Clear"
"1998-03-22 20:00","1998","03","22","20:00","6.9","","6.5","","97","","","","0","","24.1","","99.89","","","","","","Mainly Clear"
"1998-03-22 21:00","1998","03","22","21:00","5.9","","5.4","","97","","","","0","","24.1","","99.96","","","","","","Cloudy"
"1998-03-22 22:00","1998","03","22","22:00"
"1998-03-22 23:00","1998","03","22","23:00"
"1998-03-23 00:00","1998","03","23","00:00"
"1998-03-23 01:00","1998","03","23","01:00"
"1998-03-23 02:00","1998","03","23","02:00"
"1998-03-23 03:00","1998","03","23","03:00"
"1998-03-23 04:00","1998","03","23","04:00"
"1998-03-23 05:00","1998","03","23","05:00"
"1998-03-23 06:00","1998","03","23","06:00","6.9","","6.2","","95","","","","0","","9.7","","99.19","","","","","","Fog"
"1998-03-23 07:00","1998","03","23","07:00","6.9","","6.3","","96","","30","","4","","12.9","","99.12","","","","","","Cloudy"
"1998-03-23 08:00","1998","03","23","08:00","7.0","","6.3","","95","","29","","4","","12.9","","98.95","","","","","","Cloudy"
"1998-03-23 09:00","1998","03","23","09:00","7.7","","6.6","","93","","","","0","","12.9","","98.85","","","","","","Cloudy"
"1998-03-23 10:00","1998","03","23","10:00","8.1","","6.6","","90","","15","","4","","12.9","","98.72","","","","","","Rain"
"1998-03-23 11:00","1998","03","23","11:00","7.8","","7.1","","95","","13","","11","","11.3","","98.69","","","","","","Rain"
"1998-03-23 12:00","1998","03","23","12:00","7.7","","6.3","","91","","23","","6","","9.7","","98.58","","","","","","Rain"
"1998-03-23 13:00","1998","03","23","13:00","7.3","","6.1","","92","","14","","15","","8.0","","98.55","","","","","","Rain,Fog"
"1998-03-23 14:00","1998","03","23","14:00","6.9","","6.2","","95","","12","","19","","9.7","","98.48","","","","","","Rain,Fog"
"1998-03-23 15:00","1998","03","23","15:00","6.9","","6.0","","94","","9","","9","","6.4","","98.45","","","","","","Rain,Fog"
"1998-03-23 16:00","1998","03","23","16:00","6.4","","5.8","","96","","6","","9","","4.8","","98.35","","","","","","Rain,Fog"
"1998-03-23 17:00","1998","03","23","17:00","6.2","","5.6","","96","","6","","9","","2.4","","98.28","","","","","","Moderate Rain,Fog"
"1998-03-23 18:00","1998","03","23","18:00","6.2","","5.7","","97","","1","","6","","1.6","","98.18","","","","","","Heavy Rain,Fog"
"1998-03-23 19:00","1998","03","23","19:00","8.4","","7.8","","96","","11","","37","","2.4","","98.08","","","","","","Moderate Rain,Fog"
"1998-03-23 20:00","1998","03","23","20:00","8.5","","7.6","","94","","11","","37","","3.2","","98.05","","","","","","Rain,Fog"
"1998-03-23 21:00","1998","03","23","21:00","8.1","","7.2","","94","","12","","37","","4.8","","98.15","","","","","","Rain,Fog"
"1998-03-23 22:00","1998","03","23","22:00"
"1998-03-23 23:00","1998","03","23","23:00"
"1998-03-24 00:00","1998","03","24","00:00"
"1998-03-24 01:00","1998","03","24","01:00"
"1998-03-24 02:00","1998","03","24","02:00"
"1998-03-24 03:00","1998","03","24","03:00"
"1998-03-24 04:00","1998","03","24","04:00"
"1998-03-24 05:00","1998","03","24","05:00"
"1998-03-24 06:00","1998","03","24","06:00","5.9","","5.3","","96","","","","0","","24.1","","98.85","","","","","","Mostly Cloudy"
"1998-03-24 07:00","1998","03","24","07:00","5.9","","5.3","","96","","","","0","","24.1","","98.95","","","","","","Mostly Cloudy"
"1998-03-24 08:00","1998","03","24","08:00","6.9","","6.1","","95","","","","0","","32.2","","99.02","","","","","","Mostly Cloudy"
"1998-03-24 09:00","1998","03","24","09:00","8.0","","5.8","","86","","","","0","","32.2","","99.09","","","","","","Mostly Cloudy"
"1998-03-24 10:00","1998","03","24","10:00","8.1","","6.2","","88","","27","","9","","19.3","","99.15","","","","","","Rain Showers"
"1998-03-24 11:00","1998","03","24","11:00","9.0","","6.4","","84","","","","0","","19.3","","99.22","","","","","","Rain Showers"
"1998-03-24 12:00","1998","03","24","12:00","10.5","","7.2","","80","","","","0","","19.3","","99.22","","","","","","Rain Showers"
"1998-03-24 13:00","1998","03","24","13:00","10.0","","6.5","","79","","","","0","","19.3","","99.29","","","","","","Rain Showers"
"1998-03-24 14:00","1998","03","24","14:00","9.5","","8.0","","90","","6","","6","","16.1","","99.29","","","","","","Rain Showers"
"1998-03-24 15:00","1998","03","24","15:00","9.3","","7.4","","88","","9","","6","","16.1","","99.32","","","","","","Rain Showers"
"1998-03-24 16:00","1998","03","24","16:00","9.4","","7.5","","88","","","","0","","19.3","","99.32","","","","","","Rain Showers"
"1998-03-24 17:00","1998","03","24","17:00","9.3","","7.0","","86","","","","0","","19.3","","99.32","","","","","","Cloudy"
"1998-03-24 18:00","1998","03","24","18:00","8.4","","7.5","","94","","34","","6","","16.1","","99.32","","","","","","Rain Showers"
"1998-03-24 19:00","1998","03","24","19:00","8.2","","7.4","","95","","","","0","","19.3","","99.36","","","","","","Mostly Cloudy"
"1998-03-24 20:00","1998","03","24","20:00","6.9","","6.3","","96","","","","0","","19.3","","99.39","","","","","","Mostly Cloudy"
"1998-03-24 21:00","1998","03","24","21:00","5.8","","5.4","","97","","","","0","","19.3","","99.42","","","","","","Mostly Cloudy"
"1998-03-24 22:00","1998","03","24","22:00"
"1998-03-24 23:00","1998","03","24","23:00"
"1998-03-25 00:00","1998","03","25","00:00"
"1998-03-25 01:00","1998","03","25","01:00"
"1998-03-25 02:00","1998","03","25","02:00"
"1998-03-25 03:00","1998","03","25","03:00"
"1998-03-25 04:00","1998","03","25","04:00"
"1998-03-25 05:00","1998","03","25","05:00"
"1998-03-25 06:00","1998","03","25","06:00","5.1","","4.5","","96","","","","0","","32.2","","99.42","","","","","","Mostly Cloudy"
"1998-03-25 07:00","1998","03","25","07:00","4.3","","3.7","","96","","","","0","","32.2","","99.42","","","","","","Mostly Cloudy"
"1998-03-25 08:00","1998","03","25","08:00","6.1","","5.3","","95","","31","","4","","32.2","","99.46","","","","","","Mainly Clear"
"1998-03-25 09:00","1998","03","25","09:00","7.7","","5.9","","88","","34","","9","","32.2","","99.49","","","","","","Mostly Cloudy"
"1998-03-25 10:00","1998","03","25","10:00","8.8","","5.4","","79","","30","","6","","32.2","","99.49","","","","","","Mostly Cloudy"
"1998-03-25 11:00","1998","03","25","11:00","10.0","","7.6","","85","","9","","9","","32.2","","99.42","","","","","","Mostly Cloudy"
"1998-03-25 12:00","1998","03","25","12:00","10.2","","4.9","","70","","9","","7","","32.2","","99.42","","","","","","Mostly Cloudy"
"1998-03-25 13:00","1998","03","25","13:00","11.2","","3.3","","58","","14","","7","","32.2","","99.39","","","","","","Mostly Cloudy"
"1998-03-25 14:00","1998","03","25","14:00","11.5","","3.0","","56","","9","","13","","32.2","","99.32","","","","","","Mostly Cloudy"
"1998-03-25 15:00","1998","03","25","15:00","10.3","","1.4","","54","","9","","9","","32.2","","99.32","","","","","","Cloudy"
"1998-03-25 16:00","1998","03","25","16:00","9.5","","1.8","","59","","8","","4","","32.2","","99.29","","","","","","Cloudy"
"1998-03-25 17:00","1998","03","25","17:00","9.6","","2.9","","63","","7","","4","","32.2","","99.26","","","","","","Cloudy"
"1998-03-25 18:00","1998","03","25","18:00","8.8","","4.4","","74","","","","0","","32.2","","99.19","","","","","","Mostly Cloudy"
"1998-03-25 19:00","1998","03","25","19:00","7.4","","4.7","","83","","","","0","","32.2","","99.15","","","","","","Mostly Cloudy"
"1998-03-25 20:00","1998","03","25","20:00","6.8","","5.8","","93","","","","0","","32.2","","99.15","","","","","","Cloudy"
"1998-03-25 21:00","1998","03","25","21:00","6.8","","5.6","","92","","","","0","","24.1","","99.15","","","","","","Cloudy"
"1998-03-25 22:00","1998","03","25","22:00"
"1998-03-25 23:00","1998","03","25","23:00"
"1998-03-26 00:00","1998","03","26","00:00"
"1998-03-26 01:00","1998","03","26","01:00"
"1998-03-26 02:00","1998","03","26","02:00"
"1998-03-26 03:00","1998","03","26","03:00"
"1998-03-26 04:00","1998","03","26","04:00"
"1998-03-26 05:00","1998","03","26","05:00"
"1998-03-26 06:00","1998","03","26","06:00","3.3","","0.4","","81","","30","","9","","24.1","","99.22","","","","","","Mainly Clear"
"1998-03-26 07:00","1998","03","26","07:00","3.1","","0.5","","83","","30","","9","","24.1","","99.22","","","","","","Mainly Clear"
"1998-03-26 08:00","1998","03","26","08:00","4.5","","0.9","","77","","31","","9","","24.1","","99.26","","","","","","Mainly Clear"
"1998-03-26 09:00","1998","03","26","09:00","6.7","","0.6","","65","","33","","9","","24.1","","99.29","","","","","","Mainly Clear"
"1998-03-26 10:00","1998","03","26","10:00","7.3","","0.1","","60","","12","","9","","24.1","","99.29","","","","","","Mostly Cloudy"
"1998-03-26 11:00","1998","03","26","11:00","6.9","","0.2","","62","","9","","11","","24.1","","99.29","","","","","","Mostly Cloudy"
"1998-03-26 12:00","1998","03","26","12:00","6.5","","0.2","","64","","10","","11","","24.1","","99.29","","","","","","Mostly Cloudy"
"1998-03-26 13:00","1998","03","26","13:00","6.5","","0.8","","67","","10","","9","","24.1","","99.29","","","","","","Rain Showers"
"1998-03-26 14:00","1998","03","26","14:00","5.3","","2.7","","83","","33","","6","","24.1","","99.29","","","","","","Rain Showers"
"1998-03-26 15:00","1998","03","26","15:00","6.0","","2.5","","78","","","","0","","32.2","","99.29","","","","","","Mostly Cloudy"
"1998-03-26 16:00","1998","03","26","16:00","6.7","","2.5","","75","","22","","9","","24.1","","99.29","","","","","","Mostly Cloudy"
"1998-03-26 17:00","1998","03","26","17:00","6.9","","-2.7","","50","","29","","19","","32.2","","99.29","","","","","","Mostly Cloudy"
"1998-03-26 18:00","1998","03","26","18:00","4.4","","0.3","","75","","35","","13","","32.2","","99.36","","","","","","Mostly Cloudy"
"1998-03-26 19:00","1998","03","26","19:00","2.9","","0.0","","81","","35","","9","","32.2","","99.39","","","","","","Mainly Clear"
"1998-03-26 20:00","1998","03","26","20:00","1.9","","-0.2","","86","","30","","9","","32.2","","99.49","","","","","","Mainly Clear"
"1998-03-26 21:00","1998","03","26","21:00","0.7","","-0.8","","90","","","","0","","32.2","","99.56","","","","","","Clear"
"1998-03-26 22:00","1998","03","26","22:00"
"1998-03-26 23:00","1998","03","26","23:00"
"1998-03-27 00:00","1998","03","27","00:00"
"1998-03-27 01:00","1998","03","27","01:00"
"1998-03-27 02:00","1998","03","27","02:00"
"1998-03-27 03:00","1998","03","27","03:00"
"1998-03-27 04:00","1998","03","27","04:00"
"1998-03-27 05:00","1998","03","27","05:00"
"1998-03-27 06:00","1998","03","27","06:00","-1.6","","-2.6","","93","","","","0","","24.1","","99.69","","","","","","Mostly Cloudy"
"1998-03-27 07:00","1998","03","27","07:00","-0.7","","-1.6","","94","","","","0","","24.1","","99.72","","","","","","Mostly Cloudy"
"1998-03-27 08:00","1998","03","27","08:00","0.3","","-0.5","","94","","30","","6","","24.1","","99.76","","","","","","Mostly Cloudy"
"1998-03-27 09:00","1998","03","27","09:00","3.2","","2.3","","94","","","","0","","32.2","","99.79","","","","","","Mostly Cloudy"
"1998-03-27 10:00","1998","03","27","10:00","5.4","","1.3","","75","","16","","9","","32.2","","99.79","","","","","","Mostly Cloudy"
"1998-03-27 11:00","1998","03","27","11:00","5.5","","0.4","","70","","","","0","","24.1","","99.83","","","","","","Mostly Cloudy"
"1998-03-27 12:00","1998","03","27","12:00","5.7","","0.7","","70","","12","","13","","24.1","","99.79","","","","","","Mostly Cloudy"
"1998-03-27 13:00","1998","03","27","13:00","7.1","","0.5","","63","","12","","9","","16.1","","99.76","","","","","","Mostly Cloudy"
"1998-03-27 14:00","1998","03","27","14:00","6.8","","-0.4","","60","","11","","7","","24.1","","99.76","","","","","","Mostly Cloudy"
"1998-03-27 15:00","1998","03","27","15:00","6.4","","-0.9","","60","","9","","9","","24.1","","99.76","","","","","","Mostly Cloudy"
"1998-03-27 16:00","1998","03","27","16:00","6.6","","0.3","","64","","11","","13","","24.1","","99.76","","","","","","Mostly Cloudy"
"1998-03-27 17:00","1998","03","27","17:00","5.9","","-0.2","","65","","14","","11","","24.1","","99.76","","","","","","Mostly Cloudy"
"1998-03-27 18:00","1998","03","27","18:00","4.7","","0.3","","73","","","","0","","24.1","","99.76","","","","","","Mostly Cloudy"
"1998-03-27 19:00","1998","03","27","19:00","3.0","","0.1","","81","","","","0","","24.1","","99.79","","","","","","Mostly Cloudy"
"1998-03-27 20:00","1998","03","27","20:00","2.1","","0.8","","91","","27","","4","","25.0","","99.86","","","","","","Mostly Cloudy"
"1998-03-27 21:00","1998","03","27","21:00","1.6","","0.5","","92","","29","","6","","25.0","","99.89","","","","","","Mainly Clear"
"1998-03-27 22:00","1998","03","27","22:00"
"1998-03-27 23:00","1998","03","27","23:00"
"1998-03-28 00:00","1998","03","28","00:00"
"1998-03-28 01:00","1998","03","28","01:00"
"1998-03-28 02:00","1998","03","28","02:00"
"1998-03-28 03:00","1998","03","28","03:00"
"1998-03-28 04:00","1998","03","28","04:00"
"1998-03-28 05:00","1998","03","28","05:00"
"1998-03-28 06:00","1998","03","28","06:00","-0.6","","-1.4","","94","","26","","9","","32.2","","100.16","","","","-4","","Clear"
"1998-03-28 07:00","1998","03","28","07:00","0.6","","-0.7","","91","","26","","11","","32.2","","100.23","","","","","","Clear"
"1998-03-28 08:00","1998","03","28","08:00","2.6","","0.4","","85","","32","","11","","32.2","","100.33","","","","","","Clear"
"1998-03-28 09:00","1998","03","28","09:00","3.9","","0.7","","80","","30","","19","","32.2","","100.40","","","","","","Mainly Clear"
"1998-03-28 10:00","1998","03","28","10:00","5.5","","1.0","","73","","31","","22","","32.2","","100.43","","","","","","Mainly Clear"
"1998-03-28 11:00","1998","03","28","11:00","6.7","","1.3","","68","","31","","26","","32.2","","100.43","","","","","","Mainly Clear"
"1998-03-28 12:00","1998","03","28","12:00","7.9","","1.1","","62","","28","","19","","32.2","","100.43","","","","","","Mainly Clear"
"1998-03-28 13:00","1998","03","28","13:00","9.4","","1.0","","56","","34","","19","","32.2","","100.43","","","","","","Mainly Clear"
"1998-03-28 14:00","1998","03","28","14:00","9.2","","-1.0","","49","","33","","13","","32.2","","100.46","","","","","","Mainly Clear"
"1998-03-28 15:00","1998","03","28","15:00","9.5","","-3.5","","40","","31","","15","","32.2","","100.50","","","","","","Mainly Clear"
"1998-03-28 16:00","1998","03","28","16:00","10.6","","-2.5","","40","","31","","20","","32.2","","100.53","","","","","","Mainly Clear"
"1998-03-28 17:00","1998","03","28","17:00","10.4","","-2.1","","42","","27","","19","","32.2","","100.53","","","","","","Mainly Clear"
"1998-03-28 18:00","1998","03","28","18:00","9.3","","-1.8","","46","","28","","17","","32.2","","100.56","","","","","","Mainly Clear"
"1998-03-28 19:00","1998","03","28","19:00","6.7","","-0.7","","59","","28","","15","","32.2","","100.63","","","","","","Mainly Clear"
"1998-03-28 20:00","1998","03","28","20:00","5.3","","-2.7","","56","","28","","11","","32.2","","100.70","","","","","","Mainly Clear"
"1998-03-28 21:00","1998","03","28","21:00","3.8","","-2.5","","63","","30","","9","","32.2","","100.73","","","","","","Mainly Clear"
"1998-03-28 22:00","1998","03","28","22:00"
"1998-03-28 23:00","1998","03","28","23:00"
"1998-03-29 00:00","1998","03","29","00:00"
"1998-03-29 01:00","1998","03","29","01:00"
"1998-03-29 02:00","1998","03","29","02:00"
"1998-03-29 03:00","1998","03","29","03:00"
"1998-03-29 04:00","1998","03","29","04:00"
"1998-03-29 05:00","1998","03","29","05:00"
"1998-03-29 06:00","1998","03","29","06:00","1.6","","-1.6","","79","","29","","4","","48.3","","100.80","","","","","","Mostly Cloudy"
"1998-03-29 07:00","1998","03","29","07:00","1.5","","-1.0","","83","","","","0","","48.3","","100.80","","","","","","Mostly Cloudy"
"1998-03-29 08:00","1998","03","29","08:00","3.7","","-0.9","","72","","32","","9","","48.3","","100.83","","","","","","Mostly Cloudy"
"1998-03-29 09:00","1998","03","29","09:00","6.2","","-2.1","","55","","32","","9","","48.3","","100.80","","","","","","Mostly Cloudy"
"1998-03-29 10:00","1998","03","29","10:00","7.9","","-3.5","","44","","35","","9","","48.3","","100.76","","","","","","Mostly Cloudy"
"1998-03-29 11:00","1998","03","29","11:00","9.1","","0.9","","56","","5","","4","","48.3","","100.73","","","","","","Mostly Cloudy"
"1998-03-29 12:00","1998","03","29","12:00","8.9","","1.3","","59","","7","","9","","48.3","","100.73","","","","","","Mostly Cloudy"
"1998-03-29 13:00","1998","03","29","13:00","9.3","","2.1","","61","","16","","7","","48.3","","100.70","","","","","","Mostly Cloudy"
"1998-03-29 14:00","1998","03","29","14:00","9.5","","1.2","","56","","8","","6","","48.3","","100.66","","","","","","Mostly Cloudy"
"1998-03-29 15:00","1998","03","29","15:00","10.2","","0.8","","52","","","","0","","32.2","","100.60","","","","","","Mostly Cloudy"
"1998-03-29 16:00","1998","03","29","16:00","10.0","","0.9","","53","","","","0","","32.2","","100.56","","","","","","Cloudy"
"1998-03-29 17:00","1998","03","29","17:00","9.7","","-0.5","","49","","","","0","","32.2","","100.53","","","","","","Cloudy"
"1998-03-29 18:00","1998","03","29","18:00","8.5","","1.4","","61","","","","0","","32.2","","100.50","","","","","","Cloudy"
"1998-03-29 19:00","1998","03","29","19:00","7.9","","1.4","","63","","","","0","","32.2","","100.50","","","","","","Cloudy"
"1998-03-29 20:00","1998","03","29","20:00","7.0","","4.0","","81","","","","0","","32.2","","100.46","","","","","","Cloudy"
"1998-03-29 21:00","1998","03","29","21:00","6.6","","3.9","","83","","","","0","","32.2","","100.46","","","","","","Cloudy"
"1998-03-29 22:00","1998","03","29","22:00"
"1998-03-29 23:00","1998","03","29","23:00"
"1998-03-30 00:00","1998","03","30","00:00"
"1998-03-30 01:00","1998","03","30","01:00"
"1998-03-30 02:00","1998","03","30","02:00"
"1998-03-30 03:00","1998","03","30","03:00"
"1998-03-30 04:00","1998","03","30","04:00"
"1998-03-30 05:00","1998","03","30","05:00"
"1998-03-30 06:00","1998","03","30","06:00","6.0","","1.1","","71","","","","0","","24.1","","99.86","","","","","","Cloudy"
"1998-03-30 07:00","1998","03","30","07:00","6.4","","1.4","","70","","12","","11","","24.1","","99.83","","","","","","Cloudy"
"1998-03-30 08:00","1998","03","30","08:00","6.4","","3.1","","79","","14","","15","","24.1","","99.83","","","","","","Rain"
"1998-03-30 09:00","1998","03","30","09:00","6.9","","2.8","","75","","14","","26","","24.1","","99.79","","","","","","Cloudy"
"1998-03-30 10:00","1998","03","30","10:00","7.0","","1.9","","70","","13","","24","","24.1","","99.79","","","","","","Cloudy"
"1998-03-30 11:00","1998","03","30","11:00","6.7","","3.8","","82","","11","","33","","19.3","","99.76","","","","","","Rain"
"1998-03-30 12:00","1998","03","30","12:00","6.1","","3.8","","85","","10","","35","","16.1","","99.76","","","","","","Rain"
"1998-03-30 13:00","1998","03","30","13:00","6.3","","4.3","","87","","12","","37","","12.9","","99.72","","","","","","Rain"
"1998-03-30 14:00","1998","03","30","14:00","6.7","","3.8","","82","","13","","24","","12.9","","99.72","","","","","","Rain"
"1998-03-30 15:00","1998","03","30","15:00","6.1","","4.1","","87","","12","","26","","9.7","","99.72","","","","","","Rain,Fog"
"1998-03-30 16:00","1998","03","30","16:00","5.9","","4.7","","92","","12","","24","","8.0","","99.72","","","","","","Rain,Fog"
"1998-03-30 17:00","1998","03","30","17:00","5.9","","4.9","","93","","14","","7","","6.4","","99.72","","","","","","Rain,Fog"
"1998-03-30 18:00","1998","03","30","18:00","5.8","","4.9","","94","","11","","17","","6.4","","99.72","","","","","","Rain,Fog"
"1998-03-30 19:00","1998","03","30","19:00","5.7","","4.6","","93","","13","","6","","6.4","","99.72","","","","","","Rain,Fog"
"1998-03-30 20:00","1998","03","30","20:00","5.5","","4.8","","95","","13","","4","","6.4","","99.76","","","","","","Rain,Fog"
"1998-03-30 21:00","1998","03","30","21:00","4.9","","3.6","","91","","30","","15","","11.3","","99.79","","","","","","Rain"
"1998-03-30 22:00","1998","03","30","22:00"
"1998-03-30 23:00","1998","03","30","23:00"
"1998-03-31 00:00","1998","03","31","00:00"
"1998-03-31 01:00","1998","03","31","01:00"
"1998-03-31 02:00","1998","03","31","02:00"
"1998-03-31 03:00","1998","03","31","03:00"
"1998-03-31 04:00","1998","03","31","04:00"
"1998-03-31 05:00","1998","03","31","05:00"
"1998-03-31 06:00","1998","03","31","06:00","0.0","","-1.0","","93","","","","0","","24.1","","99.96","","","","","","Mostly Cloudy"
"1998-03-31 07:00","1998","03","31","07:00","0.6","","0.0","","96","","","","0","","24.1","","99.99","","","","","","Mainly Clear"
"1998-03-31 08:00","1998","03","31","08:00","2.9","","1.6","","91","","31","","11","","32.2","","100.03","","","","","","Mainly Clear"
"1998-03-31 09:00","1998","03","31","09:00","4.4","","1.9","","84","","32","","15","","32.2","","100.06","","","","","","Mostly Cloudy"
"1998-03-31 10:00","1998","03","31","10:00","6.1","","1.9","","74","","33","","9","","32.2","","100.06","","","","","","Mainly Clear"
"1998-03-31 11:00","1998","03","31","11:00","7.8","","2.4","","69","","35","","9","","32.2","","100.06","","","","","","Mainly Clear"
"1998-03-31 12:00","1998","03","31","12:00","8.9","","2.4","","64","","","","0","","32.2","","100.03","","","","","","Mainly Clear"
"1998-03-31 13:00","1998","03","31","13:00","10.1","","2.6","","60","","3","","4","","32.2","","100.03","","","","","","Mainly Clear"
"1998-03-31 14:00","1998","03","31","14:00","9.8","","3.2","","63","","6","","6","","32.2","","99.99","","","","","","Mainly Clear"
"1998-03-31 15:00","1998","03","31","15:00","9.6","","3.1","","64","","9","","7","","32.2","","99.99","","","","","","Mainly Clear"
"1998-03-31 16:00","1998","03","31","16:00","10.2","","3.7","","64","","6","","9","","32.2","","99.99","","","","","","Mainly Clear"
"1998-03-31 17:00","1998","03","31","17:00","8.8","","3.3","","68","","6","","9","","32.2","","99.99","","","","","","Mainly Clear"
"1998-03-31 18:00","1998","03","31","18:00","7.7","","4.2","","78","","24","","6","","32.2","","99.99","","","","","","Mainly Clear"
"1998-03-31 19:00","1998","03","31","19:00","6.5","","3.0","","78","","26","","4","","32.2","","99.99","","","","","","Mainly Clear"
"1998-03-31 20:00","1998","03","31","20:00","4.6","","2.3","","85","","26","","13","","32.2","","100.03","","","","","","Mainly Clear"
"1998-03-31 21:00","1998","03","31","21:00","3.6","","1.3","","85","","32","","6","","32.2","","100.09","","","","","","Mainly Clear"
"1998-03-31 22:00","1998","03","31","22:00"
"1998-03-31 23:00","1998","03","31","23:00"
