"Station Name","CAMPBELL RIVER A"
"Province","BRITISH COLUMBIA"
"Latitude","49.95"
"Longitude","-125.27"
"Elevation","108.80"
"Climate Identifier","1021261"
"WMO Identifier",""
"TC Identifier","YBL"
"All times are specified in Local Standard Time (LST). Add 1 hour to adjust for Daylight Saving Time where and when it is observed."

"Legend"
"E","Estimated"
"M","Missing"
"NA","Not Available"

"Date/Time","Year","Month","Day","Time","Temp (°C)","Temp Flag","Dew Point Temp (°C)","Dew Point Temp Flag","Rel Hum (%)","Rel Hum Flag","Wind Dir (10s deg)","Wind Dir Flag","Wind Spd (km/h)","Wind Spd Flag","Visibility (km)","Visibility Flag","Stn Press (kPa)","Stn Press Flag","Hmdx","Hmdx Flag","Wind Chill","Wind Chill Flag","Weather"
"1989-03-01 00:00","1989","03","01","00:00","","","","","","","32","","13","","","","","","","","","","NA"
"1989-03-01 01:00","1989","03","01","01:00","","","","","","","31","","15","","","","","","","","","","NA"
"1989-03-01 02:00","1989","03","01","02:00","","","","","","","31","","11","","","","","","","","","","NA"
"1989-03-01 03:00","1989","03","01","03:00","","","","","","","29","","13","","","","","","","","","","NA"
"1989-03-01 04:00","1989","03","01","04:00","","","","","","","29","","13","","","","","","","","","","NA"
"1989-03-01 05:00","1989","03","01","05:00","","","","","","","28","","13","","","","","","","","","","NA"
"1989-03-01 06:00","1989","03","01","06:00","-4.4","","-5.8","","90","","27","","11","","3.2","","100.27","","","","-9","","Snow"
"1989-03-01 07:00","1989","03","01","07:00","-4.4","","-5.9","","89","","27","","9","","2.4","","100.24","","","","-8","","Snow"
"1989-03-01 08:00","1989","03","01","08:00","-3.9","","-6.6","","81","","28","","11","","12.9","","100.17","","","","-8","","Snow"
"1989-03-01 09:00","1989","03","01","09:00","-3.5","","-6.6","","79","","28","","7","","16.1","","100.14","","","","-6","","Snow Showers"
"1989-03-01 10:00","1989","03","01","10:00","-3.1","","-6.7","","76","","28","","11","","19.3","","100.11","","","","-7","","Cloudy"
"1989-03-01 11:00","1989","03","01","11:00","-2.5","","-9.5","","58","","30","","9","","19.3","","100.11","","","","-6","","Mostly Cloudy"
"1989-03-01 12:00","1989","03","01","12:00","-2.3","","-9.0","","60","","31","","13","","19.3","","100.04","","","","-7","","Mostly Cloudy"
"1989-03-01 13:00","1989","03","01","13:00","-1.2","","-8.1","","59","","29","","7","","24.1","","99.90","","","","-4","","Mostly Cloudy"
"1989-03-01 14:00","1989","03","01","14:00","-0.6","","-7.9","","58","","30","","9","","24.1","","99.80","","","","-4","","Mostly Cloudy"
"1989-03-01 15:00","1989","03","01","15:00","0.0","","-8.3","","54","","28","","9","","24.1","","99.70","","","","-3","","Mostly Cloudy"
"1989-03-01 16:00","1989","03","01","16:00","0.4","","-8.6","","51","","28","","15","","24.1","","99.64","","","","","","Mainly Clear"
"1989-03-01 17:00","1989","03","01","17:00","-0.2","","-7.6","","57","","28","","13","","24.1","","99.54","","","","-4","","Mainly Clear"
"1989-03-01 18:00","1989","03","01","18:00","-3.4","","-5.1","","88","","","","0","","24.1","","99.47","","","","","","Mainly Clear"
"1989-03-01 19:00","1989","03","01","19:00","-4.8","","-5.9","","92","","31","","9","","24.1","","99.40","","","","-9","","Mainly Clear"
"1989-03-01 20:00","1989","03","01","20:00","-5.2","","-6.7","","89","","30","","7","","24.1","","99.37","","","","-8","","Mainly Clear"
"1989-03-01 21:00","1989","03","01","21:00","-5.6","","-8.0","","83","","31","","13","","24.1","","99.30","","","","-11","","Mainly Clear"
"1989-03-01 22:00","1989","03","01","22:00","","","","","","","32","","13","","","","","","","","","","NA"
"1989-03-01 23:00","1989","03","01","23:00","","","","","","","31","","13","","","","","","","","","","NA"
"1989-03-02 00:00","1989","03","02","00:00","","","","","","","33","","11","","","","","","","","","","NA"
"1989-03-02 01:00","1989","03","02","01:00","","","","","","","31","","11","","","","","","","","","","NA"
"1989-03-02 02:00","1989","03","02","02:00","","","","","","","31","","13","","","","","","","","","","NA"
"1989-03-02 03:00","1989","03","02","03:00","","","","","","","32","","13","","","","","","","","","","NA"
"1989-03-02 04:00","1989","03","02","04:00","","","","","","","33","","13","","","","","","","","","","NA"
"1989-03-02 05:00","1989","03","02","05:00","","","","","","","32","","11","","","","","","","","","","NA"
"1989-03-02 06:00","1989","03","02","06:00","-9.2","","-13.3","","72","","31","","11","","25.0","","99.10","","","","-15","","Clear"
"1989-03-02 07:00","1989","03","02","07:00","-9.4","","-12.6","","77","","30","","13","","25.0","","99.10","","","","-15","","Clear"
"1989-03-02 08:00","1989","03","02","08:00","-7.4","","-12.9","","65","","30","","15","","24.1","","99.17","","","","-14","","Mainly Clear"
"1989-03-02 09:00","1989","03","02","09:00","-5.0","","-12.3","","56","","31","","19","","24.1","","99.20","","","","-11","","Mainly Clear"
"1989-03-02 10:00","1989","03","02","10:00","-2.7","","-13.2","","44","","29","","19","","24.1","","99.23","","","","-8","","Clear"
"1989-03-02 11:00","1989","03","02","11:00","-1.8","","-12.2","","45","","30","","28","","24.1","","99.27","","","","-9","","Clear"
"1989-03-02 12:00","1989","03","02","12:00","-0.8","","-11.3","","45","","31","","24","","24.1","","99.30","","","","-7","","Clear"
"1989-03-02 13:00","1989","03","02","13:00","0.1","","-12.2","","39","","30","","28","","24.1","","99.30","","","","","","Clear"
"1989-03-02 14:00","1989","03","02","14:00","1.4","","-12.2","","35","","31","","22","","24.1","","99.27","","","","","","Clear"
"1989-03-02 15:00","1989","03","02","15:00","2.4","","-14.5","","27","","35","","11","","24.1","","99.27","","","","","","Clear"
"1989-03-02 16:00","1989","03","02","16:00","2.0","","-12.7","","33","","31","","7","","24.1","","99.27","","","","","","Clear"
"1989-03-02 17:00","1989","03","02","17:00","2.2","","-10.2","","39","","29","","11","","24.1","","99.30","","","","","","Clear"
"1989-03-02 18:00","1989","03","02","18:00","-2.2","","-7.6","","66","","29","","7","","24.1","","99.30","","","","-5","","Clear"
"1989-03-02 19:00","1989","03","02","19:00","-3.8","","-9.3","","65","","31","","6","","24.1","","99.50","","","","-6","","Clear"
"1989-03-02 20:00","1989","03","02","20:00","-4.6","","-10.3","","64","","27","","6","","24.1","","99.54","","","","-7","","Clear"
"1989-03-02 21:00","1989","03","02","21:00","-6.8","","-9.7","","79","","","","0","","24.1","","99.60","","","","","","Clear"
"1989-03-02 22:00","1989","03","02","22:00","","","","","","","","","0","","","","","","","","","","NA"
"1989-03-02 23:00","1989","03","02","23:00","","","","","","","28","","6","","","","","","","","","","NA"
"1989-03-03 00:00","1989","03","03","00:00","","","","","","","29","","4","","","","","","","","","","NA"
"1989-03-03 01:00","1989","03","03","01:00","","","","","","","","","0","","","","","","","","","","NA"
"1989-03-03 02:00","1989","03","03","02:00","","","","","","","30","","4","","","","","","","","","","NA"
"1989-03-03 03:00","1989","03","03","03:00","","","","","","","31","","6","","","","","","","","","","NA"
"1989-03-03 04:00","1989","03","03","04:00","","","","","","","30","","4","","","","","","","","","","NA"
"1989-03-03 05:00","1989","03","03","05:00","","","","","","","31","","6","","","","","","","","","","NA"
"1989-03-03 06:00","1989","03","03","06:00","-9.6","","-10.7","","92","","29","","4","","24.1","","100.34","","","","-12","","Clear"
"1989-03-03 07:00","1989","03","03","07:00","-9.4","","-11.0","","88","","30","","7","","24.1","","100.41","","","","-13","","Mainly Clear"
"1989-03-03 08:00","1989","03","03","08:00","-9.2","","-10.7","","89","","31","","7","","24.1","","100.44","","","","-13","","Mainly Clear"
"1989-03-03 09:00","1989","03","03","09:00","-6.6","","-9.2","","82","","32","","11","","24.1","","100.47","","","","-12","","Mainly Clear"
"1989-03-03 10:00","1989","03","03","10:00","0.8","","-7.1","","55","","12","","6","","24.1","","100.54","","","","","","Mainly Clear"
"1989-03-03 11:00","1989","03","03","11:00","1.7","","-5.9","","57","","12","","17","","24.1","","100.54","","","","","","Mainly Clear"
"1989-03-03 12:00","1989","03","03","12:00","1.9","","-3.5","","67","","12","","26","","24.1","","100.61","","","","","","Mostly Cloudy"
"1989-03-03 13:00","1989","03","03","13:00","1.9","","-3.5","","67","","13","","24","","24.1","","100.58","","","","","","Mostly Cloudy"
"1989-03-03 14:00","1989","03","03","14:00","2.0","","-3.2","","68","","12","","26","","24.1","","100.61","","","","","","Mostly Cloudy"
"1989-03-03 15:00","1989","03","03","15:00","2.6","","-3.3","","65","","13","","24","","24.1","","100.64","","","","","","Mostly Cloudy"
"1989-03-03 16:00","1989","03","03","16:00","2.4","","-2.8","","69","","14","","33","","24.1","","100.61","","","","","","Mostly Cloudy"
"1989-03-03 17:00","1989","03","03","17:00","1.8","","-2.7","","72","","13","","28","","24.1","","100.64","","","","","","Mostly Cloudy"
"1989-03-03 18:00","1989","03","03","18:00","1.8","","-2.4","","74","","13","","24","","24.1","","100.71","","","","","","Mostly Cloudy"
"1989-03-03 19:00","1989","03","03","19:00","1.6","","-2.3","","75","","13","","24","","24.1","","100.71","","","","","","Cloudy"
"1989-03-03 20:00","1989","03","03","20:00","1.6","","-1.9","","77","","14","","9","","24.1","","100.74","","","","","","Cloudy"
"1989-03-03 21:00","1989","03","03","21:00","1.6","","-2.4","","75","","12","","9","","24.1","","100.74","","","","","","Cloudy"
"1989-03-03 22:00","1989","03","03","22:00","","","","","","","13","","13","","","","","","","","","","NA"
"1989-03-03 23:00","1989","03","03","23:00","","","","","","","13","","19","","","","","","","","","","NA"
"1989-03-04 00:00","1989","03","04","00:00","","","","","","","13","","19","","","","","","","","","","NA"
"1989-03-04 01:00","1989","03","04","01:00","","","","","","","13","","13","","","","","","","","","","NA"
"1989-03-04 02:00","1989","03","04","02:00","","","","","","","13","","7","","","","","","","","","","NA"
"1989-03-04 03:00","1989","03","04","03:00","","","","","","","13","","7","","","","","","","","","","NA"
"1989-03-04 04:00","1989","03","04","04:00","","","","","","","14","","4","","","","","","","","","","NA"
"1989-03-04 05:00","1989","03","04","05:00","","","","","","","","","0","","","","","","","","","","NA"
"1989-03-04 06:00","1989","03","04","06:00","-3.0","","-4.5","","89","","","","0","","24.1","","100.41","","","","","","Cloudy"
"1989-03-04 07:00","1989","03","04","07:00","-2.9","","-4.7","","87","","","","0","","24.1","","100.34","","","","","","Cloudy"
"1989-03-04 08:00","1989","03","04","08:00","-1.5","","-5.2","","76","","13","","4","","24.1","","100.27","","","","-3","","Cloudy"
"1989-03-04 09:00","1989","03","04","09:00","0.8","","-6.2","","59","","14","","19","","24.1","","100.17","","","","","","Cloudy"
"1989-03-04 10:00","1989","03","04","10:00","1.6","","-5.4","","60","","12","","19","","24.1","","100.14","","","","","","Cloudy"
"1989-03-04 11:00","1989","03","04","11:00","1.8","","-4.4","","64","","13","","22","","24.1","","100.04","","","","","","Cloudy"
"1989-03-04 12:00","1989","03","04","12:00","2.2","","-4.9","","59","","12","","19","","24.1","","100.01","","","","","","Cloudy"
"1989-03-04 13:00","1989","03","04","13:00","2.7","","-5.2","","56","","12","","24","","24.1","","99.90","","","","","","Cloudy"
"1989-03-04 14:00","1989","03","04","14:00","2.6","","-5.3","","56","","13","","22","","24.1","","99.80","","","","","","Cloudy"
"1989-03-04 15:00","1989","03","04","15:00","2.9","","-4.4","","59","","12","","22","","24.1","","99.70","","","","","","Cloudy"
"1989-03-04 16:00","1989","03","04","16:00","3.4","","-5.2","","53","","12","","19","","24.1","","99.67","","","","","","Cloudy"
"1989-03-04 17:00","1989","03","04","17:00","1.0","","-0.9","","87","","12","","37","","1.2","","99.64","","","","","","Snow"
"1989-03-04 18:00","1989","03","04","18:00","0.8","","0.2","","96","","13","","26","","1.6","","99.60","","","","","","Snow"
"1989-03-04 19:00","1989","03","04","19:00","0.5","","0.1","","97","","13","","22","","1.6","","99.57","","","","","","Snow"
"1989-03-04 20:00","1989","03","04","20:00","0.4","","0.2","","99","","13","","22","","1.0","","99.57","","","","","","Snow"
"1989-03-04 21:00","1989","03","04","21:00","0.6","","0.2","","97","","13","","30","","1.2","","99.57","","","","","","Snow"
"1989-03-04 22:00","1989","03","04","22:00","","","","","","","14","","20","","","","","","","","","","NA"
"1989-03-04 23:00","1989","03","04","23:00","","","","","","","14","","26","","","","","","","","","","NA"
"1989-03-05 00:00","1989","03","05","00:00","","","","","","","15","","19","","","","","","","","","","NA"
"1989-03-05 01:00","1989","03","05","01:00","","","","","","","15","","22","","","","","","","","","","NA"
"1989-03-05 02:00","1989","03","05","02:00","","","","","","","14","","24","","","","","","","","","","NA"
"1989-03-05 03:00","1989","03","05","03:00","","","","","","","14","","19","","","","","","","","","","NA"
"1989-03-05 04:00","1989","03","05","04:00","","","","","","","14","","22","","","","","","","","","","NA"
"1989-03-05 05:00","1989","03","05","05:00","","","","","","","13","","13","","","","","","","","","","NA"
"1989-03-05 06:00","1989","03","05","06:00","2.7","","2.3","","97","","12","","13","","4.8","","99.67","","","","","","Fog"
"1989-03-05 07:00","1989","03","05","07:00","2.5","","2.2","","98","","11","","11","","4.8","","99.60","","","","","","Fog"
"1989-03-05 08:00","1989","03","05","08:00","3.5","","2.6","","94","","13","","24","","6.4","","99.47","","","","","","Rain,Fog"
"1989-03-05 09:00","1989","03","05","09:00","3.6","","2.8","","94","","14","","17","","8.0","","99.37","","","","","","Rain,Fog"
"1989-03-05 10:00","1989","03","05","10:00","3.5","","2.9","","96","","14","","19","","6.4","","99.27","","","","","","Rain,Fog"
"1989-03-05 11:00","1989","03","05","11:00","3.6","","3.1","","97","","14","","19","","8.0","","99.17","","","","","","Rain,Fog"
"1989-03-05 12:00","1989","03","05","12:00","3.7","","3.3","","97","","13","","13","","6.4","","99.07","","","","","","Rain,Fog"
"1989-03-05 13:00","1989","03","05","13:00","3.9","","3.3","","96","","10","","7","","8.0","","98.90","","","","","","Rain,Fog"
"1989-03-05 14:00","1989","03","05","14:00","3.6","","3.5","","99","","11","","9","","9.7","","98.80","","","","","","Rain,Fog"
"1989-03-05 15:00","1989","03","05","15:00","3.6","","3.5","","99","","9","","4","","9.7","","98.70","","","","","","Rain,Fog"
"1989-03-05 16:00","1989","03","05","16:00","4.0","","3.5","","97","","9","","6","","9.7","","98.70","","","","","","Rain,Fog"
"1989-03-05 17:00","1989","03","05","17:00","4.2","","3.8","","97","","8","","6","","9.7","","98.70","","","","","","Rain Showers,Fog"
"1989-03-05 18:00","1989","03","05","18:00","3.4","","3.2","","99","","10","","4","","8.0","","98.73","","","","","","Drizzle,Fog"
"1989-03-05 19:00","1989","03","05","19:00","3.4","","2.5","","94","","","","0","","9.7","","98.76","","","","","","Fog"
"1989-03-05 20:00","1989","03","05","20:00","2.2","","2.2","","100","","","","0","","8.0","","98.86","","","","","","Fog"
"1989-03-05 21:00","1989","03","05","21:00","3.2","","3.1","","99","","9","","7","","9.7","","98.93","","","","","","Fog"
"1989-03-05 22:00","1989","03","05","22:00","","","","","","","11","","7","","","","","","","","","","NA"
"1989-03-05 23:00","1989","03","05","23:00","","","","","","","27","","6","","","","","","","","","","NA"
"1989-03-06 00:00","1989","03","06","00:00","","","","","","","28","","17","","","","","","","","","","NA"
"1989-03-06 01:00","1989","03","06","01:00","","","","","","","27","","11","","","","","","","","","","NA"
"1989-03-06 02:00","1989","03","06","02:00","","","","","","","27","","9","","","","","","","","","","NA"
"1989-03-06 03:00","1989","03","06","03:00","","","","","","","28","","7","","","","","","","","","","NA"
"1989-03-06 04:00","1989","03","06","04:00","","","","","","","","","0","","","","","","","","","","NA"
"1989-03-06 05:00","1989","03","06","05:00","","","","","","","27","","11","","","","","","","","","","NA"
"1989-03-06 06:00","1989","03","06","06:00","0.5","","-0.1","","96","","","","0","","24.1","","99.17","","","","","","Cloudy"
"1989-03-06 07:00","1989","03","06","07:00","2.5","","-0.1","","83","","13","","19","","24.1","","98.97","","","","","","Cloudy"
"1989-03-06 08:00","1989","03","06","08:00","2.2","","1.3","","93","","14","","31","","4.8","","98.93","","","","","","Moderate Rain,Snow,Fog"
"1989-03-06 09:00","1989","03","06","09:00","0.8","","-0.1","","94","","14","","24","","1.2","","98.97","","","","","","Rain,Snow"
"1989-03-06 10:00","1989","03","06","10:00","3.6","","2.3","","91","","16","","20","","24.1","","99.10","","","","","","Mostly Cloudy"
"1989-03-06 11:00","1989","03","06","11:00","6.9","","2.9","","76","","18","","9","","24.1","","99.27","","","","","","Mainly Clear"
"1989-03-06 12:00","1989","03","06","12:00","6.5","","-0.6","","60","","23","","11","","24.1","","99.40","","","","","","Mostly Cloudy"
"1989-03-06 13:00","1989","03","06","13:00","7.5","","-3.1","","47","","19","","13","","24.1","","99.40","","","","","","Mainly Clear"
"1989-03-06 14:00","1989","03","06","14:00","7.5","","-2.2","","50","","30","","17","","24.1","","99.47","","","","","","Mainly Clear"
"1989-03-06 15:00","1989","03","06","15:00","6.7","","-1.8","","55","","31","","7","","24.1","","99.47","","","","","","Mainly Clear"
"1989-03-06 16:00","1989","03","06","16:00","6.7","","-4.3","","45","","18","","4","","24.1","","99.50","","","","","","Mainly Clear"
"1989-03-06 17:00","1989","03","06","17:00","5.4","","-0.9","","64","","12","","13","","24.1","","99.50","","","","","","Mostly Cloudy"
"1989-03-06 18:00","1989","03","06","18:00","3.1","","0.3","","82","","","","0","","24.1","","99.47","","","","","","Mostly Cloudy"
"1989-03-06 19:00","1989","03","06","19:00","2.7","","-1.0","","76","","14","","7","","24.1","","99.44","","","","","","Mostly Cloudy"
"1989-03-06 20:00","1989","03","06","20:00","3.3","","-0.8","","75","","14","","15","","24.1","","99.47","","","","","","Mostly Cloudy"
"1989-03-06 21:00","1989","03","06","21:00","2.5","","0.3","","85","","20","","9","","19.3","","99.47","","","","","","Rain Showers"
"1989-03-06 22:00","1989","03","06","22:00","","","","","","","","","0","","","","","","","","","","NA"
"1989-03-06 23:00","1989","03","06","23:00","","","","","","","14","","4","","","","","","","","","","NA"
"1989-03-07 00:00","1989","03","07","00:00","","","","","","","26","","4","","","","","","","","","","NA"
"1989-03-07 01:00","1989","03","07","01:00","","","","","","","32","","7","","","","","","","","","","NA"
"1989-03-07 02:00","1989","03","07","02:00","","","","","","","30","","4","","","","","","","","","","NA"
"1989-03-07 03:00","1989","03","07","03:00","","","","","","","30","","4","","","","","","","","","","NA"
"1989-03-07 04:00","1989","03","07","04:00","","","","","","","28","","6","","","","","","","","","","NA"
"1989-03-07 05:00","1989","03","07","05:00","","","","","","","30","","6","","","","","","","","","","NA"
"1989-03-07 06:00","1989","03","07","06:00","-1.0","","-1.4","","97","","","","0","","24.1","","99.80","","","","","","Mostly Cloudy"
"1989-03-07 07:00","1989","03","07","07:00","-1.4","","-2.2","","94","","","","0","","24.1","","99.84","","","","","","Mostly Cloudy"
"1989-03-07 08:00","1989","03","07","08:00","-1.2","","-1.8","","96","","","","0","","24.1","","99.84","","","","","","Mostly Cloudy"
"1989-03-07 09:00","1989","03","07","09:00","-0.1","","-0.5","","97","","","","0","","24.1","","99.90","","","","","","Mostly Cloudy"
"1989-03-07 10:00","1989","03","07","10:00","0.2","","0.0","","98","","","","0","","24.1","","99.90","","","","","","Mostly Cloudy"
"1989-03-07 11:00","1989","03","07","11:00","2.4","","1.2","","92","","14","","13","","24.1","","99.87","","","","","","Mostly Cloudy"
"1989-03-07 12:00","1989","03","07","12:00","3.0","","0.7","","85","","14","","15","","24.1","","99.87","","","","","","Mostly Cloudy"
"1989-03-07 13:00","1989","03","07","13:00","4.2","","1.7","","84","","14","","15","","24.1","","99.80","","","","","","Mostly Cloudy"
"1989-03-07 14:00","1989","03","07","14:00","5.4","","0.0","","68","","13","","19","","24.1","","99.74","","","","","","Mostly Cloudy"
"1989-03-07 15:00","1989","03","07","15:00","5.7","","-0.2","","66","","14","","28","","24.1","","99.70","","","","","","Rain Showers"
"1989-03-07 16:00","1989","03","07","16:00","4.6","","0.2","","73","","15","","17","","24.1","","99.67","","","","","","Cloudy"
"1989-03-07 17:00","1989","03","07","17:00","4.2","","0.7","","78","","15","","19","","24.1","","99.60","","","","","","Rain Showers"
"1989-03-07 18:00","1989","03","07","18:00","2.9","","0.6","","85","","14","","24","","24.1","","99.57","","","","","","Rain Showers"
"1989-03-07 19:00","1989","03","07","19:00","0.9","","0.0","","94","","12","","13","","4.8","","99.57","","","","","","Snow Showers"
"1989-03-07 20:00","1989","03","07","20:00","0.2","","-0.2","","97","","10","","19","","2.4","","99.57","","","","","","Snow Showers"
"1989-03-07 21:00","1989","03","07","21:00","0.2","","-0.2","","97","","","","0","","3.2","","99.57","","","","","","Snow Showers"
"1989-03-07 22:00","1989","03","07","22:00","","","","","","","","","0","","","","","","","","","","NA"
"1989-03-07 23:00","1989","03","07","23:00","","","","","","","","","0","","","","","","","","","","NA"
"1989-03-08 00:00","1989","03","08","00:00","","","","","","","","","0","","","","","","","","","","NA"
"1989-03-08 01:00","1989","03","08","01:00","","","","","","","","","0","","","","","","","","","","NA"
"1989-03-08 02:00","1989","03","08","02:00","","","","","","","","","0","","","","","","","","","","NA"
"1989-03-08 03:00","1989","03","08","03:00","","","","","","","","","0","","","","","","","","","","NA"
"1989-03-08 04:00","1989","03","08","04:00","","","","","","","","","0","","","","","","","","","","NA"
"1989-03-08 05:00","1989","03","08","05:00","","","","","","","","","0","","","","","","","","","","NA"
"1989-03-08 06:00","1989","03","08","06:00","1.4","","0.7","","95","","","","0","","12.9","","99.40","","","","","","Rain"
"1989-03-08 07:00","1989","03","08","07:00","1.0","","0.6","","97","","","","0","","12.9","","99.40","","","","","","Rain"
"1989-03-08 08:00","1989","03","08","08:00","1.8","","1.1","","95","","","","0","","12.9","","99.40","","","","","","Rain"
"1989-03-08 09:00","1989","03","08","09:00","2.4","","1.5","","94","","14","","11","","12.9","","99.40","","","","","","Rain"
"1989-03-08 10:00","1989","03","08","10:00","4.2","","3.2","","93","","14","","20","","24.1","","99.44","","","","","","Mostly Cloudy"
"1989-03-08 11:00","1989","03","08","11:00","6.4","","4.1","","85","","15","","22","","24.1","","99.47","","","","","","Mostly Cloudy"
"1989-03-08 12:00","1989","03","08","12:00","8.2","","4.8","","79","","16","","26","","24.1","","99.54","","","","","","Mostly Cloudy"
"1989-03-08 13:00","1989","03","08","13:00","8.4","","3.6","","72","","15","","28","","24.1","","99.57","","","","","","Mostly Cloudy"
"1989-03-08 14:00","1989","03","08","14:00","8.8","","4.3","","73","","12","","26","","24.1","","99.54","","","","","","Mostly Cloudy"
"1989-03-08 15:00","1989","03","08","15:00","9.0","","3.6","","69","","13","","31","","24.1","","99.54","","","","","","Mostly Cloudy"
"1989-03-08 16:00","1989","03","08","16:00","8.8","","3.2","","68","","14","","28","","24.1","","99.54","","","","","","Mostly Cloudy"
"1989-03-08 17:00","1989","03","08","17:00","7.2","","1.7","","68","","16","","13","","24.1","","99.60","","","","","","Mostly Cloudy"
"1989-03-08 18:00","1989","03","08","18:00","6.1","","1.9","","74","","11","","13","","24.1","","99.64","","","","","","Mostly Cloudy"
"1989-03-08 19:00","1989","03","08","19:00","4.5","","1.7","","82","","12","","15","","24.1","","99.67","","","","","","Mostly Cloudy"
"1989-03-08 20:00","1989","03","08","20:00","2.3","","0.5","","88","","","","0","","24.1","","99.70","","","","","","Mostly Cloudy"
"1989-03-08 21:00","1989","03","08","21:00","1.7","","0.6","","92","","4","","4","","24.1","","99.70","","","","","","Mostly Cloudy"
"1989-03-08 22:00","1989","03","08","22:00","","","","","","","4","","6","","","","","","","","","","NA"
"1989-03-08 23:00","1989","03","08","23:00","","","","","","","31","","4","","","","","","","","","","NA"
"1989-03-09 00:00","1989","03","09","00:00","","","","","","","30","","6","","","","","","","","","","NA"
"1989-03-09 01:00","1989","03","09","01:00","","","","","","","","","0","","","","","","","","","","NA"
"1989-03-09 02:00","1989","03","09","02:00","","","","","","","31","","4","","","","","","","","","","NA"
"1989-03-09 03:00","1989","03","09","03:00","","","","","","","31","","6","","","","","","","","","","NA"
"1989-03-09 04:00","1989","03","09","04:00","","","","","","","30","","4","","","","","","","","","","NA"
"1989-03-09 05:00","1989","03","09","05:00","","","","","","","31","","6","","","","","","","","","","NA"
"1989-03-09 06:00","1989","03","09","06:00","-0.4","","-1.1","","95","","29","","6","","24.1","","99.47","","","","-2","","Mostly Cloudy"
"1989-03-09 07:00","1989","03","09","07:00","-0.4","","-1.1","","95","","32","","4","","24.1","","99.40","","","","-2","","Mostly Cloudy"
"1989-03-09 08:00","1989","03","09","08:00","0.4","","-0.2","","96","","31","","6","","24.1","","99.37","","","","","","Mostly Cloudy"
"1989-03-09 09:00","1989","03","09","09:00","0.9","","0.3","","96","","32","","6","","24.1","","99.30","","","","","","Mostly Cloudy"
"1989-03-09 10:00","1989","03","09","10:00","2.4","","1.6","","95","","32","","6","","16.1","","99.20","","","","","","Rain"
"1989-03-09 11:00","1989","03","09","11:00","4.5","","3.9","","96","","32","","4","","16.1","","99.13","","","","","","Rain"
"1989-03-09 12:00","1989","03","09","12:00","6.0","","4.8","","92","","","","0","","16.1","","99.07","","","","","","Rain"
"1989-03-09 13:00","1989","03","09","13:00","6.4","","5.0","","91","","","","0","","16.1","","98.97","","","","","","Rain"
"1989-03-09 14:00","1989","03","09","14:00","6.2","","5.1","","93","","","","0","","16.1","","98.86","","","","","","Rain"
"1989-03-09 15:00","1989","03","09","15:00","5.8","","5.2","","96","","12","","6","","8.0","","98.80","","","","","","Rain,Fog"
"1989-03-09 16:00","1989","03","09","16:00","5.6","","5.1","","97","","10","","6","","8.0","","98.70","","","","","","Rain,Fog"
"1989-03-09 17:00","1989","03","09","17:00","5.3","","4.7","","96","","10","","6","","4.8","","98.66","","","","","","Rain,Fog"
"1989-03-09 18:00","1989","03","09","18:00","4.5","","3.6","","94","","9","","4","","8.0","","98.66","","","","","","Rain,Fog"
"1989-03-09 19:00","1989","03","09","19:00","4.4","","3.5","","94","","13","","11","","8.0","","98.66","","","","","","Rain,Fog"
"1989-03-09 20:00","1989","03","09","20:00","3.5","","2.8","","95","","6","","4","","8.0","","98.73","","","","","","Rain,Fog"
"1989-03-09 21:00","1989","03","09","21:00","3.5","","2.8","","95","","","","0","","8.0","","98.90","","","","","","Fog"
"1989-03-09 22:00","1989","03","09","22:00","","","","","","","","","0","","","","","","","","","","NA"
"1989-03-09 23:00","1989","03","09","23:00","","","","","","","","","0","","","","","","","","","","NA"
"1989-03-10 00:00","1989","03","10","00:00","","","","","","","13","","9","","","","","","","","","","NA"
"1989-03-10 01:00","1989","03","10","01:00","","","","","","","13","","19","","","","","","","","","","NA"
"1989-03-10 02:00","1989","03","10","02:00","","","","","","","13","","22","","","","","","","","","","NA"
"1989-03-10 03:00","1989","03","10","03:00","","","","","","","12","","19","","","","","","","","","","NA"
"1989-03-10 04:00","1989","03","10","04:00","","","","","","","12","","15","","","","","","","","","","NA"
"1989-03-10 05:00","1989","03","10","05:00","","","","","","","13","","11","","","","","","","","","","NA"
"1989-03-10 06:00","1989","03","10","06:00","3.0","","2.2","","95","","12","","6","","24.1","","99.50","","","","","","Mainly Clear"
"1989-03-10 07:00","1989","03","10","07:00","1.6","","1.2","","97","","33","","4","","24.1","","99.67","","","","","","Mostly Cloudy"
"1989-03-10 08:00","1989","03","10","08:00","2.4","","1.6","","95","","","","0","","24.1","","99.74","","","","","","Mostly Cloudy"
"1989-03-10 09:00","1989","03","10","09:00","5.8","","4.8","","93","","","","0","","24.1","","99.90","","","","","","Mostly Cloudy"
"1989-03-10 10:00","1989","03","10","10:00","8.6","","4.8","","77","","11","","11","","24.1","","100.11","","","","","","Mostly Cloudy"
"1989-03-10 11:00","1989","03","10","11:00","9.1","","0.4","","54","","15","","24","","24.1","","100.14","","","","","","Mostly Cloudy"
"1989-03-10 12:00","1989","03","10","12:00","10.1","","0.0","","49","","13","","22","","24.1","","100.21","","","","","","Mostly Cloudy"
"1989-03-10 13:00","1989","03","10","13:00","10.4","","0.8","","51","","12","","22","","24.1","","100.21","","","","","","Mostly Cloudy"
"1989-03-10 14:00","1989","03","10","14:00","10.7","","0.0","","47","","15","","24","","24.1","","100.21","","","","","","Cloudy"
"1989-03-10 15:00","1989","03","10","15:00","9.9","","2.8","","61","","13","","17","","24.1","","100.24","","","","","","Cloudy"
"1989-03-10 16:00","1989","03","10","16:00","10.1","","2.3","","58","","15","","20","","24.1","","100.24","","","","","","Mostly Cloudy"
"1989-03-10 17:00","1989","03","10","17:00","9.0","","3.0","","66","","13","","15","","24.1","","100.24","","","","","","Mainly Clear"
"1989-03-10 18:00","1989","03","10","18:00","7.5","","4.8","","83","","12","","13","","24.1","","100.21","","","","","","Mainly Clear"
"1989-03-10 19:00","1989","03","10","19:00","6.7","","5.4","","91","","12","","7","","24.1","","100.14","","","","","","Cloudy"
"1989-03-10 20:00","1989","03","10","20:00","6.7","","5.4","","91","","13","","13","","16.1","","100.07","","","","","","Rain Showers"
"1989-03-10 21:00","1989","03","10","21:00","6.5","","5.6","","94","","13","","11","","16.1","","100.04","","","","","","Rain"
"1989-03-10 22:00","1989","03","10","22:00","","","","","","","13","","9","","","","","","","","","","NA"
"1989-03-10 23:00","1989","03","10","23:00","","","","","","","13","","7","","","","","","","","","","NA"
"1989-03-11 00:00","1989","03","11","00:00","","","","","","","","","0","","","","","","","","","","NA"
"1989-03-11 01:00","1989","03","11","01:00","","","","","","","","","0","","","","","","","","","","NA"
"1989-03-11 02:00","1989","03","11","02:00","","","","","","","","","0","","","","","","","","","","NA"
"1989-03-11 03:00","1989","03","11","03:00","","","","","","","","","0","","","","","","","","","","NA"
"1989-03-11 04:00","1989","03","11","04:00","","","","","","","","","0","","","","","","","","","","NA"
"1989-03-11 05:00","1989","03","11","05:00","","","","","","","","","0","","","","","","","","","","NA"
"1989-03-11 06:00","1989","03","11","06:00","5.6","","5.4","","98","","12","","13","","4.8","","99.00","","","","","","Rain,Fog"
"1989-03-11 07:00","1989","03","11","07:00","5.8","","5.5","","98","","11","","9","","4.8","","99.10","","","","","","Rain,Fog"
"1989-03-11 08:00","1989","03","11","08:00","7.2","","6.4","","94","","13","","24","","24.1","","99.10","","","","","","Rain Showers"
"1989-03-11 09:00","1989","03","11","09:00","9.2","","5.7","","79","","15","","26","","24.1","","99.33","","","","","","Mostly Cloudy"
"1989-03-11 10:00","1989","03","11","10:00","9.8","","3.7","","66","","14","","19","","24.1","","99.54","","","","","","Mostly Cloudy"
"1989-03-11 11:00","1989","03","11","11:00","7.8","","3.0","","72","","17","","24","","24.1","","99.70","","","","","","Rain Showers"
"1989-03-11 12:00","1989","03","11","12:00","6.8","","4.5","","85","","13","","28","","24.1","","99.77","","","","","","Mostly Cloudy"
"1989-03-11 13:00","1989","03","11","13:00","7.4","","5.6","","88","","14","","22","","24.1","","99.84","","","","","","Mostly Cloudy"
"1989-03-11 14:00","1989","03","11","14:00","7.8","","4.7","","81","","14","","20","","24.1","","99.90","","","","","","Mostly Cloudy"
"1989-03-11 15:00","1989","03","11","15:00","6.9","","3.6","","80","","16","","19","","24.1","","100.01","","","","","","Mostly Cloudy"
"1989-03-11 16:00","1989","03","11","16:00","7.2","","4.3","","82","","15","","13","","24.1","","100.04","","","","","","Rain Showers"
"1989-03-11 17:00","1989","03","11","17:00","7.4","","4.2","","80","","11","","17","","24.1","","100.04","","","","","","Mostly Cloudy"
"1989-03-11 18:00","1989","03","11","18:00","7.2","","3.2","","76","","13","","19","","24.1","","100.11","","","","","","Mostly Cloudy"
"1989-03-11 19:00","1989","03","11","19:00","6.6","","3.2","","79","","14","","17","","24.1","","100.11","","","","","","Mostly Cloudy"
"1989-03-11 20:00","1989","03","11","20:00","7.0","","5.6","","91","","12","","26","","9.7","","100.04","","","","","","Fog"
"1989-03-11 21:00","1989","03","11","21:00","6.6","","4.6","","87","","14","","22","","9.7","","100.04","","","","","","Rain Showers,Fog"
"1989-03-11 22:00","1989","03","11","22:00","","","","","","","5","","26","","","","","","","","","","NA"
"1989-03-11 23:00","1989","03","11","23:00","","","","","","","14","","20","","","","","","","","","","NA"
"1989-03-12 00:00","1989","03","12","00:00","","","","","","","17","","22","","","","","","","","","","NA"
"1989-03-12 01:00","1989","03","12","01:00","","","","","","","21","","11","","","","","","","","","","NA"
"1989-03-12 02:00","1989","03","12","02:00","","","","","","","15","","15","","","","","","","","","","NA"
"1989-03-12 03:00","1989","03","12","03:00","","","","","","","5","","4","","","","","","","","","","NA"
"1989-03-12 04:00","1989","03","12","04:00","","","","","","","33","","4","","","","","","","","","","NA"
"1989-03-12 05:00","1989","03","12","05:00","","","","","","","17","","4","","","","","","","","","","NA"
"1989-03-12 06:00","1989","03","12","06:00","0.1","","-0.4","","96","","31","","4","","24.1","","100.14","","","","","","Rain Showers"
"1989-03-12 07:00","1989","03","12","07:00","0.0","","-0.4","","97","","","","0","","24.1","","100.11","","","","","","Mostly Cloudy"
"1989-03-12 08:00","1989","03","12","08:00","0.8","","0.6","","99","","","","0","","24.1","","100.14","","","","","","Mostly Cloudy"
"1989-03-12 09:00","1989","03","12","09:00","2.9","","2.6","","98","","13","","7","","19.3","","100.14","","","","","","Rain Showers"
"1989-03-12 10:00","1989","03","12","10:00","3.9","","3.1","","95","","15","","7","","16.1","","100.11","","","","","","Rain"
"1989-03-12 11:00","1989","03","12","11:00","4.1","","3.4","","95","","14","","11","","9.7","","100.04","","","","","","Rain,Fog"
"1989-03-12 12:00","1989","03","12","12:00","5.5","","4.6","","94","","13","","20","","8.0","","100.01","","","","","","Rain,Fog"
"1989-03-12 13:00","1989","03","12","13:00","6.2","","5.3","","94","","12","","26","","6.4","","99.97","","","","","","Rain,Fog"
"1989-03-12 14:00","1989","03","12","14:00","6.6","","5.4","","92","","14","","24","","9.7","","99.94","","","","","","Rain Showers,Fog"
"1989-03-12 15:00","1989","03","12","15:00","8.0","","5.4","","84","","14","","19","","24.1","","99.97","","","","","","Mainly Clear"
"1989-03-12 16:00","1989","03","12","16:00","7.9","","2.6","","69","","12","","17","","24.1","","100.01","","","","","","Mainly Clear"
"1989-03-12 17:00","1989","03","12","17:00","7.0","","1.9","","70","","15","","13","","24.1","","100.04","","","","","","Mostly Cloudy"
"1989-03-12 18:00","1989","03","12","18:00","6.1","","-0.2","","64","","15","","7","","24.1","","100.11","","","","","","Mainly Clear"
"1989-03-12 19:00","1989","03","12","19:00","2.3","","1.5","","95","","","","0","","24.1","","100.14","","","","","","Mainly Clear"
"1989-03-12 20:00","1989","03","12","20:00","2.2","","1.2","","93","","","","0","","24.1","","100.07","","","","","","Mostly Cloudy"
"1989-03-12 21:00","1989","03","12","21:00","1.4","","0.6","","95","","","","0","","24.1","","100.11","","","","","","Mostly Cloudy"
"1989-03-12 22:00","1989","03","12","22:00","","","","","","","","","0","","","","","","","","","","NA"
"1989-03-12 23:00","1989","03","12","23:00","","","","","","","","","0","","","","","","","","","","NA"
"1989-03-13 00:00","1989","03","13","00:00","","","","","","","30","","4","","","","","","","","","","NA"
"1989-03-13 01:00","1989","03","13","01:00","","","","","","","31","","4","","","","","","","","","","NA"
"1989-03-13 02:00","1989","03","13","02:00","","","","","","","31","","4","","","","","","","","","","NA"
"1989-03-13 03:00","1989","03","13","03:00","","","","","","","31","","4","","","","","","","","","","NA"
"1989-03-13 04:00","1989","03","13","04:00","","","","","","","32","","4","","","","","","","","","","NA"
"1989-03-13 05:00","1989","03","13","05:00","","","","","","","31","","4","","","","","","","","","","NA"
"1989-03-13 06:00","1989","03","13","06:00","1.2","","0.7","","96","","","","0","","24.1","","99.90","","","","","","Rain Showers"
"1989-03-13 07:00","1989","03","13","07:00","1.6","","1.1","","96","","","","0","","19.3","","99.94","","","","","","Rain Showers"
"1989-03-13 08:00","1989","03","13","08:00","2.4","","1.8","","96","","","","0","","12.9","","99.97","","","","","","Rain Showers"
"1989-03-13 09:00","1989","03","13","09:00","2.8","","2.0","","95","","","","0","","12.9","","100.04","","","","","","Cloudy"
"1989-03-13 10:00","1989","03","13","10:00","2.8","","2.2","","96","","","","0","","8.0","","100.04","","","","","","Rain Showers,Fog"
"1989-03-13 11:00","1989","03","13","11:00","3.6","","2.9","","95","","","","0","","8.0","","100.04","","","","","","Rain Showers,Fog"
"1989-03-13 12:00","1989","03","13","12:00","3.8","","3.1","","95","","","","0","","9.7","","100.11","","","","","","Rain Showers,Fog"
"1989-03-13 13:00","1989","03","13","13:00","4.4","","3.8","","96","","","","0","","12.9","","100.07","","","","","","Cloudy"
"1989-03-13 14:00","1989","03","13","14:00","5.0","","4.1","","94","","4","","6","","12.9","","100.04","","","","","","Mostly Cloudy"
"1989-03-13 15:00","1989","03","13","15:00","5.3","","4.3","","93","","3","","4","","12.9","","100.04","","","","","","Mostly Cloudy"
"1989-03-13 16:00","1989","03","13","16:00","4.1","","2.9","","92","","","","0","","9.7","","100.11","","","","","","Rain Showers,Fog"
"1989-03-13 17:00","1989","03","13","17:00","3.6","","2.9","","95","","12","","13","","8.0","","100.14","","","","","","Moderate Rain Showers,Fog"
"1989-03-13 18:00","1989","03","13","18:00","3.3","","2.6","","95","","29","","6","","16.1","","100.14","","","","","","Rain Showers"
"1989-03-13 19:00","1989","03","13","19:00","2.7","","2.1","","96","","31","","6","","16.1","","100.21","","","","","","Mostly Cloudy"
"1989-03-13 20:00","1989","03","13","20:00","2.4","","1.8","","96","","31","","6","","16.1","","100.31","","","","","","Mostly Cloudy"
"1989-03-13 21:00","1989","03","13","21:00","2.0","","1.3","","95","","","","0","","19.3","","100.34","","","","","","Mostly Cloudy"
"1989-03-13 22:00","1989","03","13","22:00","","","","","","","","","0","","","","","","","","","","NA"
"1989-03-13 23:00","1989","03","13","23:00","","","","","","","35","","4","","","","","","","","","","NA"
"1989-03-14 00:00","1989","03","14","00:00","","","","","","","31","","4","","","","","","","","","","NA"
"1989-03-14 01:00","1989","03","14","01:00","","","","","","","34","","6","","","","","","","","","","NA"
"1989-03-14 02:00","1989","03","14","02:00","","","","","","","32","","6","","","","","","","","","","NA"
"1989-03-14 03:00","1989","03","14","03:00","","","","","","","","","0","","","","","","","","","","NA"
"1989-03-14 04:00","1989","03","14","04:00","","","","","","","32","","7","","","","","","","","","","NA"
"1989-03-14 05:00","1989","03","14","05:00","","","","","","","","","0","","","","","","","","","","NA"
"1989-03-14 06:00","1989","03","14","06:00","-0.4","","-1.1","","95","","31","","7","","24.1","","100.64","","","","-3","","Mostly Cloudy"
"1989-03-14 07:00","1989","03","14","07:00","-0.6","","-1.1","","96","","32","","9","","24.1","","100.61","","","","-4","","Mainly Clear"
"1989-03-14 08:00","1989","03","14","08:00","0.2","","-0.2","","97","","31","","9","","24.1","","100.64","","","","","","Mostly Cloudy"
"1989-03-14 09:00","1989","03","14","09:00","2.4","","1.3","","92","","33","","6","","24.1","","100.68","","","","","","Mainly Clear"
"1989-03-14 10:00","1989","03","14","10:00","4.8","","2.5","","85","","","","0","","24.1","","100.71","","","","","","Mainly Clear"
"1989-03-14 11:00","1989","03","14","11:00","5.7","","3.3","","84","","","","0","","24.1","","100.74","","","","","","Mostly Cloudy"
"1989-03-14 12:00","1989","03","14","12:00","6.4","","4.2","","86","","12","","6","","24.1","","100.74","","","","","","Mostly Cloudy"
"1989-03-14 13:00","1989","03","14","13:00","7.6","","3.5","","75","","14","","6","","24.1","","100.71","","","","","","Mostly Cloudy"
"1989-03-14 14:00","1989","03","14","14:00","8.6","","2.3","","64","","","","0","","24.1","","100.68","","","","","","Mainly Clear"
"1989-03-14 15:00","1989","03","14","15:00","8.5","","2.2","","65","","19","","7","","24.1","","100.61","","","","","","Mainly Clear"
"1989-03-14 16:00","1989","03","14","16:00","7.6","","2.3","","69","","7","","11","","24.1","","100.54","","","","","","Mainly Clear"
"1989-03-14 17:00","1989","03","14","17:00","7.9","","2.6","","69","","11","","7","","24.1","","100.54","","","","","","Mainly Clear"
"1989-03-14 18:00","1989","03","14","18:00","5.4","","3.6","","88","","","","0","","24.1","","100.51","","","","","","Mainly Clear"
"1989-03-14 19:00","1989","03","14","19:00","2.2","","1.3","","93","","","","0","","24.1","","100.51","","","","","","Mainly Clear"
"1989-03-14 20:00","1989","03","14","20:00","1.7","","0.9","","94","","30","","6","","24.1","","100.51","","","","","","Mainly Clear"
"1989-03-14 21:00","1989","03","14","21:00","0.3","","0.0","","98","","","","0","","24.1","","100.51","","","","","","Mainly Clear"
"1989-03-14 22:00","1989","03","14","22:00","","","","","","","","","0","","","","","","","","","","NA"
"1989-03-14 23:00","1989","03","14","23:00","","","","","","","","","0","","","","","","","","","","NA"
"1989-03-15 00:00","1989","03","15","00:00","","","","","","","","","0","","","","","","","","","","NA"
"1989-03-15 01:00","1989","03","15","01:00","","","","","","","","","0","","","","","","","","","","NA"
"1989-03-15 02:00","1989","03","15","02:00","","","","","","","","","0","","","","","","","","","","NA"
"1989-03-15 03:00","1989","03","15","03:00","","","","","","","","","0","","","","","","","","","","NA"
"1989-03-15 04:00","1989","03","15","04:00","","","","","","","","","0","","","","","","","","","","NA"
"1989-03-15 05:00","1989","03","15","05:00","","","","","","","","","0","","","","","","","","","","NA"
"1989-03-15 06:00","1989","03","15","06:00","1.4","","0.9","","96","","","","0","","9.7","","100.34","","","","","","Fog"
"1989-03-15 07:00","1989","03","15","07:00","1.4","","1.2","","99","","","","0","","4.8","","100.31","","","","","","Fog"
"1989-03-15 08:00","1989","03","15","08:00","2.1","","1.8","","98","","27","","4","","9.7","","100.31","","","","","","Fog"
"1989-03-15 09:00","1989","03","15","09:00","3.6","","3.3","","98","","","","0","","6.4","","100.31","","","","","","Fog"
"1989-03-15 10:00","1989","03","15","10:00","4.2","","3.1","","92","","","","0","","12.9","","100.31","","","","","","Cloudy"
"1989-03-15 11:00","1989","03","15","11:00","5.6","","2.7","","82","","11","","9","","19.3","","100.24","","","","","","Mostly Cloudy"
"1989-03-15 12:00","1989","03","15","12:00","6.3","","2.0","","74","","10","","11","","24.1","","100.14","","","","","","Mostly Cloudy"
"1989-03-15 13:00","1989","03","15","13:00","7.4","","1.1","","64","","10","","6","","24.1","","100.11","","","","","","Mostly Cloudy"
"1989-03-15 14:00","1989","03","15","14:00","8.1","","0.1","","57","","8","","13","","24.1","","100.01","","","","","","Mainly Clear"
"1989-03-15 15:00","1989","03","15","15:00","8.8","","0.6","","56","","11","","13","","24.1","","99.97","","","","","","Mainly Clear"
"1989-03-15 16:00","1989","03","15","16:00","8.2","","0.4","","58","","11","","11","","24.1","","99.87","","","","","","Mostly Cloudy"
"1989-03-15 17:00","1989","03","15","17:00","7.1","","1.9","","69","","10","","6","","24.1","","99.80","","","","","","Mostly Cloudy"
"1989-03-15 18:00","1989","03","15","18:00","6.2","","2.7","","78","","7","","6","","24.1","","99.74","","","","","","Mostly Cloudy"
"1989-03-15 19:00","1989","03","15","19:00","4.7","","3.0","","89","","","","0","","24.1","","99.74","","","","","","Mostly Cloudy"
"1989-03-15 20:00","1989","03","15","20:00","4.2","","2.9","","91","","","","0","","24.1","","99.74","","","","","","Mostly Cloudy"
"1989-03-15 21:00","1989","03","15","21:00","4.2","","2.8","","90","","","","0","","24.1","","99.67","","","","","","Cloudy"
"1989-03-15 22:00","1989","03","15","22:00","","","","","","","","","0","","","","","","","","","","NA"
"1989-03-15 23:00","1989","03","15","23:00","","","","","","","26","","4","","","","","","","","","","NA"
"1989-03-16 00:00","1989","03","16","00:00","","","","","","","","","0","","","","","","","","","","NA"
"1989-03-16 01:00","1989","03","16","01:00","","","","","","","30","","4","","","","","","","","","","NA"
"1989-03-16 02:00","1989","03","16","02:00","","","","","","","","","0","","","","","","","","","","NA"
"1989-03-16 03:00","1989","03","16","03:00","","","","","","","32","","6","","","","","","","","","","NA"
"1989-03-16 04:00","1989","03","16","04:00","","","","","","","24","","4","","","","","","","","","","NA"
"1989-03-16 05:00","1989","03","16","05:00","","","","","","","24","","7","","","","","","","","","","NA"
"1989-03-16 06:00","1989","03","16","06:00","3.1","","2.0","","92","","","","0","","24.1","","99.27","","","","","","Mostly Cloudy"
"1989-03-16 07:00","1989","03","16","07:00","3.9","","2.1","","88","","23","","9","","12.9","","99.27","","","","","","Rain"
"1989-03-16 08:00","1989","03","16","08:00","3.6","","2.7","","94","","24","","9","","12.9","","99.27","","","","","","Rain"
"1989-03-16 09:00","1989","03","16","09:00","3.9","","3.1","","95","","","","0","","12.9","","99.30","","","","","","Rain"
"1989-03-16 10:00","1989","03","16","10:00","4.0","","2.4","","89","","31","","7","","12.9","","99.33","","","","","","Rain"
"1989-03-16 11:00","1989","03","16","11:00","4.0","","2.7","","91","","","","0","","12.9","","99.37","","","","","","Rain"
"1989-03-16 12:00","1989","03","16","12:00","4.4","","3.4","","93","","","","0","","12.9","","99.40","","","","","","Rain"
"1989-03-16 13:00","1989","03","16","13:00","4.1","","3.3","","94","","12","","7","","9.7","","99.40","","","","","","Rain,Fog"
"1989-03-16 14:00","1989","03","16","14:00","4.2","","3.1","","92","","10","","9","","12.9","","99.44","","","","","","Rain"
"1989-03-16 15:00","1989","03","16","15:00","3.8","","2.8","","93","","12","","6","","12.9","","99.44","","","","","","Rain"
"1989-03-16 16:00","1989","03","16","16:00","4.0","","3.1","","94","","9","","11","","12.9","","99.47","","","","","","Rain"
"1989-03-16 17:00","1989","03","16","17:00","3.8","","3.0","","95","","9","","9","","12.9","","99.50","","","","","","Rain"
"1989-03-16 18:00","1989","03","16","18:00","3.5","","2.8","","95","","11","","9","","12.9","","99.50","","","","","","Rain"
"1989-03-16 19:00","1989","03","16","19:00","3.3","","2.6","","95","","10","","6","","12.9","","99.57","","","","","","Rain"
"1989-03-16 20:00","1989","03","16","20:00","3.2","","2.7","","97","","9","","4","","12.9","","99.57","","","","","","Cloudy"
"1989-03-16 21:00","1989","03","16","21:00","3.2","","2.6","","96","","","","0","","8.0","","99.60","","","","","","Fog"
"1989-03-16 22:00","1989","03","16","22:00","","","","","","","","","0","","","","","","","","","","NA"
"1989-03-16 23:00","1989","03","16","23:00","","","","","","","","","0","","","","","","","","","","NA"
"1989-03-17 00:00","1989","03","17","00:00","","","","","","","","","0","","","","","","","","","","NA"
"1989-03-17 01:00","1989","03","17","01:00","","","","","","","","","0","","","","","","","","","","NA"
"1989-03-17 02:00","1989","03","17","02:00","","","","","","","","","0","","","","","","","","","","NA"
"1989-03-17 03:00","1989","03","17","03:00","","","","","","","","","0","","","","","","","","","","NA"
"1989-03-17 04:00","1989","03","17","04:00","","","","","","","","","0","","","","","","","","","","NA"
"1989-03-17 05:00","1989","03","17","05:00","","","","","","","","","0","","","","","","","","","","NA"
"1989-03-17 06:00","1989","03","17","06:00","2.9","","2.3","","96","","14","","4","","16.1","","100.01","","","","","","Rain"
"1989-03-17 07:00","1989","03","17","07:00","2.7","","2.2","","96","","14","","6","","12.9","","100.04","","","","","","Rain"
"1989-03-17 08:00","1989","03","17","08:00","2.9","","2.3","","96","","","","0","","8.0","","100.07","","","","","","Drizzle,Fog"
"1989-03-17 09:00","1989","03","17","09:00","3.1","","2.6","","97","","","","0","","4.8","","100.14","","","","","","Rain,Drizzle,Fog"
"1989-03-17 10:00","1989","03","17","10:00","3.3","","2.9","","97","","","","0","","4.8","","100.17","","","","","","Rain,Fog"
"1989-03-17 11:00","1989","03","17","11:00","4.1","","3.3","","94","","","","0","","4.8","","100.21","","","","","","Rain,Fog"
"1989-03-17 12:00","1989","03","17","12:00","4.0","","3.5","","97","","","","0","","6.4","","100.24","","","","","","Rain,Fog"
"1989-03-17 13:00","1989","03","17","13:00","4.1","","3.2","","94","","","","0","","6.4","","100.24","","","","","","Rain,Fog"
"1989-03-17 14:00","1989","03","17","14:00","4.4","","3.6","","95","","","","0","","3.2","","100.24","","","","","","Rain,Fog"
"1989-03-17 15:00","1989","03","17","15:00","4.4","","3.9","","97","","","","0","","4.8","","100.21","","","","","","Rain,Fog"
"1989-03-17 16:00","1989","03","17","16:00","4.7","","4.0","","95","","","","0","","9.7","","100.21","","","","","","Fog"
"1989-03-17 17:00","1989","03","17","17:00","4.8","","4.0","","95","","","","0","","9.7","","100.17","","","","","","Fog"
"1989-03-17 18:00","1989","03","17","18:00","4.8","","3.9","","94","","","","0","","9.7","","100.14","","","","","","Fog"
"1989-03-17 19:00","1989","03","17","19:00","4.4","","4.1","","98","","","","0","","4.8","","100.11","","","","","","Fog"
"1989-03-17 20:00","1989","03","17","20:00","4.2","","3.8","","97","","","","0","","9.7","","100.11","","","","","","Fog"
"1989-03-17 21:00","1989","03","17","21:00","3.8","","3.4","","97","","26","","4","","9.7","","100.04","","","","","","Fog"
"1989-03-17 22:00","1989","03","17","22:00","","","","","","","","","0","","","","","","","","","","NA"
"1989-03-17 23:00","1989","03","17","23:00","","","","","","","30","","4","","","","","","","","","","NA"
"1989-03-18 00:00","1989","03","18","00:00","","","","","","","31","","6","","","","","","","","","","NA"
"1989-03-18 01:00","1989","03","18","01:00","","","","","","","31","","7","","","","","","","","","","NA"
"1989-03-18 02:00","1989","03","18","02:00","","","","","","","31","","6","","","","","","","","","","NA"
"1989-03-18 03:00","1989","03","18","03:00","","","","","","","30","","7","","","","","","","","","","NA"
"1989-03-18 04:00","1989","03","18","04:00","","","","","","","30","","9","","","","","","","","","","NA"
"1989-03-18 05:00","1989","03","18","05:00","","","","","","","30","","7","","","","","","","","","","NA"
"1989-03-18 06:00","1989","03","18","06:00","0.1","","-0.4","","96","","29","","6","","24.1","","99.74","","","","","","Mainly Clear"
"1989-03-18 07:00","1989","03","18","07:00","0.4","","-0.4","","94","","29","","9","","24.1","","99.80","","","","","","Mainly Clear"
"1989-03-18 08:00","1989","03","18","08:00","1.5","","0.6","","94","","30","","11","","24.1","","99.84","","","","","","Mainly Clear"
"1989-03-18 09:00","1989","03","18","09:00","3.2","","2.6","","96","","","","0","","24.1","","99.94","","","","","","Mostly Cloudy"
"1989-03-18 10:00","1989","03","18","10:00","6.2","","3.3","","81","","29","","4","","24.1","","100.01","","","","","","Mainly Clear"
"1989-03-18 11:00","1989","03","18","11:00","8.1","","3.3","","72","","","","0","","24.1","","100.04","","","","","","Mainly Clear"
"1989-03-18 12:00","1989","03","18","12:00","8.5","","2.5","","66","","14","","11","","24.1","","100.11","","","","","","Mostly Cloudy"
"1989-03-18 13:00","1989","03","18","13:00","7.5","","2.3","","69","","11","","15","","24.1","","100.17","","","","","","Mostly Cloudy"
"1989-03-18 14:00","1989","03","18","14:00","7.7","","4.1","","78","","9","","11","","24.1","","100.17","","","","","","Mostly Cloudy"
"1989-03-18 15:00","1989","03","18","15:00","8.3","","3.2","","70","","11","","13","","24.1","","100.21","","","","","","Mainly Clear"
"1989-03-18 16:00","1989","03","18","16:00","7.8","","2.3","","68","","10","","9","","24.1","","100.24","","","","","","Mainly Clear"
"1989-03-18 17:00","1989","03","18","17:00","8.1","","3.3","","72","","13","","13","","24.1","","100.31","","","","","","Clear"
"1989-03-18 18:00","1989","03","18","18:00","6.1","","4.3","","88","","","","0","","24.1","","100.34","","","","","","Clear"
"1989-03-18 19:00","1989","03","18","19:00","3.5","","2.6","","94","","31","","6","","24.1","","100.41","","","","","","Clear"
"1989-03-18 20:00","1989","03","18","20:00","2.5","","1.7","","95","","31","","6","","24.1","","100.51","","","","","","Clear"
"1989-03-18 21:00","1989","03","18","21:00","1.4","","1.2","","99","","29","","7","","24.1","","100.58","","","","","","Clear"
"1989-03-18 22:00","1989","03","18","22:00","","","","","","","30","","6","","","","","","","","","","NA"
"1989-03-18 23:00","1989","03","18","23:00","","","","","","","30","","4","","","","","","","","","","NA"
"1989-03-19 00:00","1989","03","19","00:00","","","","","","","30","","4","","","","","","","","","","NA"
"1989-03-19 01:00","1989","03","19","01:00","","","","","","","31","","6","","","","","","","","","","NA"
"1989-03-19 02:00","1989","03","19","02:00","","","","","","","30","","4","","","","","","","","","","NA"
"1989-03-19 03:00","1989","03","19","03:00","","","","","","","30","","7","","","","","","","","","","NA"
"1989-03-19 04:00","1989","03","19","04:00","","","","","","","30","","7","","","","","","","","","","NA"
"1989-03-19 05:00","1989","03","19","05:00","","","","","","","29","","4","","","","","","","","","","NA"
"1989-03-19 06:00","1989","03","19","06:00","-1.2","","-1.9","","95","","","","0","","24.1","","101.21","","","","","","Mostly Cloudy"
"1989-03-19 07:00","1989","03","19","07:00","-0.4","","-1.1","","95","","32","","6","","24.1","","101.28","","","","-2","","Mostly Cloudy"
"1989-03-19 08:00","1989","03","19","08:00","1.8","","0.1","","89","","30","","4","","24.1","","101.35","","","","","","Mostly Cloudy"
"1989-03-19 09:00","1989","03","19","09:00","3.2","","2.3","","94","","30","","4","","24.1","","101.45","","","","","","Mostly Cloudy"
"1989-03-19 10:00","1989","03","19","10:00","4.8","","2.3","","84","","","","0","","24.1","","101.48","","","","","","Mostly Cloudy"
"1989-03-19 11:00","1989","03","19","11:00","6.0","","1.5","","73","","4","","6","","24.1","","101.55","","","","","","Mostly Cloudy"
"1989-03-19 12:00","1989","03","19","12:00","7.0","","1.5","","68","","","","0","","24.1","","101.58","","","","","","Mostly Cloudy"
"1989-03-19 13:00","1989","03","19","13:00","9.2","","2.5","","63","","","","0","","24.1","","101.55","","","","","","Mainly Clear"
"1989-03-19 14:00","1989","03","19","14:00","9.6","","2.5","","61","","15","","9","","24.1","","101.51","","","","","","Mainly Clear"
"1989-03-19 15:00","1989","03","19","15:00","9.8","","2.5","","60","","12","","7","","24.1","","101.55","","","","","","Mainly Clear"
"1989-03-19 16:00","1989","03","19","16:00","9.2","","3.2","","66","","11","","13","","24.1","","101.51","","","","","","Mainly Clear"
"1989-03-19 17:00","1989","03","19","17:00","8.6","","1.8","","62","","8","","9","","24.1","","101.51","","","","","","Mainly Clear"
"1989-03-19 18:00","1989","03","19","18:00","6.4","","2.7","","77","","","","0","","24.1","","101.51","","","","","","Mainly Clear"
"1989-03-19 19:00","1989","03","19","19:00","3.6","","2.2","","91","","","","0","","24.1","","101.55","","","","","","Mainly Clear"
"1989-03-19 20:00","1989","03","19","20:00","2.1","","1.5","","96","","","","0","","24.1","","101.58","","","","","","Mainly Clear"
"1989-03-19 21:00","1989","03","19","21:00","1.1","","0.4","","95","","","","0","","24.1","","101.58","","","","","","Clear"
"1989-03-19 22:00","1989","03","19","22:00","","","","","","","","","0","","","","","","","","","","NA"
"1989-03-19 23:00","1989","03","19","23:00","","","","","","","","","0","","","","","","","","","","NA"
"1989-03-20 00:00","1989","03","20","00:00","","","","","","","31","","4","","","","","","","","","","NA"
"1989-03-20 01:00","1989","03","20","01:00","","","","","","","30","","4","","","","","","","","","","NA"
"1989-03-20 02:00","1989","03","20","02:00","","","","","","","29","","4","","","","","","","","","","NA"
"1989-03-20 03:00","1989","03","20","03:00","","","","","","","31","","2","","","","","","","","","","NA"
"1989-03-20 04:00","1989","03","20","04:00","","","","","","","","","0","","","","","","","","","","NA"
"1989-03-20 05:00","1989","03","20","05:00","","","","","","","","","0","","","","","","","","","","NA"
"1989-03-20 06:00","1989","03","20","06:00","2.0","","1.6","","97","","","","0","","3.2","","101.25","","","","","","Fog"
"1989-03-20 07:00","1989","03","20","07:00","2.0","","1.6","","97","","","","0","","3.2","","101.21","","","","","","Fog"
"1989-03-20 08:00","1989","03","20","08:00","3.0","","2.2","","95","","","","0","","1.6","","101.15","","","","","","Fog"
"1989-03-20 09:00","1989","03","20","09:00","4.4","","3.2","","92","","9","","7","","3.2","","101.11","","","","","","Fog"
"1989-03-20 10:00","1989","03","20","10:00","5.6","","4.1","","90","","12","","9","","3.2","","101.04","","","","","","Fog"
"1989-03-20 11:00","1989","03","20","11:00","6.2","","3.9","","85","","12","","13","","9.7","","100.94","","","","","","Fog"
"1989-03-20 12:00","1989","03","20","12:00","6.6","","3.9","","83","","10","","15","","12.9","","100.88","","","","","","Cloudy"
"1989-03-20 13:00","1989","03","20","13:00","6.2","","3.9","","85","","10","","7","","12.9","","100.81","","","","","","Cloudy"
"1989-03-20 14:00","1989","03","20","14:00","6.6","","3.9","","83","","11","","7","","12.9","","100.64","","","","","","Cloudy"
"1989-03-20 15:00","1989","03","20","15:00","6.6","","3.3","","79","","13","","9","","16.1","","100.54","","","","","","Cloudy"
"1989-03-20 16:00","1989","03","20","16:00","5.9","","3.3","","83","","6","","7","","19.3","","100.44","","","","","","Cloudy"
"1989-03-20 17:00","1989","03","20","17:00","5.6","","3.9","","89","","9","","7","","9.7","","100.41","","","","","","Rain,Fog"
"1989-03-20 18:00","1989","03","20","18:00","5.0","","4.0","","93","","10","","9","","8.0","","100.41","","","","","","Rain,Fog"
"1989-03-20 19:00","1989","03","20","19:00","4.9","","4.4","","97","","13","","4","","8.0","","100.34","","","","","","Rain,Fog"
"1989-03-20 20:00","1989","03","20","20:00","4.9","","4.1","","95","","12","","9","","6.4","","100.31","","","","","","Rain,Fog"
"1989-03-20 21:00","1989","03","20","21:00","4.7","","4.3","","97","","13","","9","","6.4","","100.24","","","","","","Rain,Fog"
"1989-03-20 22:00","1989","03","20","22:00","","","","","","","13","","11","","","","","","","","","","NA"
"1989-03-20 23:00","1989","03","20","23:00","","","","","","","13","","15","","","","","","","","","","NA"
"1989-03-21 00:00","1989","03","21","00:00","","","","","","","13","","11","","","","","","","","","","NA"
"1989-03-21 01:00","1989","03","21","01:00","","","","","","","13","","13","","","","","","","","","","NA"
"1989-03-21 02:00","1989","03","21","02:00","","","","","","","13","","13","","","","","","","","","","NA"
"1989-03-21 03:00","1989","03","21","03:00","","","","","","","13","","15","","","","","","","","","","NA"
"1989-03-21 04:00","1989","03","21","04:00","","","","","","","13","","11","","","","","","","","","","NA"
"1989-03-21 05:00","1989","03","21","05:00","","","","","","","13","","6","","","","","","","","","","NA"
"1989-03-21 06:00","1989","03","21","06:00","6.0","","5.4","","96","","13","","6","","12.9","","99.74","","","","","","Mostly Cloudy"
"1989-03-21 07:00","1989","03","21","07:00","5.2","","4.7","","97","","31","","4","","24.1","","99.80","","","","","","Mostly Cloudy"
"1989-03-21 08:00","1989","03","21","08:00","5.2","","4.7","","97","","31","","9","","24.1","","99.80","","","","","","Mainly Clear"
"1989-03-21 09:00","1989","03","21","09:00","7.8","","5.2","","84","","","","0","","24.1","","99.84","","","","","","Mostly Cloudy"
"1989-03-21 10:00","1989","03","21","10:00","7.4","","4.3","","81","","8","","4","","24.1","","99.90","","","","","","Mostly Cloudy"
"1989-03-21 11:00","1989","03","21","11:00","7.8","","5.3","","84","","","","0","","24.1","","99.94","","","","","","Mostly Cloudy"
"1989-03-21 12:00","1989","03","21","12:00","9.2","","4.2","","71","","33","","7","","24.1","","99.97","","","","","","Rain"
"1989-03-21 13:00","1989","03","21","13:00","7.9","","5.1","","83","","12","","9","","24.1","","100.04","","","","","","Rain Showers"
"1989-03-21 14:00","1989","03","21","14:00","8.2","","5.3","","82","","10","","7","","24.1","","100.07","","","","","","Cloudy"
"1989-03-21 15:00","1989","03","21","15:00","8.9","","4.7","","75","","10","","7","","24.1","","100.14","","","","","","Mostly Cloudy"
"1989-03-21 16:00","1989","03","21","16:00","8.9","","5.1","","77","","6","","7","","24.1","","100.14","","","","","","Mostly Cloudy"
"1989-03-21 17:00","1989","03","21","17:00","7.5","","4.8","","83","","8","","13","","24.1","","100.14","","","","","","Mostly Cloudy"
"1989-03-21 18:00","1989","03","21","18:00","6.9","","4.7","","86","","12","","4","","24.1","","100.21","","","","","","Mostly Cloudy"
"1989-03-21 19:00","1989","03","21","19:00","5.9","","3.6","","85","","","","0","","24.1","","100.27","","","","","","Mostly Cloudy"
"1989-03-21 20:00","1989","03","21","20:00","5.6","","4.6","","93","","","","0","","24.1","","100.34","","","","","","Mostly Cloudy"
"1989-03-21 21:00","1989","03","21","21:00","5.2","","4.5","","95","","32","","4","","24.1","","100.41","","","","","","Mostly Cloudy"
"1989-03-21 22:00","1989","03","21","22:00","","","","","","","","","0","","","","","","","","","","NA"
"1989-03-21 23:00","1989","03","21","23:00","","","","","","","","","0","","","","","","","","","","NA"
"1989-03-22 00:00","1989","03","22","00:00","","","","","","","32","","7","","","","","","","","","","NA"
"1989-03-22 01:00","1989","03","22","01:00","","","","","","","31","","7","","","","","","","","","","NA"
"1989-03-22 02:00","1989","03","22","02:00","","","","","","","29","","6","","","","","","","","","","NA"
"1989-03-22 03:00","1989","03","22","03:00","","","","","","","31","","4","","","","","","","","","","NA"
"1989-03-22 04:00","1989","03","22","04:00","","","","","","","30","","6","","","","","","","","","","NA"
"1989-03-22 05:00","1989","03","22","05:00","","","","","","","29","","4","","","","","","","","","","NA"
"1989-03-22 06:00","1989","03","22","06:00","2.8","","2.2","","96","","","","0","","24.1","","100.61","","","","","","Cloudy"
"1989-03-22 07:00","1989","03","22","07:00","2.5","","2.1","","97","","","","0","","24.1","","100.64","","","","","","Cloudy"
"1989-03-22 08:00","1989","03","22","08:00","3.6","","2.6","","93","","","","0","","24.1","","100.64","","","","","","Rain Showers"
"1989-03-22 09:00","1989","03","22","09:00","5.0","","3.0","","87","","","","0","","24.1","","100.71","","","","","","Rain Showers"
"1989-03-22 10:00","1989","03","22","10:00","6.2","","3.3","","81","","","","0","","24.1","","100.74","","","","","","Rain Showers"
"1989-03-22 11:00","1989","03","22","11:00","7.1","","3.0","","75","","","","0","","24.1","","100.74","","","","","","Rain Showers"
"1989-03-22 12:00","1989","03","22","12:00","8.3","","3.4","","71","","","","0","","24.1","","100.74","","","","","","Mostly Cloudy"
"1989-03-22 13:00","1989","03","22","13:00","8.1","","3.0","","70","","12","","13","","24.1","","100.71","","","","","","Rain Showers"
"1989-03-22 14:00","1989","03","22","14:00","5.6","","3.5","","86","","4","","6","","11.3","","100.71","","","","","","Rain Showers"
"1989-03-22 15:00","1989","03","22","15:00","6.0","","3.9","","86","","","","0","","16.1","","100.71","","","","","","Rain Showers"
"1989-03-22 16:00","1989","03","22","16:00","7.5","","3.4","","75","","","","0","","24.1","","100.64","","","","","","Mostly Cloudy"
"1989-03-22 17:00","1989","03","22","17:00","8.1","","2.5","","68","","","","0","","24.1","","100.61","","","","","","Mainly Clear"
"1989-03-22 18:00","1989","03","22","18:00","6.5","","4.0","","84","","","","0","","24.1","","100.61","","","","","","Mainly Clear"
"1989-03-22 19:00","1989","03","22","19:00","3.3","","2.6","","95","","","","0","","24.1","","100.58","","","","","","Clear"
"1989-03-22 20:00","1989","03","22","20:00","1.7","","0.8","","93","","","","0","","24.1","","100.61","","","","","","Mainly Clear"
"1989-03-22 21:00","1989","03","22","21:00","1.8","","1.1","","95","","","","0","","24.1","","100.61","","","","","","Mostly Cloudy"
"1989-03-22 22:00","1989","03","22","22:00","","","","","","","","","0","","","","","","","","","","NA"
"1989-03-22 23:00","1989","03","22","23:00","","","","","","","","","0","","","","","","","","","","NA"
"1989-03-23 00:00","1989","03","23","00:00","","","","","","","","","0","","","","","","","","","","NA"
"1989-03-23 01:00","1989","03","23","01:00","","","","","","","","","0","","","","","","","","","","NA"
"1989-03-23 02:00","1989","03","23","02:00","","","","","","","","","0","","","","","","","","","","NA"
"1989-03-23 03:00","1989","03","23","03:00","","","","","","","","","0","","","","","","","","","","NA"
"1989-03-23 04:00","1989","03","23","04:00","","","","","","","","","0","","","","","","","","","","NA"
"1989-03-23 05:00","1989","03","23","05:00","","","","","","","","","0","","","","","","","","","","NA"
"1989-03-23 06:00","1989","03","23","06:00","0.2","","0.0","","98","","","","0","","24.1","","100.47","","","","","","Cloudy"
"1989-03-23 07:00","1989","03","23","07:00","1.2","","0.7","","96","","","","0","","24.1","","100.44","","","","","","Mostly Cloudy"
"1989-03-23 08:00","1989","03","23","08:00","2.6","","1.6","","93","","29","","9","","24.1","","100.51","","","","","","Mostly Cloudy"
"1989-03-23 09:00","1989","03","23","09:00","4.2","","2.1","","86","","28","","7","","24.1","","100.54","","","","","","Mostly Cloudy"
"1989-03-23 10:00","1989","03","23","10:00","5.4","","2.5","","82","","33","","7","","24.1","","100.54","","","","","","Mostly Cloudy"
"1989-03-23 11:00","1989","03","23","11:00","5.6","","1.8","","76","","32","","4","","24.1","","100.51","","","","","","Mostly Cloudy"
"1989-03-23 12:00","1989","03","23","12:00","6.5","","2.3","","74","","11","","4","","24.1","","100.44","","","","","","Mostly Cloudy"
"1989-03-23 13:00","1989","03","23","13:00","7.8","","1.6","","65","","20","","4","","24.1","","100.41","","","","","","Mostly Cloudy"
"1989-03-23 14:00","1989","03","23","14:00","7.8","","0.9","","62","","","","0","","24.1","","100.34","","","","","","Mainly Clear"
"1989-03-23 15:00","1989","03","23","15:00","9.0","","1.6","","60","","13","","9","","24.1","","100.24","","","","","","Mainly Clear"
"1989-03-23 16:00","1989","03","23","16:00","9.8","","-0.8","","48","","","","0","","24.1","","100.17","","","","","","Mostly Cloudy"
"1989-03-23 17:00","1989","03","23","17:00","9.3","","0.9","","56","","","","0","","24.1","","100.11","","","","","","Mostly Cloudy"
"1989-03-23 18:00","1989","03","23","18:00","6.8","","3.3","","78","","","","0","","24.1","","100.07","","","","","","Mostly Cloudy"
"1989-03-23 19:00","1989","03","23","19:00","3.9","","2.2","","89","","","","0","","24.1","","100.04","","","","","","Mostly Cloudy"
"1989-03-23 20:00","1989","03","23","20:00","2.9","","1.6","","91","","","","0","","24.1","","100.01","","","","","","Mostly Cloudy"
"1989-03-23 21:00","1989","03","23","21:00","1.8","","0.8","","93","","30","","4","","24.1","","100.01","","","","","","Mostly Cloudy"
"1989-03-23 22:00","1989","03","23","22:00","","","","","","","","","0","","","","","","","","","","NA"
"1989-03-23 23:00","1989","03","23","23:00","","","","","","","","","0","","","","","","","","","","NA"
"1989-03-24 00:00","1989","03","24","00:00","","","","","","","33","","7","","","","","","","","","","NA"
"1989-03-24 01:00","1989","03","24","01:00","","","","","","","31","","6","","","","","","","","","","NA"
"1989-03-24 02:00","1989","03","24","02:00","","","","","","","32","","4","","","","","","","","","","NA"
"1989-03-24 03:00","1989","03","24","03:00","","","","","","","","","0","","","","","","","","","","NA"
"1989-03-24 04:00","1989","03","24","04:00","","","","","","","","","0","","","","","","","","","","NA"
"1989-03-24 05:00","1989","03","24","05:00","","","","","","","","","0","","","","","","","","","","NA"
"1989-03-24 06:00","1989","03","24","06:00","-0.7","","-1.5","","94","","31","","4","","24.1","","99.47","","","","-2","","Cloudy"
"1989-03-24 07:00","1989","03","24","07:00","-1.0","","-1.7","","95","","30","","4","","24.1","","99.44","","","","-2","","Mostly Cloudy"
"1989-03-24 08:00","1989","03","24","08:00","0.2","","-0.6","","94","","","","0","","24.1","","99.40","","","","","","Mostly Cloudy"
"1989-03-24 09:00","1989","03","24","09:00","2.8","","1.5","","91","","","","0","","24.1","","99.37","","","","","","Mostly Cloudy"
"1989-03-24 10:00","1989","03","24","10:00","6.0","","0.0","","65","","","","0","","24.1","","99.33","","","","","","Mostly Cloudy"
"1989-03-24 11:00","1989","03","24","11:00","8.4","","1.6","","62","","13","","4","","24.1","","99.30","","","","","","Mostly Cloudy"
"1989-03-24 12:00","1989","03","24","12:00","8.4","","1.3","","61","","12","","9","","24.1","","99.23","","","","","","Mostly Cloudy"
"1989-03-24 13:00","1989","03","24","13:00","8.2","","1.0","","60","","12","","9","","24.1","","99.20","","","","","","Mostly Cloudy"
"1989-03-24 14:00","1989","03","24","14:00","7.8","","0.8","","61","","10","","7","","24.1","","99.13","","","","","","Mostly Cloudy"
"1989-03-24 15:00","1989","03","24","15:00","9.0","","2.3","","63","","11","","13","","24.1","","99.03","","","","","","Mostly Cloudy"
"1989-03-24 16:00","1989","03","24","16:00","8.0","","1.8","","65","","9","","7","","24.1","","99.00","","","","","","Cloudy"
"1989-03-24 17:00","1989","03","24","17:00","7.5","","2.3","","69","","9","","6","","24.1","","98.93","","","","","","Cloudy"
"1989-03-24 18:00","1989","03","24","18:00","6.9","","2.2","","72","","9","","11","","24.1","","98.93","","","","","","Cloudy"
"1989-03-24 19:00","1989","03","24","19:00","5.7","","3.2","","84","","","","0","","24.1","","98.86","","","","","","Cloudy"
"1989-03-24 20:00","1989","03","24","20:00","4.5","","3.1","","91","","","","0","","24.1","","98.86","","","","","","Cloudy"
"1989-03-24 21:00","1989","03","24","21:00","4.0","","2.8","","92","","33","","4","","24.1","","98.83","","","","","","Cloudy"
"1989-03-24 22:00","1989","03","24","22:00","","","","","","","32","","6","","","","","","","","","","NA"
"1989-03-24 23:00","1989","03","24","23:00","","","","","","","30","","4","","","","","","","","","","NA"
"1989-03-25 00:00","1989","03","25","00:00","","","","","","","29","","2","","","","","","","","","","NA"
"1989-03-25 01:00","1989","03","25","01:00","","","","","","","30","","6","","","","","","","","","","NA"
"1989-03-25 02:00","1989","03","25","02:00","","","","","","","31","","6","","","","","","","","","","NA"
"1989-03-25 03:00","1989","03","25","03:00","","","","","","","30","","4","","","","","","","","","","NA"
"1989-03-25 04:00","1989","03","25","04:00","","","","","","","","","0","","","","","","","","","","NA"
"1989-03-25 05:00","1989","03","25","05:00","","","","","","","","","0","","","","","","","","","","NA"
"1989-03-25 06:00","1989","03","25","06:00","2.8","","2.2","","96","","","","0","","12.9","","98.76","","","","","","Cloudy"
"1989-03-25 07:00","1989","03","25","07:00","3.0","","2.4","","96","","","","0","","19.3","","98.83","","","","","","Cloudy"
"1989-03-25 08:00","1989","03","25","08:00","4.1","","3.3","","94","","","","0","","19.3","","98.86","","","","","","Cloudy"
"1989-03-25 09:00","1989","03","25","09:00","5.7","","4.4","","91","","","","0","","24.1","","98.90","","","","","","Cloudy"
"1989-03-25 10:00","1989","03","25","10:00","7.4","","4.5","","82","","","","0","","24.1","","98.97","","","","","","Cloudy"
"1989-03-25 11:00","1989","03","25","11:00","9.8","","5.0","","72","","","","0","","24.1","","99.00","","","","","","Mostly Cloudy"
"1989-03-25 12:00","1989","03","25","12:00","9.1","","4.5","","73","","12","","9","","24.1","","99.00","","","","","","Mostly Cloudy"
"1989-03-25 13:00","1989","03","25","13:00","9.8","","4.3","","69","","11","","11","","24.1","","99.07","","","","","","Mostly Cloudy"
"1989-03-25 14:00","1989","03","25","14:00","9.3","","3.1","","65","","12","","11","","24.1","","99.10","","","","","","Cloudy"
"1989-03-25 15:00","1989","03","25","15:00","9.2","","3.9","","69","","9","","13","","24.1","","99.17","","","","","","Cloudy"
"1989-03-25 16:00","1989","03","25","16:00","8.8","","3.1","","68","","11","","9","","24.1","","99.17","","","","","","Cloudy"
"1989-03-25 17:00","1989","03","25","17:00","8.6","","3.3","","69","","10","","9","","24.1","","99.20","","","","","","Rain Showers"
"1989-03-25 18:00","1989","03","25","18:00","8.3","","4.6","","78","","10","","6","","24.1","","99.27","","","","","","Rain Showers"
"1989-03-25 19:00","1989","03","25","19:00","7.8","","3.3","","73","","14","","6","","24.1","","99.33","","","","","","Rain Showers"
"1989-03-25 20:00","1989","03","25","20:00","6.4","","4.8","","89","","9","","6","","24.1","","99.37","","","","","","Cloudy"
"1989-03-25 21:00","1989","03","25","21:00","6.4","","5.4","","93","","","","0","","24.1","","99.40","","","","","","Cloudy"
"1989-03-25 22:00","1989","03","25","22:00","","","","","","","10","","7","","","","","","","","","","NA"
"1989-03-25 23:00","1989","03","25","23:00","","","","","","","","","0","","","","","","","","","","NA"
"1989-03-26 00:00","1989","03","26","00:00","","","","","","","30","","4","","","","","","","","","","NA"
"1989-03-26 01:00","1989","03","26","01:00","","","","","","","","","0","","","","","","","","","","NA"
"1989-03-26 02:00","1989","03","26","02:00","","","","","","","20","","4","","","","","","","","","","NA"
"1989-03-26 03:00","1989","03","26","03:00","","","","","","","22","","4","","","","","","","","","","NA"
"1989-03-26 04:00","1989","03","26","04:00","","","","","","","","","0","","","","","","","","","","NA"
"1989-03-26 05:00","1989","03","26","05:00","","","","","","","15","","4","","","","","","","","","","NA"
"1989-03-26 06:00","1989","03","26","06:00","5.1","","4.2","","94","","14","","7","","24.1","","99.17","","","","","","Cloudy"
"1989-03-26 07:00","1989","03","26","07:00","6.7","","3.5","","80","","12","","22","","24.1","","99.07","","","","","","Mostly Cloudy"
"1989-03-26 08:00","1989","03","26","08:00","6.7","","4.7","","87","","14","","20","","24.1","","99.07","","","","","","Rain Showers"
"1989-03-26 09:00","1989","03","26","09:00","7.3","","5.3","","87","","13","","26","","24.1","","98.97","","","","","","Cloudy"
"1989-03-26 10:00","1989","03","26","10:00","7.6","","5.2","","85","","12","","33","","24.1","","98.93","","","","","","Cloudy"
"1989-03-26 11:00","1989","03","26","11:00","7.8","","5.0","","83","","13","","33","","24.1","","98.86","","","","","","Cloudy"
"1989-03-26 12:00","1989","03","26","12:00","7.5","","5.3","","86","","12","","30","","24.1","","98.86","","","","","","Rain"
"1989-03-26 13:00","1989","03","26","13:00","7.4","","5.6","","88","","13","","37","","16.1","","98.80","","","","","","Rain"
"1989-03-26 14:00","1989","03","26","14:00","7.7","","5.4","","85","","12","","22","","16.1","","98.70","","","","","","Rain"
"1989-03-26 15:00","1989","03","26","15:00","7.8","","4.6","","80","","15","","26","","24.1","","98.70","","","","","","Rain"
"1989-03-26 16:00","1989","03","26","16:00","7.6","","1.6","","66","","13","","30","","24.1","","98.66","","","","","","Cloudy"
"1989-03-26 17:00","1989","03","26","17:00","7.7","","3.0","","72","","13","","28","","24.1","","98.63","","","","","","Rain Showers"
"1989-03-26 18:00","1989","03","26","18:00","6.8","","4.3","","84","","13","","22","","24.1","","98.60","","","","","","Rain Showers"
"1989-03-26 19:00","1989","03","26","19:00","6.2","","4.7","","90","","12","","20","","16.1","","98.56","","","","","","Rain Showers"
"1989-03-26 20:00","1989","03","26","20:00","5.7","","4.7","","93","","11","","30","","16.1","","98.56","","","","","","Rain Showers"
"1989-03-26 21:00","1989","03","26","21:00","6.0","","4.5","","90","","14","","20","","16.1","","98.56","","","","","","Rain Showers"
"1989-03-26 22:00","1989","03","26","22:00","","","","","","","13","","24","","","","","","","","","","NA"
"1989-03-26 23:00","1989","03","26","23:00","","","","","","","13","","30","","","","","","","","","","NA"
"1989-03-27 00:00","1989","03","27","00:00","","","","","","","14","","20","","","","","","","","","","NA"
"1989-03-27 01:00","1989","03","27","01:00","","","","","","","13","","22","","","","","","","","","","NA"
"1989-03-27 02:00","1989","03","27","02:00","","","","","","","13","","19","","","","","","","","","","NA"
"1989-03-27 03:00","1989","03","27","03:00","","","","","","","13","","19","","","","","","","","","","NA"
"1989-03-27 04:00","1989","03","27","04:00","","","","","","","13","","13","","","","","","","","","","NA"
"1989-03-27 05:00","1989","03","27","05:00","","","","","","","12","","19","","","","","","","","","","NA"
"1989-03-27 06:00","1989","03","27","06:00","5.6","","4.3","","91","","12","","13","","24.1","","98.73","","","","","","Cloudy"
"1989-03-27 07:00","1989","03","27","07:00","5.7","","4.4","","91","","14","","11","","24.1","","98.80","","","","","","Mostly Cloudy"
"1989-03-27 08:00","1989","03","27","08:00","6.4","","4.3","","86","","14","","17","","24.1","","98.86","","","","","","Rain"
"1989-03-27 09:00","1989","03","27","09:00","7.0","","4.3","","83","","14","","19","","24.1","","98.97","","","","","","Rain"
"1989-03-27 10:00","1989","03","27","10:00","8.8","","3.8","","71","","15","","20","","24.1","","99.00","","","","","","Mostly Cloudy"
"1989-03-27 11:00","1989","03","27","11:00","9.4","","3.1","","65","","16","","22","","24.1","","99.10","","","","","","Mostly Cloudy"
"1989-03-27 12:00","1989","03","27","12:00","9.8","","3.8","","66","","16","","28","","24.1","","99.10","","","","","","Rain"
"1989-03-27 13:00","1989","03","27","13:00","11.2","","3.1","","57","","13","","26","","24.1","","99.10","","","","","","Rain"
"1989-03-27 14:00","1989","03","27","14:00","10.8","","3.1","","59","","14","","26","","24.1","","99.20","","","","","","Rain"
"1989-03-27 15:00","1989","03","27","15:00","10.8","","2.6","","57","","13","","26","","24.1","","99.27","","","","","","Mostly Cloudy"
"1989-03-27 16:00","1989","03","27","16:00","10.6","","2.9","","59","","14","","19","","24.1","","99.27","","","","","","Mostly Cloudy"
"1989-03-27 17:00","1989","03","27","17:00","9.6","","2.3","","60","","2","","6","","24.1","","99.33","","","","","","Mostly Cloudy"
"1989-03-27 18:00","1989","03","27","18:00","9.0","","2.8","","65","","","","0","","24.1","","99.37","","","","","","Mostly Cloudy"
"1989-03-27 19:00","1989","03","27","19:00","7.6","","1.6","","66","","30","","9","","24.1","","99.44","","","","","","Mostly Cloudy"
"1989-03-27 20:00","1989","03","27","20:00","5.1","","2.3","","82","","","","0","","24.1","","99.50","","","","","","Mainly Clear"
"1989-03-27 21:00","1989","03","27","21:00","3.8","","1.3","","84","","31","","6","","24.1","","99.57","","","","","","Mainly Clear"
"1989-03-27 22:00","1989","03","27","22:00","","","","","","","","","0","","","","","","","","","","NA"
"1989-03-27 23:00","1989","03","27","23:00","","","","","","","27","","6","","","","","","","","","","NA"
"1989-03-28 00:00","1989","03","28","00:00","","","","","","","36","","4","","","","","","","","","","NA"
"1989-03-28 01:00","1989","03","28","01:00","","","","","","","","","0","","","","","","","","","","NA"
"1989-03-28 02:00","1989","03","28","02:00","","","","","","","27","","4","","","","","","","","","","NA"
"1989-03-28 03:00","1989","03","28","03:00","","","","","","","32","","6","","","","","","","","","","NA"
"1989-03-28 04:00","1989","03","28","04:00","","","","","","","30","","4","","","","","","","","","","NA"
"1989-03-28 05:00","1989","03","28","05:00","","","","","","","31","","4","","","","","","","","","","NA"
"1989-03-28 06:00","1989","03","28","06:00","-0.7","","-1.7","","93","","","","0","","24.1","","100.01","","","","","","Cloudy"
"1989-03-28 07:00","1989","03","28","07:00","-0.5","","-1.5","","93","","30","","4","","24.1","","100.04","","","","-2","","Mostly Cloudy"
"1989-03-28 08:00","1989","03","28","08:00","1.7","","0.4","","91","","","","0","","24.1","","100.14","","","","","","Cloudy"
"1989-03-28 09:00","1989","03","28","09:00","4.1","","2.0","","86","","","","0","","24.1","","100.17","","","","","","Cloudy"
"1989-03-28 10:00","1989","03","28","10:00","6.5","","3.0","","78","","14","","4","","24.1","","100.24","","","","","","Cloudy"
"1989-03-28 11:00","1989","03","28","11:00","7.5","","2.5","","71","","13","","11","","24.1","","100.21","","","","","","Cloudy"
"1989-03-28 12:00","1989","03","28","12:00","6.5","","2.7","","77","","12","","26","","24.1","","100.24","","","","","","Rain Showers"
"1989-03-28 13:00","1989","03","28","13:00","6.9","","2.6","","74","","14","","22","","24.1","","100.27","","","","","","Rain Showers"
"1989-03-28 14:00","1989","03","28","14:00","5.8","","3.4","","85","","13","","24","","24.1","","100.31","","","","","","Rain Showers"
"1989-03-28 15:00","1989","03","28","15:00","5.5","","3.4","","86","","14","","28","","16.1","","100.27","","","","","","Rain Showers"
"1989-03-28 16:00","1989","03","28","16:00","5.0","","3.7","","91","","13","","22","","16.1","","100.31","","","","","","Rain Showers"
"1989-03-28 17:00","1989","03","28","17:00","4.8","","3.9","","94","","12","","15","","6.4","","100.31","","","","","","Rain,Fog"
"1989-03-28 18:00","1989","03","28","18:00","4.7","","3.6","","92","","11","","13","","4.8","","100.31","","","","","","Rain,Fog"
"1989-03-28 19:00","1989","03","28","19:00","5.0","","3.7","","91","","12","","17","","16.1","","100.27","","","","","","Rain Showers"
"1989-03-28 20:00","1989","03","28","20:00","4.4","","3.6","","95","","13","","15","","24.1","","100.31","","","","","","Rain Showers"
"1989-03-28 21:00","1989","03","28","21:00","4.3","","2.9","","91","","13","","11","","24.1","","100.31","","","","","","Cloudy"
"1989-03-28 22:00","1989","03","28","22:00","","","","","","","14","","17","","","","","","","","","","NA"
"1989-03-28 23:00","1989","03","28","23:00","","","","","","","8","","4","","","","","","","","","","NA"
"1989-03-29 00:00","1989","03","29","00:00","","","","","","","10","","7","","","","","","","","","","NA"
"1989-03-29 01:00","1989","03","29","01:00","","","","","","","","","0","","","","","","","","","","NA"
"1989-03-29 02:00","1989","03","29","02:00","","","","","","","","","0","","","","","","","","","","NA"
"1989-03-29 03:00","1989","03","29","03:00","","","","","","","","","0","","","","","","","","","","NA"
"1989-03-29 04:00","1989","03","29","04:00","","","","","","","31","","6","","","","","","","","","","NA"
"1989-03-29 05:00","1989","03","29","05:00","","","","","","","","","0","","","","","","","","","","NA"
"1989-03-29 06:00","1989","03","29","06:00","3.3","","3.1","","99","","","","0","","12.9","","100.81","","","","","","Rain Showers"
"1989-03-29 07:00","1989","03","29","07:00","3.6","","3.2","","97","","","","0","","12.9","","100.88","","","","","","Rain Showers"
"1989-03-29 08:00","1989","03","29","08:00","3.9","","3.1","","95","","","","0","","16.1","","100.98","","","","","","Mostly Cloudy"
"1989-03-29 09:00","1989","03","29","09:00","4.6","","3.8","","94","","","","0","","16.1","","101.01","","","","","","Mostly Cloudy"
"1989-03-29 10:00","1989","03","29","10:00","4.7","","3.5","","92","","","","0","","12.9","","101.08","","","","","","Cloudy"
"1989-03-29 11:00","1989","03","29","11:00","5.5","","4.3","","92","","","","0","","12.9","","101.15","","","","","","Mostly Cloudy"
"1989-03-29 12:00","1989","03","29","12:00","7.1","","4.2","","82","","9","","7","","16.1","","101.18","","","","","","Mostly Cloudy"
"1989-03-29 13:00","1989","03","29","13:00","7.6","","4.8","","82","","9","","6","","19.3","","101.18","","","","","","Mostly Cloudy"
"1989-03-29 14:00","1989","03","29","14:00","8.3","","3.3","","71","","12","","24","","24.1","","101.21","","","","","","Mostly Cloudy"
"1989-03-29 15:00","1989","03","29","15:00","9.2","","3.9","","69","","12","","28","","24.1","","101.21","","","","","","Mostly Cloudy"
"1989-03-29 16:00","1989","03","29","16:00","8.6","","3.4","","70","","12","","26","","24.1","","101.21","","","","","","Mostly Cloudy"
"1989-03-29 17:00","1989","03","29","17:00","8.2","","3.5","","72","","12","","20","","24.1","","101.18","","","","","","Mostly Cloudy"
"1989-03-29 18:00","1989","03","29","18:00","8.0","","3.9","","75","","13","","20","","24.1","","101.15","","","","","","Mainly Clear"
"1989-03-29 19:00","1989","03","29","19:00","6.2","","3.6","","83","","13","","9","","24.1","","101.15","","","","","","Mainly Clear"
"1989-03-29 20:00","1989","03","29","20:00","4.9","","3.3","","89","","12","","11","","24.1","","101.15","","","","","","Mainly Clear"
"1989-03-29 21:00","1989","03","29","21:00","4.3","","2.9","","91","","","","0","","24.1","","101.18","","","","","","Mainly Clear"
"1989-03-29 22:00","1989","03","29","22:00","","","","","","","","","0","","","","","","","","","","NA"
"1989-03-29 23:00","1989","03","29","23:00","","","","","","","","","0","","","","","","","","","","NA"
"1989-03-30 00:00","1989","03","30","00:00","","","","","","","","","0","","","","","","","","","","NA"
"1989-03-30 01:00","1989","03","30","01:00","","","","","","","","","0","","","","","","","","","","NA"
"1989-03-30 02:00","1989","03","30","02:00","","","","","","","","","0","","","","","","","","","","NA"
"1989-03-30 03:00","1989","03","30","03:00","","","","","","","15","","19","","","","","","","","","","NA"
"1989-03-30 04:00","1989","03","30","04:00","","","","","","","13","","13","","","","","","","","","","NA"
"1989-03-30 05:00","1989","03","30","05:00","","","","","","","13","","22","","","","","","","","","","NA"
"1989-03-30 06:00","1989","03","30","06:00","5.1","","2.5","","83","","14","","20","","16.1","","100.74","","","","","","Cloudy"
"1989-03-30 07:00","1989","03","30","07:00","5.0","","2.8","","86","","13","","20","","19.3","","100.64","","","","","","Cloudy"
"1989-03-30 08:00","1989","03","30","08:00","5.5","","2.8","","83","","13","","20","","19.3","","100.54","","","","","","Cloudy"
"1989-03-30 09:00","1989","03","30","09:00","5.9","","2.8","","80","","13","","24","","19.3","","100.47","","","","","","Rain"
"1989-03-30 10:00","1989","03","30","10:00","6.0","","2.8","","80","","13","","22","","19.3","","100.41","","","","","","Rain"
"1989-03-30 11:00","1989","03","30","11:00","6.0","","3.1","","82","","11","","26","","16.1","","100.31","","","","","","Rain"
"1989-03-30 12:00","1989","03","30","12:00","6.2","","1.5","","72","","13","","30","","19.3","","100.27","","","","","","Rain"
"1989-03-30 13:00","1989","03","30","13:00","4.9","","2.9","","87","","13","","22","","12.9","","100.27","","","","","","Rain"
"1989-03-30 14:00","1989","03","30","14:00","4.3","","3.1","","92","","14","","31","","9.7","","100.24","","","","","","Rain,Fog"
"1989-03-30 15:00","1989","03","30","15:00","4.6","","3.3","","91","","12","","33","","9.7","","100.21","","","","","","Rain,Fog"
"1989-03-30 16:00","1989","03","30","16:00","4.7","","3.7","","93","","12","","22","","9.7","","100.14","","","","","","Rain,Fog"
"1989-03-30 17:00","1989","03","30","17:00","5.3","","3.7","","90","","14","","24","","11.3","","100.11","","","","","","Cloudy"
"1989-03-30 18:00","1989","03","30","18:00","5.2","","3.9","","91","","11","","15","","16.1","","100.04","","","","","","Mostly Cloudy"
"1989-03-30 19:00","1989","03","30","19:00","4.4","","3.4","","93","","12","","7","","19.3","","100.01","","","","","","Mainly Clear"
"1989-03-30 20:00","1989","03","30","20:00","3.3","","2.4","","94","","","","0","","24.1","","100.01","","","","","","Mostly Cloudy"
"1989-03-30 21:00","1989","03","30","21:00","3.3","","2.8","","97","","","","0","","9.7","","100.01","","","","","","Rain Showers,Fog"
"1989-03-30 22:00","1989","03","30","22:00","","","","","","","20","","4","","","","","","","","","","NA"
"1989-03-30 23:00","1989","03","30","23:00","","","","","","","","","0","","","","","","","","","","NA"
"1989-03-31 00:00","1989","03","31","00:00","","","","","","","30","","11","","","","","","","","","","NA"
"1989-03-31 01:00","1989","03","31","01:00","","","","","","","","","0","","","","","","","","","","NA"
"1989-03-31 02:00","1989","03","31","02:00","","","","","","","30","","6","","","","","","","","","","NA"
"1989-03-31 03:00","1989","03","31","03:00","","","","","","","31","","4","","","","","","","","","","NA"
"1989-03-31 04:00","1989","03","31","04:00","","","","","","","","","0","","","","","","","","","","NA"
"1989-03-31 05:00","1989","03","31","05:00","","","","","","","35","","6","","","","","","","","","","NA"
"1989-03-31 06:00","1989","03","31","06:00","0.7","","0.2","","96","","1","","6","","24.1","","100.14","","","","","","Cloudy"
"1989-03-31 07:00","1989","03","31","07:00","0.8","","0.2","","96","","26","","6","","24.1","","100.17","","","","","","Mostly Cloudy"
"1989-03-31 08:00","1989","03","31","08:00","2.2","","1.7","","96","","14","","9","","24.1","","100.21","","","","","","Mostly Cloudy"
"1989-03-31 09:00","1989","03","31","09:00","4.9","","2.9","","87","","","","0","","24.1","","100.24","","","","","","Mostly Cloudy"
"1989-03-31 10:00","1989","03","31","10:00","6.5","","3.9","","83","","","","0","","24.1","","100.27","","","","","","Cloudy"
"1989-03-31 11:00","1989","03","31","11:00","7.6","","2.0","","68","","13","","15","","24.1","","100.31","","","","","","Cloudy"
"1989-03-31 12:00","1989","03","31","12:00","8.4","","1.1","","60","","13","","19","","24.1","","100.31","","","","","","Cloudy"
"1989-03-31 13:00","1989","03","31","13:00","9.5","","1.6","","58","","13","","24","","24.1","","100.31","","","","","","Mostly Cloudy"
"1989-03-31 14:00","1989","03","31","14:00","8.8","","2.2","","63","","13","","28","","24.1","","100.27","","","","","","Rain Showers"
"1989-03-31 15:00","1989","03","31","15:00","9.4","","1.3","","57","","12","","22","","24.1","","100.24","","","","","","Rain Showers"
"1989-03-31 16:00","1989","03","31","16:00","8.4","","0.3","","57","","14","","22","","24.1","","100.21","","","","","","Rain Showers"
"1989-03-31 17:00","1989","03","31","17:00","8.2","","0.7","","59","","14","","22","","24.1","","100.17","","","","","","Rain Showers"
"1989-03-31 18:00","1989","03","31","18:00","7.0","","0.4","","63","","14","","24","","24.1","","100.14","","","","","","Mostly Cloudy"
"1989-03-31 19:00","1989","03","31","19:00","5.8","","0.0","","66","","13","","22","","24.1","","100.11","","","","","","Cloudy"
"1989-03-31 20:00","1989","03","31","20:00","5.2","","-0.3","","68","","12","","22","","24.1","","100.11","","","","","","Cloudy"
"1989-03-31 21:00","1989","03","31","21:00","5.2","","0.0","","69","","13","","20","","24.1","","100.11","","","","","","Cloudy"
"1989-03-31 22:00","1989","03","31","22:00","","","","","","","14","","22","","","","","","","","","","NA"
"1989-03-31 23:00","1989","03","31","23:00"
