"Station Name","CAMPBELL RIVER A"
"Province","BRITISH COLUMBIA"
"Latitude","49.95"
"Longitude","-125.27"
"Elevation","108.80"
"Climate Identifier","1021261"
"WMO Identifier",""
"TC Identifier","YBL"
"All times are specified in Local Standard Time (LST). Add 1 hour to adjust for Daylight Saving Time where and when it is observed."

"Legend"
"E","Estimated"
"M","Missing"
"NA","Not Available"

"Date/Time","Year","Month","Day","Time","Temp (°C)","Temp Flag","Dew Point Temp (°C)","Dew Point Temp Flag","Rel Hum (%)","Rel Hum Flag","Wind Dir (10s deg)","Wind Dir Flag","Wind Spd (km/h)","Wind Spd Flag","Visibility (km)","Visibility Flag","Stn Press (kPa)","Stn Press Flag","Hmdx","Hmdx Flag","Wind Chill","Wind Chill Flag","Weather"
"2013-02-01 00:00","2013","02","01","00:00"
"2013-02-01 01:00","2013","02","01","01:00"
"2013-02-01 02:00","2013","02","01","02:00"
"2013-02-01 03:00","2013","02","01","03:00"
"2013-02-01 04:00","2013","02","01","04:00"
"2013-02-01 05:00","2013","02","01","05:00"
"2013-02-01 06:00","2013","02","01","06:00","4.2","","2.5","","89","","27","","6","","24.1","","101.56","","","","","","Cloudy"
"2013-02-01 07:00","2013","02","01","07:00","4.1","","2.4","","89","","27","","4","","24.1","","101.58","","","","","","Cloudy"
"2013-02-01 08:00","2013","02","01","08:00","4.0","","2.4","","89","","","","0","","11.3","","101.59","","","","","","Cloudy"
"2013-02-01 09:00","2013","02","01","09:00","4.0","","2.3","","89","","","","0","","16.1","","101.63","","","","","","Cloudy"
"2013-02-01 10:00","2013","02","01","10:00","4.3","","2.9","","91","","","","0","","16.1","","101.66","","","","","","Cloudy"
"2013-02-01 11:00","2013","02","01","11:00","4.5","","3.0","","90","","32","","6","","12.9","","101.73","","","","","","Cloudy"
"2013-02-01 12:00","2013","02","01","12:00","5.1","","3.5","","89","","","","0","","6.4","","101.73","","","","","","Fog"
"2013-02-01 13:00","2013","02","01","13:00","5.8","","4.1","","89","","","","0","","6.4","","101.74","","","","","","Fog"
"2013-02-01 14:00","2013","02","01","14:00","5.7","","4.4","","91","","10","","7","","6.4","","101.73","","","","","","Fog"
"2013-02-01 15:00","2013","02","01","15:00","5.7","","4.2","","90","","","","0","","8.0","","101.76","","","","","","Fog"
"2013-02-01 16:00","2013","02","01","16:00","5.8","","4.0","","88","","","","0","","8.0","","101.77","","","","","","Fog"
"2013-02-01 17:00","2013","02","01","17:00","5.5","","3.8","","89","","","","0","","8.0","","101.75","","","","","","Fog"
"2013-02-01 18:00","2013","02","01","18:00","5.3","","3.8","","90","","","","0","","16.1","","101.71","","","","","","Cloudy"
"2013-02-01 19:00","2013","02","01","19:00","4.7","","3.4","","91","","28","","6","","16.1","","101.70","","","","","","Cloudy"
"2013-02-01 20:00","2013","02","01","20:00","4.3","","3.1","","92","","","","0","","16.1","","101.72","","","","","","Cloudy"
"2013-02-01 21:00","2013","02","01","21:00","4.5","","3.2","","91","","27","","4","","16.1","","101.74","","","","","","Cloudy"
"2013-02-01 22:00","2013","02","01","22:00"
"2013-02-01 23:00","2013","02","01","23:00"
"2013-02-02 00:00","2013","02","02","00:00"
"2013-02-02 01:00","2013","02","02","01:00"
"2013-02-02 02:00","2013","02","02","02:00"
"2013-02-02 03:00","2013","02","02","03:00"
"2013-02-02 04:00","2013","02","02","04:00"
"2013-02-02 05:00","2013","02","02","05:00"
"2013-02-02 06:00","2013","02","02","06:00","3.8","","2.3","","90","","","","0","","11.3","","101.56","","","","","","Cloudy"
"2013-02-02 07:00","2013","02","02","07:00","3.7","","2.2","","90","","","","0","","11.3","","101.52","","","","","","Cloudy"
"2013-02-02 08:00","2013","02","02","08:00","3.6","","2.0","","89","","","","0","","12.9","","101.50","","","","","","Cloudy"
"2013-02-02 09:00","2013","02","02","09:00","3.6","","1.8","","88","","","","0","","16.1","","101.49","","","","","","Cloudy"
"2013-02-02 10:00","2013","02","02","10:00","4.2","","2.2","","87","","","","0","","16.1","","101.47","","","","","","Cloudy"
"2013-02-02 11:00","2013","02","02","11:00","4.2","","2.5","","89","","","","0","","8.0","","101.44","","","","","","Fog"
"2013-02-02 12:00","2013","02","02","12:00","4.4","","2.7","","89","","","","0","","4.8","","101.40","","","","","","Drizzle"
"2013-02-02 13:00","2013","02","02","13:00","4.7","","2.7","","87","","26","","4","","16.1","","101.32","","","","","","Cloudy"
"2013-02-02 14:00","2013","02","02","14:00","4.8","","2.5","","85","","1","","4","","16.1","","101.27","","","","","","Cloudy"
"2013-02-02 15:00","2013","02","02","15:00","5.1","","2.7","","84","","","","0","","16.1","","101.23","","","","","","Cloudy"
"2013-02-02 16:00","2013","02","02","16:00","5.0","","2.5","","84","","","","0","","16.1","","101.17","","","","","","Cloudy"
"2013-02-02 17:00","2013","02","02","17:00","5.1","","2.6","","84","","","","0","","16.1","","101.16","","","","","","Cloudy"
"2013-02-02 18:00","2013","02","02","18:00","4.6","","2.6","","87","","31","","6","","12.9","","101.18","","","","","","Cloudy"
"2013-02-02 19:00","2013","02","02","19:00","3.9","","2.1","","88","","","","0","","12.9","","101.14","","","","","","Cloudy"
"2013-02-02 20:00","2013","02","02","20:00","3.4","","2.0","","91","","","","0","","12.9","","101.10","","","","","","Cloudy"
"2013-02-02 21:00","2013","02","02","21:00","3.6","","2.0","","89","","","","0","","11.3","","101.13","","","","","","Cloudy"
"2013-02-02 22:00","2013","02","02","22:00"
"2013-02-02 23:00","2013","02","02","23:00"
"2013-02-03 00:00","2013","02","03","00:00"
"2013-02-03 01:00","2013","02","03","01:00"
"2013-02-03 02:00","2013","02","03","02:00"
"2013-02-03 03:00","2013","02","03","03:00"
"2013-02-03 04:00","2013","02","03","04:00"
"2013-02-03 05:00","2013","02","03","05:00"
"2013-02-03 06:00","2013","02","03","06:00","3.3","","2.0","","91","","","","0","","0.8","","101.12","","","","","","Fog"
"2013-02-03 07:00","2013","02","03","07:00","3.3","","2.0","","91","","","","0","","0.8","","101.09","","","","","","Fog"
"2013-02-03 08:00","2013","02","03","08:00","3.4","","2.1","","91","","","","0","","0.8","","101.10","","","","","","Fog"
"2013-02-03 09:00","2013","02","03","09:00","3.6","","2.3","","91","","","","0","","0.8","","101.18","","","","","","Fog"
"2013-02-03 10:00","2013","02","03","10:00","3.8","","2.5","","91","","","","0","","2.0","","101.16","","","","","","Fog"
"2013-02-03 11:00","2013","02","03","11:00","4.1","","2.9","","92","","","","0","","1.2","","101.17","","","","","","Fog"
"2013-02-03 12:00","2013","02","03","12:00","4.4","","3.2","","92","","15","","7","","1.2","","101.12","","","","","","Rain,Fog"
"2013-02-03 13:00","2013","02","03","13:00","4.7","","3.3","","91","","13","","7","","1.6","","101.06","","","","","","Rain,Fog"
"2013-02-03 14:00","2013","02","03","14:00","4.8","","3.6","","92","","13","","6","","1.2","","100.99","","","","","","Rain,Fog"
"2013-02-03 15:00","2013","02","03","15:00","4.9","","3.8","","93","","13","","6","","0.8","","100.95","","","","","","Rain,Fog"
"2013-02-03 16:00","2013","02","03","16:00","5.0","","3.9","","93","","","","0","","0.8","","100.94","","","","","","Rain,Fog"
"2013-02-03 17:00","2013","02","03","17:00","5.0","","3.9","","93","","","","0","","0.8","","100.91","","","","","","Rain,Fog"
"2013-02-03 18:00","2013","02","03","18:00","5.0","","3.9","","93","","","","0","","1.2","","100.92","","","","","","Rain,Fog"
"2013-02-03 19:00","2013","02","03","19:00","4.8","","3.7","","93","","","","0","","0.8","","100.86","","","","","","Fog"
"2013-02-03 20:00","2013","02","03","20:00","4.7","","3.5","","92","","","","0","","0.8","","100.78","","","","","","Fog"
"2013-02-03 21:00","2013","02","03","21:00","4.8","","3.6","","92","","","","0","","0.8","","100.78","","","","","","Fog"
"2013-02-03 22:00","2013","02","03","22:00"
"2013-02-03 23:00","2013","02","03","23:00"
"2013-02-04 00:00","2013","02","04","00:00"
"2013-02-04 01:00","2013","02","04","01:00"
"2013-02-04 02:00","2013","02","04","02:00"
"2013-02-04 03:00","2013","02","04","03:00"
"2013-02-04 04:00","2013","02","04","04:00"
"2013-02-04 05:00","2013","02","04","05:00"
"2013-02-04 06:00","2013","02","04","06:00","4.4","","3.2","","92","","","","0","","1.6","","100.50","","","","","","Fog"
"2013-02-04 07:00","2013","02","04","07:00","4.4","","3.2","","92","","","","0","","4.8","","100.51","","","","","","Fog"
"2013-02-04 08:00","2013","02","04","08:00","4.5","","3.2","","91","","","","0","","2.4","","100.51","","","","","","Fog"
"2013-02-04 09:00","2013","02","04","09:00","4.8","","3.6","","92","","","","0","","2.4","","100.50","","","","","","Fog"
"2013-02-04 10:00","2013","02","04","10:00","4.9","","3.6","","91","","","","0","","2.4","","100.51","","","","","","Fog"
"2013-02-04 11:00","2013","02","04","11:00","5.5","","4.3","","92","","","","0","","3.2","","100.53","","","","","","Fog"
"2013-02-04 12:00","2013","02","04","12:00","5.9","","4.5","","91","","","","0","","3.2","","100.47","","","","","","Fog"
"2013-02-04 13:00","2013","02","04","13:00","6.0","","4.5","","90","","14","","9","","6.4","","100.42","","","","","","Fog"
"2013-02-04 14:00","2013","02","04","14:00","6.7","","5.1","","90","","9","","11","","11.3","","100.33","","","","","","Cloudy"
"2013-02-04 15:00","2013","02","04","15:00","6.8","","5.2","","90","","11","","19","","11.3","","100.25","","","","","","Cloudy"
"2013-02-04 16:00","2013","02","04","16:00","6.5","","5.1","","91","","10","","17","","11.3","","100.19","","","","","","Cloudy"
"2013-02-04 17:00","2013","02","04","17:00","6.6","","4.4","","86","","13","","19","","16.1","","100.11","","","","","","Cloudy"
"2013-02-04 18:00","2013","02","04","18:00","6.2","","4.7","","90","","12","","20","","8.0","","100.01","","","","","","Rain,Fog"
"2013-02-04 19:00","2013","02","04","19:00","6.3","","4.2","","86","","12","","26","","9.7","","99.93","","","","","","Rain,Fog"
"2013-02-04 20:00","2013","02","04","20:00","6.2","","4.1","","86","","13","","28","","9.7","","99.84","","","","","","Rain,Fog"
"2013-02-04 21:00","2013","02","04","21:00","6.1","","4.1","","87","","13","","28","","11.3","","99.73","","","","","","Rain"
"2013-02-04 22:00","2013","02","04","22:00"
"2013-02-04 23:00","2013","02","04","23:00"
"2013-02-05 00:00","2013","02","05","00:00"
"2013-02-05 01:00","2013","02","05","01:00"
"2013-02-05 02:00","2013","02","05","02:00"
"2013-02-05 03:00","2013","02","05","03:00"
"2013-02-05 04:00","2013","02","05","04:00"
"2013-02-05 05:00","2013","02","05","05:00"
"2013-02-05 06:00","2013","02","05","06:00","4.1","","2.4","","89","","11","","9","","24.1","","99.17","","","","","","Rain"
"2013-02-05 07:00","2013","02","05","07:00","4.7","","2.7","","87","","13","","11","","24.1","","99.17","","","","","","Mostly Cloudy"
"2013-02-05 08:00","2013","02","05","08:00","5.1","","3.2","","88","","14","","11","","24.1","","99.20","","","","","","Cloudy"
"2013-02-05 09:00","2013","02","05","09:00","5.7","","4.1","","89","","14","","17","","16.1","","99.20","","","","","","Cloudy"
"2013-02-05 10:00","2013","02","05","10:00","6.7","","4.7","","87","","14","","24","","24.1","","99.17","","","","","","Cloudy"
"2013-02-05 11:00","2013","02","05","11:00","7.1","","5.0","","86","","13","","20","","24.1","","99.19","","","","","","Cloudy"
"2013-02-05 12:00","2013","02","05","12:00","7.2","","5.1","","86","","12","","30","","24.1","","99.16","","","","","","Rain"
"2013-02-05 13:00","2013","02","05","13:00","6.7","","4.7","","87","","14","","20","","16.1","","99.11","","","","","","Rain"
"2013-02-05 14:00","2013","02","05","14:00","6.6","","5.0","","90","","12","","24","","16.1","","99.07","","","","","","Rain"
"2013-02-05 15:00","2013","02","05","15:00","6.1","","4.1","","87","","14","","24","","16.1","","99.07","","","","","","Rain"
"2013-02-05 16:00","2013","02","05","16:00","5.8","","3.8","","87","","13","","17","","24.1","","99.04","","","","","","Rain Showers"
"2013-02-05 17:00","2013","02","05","17:00","5.8","","3.9","","88","","19","","6","","24.1","","99.10","","","","","","Rain Showers"
"2013-02-05 18:00","2013","02","05","18:00","5.0","","3.2","","88","","14","","17","","19.3","","99.08","","","","","","Rain Showers"
"2013-02-05 19:00","2013","02","05","19:00","4.8","","3.1","","89","","13","","13","","19.3","","99.12","","","","","","Mostly Cloudy"
"2013-02-05 20:00","2013","02","05","20:00","4.5","","2.7","","88","","16","","9","","16.1","","99.17","","","","","","Rain Showers"
"2013-02-05 21:00","2013","02","05","21:00","4.4","","2.6","","88","","15","","11","","16.1","","99.15","","","","","","Rain Showers"
"2013-02-05 22:00","2013","02","05","22:00"
"2013-02-05 23:00","2013","02","05","23:00"
"2013-02-06 00:00","2013","02","06","00:00"
"2013-02-06 01:00","2013","02","06","01:00"
"2013-02-06 02:00","2013","02","06","02:00"
"2013-02-06 03:00","2013","02","06","03:00"
"2013-02-06 04:00","2013","02","06","04:00"
"2013-02-06 05:00","2013","02","06","05:00"
"2013-02-06 06:00","2013","02","06","06:00","0.4","","-1.2","","89","","1","","4","","25.0","","99.78","","","","","","Cloudy"
"2013-02-06 07:00","2013","02","06","07:00","-0.1","","-1.8","","88","","25","","6","","25.0","","99.79","","","","-2","","Mostly Cloudy"
"2013-02-06 08:00","2013","02","06","08:00","0.0","","-1.7","","88","","","","0","","48.3","","99.79","","","","","","Mostly Cloudy"
"2013-02-06 09:00","2013","02","06","09:00","0.9","","-0.8","","88","","","","0","","48.3","","99.82","","","","","","Cloudy"
"2013-02-06 10:00","2013","02","06","10:00","4.5","","2.0","","84","","13","","13","","48.3","","99.83","","","","","","Cloudy"
"2013-02-06 11:00","2013","02","06","11:00","5.4","","2.6","","82","","13","","20","","48.3","","99.84","","","","","","Cloudy"
"2013-02-06 12:00","2013","02","06","12:00","6.6","","3.1","","78","","14","","32","","48.3","","99.82","","","","","","Cloudy"
"2013-02-06 13:00","2013","02","06","13:00","6.3","","3.5","","82","","13","","35","","16.1","","99.78","","","","","","Rain Showers"
"2013-02-06 14:00","2013","02","06","14:00","5.9","","4.2","","89","","14","","24","","11.3","","99.69","","","","","","Rain Showers"
"2013-02-06 15:00","2013","02","06","15:00","5.9","","4.2","","89","","12","","46","","6.4","","99.63","","","","","","Rain Showers,Fog"
"2013-02-06 16:00","2013","02","06","16:00","5.6","","3.5","","86","","13","","39","","6.4","","99.60","","","","","","Rain Showers,Fog"
"2013-02-06 17:00","2013","02","06","17:00","5.2","","3.1","","86","","13","","35","","8.0","","99.56","","","","","","Rain Showers,Fog"
"2013-02-06 18:00","2013","02","06","18:00","5.1","","3.5","","89","","14","","20","","6.4","","99.51","","","","","","Rain Showers,Fog"
"2013-02-06 19:00","2013","02","06","19:00","4.7","","3.2","","90","","14","","19","","6.4","","99.43","","","","","","Rain Showers,Fog"
"2013-02-06 20:00","2013","02","06","20:00","5.4","","4.0","","91","","13","","41","","6.4","","99.34","","","","","","Rain Showers,Fog"
"2013-02-06 21:00","2013","02","06","21:00","5.7","","4.0","","89","","13","","32","","6.4","","99.29","","","","","","Rain Showers,Fog"
"2013-02-06 22:00","2013","02","06","22:00"
"2013-02-06 23:00","2013","02","06","23:00"
"2013-02-07 00:00","2013","02","07","00:00"
"2013-02-07 01:00","2013","02","07","01:00"
"2013-02-07 02:00","2013","02","07","02:00"
"2013-02-07 03:00","2013","02","07","03:00"
"2013-02-07 04:00","2013","02","07","04:00"
"2013-02-07 05:00","2013","02","07","05:00"
"2013-02-07 06:00","2013","02","07","06:00","4.4","","2.5","","87","","15","","13","","24.1","","99.34","","","","","","Cloudy"
"2013-02-07 07:00","2013","02","07","07:00","4.5","","2.5","","87","","12","","7","","24.1","","99.47","","","","","","Cloudy"
"2013-02-07 08:00","2013","02","07","08:00","4.8","","1.9","","81","","13","","6","","48.3","","99.63","","","","","","Mostly Cloudy"
"2013-02-07 09:00","2013","02","07","09:00","4.8","","1.8","","81","","12","","6","","48.3","","99.77","","","","","","Mostly Cloudy"
"2013-02-07 10:00","2013","02","07","10:00","5.3","","2.8","","84","","","","0","","48.3","","99.91","","","","","","Mostly Cloudy"
"2013-02-07 11:00","2013","02","07","11:00","6.7","","3.0","","77","","36","","6","","48.3","","100.08","","","","","","Mostly Cloudy"
"2013-02-07 12:00","2013","02","07","12:00","6.8","","2.9","","76","","4","","7","","48.3","","100.18","","","","","","Mostly Cloudy"
"2013-02-07 13:00","2013","02","07","13:00","7.7","","2.1","","68","","6","","7","","48.3","","100.24","","","","","","Mostly Cloudy"
"2013-02-07 14:00","2013","02","07","14:00","7.9","","2.6","","69","","5","","9","","32.2","","100.29","","","","","","Mostly Cloudy"
"2013-02-07 15:00","2013","02","07","15:00","6.9","","2.8","","75","","6","","4","","32.2","","100.38","","","","","","Rain Showers"
"2013-02-07 16:00","2013","02","07","16:00","6.5","","2.4","","75","","36","","6","","32.2","","100.48","","","","","","Mainly Clear"
"2013-02-07 17:00","2013","02","07","17:00","6.3","","2.6","","77","","","","0","","32.2","","100.55","","","","","","Mainly Clear"
"2013-02-07 18:00","2013","02","07","18:00","4.3","","1.9","","84","","29","","6","","25.0","","100.66","","","","","","Mainly Clear"
"2013-02-07 19:00","2013","02","07","19:00","2.8","","1.1","","89","","29","","6","","25.0","","100.76","","","","","","Mainly Clear"
"2013-02-07 20:00","2013","02","07","20:00","2.4","","0.7","","89","","29","","6","","25.0","","100.82","","","","","","Mainly Clear"
"2013-02-07 21:00","2013","02","07","21:00","3.1","","1.1","","87","","29","","6","","25.0","","100.88","","","","","","Mainly Clear"
"2013-02-07 22:00","2013","02","07","22:00"
"2013-02-07 23:00","2013","02","07","23:00"
"2013-02-08 00:00","2013","02","08","00:00"
"2013-02-08 01:00","2013","02","08","01:00"
"2013-02-08 02:00","2013","02","08","02:00"
"2013-02-08 03:00","2013","02","08","03:00"
"2013-02-08 04:00","2013","02","08","04:00"
"2013-02-08 05:00","2013","02","08","05:00"
"2013-02-08 06:00","2013","02","08","06:00","-0.3","","-2.4","","86","","28","","4","","24.1","","101.16","","","","-2","","Mainly Clear"
"2013-02-08 07:00","2013","02","08","07:00","-0.1","","-2.2","","86","","27","","6","","24.1","","101.19","","","","-2","","Mostly Cloudy"
"2013-02-08 08:00","2013","02","08","08:00","-0.1","","-2.5","","84","","27","","7","","48.3","","101.21","","","","-3","","Mostly Cloudy"
"2013-02-08 09:00","2013","02","08","09:00","1.1","","-1.2","","85","","","","0","","48.3","","101.21","","","","","","Mostly Cloudy"
"2013-02-08 10:00","2013","02","08","10:00","2.6","","-0.7","","79","","","","0","","48.3","","101.24","","","","","","Mostly Cloudy"
"2013-02-08 11:00","2013","02","08","11:00","3.7","","0.2","","78","","","","0","","48.3","","101.26","","","","","","Cloudy"
"2013-02-08 12:00","2013","02","08","12:00","4.5","","1.2","","79","","","","0","","48.3","","101.29","","","","","","Cloudy"
"2013-02-08 13:00","2013","02","08","13:00","5.7","","0.6","","70","","","","0","","48.3","","101.26","","","","","","Mostly Cloudy"
"2013-02-08 14:00","2013","02","08","14:00","6.5","","0.3","","65","","","","0","","32.2","","101.22","","","","","","Cloudy"
"2013-02-08 15:00","2013","02","08","15:00","6.2","","1.0","","69","","","","0","","32.2","","101.21","","","","","","Cloudy"
"2013-02-08 16:00","2013","02","08","16:00","6.4","","1.3","","70","","13","","7","","32.2","","101.20","","","","","","Mostly Cloudy"
"2013-02-08 17:00","2013","02","08","17:00","5.2","","0.9","","74","","","","0","","48.3","","101.17","","","","","","Mostly Cloudy"
"2013-02-08 18:00","2013","02","08","18:00","4.3","","1.1","","80","","","","0","","25.0","","101.20","","","","","","Cloudy"
"2013-02-08 19:00","2013","02","08","19:00","3.6","","1.2","","84","","","","0","","25.0","","101.17","","","","","","Cloudy"
"2013-02-08 20:00","2013","02","08","20:00","3.0","","1.0","","87","","","","0","","25.0","","101.20","","","","","","Cloudy"
"2013-02-08 21:00","2013","02","08","21:00","2.3","","0.4","","87","","","","0","","25.0","","101.20","","","","","","Cloudy"
"2013-02-08 22:00","2013","02","08","22:00"
"2013-02-08 23:00","2013","02","08","23:00"
"2013-02-09 00:00","2013","02","09","00:00"
"2013-02-09 01:00","2013","02","09","01:00"
"2013-02-09 02:00","2013","02","09","02:00"
"2013-02-09 03:00","2013","02","09","03:00"
"2013-02-09 04:00","2013","02","09","04:00"
"2013-02-09 05:00","2013","02","09","05:00"
"2013-02-09 06:00","2013","02","09","06:00","2.2","","0.3","","87","","","","0","","16.1","","101.18","","","","","","Cloudy"
"2013-02-09 07:00","2013","02","09","07:00","2.1","","0.2","","87","","","","0","","19.3","","101.19","","","","","","Cloudy"
"2013-02-09 08:00","2013","02","09","08:00","2.2","","0.4","","88","","","","0","","19.3","","101.21","","","","","","Mostly Cloudy"
"2013-02-09 09:00","2013","02","09","09:00","3.1","","1.1","","87","","","","0","","16.1","","101.21","","","","","","Mostly Cloudy"
"2013-02-09 10:00","2013","02","09","10:00","3.7","","1.8","","87","","","","0","","11.3","","101.22","","","","","","Cloudy"
"2013-02-09 11:00","2013","02","09","11:00","4.4","","2.2","","86","","","","0","","11.3","","101.20","","","","","","Mostly Cloudy"
"2013-02-09 12:00","2013","02","09","12:00","5.6","","3.2","","85","","","","0","","24.1","","101.22","","","","","","Cloudy"
"2013-02-09 13:00","2013","02","09","13:00","5.7","","3.3","","85","","13","","6","","24.1","","101.18","","","","","","Cloudy"
"2013-02-09 14:00","2013","02","09","14:00","5.5","","3.6","","88","","9","","6","","24.1","","101.19","","","","","","Cloudy"
"2013-02-09 15:00","2013","02","09","15:00","5.0","","3.3","","89","","11","","7","","11.3","","101.23","","","","","","Cloudy"
"2013-02-09 16:00","2013","02","09","16:00","5.1","","3.3","","88","","","","0","","8.0","","101.26","","","","","","Fog"
"2013-02-09 17:00","2013","02","09","17:00","5.2","","3.6","","89","","15","","4","","6.4","","101.25","","","","","","Drizzle,Fog"
"2013-02-09 18:00","2013","02","09","18:00","5.0","","3.6","","91","","9","","6","","6.4","","101.28","","","","","","Drizzle,Fog"
"2013-02-09 19:00","2013","02","09","19:00","5.0","","3.7","","91","","","","0","","4.8","","101.32","","","","","","Drizzle,Fog"
"2013-02-09 20:00","2013","02","09","20:00","5.0","","3.7","","91","","","","0","","4.8","","101.34","","","","","","Drizzle,Fog"
"2013-02-09 21:00","2013","02","09","21:00","5.1","","3.7","","91","","","","0","","2.4","","101.37","","","","","","Fog"
"2013-02-09 22:00","2013","02","09","22:00"
"2013-02-09 23:00","2013","02","09","23:00"
"2013-02-10 00:00","2013","02","10","00:00"
"2013-02-10 01:00","2013","02","10","01:00"
"2013-02-10 02:00","2013","02","10","02:00"
"2013-02-10 03:00","2013","02","10","03:00"
"2013-02-10 04:00","2013","02","10","04:00"
"2013-02-10 05:00","2013","02","10","05:00"
"2013-02-10 06:00","2013","02","10","06:00","4.3","","3.0","","91","","","","0","","11.3","","101.52","","","","","","Cloudy"
"2013-02-10 07:00","2013","02","10","07:00","4.1","","2.8","","91","","","","0","","2.0","","101.52","","","","","","Fog"
"2013-02-10 08:00","2013","02","10","08:00","4.0","","2.6","","91","","","","0","","12.9","","101.53","","","","","","Cloudy"
"2013-02-10 09:00","2013","02","10","09:00","4.1","","2.8","","91","","","","0","","24.1","","101.53","","","","","","Cloudy"
"2013-02-10 10:00","2013","02","10","10:00","4.8","","3.1","","89","","","","0","","24.1","","101.54","","","","","","Cloudy"
"2013-02-10 11:00","2013","02","10","11:00","5.7","","3.2","","84","","","","0","","24.1","","101.54","","","","","","Cloudy"
"2013-02-10 12:00","2013","02","10","12:00","6.6","","3.5","","81","","","","0","","24.1","","101.49","","","","","","Cloudy"
"2013-02-10 13:00","2013","02","10","13:00","6.1","","4.2","","88","","9","","7","","24.1","","101.47","","","","","","Cloudy"
"2013-02-10 14:00","2013","02","10","14:00","6.1","","4.1","","87","","12","","4","","24.1","","101.44","","","","","","Cloudy"
"2013-02-10 15:00","2013","02","10","15:00","6.1","","4.1","","87","","9","","6","","9.7","","101.44","","","","","","Drizzle,Fog"
"2013-02-10 16:00","2013","02","10","16:00","6.1","","4.1","","87","","13","","6","","16.1","","101.41","","","","","","Cloudy"
"2013-02-10 17:00","2013","02","10","17:00","5.7","","4.1","","89","","12","","7","","16.1","","101.36","","","","","","Cloudy"
"2013-02-10 18:00","2013","02","10","18:00","5.2","","3.8","","91","","9","","4","","9.7","","101.37","","","","","","Fog"
"2013-02-10 19:00","2013","02","10","19:00","5.1","","3.7","","91","","","","0","","8.0","","101.41","","","","","","Drizzle,Fog"
"2013-02-10 20:00","2013","02","10","20:00","5.2","","3.8","","91","","","","0","","4.8","","101.45","","","","","","Drizzle,Fog"
"2013-02-10 21:00","2013","02","10","21:00","4.7","","3.1","","89","","26","","4","","24.1","","101.35","","","","","","Mostly Cloudy"
"2013-02-10 22:00","2013","02","10","22:00"
"2013-02-10 23:00","2013","02","10","23:00"
"2013-02-11 00:00","2013","02","11","00:00"
"2013-02-11 01:00","2013","02","11","01:00"
"2013-02-11 02:00","2013","02","11","02:00"
"2013-02-11 03:00","2013","02","11","03:00"
"2013-02-11 04:00","2013","02","11","04:00"
"2013-02-11 05:00","2013","02","11","05:00"
"2013-02-11 06:00","2013","02","11","06:00","4.1","","2.6","","90","","","","0","","6.4","","101.27","","","","","","Rain,Fog"
"2013-02-11 07:00","2013","02","11","07:00","3.8","","2.4","","91","","","","0","","11.3","","101.30","","","","","","Cloudy"
"2013-02-11 08:00","2013","02","11","08:00","4.0","","2.6","","91","","","","0","","16.1","","101.33","","","","","","Cloudy"
"2013-02-11 09:00","2013","02","11","09:00","4.3","","2.8","","90","","","","0","","9.7","","101.33","","","","","","Fog"
"2013-02-11 10:00","2013","02","11","10:00","4.9","","3.3","","89","","","","0","","6.4","","101.34","","","","","","Drizzle,Fog"
"2013-02-11 11:00","2013","02","11","11:00","5.5","","3.7","","88","","","","0","","9.7","","101.35","","","","","","Drizzle,Fog"
"2013-02-11 12:00","2013","02","11","12:00","6.2","","3.9","","85","","","","0","","16.1","","101.33","","","","","","Cloudy"
"2013-02-11 13:00","2013","02","11","13:00","6.0","","4.1","","88","","6","","6","","16.1","","101.31","","","","","","Cloudy"
"2013-02-11 14:00","2013","02","11","14:00","6.1","","4.1","","87","","8","","4","","19.3","","101.29","","","","","","Cloudy"
"2013-02-11 15:00","2013","02","11","15:00","6.2","","4.2","","87","","9","","6","","19.3","","101.31","","","","","","Cloudy"
"2013-02-11 16:00","2013","02","11","16:00","6.2","","4.2","","87","","12","","6","","24.1","","101.31","","","","","","Cloudy"
"2013-02-11 17:00","2013","02","11","17:00","5.9","","3.8","","86","","12","","6","","24.1","","101.28","","","","","","Cloudy"
"2013-02-11 18:00","2013","02","11","18:00","5.6","","3.8","","88","","","","0","","24.1","","101.30","","","","","","Cloudy"
"2013-02-11 19:00","2013","02","11","19:00","5.3","","3.8","","90","","","","0","","24.1","","101.29","","","","","","Cloudy"
"2013-02-11 20:00","2013","02","11","20:00","5.4","","3.7","","89","","","","0","","24.1","","101.31","","","","","","Cloudy"
"2013-02-11 21:00","2013","02","11","21:00","5.4","","3.8","","89","","","","0","","16.1","","101.33","","","","","","Cloudy"
"2013-02-11 22:00","2013","02","11","22:00"
"2013-02-11 23:00","2013","02","11","23:00"
"2013-02-12 00:00","2013","02","12","00:00"
"2013-02-12 01:00","2013","02","12","01:00"
"2013-02-12 02:00","2013","02","12","02:00"
"2013-02-12 03:00","2013","02","12","03:00"
"2013-02-12 04:00","2013","02","12","04:00"
"2013-02-12 05:00","2013","02","12","05:00"
"2013-02-12 06:00","2013","02","12","06:00","5.2","","3.8","","91","","","","0","","16.1","","101.33","","","","","","Rain"
"2013-02-12 07:00","2013","02","12","07:00","4.9","","3.5","","91","","","","0","","3.2","","101.31","","","","","","Rain,Fog"
"2013-02-12 08:00","2013","02","12","08:00","5.0","","3.6","","91","","","","0","","2.4","","101.33","","","","","","Rain,Fog"
"2013-02-12 09:00","2013","02","12","09:00","5.7","","3.7","","87","","","","0","","2.4","","101.33","","","","","","Fog"
"2013-02-12 10:00","2013","02","12","10:00","5.6","","4.1","","90","","13","","6","","4.8","","101.30","","","","","","Fog"
"2013-02-12 11:00","2013","02","12","11:00","6.0","","4.5","","90","","13","","19","","4.8","","101.20","","","","","","Fog"
"2013-02-12 12:00","2013","02","12","12:00","6.2","","4.6","","89","","13","","24","","9.7","","101.14","","","","","","Fog"
"2013-02-12 13:00","2013","02","12","13:00","6.4","","4.7","","89","","12","","20","","9.7","","101.11","","","","","","Fog"
"2013-02-12 14:00","2013","02","12","14:00","6.5","","4.5","","87","","12","","24","","9.7","","101.02","","","","","","Fog"
"2013-02-12 15:00","2013","02","12","15:00","6.9","","4.6","","85","","9","","15","","24.1","","100.94","","","","","","Cloudy"
"2013-02-12 16:00","2013","02","12","16:00","7.1","","4.9","","86","","9","","15","","24.1","","100.96","","","","","","Cloudy"
"2013-02-12 17:00","2013","02","12","17:00","6.9","","4.9","","87","","12","","13","","24.1","","100.90","","","","","","Cloudy"
"2013-02-12 18:00","2013","02","12","18:00","6.8","","4.9","","88","","9","","9","","16.1","","100.91","","","","","","Cloudy"
"2013-02-12 19:00","2013","02","12","19:00","6.3","","4.7","","89","","10","","7","","16.1","","100.90","","","","","","Cloudy"
"2013-02-12 20:00","2013","02","12","20:00","5.1","","3.8","","91","","33","","9","","11.3","","100.93","","","","","","Cloudy"
"2013-02-12 21:00","2013","02","12","21:00","4.6","","3.0","","89","","","","0","","9.7","","100.93","","","","","","Fog"
"2013-02-12 22:00","2013","02","12","22:00"
"2013-02-12 23:00","2013","02","12","23:00"
"2013-02-13 00:00","2013","02","13","00:00"
"2013-02-13 01:00","2013","02","13","01:00"
"2013-02-13 02:00","2013","02","13","02:00"
"2013-02-13 03:00","2013","02","13","03:00"
"2013-02-13 04:00","2013","02","13","04:00"
"2013-02-13 05:00","2013","02","13","05:00"
"2013-02-13 06:00","2013","02","13","06:00","1.2","","-0.8","","86","","","","0","","24.1","","101.34","","","","","","Mainly Clear"
"2013-02-13 07:00","2013","02","13","07:00","0.3","","-1.6","","87","","","","0","","24.1","","101.42","","","","","","Mostly Cloudy"
"2013-02-13 08:00","2013","02","13","08:00","0.6","","-1.2","","88","","","","0","","32.2","","101.49","","","","","","Mostly Cloudy"
"2013-02-13 09:00","2013","02","13","09:00","1.8","","-0.3","","86","","","","0","","32.2","","101.54","","","","","","Mostly Cloudy"
"2013-02-13 10:00","2013","02","13","10:00","3.4","","1.4","","87","","","","0","","32.2","","101.60","","","","","","Cloudy"
"2013-02-13 11:00","2013","02","13","11:00","5.6","","2.2","","79","","","","0","","32.2","","101.65","","","","","","Cloudy"
"2013-02-13 12:00","2013","02","13","12:00","7.4","","2.3","","70","","31","","6","","32.2","","101.67","","","","","","Cloudy"
"2013-02-13 13:00","2013","02","13","13:00","7.9","","2.2","","67","","","","0","","32.2","","101.65","","","","","","Mostly Cloudy"
"2013-02-13 14:00","2013","02","13","14:00","7.9","","3.0","","71","","12","","4","","48.3","","101.60","","","","","","Mostly Cloudy"
"2013-02-13 15:00","2013","02","13","15:00","7.1","","2.8","","74","","10","","9","","48.3","","101.65","","","","","","Mostly Cloudy"
"2013-02-13 16:00","2013","02","13","16:00","7.3","","2.4","","71","","10","","6","","48.3","","101.67","","","","","","Mostly Cloudy"
"2013-02-13 17:00","2013","02","13","17:00","6.2","","2.5","","77","","17","","4","","48.3","","101.65","","","","","","Mostly Cloudy"
"2013-02-13 18:00","2013","02","13","18:00","5.3","","2.8","","84","","","","0","","24.1","","101.69","","","","","","Mostly Cloudy"
"2013-02-13 19:00","2013","02","13","19:00","4.7","","2.6","","86","","","","0","","24.1","","101.70","","","","","","Cloudy"
"2013-02-13 20:00","2013","02","13","20:00","4.8","","2.4","","84","","","","0","","24.1","","101.72","","","","","","Cloudy"
"2013-02-13 21:00","2013","02","13","21:00","4.3","","2.4","","87","","","","0","","24.1","","101.71","","","","","","Cloudy"
"2013-02-13 22:00","2013","02","13","22:00"
"2013-02-13 23:00","2013","02","13","23:00"
"2013-02-14 00:00","2013","02","14","00:00"
"2013-02-14 01:00","2013","02","14","01:00"
"2013-02-14 02:00","2013","02","14","02:00"
"2013-02-14 03:00","2013","02","14","03:00"
"2013-02-14 04:00","2013","02","14","04:00"
"2013-02-14 05:00","2013","02","14","05:00"
"2013-02-14 06:00","2013","02","14","06:00","4.0","","2.5","","90","","","","0","","12.9","","101.89","","","","","","Rain"
"2013-02-14 07:00","2013","02","14","07:00","3.9","","2.3","","89","","","","0","","6.4","","101.92","","","","","","Rain,Fog"
"2013-02-14 08:00","2013","02","14","08:00","3.7","","2.3","","91","","","","0","","4.8","","101.93","","","","","","Rain,Fog"
"2013-02-14 09:00","2013","02","14","09:00","3.9","","2.5","","91","","","","0","","4.8","","101.96","","","","","","Rain,Fog"
"2013-02-14 10:00","2013","02","14","10:00","4.6","","3.1","","90","","8","","6","","4.8","","102.03","","","","","","Rain,Fog"
"2013-02-14 11:00","2013","02","14","11:00","5.0","","3.6","","91","","12","","9","","4.8","","102.07","","","","","","Rain,Fog"
"2013-02-14 12:00","2013","02","14","12:00","5.3","","3.8","","90","","10","","4","","4.8","","102.14","","","","","","Rain,Fog"
"2013-02-14 13:00","2013","02","14","13:00","5.3","","3.8","","90","","11","","7","","4.8","","102.13","","","","","","Rain,Fog"
"2013-02-14 14:00","2013","02","14","14:00","5.3","","3.8","","90","","11","","6","","4.8","","102.15","","","","","","Rain,Fog"
"2013-02-14 15:00","2013","02","14","15:00","5.4","","3.9","","90","","7","","4","","3.2","","102.18","","","","","","Rain,Fog"
"2013-02-14 16:00","2013","02","14","16:00","5.5","","4.0","","90","","12","","7","","2.4","","102.16","","","","","","Rain,Fog"
"2013-02-14 17:00","2013","02","14","17:00","5.2","","3.9","","91","","10","","7","","2.4","","102.18","","","","","","Rain,Fog"
"2013-02-14 18:00","2013","02","14","18:00","5.2","","3.8","","91","","11","","6","","2.4","","102.18","","","","","","Rain,Fog"
"2013-02-14 19:00","2013","02","14","19:00","5.3","","3.9","","91","","","","0","","2.0","","102.20","","","","","","Drizzle,Fog"
"2013-02-14 20:00","2013","02","14","20:00","5.3","","3.9","","91","","11","","4","","2.0","","102.20","","","","","","Drizzle,Fog"
"2013-02-14 21:00","2013","02","14","21:00","5.3","","3.9","","91","","7","","4","","2.0","","102.20","","","","","","Drizzle,Fog"
"2013-02-14 22:00","2013","02","14","22:00"
"2013-02-14 23:00","2013","02","14","23:00"
"2013-02-15 00:00","2013","02","15","00:00"
"2013-02-15 01:00","2013","02","15","01:00"
"2013-02-15 02:00","2013","02","15","02:00"
"2013-02-15 03:00","2013","02","15","03:00"
"2013-02-15 04:00","2013","02","15","04:00"
"2013-02-15 05:00","2013","02","15","05:00"
"2013-02-15 06:00","2013","02","15","06:00","5.2","","3.8","","91","","","","0","","2.4","","102.01","","","","","","Drizzle,Fog"
"2013-02-15 07:00","2013","02","15","07:00","5.0","","3.6","","91","","","","0","","1.2","","101.96","","","","","","Drizzle,Fog"
"2013-02-15 08:00","2013","02","15","08:00","4.9","","3.6","","91","","","","0","","0.8","","101.92","","","","","","Drizzle,Fog"
"2013-02-15 09:00","2013","02","15","09:00","4.9","","3.5","","91","","","","0","","0.6","","101.89","","","","","","Fog"
"2013-02-15 10:00","2013","02","15","10:00","5.4","","3.9","","90","","","","0","","2.0","","101.86","","","","","","Fog"
"2013-02-15 11:00","2013","02","15","11:00","5.8","","4.3","","90","","10","","6","","4.0","","101.83","","","","","","Fog"
"2013-02-15 12:00","2013","02","15","12:00","6.1","","4.5","","89","","12","","6","","6.4","","101.79","","","","","","Fog"
"2013-02-15 13:00","2013","02","15","13:00","6.1","","4.6","","90","","12","","7","","6.4","","101.69","","","","","","Drizzle,Fog"
"2013-02-15 14:00","2013","02","15","14:00","6.2","","4.5","","89","","13","","7","","6.4","","101.60","","","","","","Drizzle,Fog"
"2013-02-15 15:00","2013","02","15","15:00","6.1","","4.2","","88","","11","","6","","8.0","","101.52","","","","","","Drizzle,Fog"
"2013-02-15 16:00","2013","02","15","16:00","6.2","","4.5","","89","","11","","4","","8.0","","101.45","","","","","","Fog"
"2013-02-15 17:00","2013","02","15","17:00","6.2","","4.2","","87","","","","0","","12.9","","101.36","","","","","","Cloudy"
"2013-02-15 18:00","2013","02","15","18:00","5.9","","4.1","","88","","","","0","","12.9","","101.29","","","","","","Cloudy"
"2013-02-15 19:00","2013","02","15","19:00","5.6","","4.0","","89","","","","0","","12.9","","101.22","","","","","","Cloudy"
"2013-02-15 20:00","2013","02","15","20:00","5.4","","3.9","","90","","","","0","","12.9","","101.13","","","","","","Cloudy"
"2013-02-15 21:00","2013","02","15","21:00","5.2","","3.7","","90","","","","0","","12.9","","101.07","","","","","","Cloudy"
"2013-02-15 22:00","2013","02","15","22:00"
"2013-02-15 23:00","2013","02","15","23:00"
"2013-02-16 00:00","2013","02","16","00:00"
"2013-02-16 01:00","2013","02","16","01:00"
"2013-02-16 02:00","2013","02","16","02:00"
"2013-02-16 03:00","2013","02","16","03:00"
"2013-02-16 04:00","2013","02","16","04:00"
"2013-02-16 05:00","2013","02","16","05:00"
"2013-02-16 06:00","2013","02","16","06:00","4.0","","2.5","","90","","","","0","","16.1","","100.52","","","","","","Cloudy"
"2013-02-16 07:00","2013","02","16","07:00","3.9","","2.3","","89","","","","0","","16.1","","100.50","","","","","","Cloudy"
"2013-02-16 08:00","2013","02","16","08:00","4.0","","2.3","","89","","29","","7","","16.1","","100.55","","","","","","Cloudy"
"2013-02-16 09:00","2013","02","16","09:00","4.5","","2.7","","88","","","","0","","24.1","","100.55","","","","","","Mostly Cloudy"
"2013-02-16 10:00","2013","02","16","10:00","6.0","","3.9","","86","","","","0","","24.1","","100.54","","","","","","Mostly Cloudy"
"2013-02-16 11:00","2013","02","16","11:00","6.3","","4.2","","86","","","","0","","16.1","","100.53","","","","","","Mostly Cloudy"
"2013-02-16 12:00","2013","02","16","12:00","6.7","","3.9","","82","","","","0","","19.3","","100.54","","","","","","Cloudy"
"2013-02-16 13:00","2013","02","16","13:00","6.9","","4.5","","85","","35","","6","","19.3","","100.53","","","","","","Mostly Cloudy"
"2013-02-16 14:00","2013","02","16","14:00","9.3","","4.8","","73","","12","","4","","19.3","","100.53","","","","","","Mostly Cloudy"
"2013-02-16 15:00","2013","02","16","15:00","8.8","","4.8","","76","","36","","4","","24.1","","100.56","","","","","","Mostly Cloudy"
"2013-02-16 16:00","2013","02","16","16:00","7.3","","4.3","","81","","33","","13","","24.1","","100.60","","","","","","Rain Showers"
"2013-02-16 17:00","2013","02","16","17:00","6.6","","4.3","","85","","32","","15","","24.1","","100.65","","","","","","Rain Showers"
"2013-02-16 18:00","2013","02","16","18:00","6.1","","2.3","","77","","30","","15","","24.1","","100.66","","","","","","Mostly Cloudy"
"2013-02-16 19:00","2013","02","16","19:00","4.8","","2.0","","82","","28","","4","","24.1","","100.71","","","","","","Mostly Cloudy"
"2013-02-16 20:00","2013","02","16","20:00","4.4","","0.4","","75","","29","","15","","24.1","","100.71","","","","","","Mostly Cloudy"
"2013-02-16 21:00","2013","02","16","21:00","3.3","","-0.6","","76","","30","","15","","24.1","","100.77","","","","","","Mostly Cloudy"
"2013-02-16 22:00","2013","02","16","22:00"
"2013-02-16 23:00","2013","02","16","23:00"
"2013-02-17 00:00","2013","02","17","00:00"
"2013-02-17 01:00","2013","02","17","01:00"
"2013-02-17 02:00","2013","02","17","02:00"
"2013-02-17 03:00","2013","02","17","03:00"
"2013-02-17 04:00","2013","02","17","04:00"
"2013-02-17 05:00","2013","02","17","05:00"
"2013-02-17 06:00","2013","02","17","06:00","0.1","","-2.9","","80","","28","","9","","24.1","","100.92","","","","","","Clear"
"2013-02-17 07:00","2013","02","17","07:00","0.1","","-2.8","","81","","33","","13","","48.3","","100.94","","","","","","Mainly Clear"
"2013-02-17 08:00","2013","02","17","08:00","0.1","","-2.9","","80","","32","","9","","32.2","","100.94","","","","","","Mainly Clear"
"2013-02-17 09:00","2013","02","17","09:00","1.0","","-2.1","","80","","","","0","","48.3","","100.96","","","","","","Mostly Cloudy"
"2013-02-17 10:00","2013","02","17","10:00","3.5","","-1.1","","72","","31","","7","","48.3","","100.97","","","","","","Mostly Cloudy"
"2013-02-17 11:00","2013","02","17","11:00","5.0","","-0.8","","66","","32","","11","","48.3","","101.01","","","","","","Mostly Cloudy"
"2013-02-17 12:00","2013","02","17","12:00","6.5","","0.8","","67","","31","","6","","32.2","","100.99","","","","","","Mostly Cloudy"
"2013-02-17 13:00","2013","02","17","13:00","6.2","","0.6","","67","","9","","6","","32.2","","100.93","","","","","","Mostly Cloudy"
"2013-02-17 14:00","2013","02","17","14:00","6.1","","1.0","","70","","9","","13","","32.2","","100.87","","","","","","Mostly Cloudy"
"2013-02-17 15:00","2013","02","17","15:00","6.3","","0.7","","67","","9","","6","","32.2","","100.84","","","","","","Mostly Cloudy"
"2013-02-17 16:00","2013","02","17","16:00","6.0","","0.3","","67","","10","","9","","48.3","","100.82","","","","","","Mostly Cloudy"
"2013-02-17 17:00","2013","02","17","17:00","5.5","","-0.1","","67","","9","","6","","48.3","","100.78","","","","","","Mostly Cloudy"
"2013-02-17 18:00","2013","02","17","18:00","2.6","","-0.3","","81","","","","0","","48.3","","100.77","","","","","","Mostly Cloudy"
"2013-02-17 19:00","2013","02","17","19:00","1.5","","-0.9","","84","","","","0","","48.3","","100.79","","","","","","Mostly Cloudy"
"2013-02-17 20:00","2013","02","17","20:00","1.1","","-1.2","","85","","","","0","","48.3","","100.74","","","","","","Mostly Cloudy"
"2013-02-17 21:00","2013","02","17","21:00","1.0","","-1.3","","85","","30","","4","","24.1","","100.72","","","","","","Mostly Cloudy"
"2013-02-17 22:00","2013","02","17","22:00"
"2013-02-17 23:00","2013","02","17","23:00"
"2013-02-18 00:00","2013","02","18","00:00"
"2013-02-18 01:00","2013","02","18","01:00"
"2013-02-18 02:00","2013","02","18","02:00"
"2013-02-18 03:00","2013","02","18","03:00"
"2013-02-18 04:00","2013","02","18","04:00"
"2013-02-18 05:00","2013","02","18","05:00"
"2013-02-18 06:00","2013","02","18","06:00","1.8","","-0.3","","86","","32","","6","","16.1","","100.23","","","","","","Cloudy"
"2013-02-18 07:00","2013","02","18","07:00","1.9","","-0.2","","86","","31","","4","","12.9","","100.17","","","","","","Cloudy"
"2013-02-18 08:00","2013","02","18","08:00","1.7","","-0.2","","87","","30","","4","","9.7","","100.12","","","","","","Drizzle"
"2013-02-18 09:00","2013","02","18","09:00","2.2","","0.4","","88","","2","","4","","4.8","","100.06","","","","","","Rain,Fog"
"2013-02-18 10:00","2013","02","18","10:00","2.4","","0.7","","89","","4","","6","","3.2","","100.03","","","","","","Rain,Fog"
"2013-02-18 11:00","2013","02","18","11:00","3.5","","1.5","","87","","11","","4","","6.4","","99.97","","","","","","Rain,Fog"
"2013-02-18 12:00","2013","02","18","12:00","3.7","","1.2","","84","","10","","15","","16.1","","99.90","","","","","","Rain"
"2013-02-18 13:00","2013","02","18","13:00","3.9","","1.6","","85","","10","","17","","16.1","","99.82","","","","","","Rain"
"2013-02-18 14:00","2013","02","18","14:00","3.3","","1.5","","88","","10","","15","","12.9","","99.75","","","","","","Rain"
"2013-02-18 15:00","2013","02","18","15:00","3.3","","1.5","","88","","13","","15","","6.4","","99.69","","","","","","Rain,Fog"
"2013-02-18 16:00","2013","02","18","16:00","3.3","","1.4","","87","","15","","15","","6.4","","99.63","","","","","","Rain,Fog"
"2013-02-18 17:00","2013","02","18","17:00","3.3","","1.4","","87","","12","","15","","6.4","","99.58","","","","","","Rain,Fog"
"2013-02-18 18:00","2013","02","18","18:00","3.3","","1.7","","89","","13","","9","","6.4","","99.52","","","","","","Rain,Fog"
"2013-02-18 19:00","2013","02","18","19:00","3.6","","1.8","","88","","13","","28","","6.4","","99.50","","","","","","Rain,Fog"
"2013-02-18 20:00","2013","02","18","20:00","3.2","","1.2","","87","","12","","19","","6.4","","99.51","","","","","","Rain,Fog"
"2013-02-18 21:00","2013","02","18","21:00","2.6","","0.6","","87","","13","","15","","4.8","","99.53","","","","","","Rain,Fog"
"2013-02-18 22:00","2013","02","18","22:00"
"2013-02-18 23:00","2013","02","18","23:00"
"2013-02-19 00:00","2013","02","19","00:00"
"2013-02-19 01:00","2013","02","19","01:00"
"2013-02-19 02:00","2013","02","19","02:00"
"2013-02-19 03:00","2013","02","19","03:00"
"2013-02-19 04:00","2013","02","19","04:00"
"2013-02-19 05:00","2013","02","19","05:00"
"2013-02-19 06:00","2013","02","19","06:00","1.6","","-0.3","","87","","27","","7","","6.4","","99.75","","","","","","Rain,Snow"
"2013-02-19 07:00","2013","02","19","07:00","1.8","","-0.2","","87","","26","","6","","11.3","","99.80","","","","","","Rain"
"2013-02-19 08:00","2013","02","19","08:00","2.0","","0.1","","87","","29","","4","","24.1","","99.83","","","","","","Mostly Cloudy"
"2013-02-19 09:00","2013","02","19","09:00","2.8","","0.6","","85","","29","","6","","48.3","","99.84","","","","","","Mostly Cloudy"
"2013-02-19 10:00","2013","02","19","10:00","4.0","","1.5","","84","","31","","6","","48.3","","99.84","","","","","","Mostly Cloudy"
"2013-02-19 11:00","2013","02","19","11:00","5.5","","1.9","","78","","30","","7","","48.3","","99.89","","","","","","Mostly Cloudy"
"2013-02-19 12:00","2013","02","19","12:00","6.3","","1.5","","71","","30","","19","","48.3","","99.97","","","","","","Mainly Clear"
"2013-02-19 13:00","2013","02","19","13:00","7.3","","1.0","","64","","33","","13","","48.3","","99.93","","","","","","Mainly Clear"
"2013-02-19 14:00","2013","02","19","14:00","7.8","","0.9","","62","","31","","6","","48.3","","99.94","","","","","","Mainly Clear"
"2013-02-19 15:00","2013","02","19","15:00","8.5","","1.6","","62","","30","","6","","48.3","","99.94","","","","","","Mainly Clear"
"2013-02-19 16:00","2013","02","19","16:00","8.4","","0.9","","59","","30","","13","","48.3","","99.94","","","","","","Mainly Clear"
"2013-02-19 17:00","2013","02","19","17:00","7.8","","1.3","","63","","29","","7","","48.3","","99.96","","","","","","Mainly Clear"
"2013-02-19 18:00","2013","02","19","18:00","4.6","","1.3","","79","","","","0","","48.3","","99.99","","","","","","Mainly Clear"
"2013-02-19 19:00","2013","02","19","19:00","2.4","","0.1","","85","","","","0","","24.1","","100.05","","","","","","Clear"
"2013-02-19 20:00","2013","02","19","20:00","0.9","","-1.1","","86","","","","0","","24.1","","100.12","","","","","","Clear"
"2013-02-19 21:00","2013","02","19","21:00","0.3","","-1.6","","87","","29","","4","","24.1","","100.15","","","","","","Clear"
"2013-02-19 22:00","2013","02","19","22:00"
"2013-02-19 23:00","2013","02","19","23:00"
"2013-02-20 00:00","2013","02","20","00:00"
"2013-02-20 01:00","2013","02","20","01:00"
"2013-02-20 02:00","2013","02","20","02:00"
"2013-02-20 03:00","2013","02","20","03:00"
"2013-02-20 04:00","2013","02","20","04:00"
"2013-02-20 05:00","2013","02","20","05:00"
"2013-02-20 06:00","2013","02","20","06:00","-0.4","","-2.3","","87","","","","0","","24.1","","100.20","","","","","","Cloudy"
"2013-02-20 07:00","2013","02","20","07:00","-0.2","","-2.0","","88","","","","0","","16.1","","100.15","","","","","","Cloudy"
"2013-02-20 08:00","2013","02","20","08:00","0.1","","-1.7","","88","","31","","4","","2.0","","100.14","","","","","","Fog"
"2013-02-20 09:00","2013","02","20","09:00","0.7","","-1.0","","88","","","","0","","8.0","","100.15","","","","","","Fog"
"2013-02-20 10:00","2013","02","20","10:00","1.9","","0.2","","88","","27","","4","","6.4","","100.15","","","","","","Fog"
"2013-02-20 11:00","2013","02","20","11:00","2.1","","0.5","","89","","","","0","","16.1","","100.13","","","","","","Cloudy"
"2013-02-20 12:00","2013","02","20","12:00","3.2","","1.3","","87","","","","0","","16.1","","100.14","","","","","","Rain"
"2013-02-20 13:00","2013","02","20","13:00","4.1","","2.4","","89","","13","","7","","16.1","","100.14","","","","","","Rain"
"2013-02-20 14:00","2013","02","20","14:00","4.5","","2.7","","88","","15","","11","","12.9","","100.12","","","","","","Rain"
"2013-02-20 15:00","2013","02","20","15:00","4.2","","2.7","","90","","11","","7","","12.9","","100.15","","","","","","Rain"
"2013-02-20 16:00","2013","02","20","16:00","4.3","","2.4","","87","","13","","9","","12.9","","100.18","","","","","","Rain"
"2013-02-20 17:00","2013","02","20","17:00","4.1","","2.3","","88","","13","","9","","16.1","","100.20","","","","","","Rain"
"2013-02-20 18:00","2013","02","20","18:00","4.1","","2.2","","87","","","","0","","16.1","","100.24","","","","","","Cloudy"
"2013-02-20 19:00","2013","02","20","19:00","3.7","","2.1","","89","","","","0","","16.1","","100.26","","","","","","Rain"
"2013-02-20 20:00","2013","02","20","20:00","3.3","","1.9","","91","","","","0","","8.0","","100.22","","","","","","Rain,Fog"
"2013-02-20 21:00","2013","02","20","21:00","3.7","","2.1","","89","","","","0","","16.1","","100.25","","","","","","Mostly Cloudy"
"2013-02-20 22:00","2013","02","20","22:00"
"2013-02-20 23:00","2013","02","20","23:00"
"2013-02-21 00:00","2013","02","21","00:00"
"2013-02-21 01:00","2013","02","21","01:00"
"2013-02-21 02:00","2013","02","21","02:00"
"2013-02-21 03:00","2013","02","21","03:00"
"2013-02-21 04:00","2013","02","21","04:00"
"2013-02-21 05:00","2013","02","21","05:00"
"2013-02-21 06:00","2013","02","21","06:00","2.2","","0.3","","87","","","","0","","24.1","","99.84","","","","","","Cloudy"
"2013-02-21 07:00","2013","02","21","07:00","1.2","","-0.6","","88","","","","0","","24.1","","99.78","","","","","","Cloudy"
"2013-02-21 08:00","2013","02","21","08:00","1.0","","-0.8","","88","","29","","6","","24.1","","99.81","","","","","","Mostly Cloudy"
"2013-02-21 09:00","2013","02","21","09:00","2.5","","0.7","","88","","31","","9","","32.2","","99.87","","","","","","Mostly Cloudy"
"2013-02-21 10:00","2013","02","21","10:00","5.1","","1.9","","80","","31","","4","","32.2","","99.90","","","","","","Mostly Cloudy"
"2013-02-21 11:00","2013","02","21","11:00","6.1","","1.7","","73","","10","","7","","32.2","","99.93","","","","","","Mostly Cloudy"
"2013-02-21 12:00","2013","02","21","12:00","7.2","","2.1","","70","","12","","11","","32.2","","99.98","","","","","","Mostly Cloudy"
"2013-02-21 13:00","2013","02","21","13:00","7.2","","1.8","","69","","9","","4","","32.2","","99.98","","","","","","Mostly Cloudy"
"2013-02-21 14:00","2013","02","21","14:00","8.1","","2.5","","68","","10","","11","","48.3","","99.98","","","","","","Mostly Cloudy"
"2013-02-21 15:00","2013","02","21","15:00","8.3","","2.5","","67","","10","","9","","32.2","","99.97","","","","","","Cloudy"
"2013-02-21 16:00","2013","02","21","16:00","7.3","","2.3","","71","","11","","13","","32.2","","99.99","","","","","","Cloudy"
"2013-02-21 17:00","2013","02","21","17:00","6.7","","3.5","","80","","12","","9","","48.3","","100.01","","","","","","Cloudy"
"2013-02-21 18:00","2013","02","21","18:00","5.3","","3.0","","85","","","","0","","48.3","","99.97","","","","","","Mostly Cloudy"
"2013-02-21 19:00","2013","02","21","19:00","4.2","","2.7","","90","","32","","7","","24.1","","99.99","","","","","","Cloudy"
"2013-02-21 20:00","2013","02","21","20:00","5.2","","3.2","","87","","25","","4","","24.1","","100.01","","","","","","Cloudy"
"2013-02-21 21:00","2013","02","21","21:00","5.0","","3.2","","88","","32","","4","","24.1","","99.96","","","","","","Cloudy"
"2013-02-21 22:00","2013","02","21","22:00"
"2013-02-21 23:00","2013","02","21","23:00"
"2013-02-22 00:00","2013","02","22","00:00"
"2013-02-22 01:00","2013","02","22","01:00"
"2013-02-22 02:00","2013","02","22","02:00"
"2013-02-22 03:00","2013","02","22","03:00"
"2013-02-22 04:00","2013","02","22","04:00"
"2013-02-22 05:00","2013","02","22","05:00"
"2013-02-22 06:00","2013","02","22","06:00","3.9","","2.1","","88","","14","","19","","6.4","","99.11","","","","","","Rain,Fog"
"2013-02-22 07:00","2013","02","22","07:00","3.9","","2.1","","88","","15","","24","","6.4","","98.95","","","","","","Rain,Fog"
"2013-02-22 08:00","2013","02","22","08:00","3.8","","1.9","","87","","15","","17","","8.0","","98.92","","","","","","Rain,Fog"
"2013-02-22 09:00","2013","02","22","09:00","3.7","","1.8","","87","","15","","19","","11.3","","98.81","","","","","","Rain"
"2013-02-22 10:00","2013","02","22","10:00","4.2","","2.3","","87","","16","","17","","11.3","","98.71","","","","","","Rain"
"2013-02-22 11:00","2013","02","22","11:00","5.3","","3.3","","87","","14","","17","","12.9","","98.61","","","","","","Cloudy"
"2013-02-22 12:00","2013","02","22","12:00","5.9","","3.6","","85","","15","","6","","12.9","","98.62","","","","","","Rain"
"2013-02-22 13:00","2013","02","22","13:00","7.0","","3.3","","77","","31","","15","","32.2","","98.60","","","","","","Mostly Cloudy"
"2013-02-22 14:00","2013","02","22","14:00","8.3","","2.3","","66","","27","","4","","32.2","","98.62","","","","","","Mainly Clear"
"2013-02-22 15:00","2013","02","22","15:00","7.7","","-0.7","","55","","28","","13","","48.3","","98.68","","","","","","Mainly Clear"
"2013-02-22 16:00","2013","02","22","16:00","8.2","","-1.5","","50","","28","","11","","48.3","","98.73","","","","","","Mainly Clear"
"2013-02-22 17:00","2013","02","22","17:00","7.0","","-1.9","","53","","27","","7","","32.2","","98.81","","","","","","Mostly Cloudy"
"2013-02-22 18:00","2013","02","22","18:00","4.8","","-1.2","","65","","34","","9","","32.2","","98.94","","","","","","Mostly Cloudy"
"2013-02-22 19:00","2013","02","22","19:00","4.7","","-1.8","","63","","30","","9","","24.1","","99.05","","","","","","Mostly Cloudy"
"2013-02-22 20:00","2013","02","22","20:00","3.8","","-0.5","","73","","36","","9","","24.1","","99.16","","","","","","Mostly Cloudy"
"2013-02-22 21:00","2013","02","22","21:00","1.9","","-1.0","","81","","","","0","","24.1","","99.23","","","","","","Mostly Cloudy"
"2013-02-22 22:00","2013","02","22","22:00"
"2013-02-22 23:00","2013","02","22","23:00"
"2013-02-23 00:00","2013","02","23","00:00"
"2013-02-23 01:00","2013","02","23","01:00"
"2013-02-23 02:00","2013","02","23","02:00"
"2013-02-23 03:00","2013","02","23","03:00"
"2013-02-23 04:00","2013","02","23","04:00"
"2013-02-23 05:00","2013","02","23","05:00"
"2013-02-23 06:00","2013","02","23","06:00","0.8","","-1.2","","86","","","","0","","25.0","","100.22","","","","","","Mostly Cloudy"
"2013-02-23 07:00","2013","02","23","07:00","-0.7","","-2.9","","85","","28","","11","","24.1","","100.34","","","","-4","","Mainly Clear"
"2013-02-23 08:00","2013","02","23","08:00","2.2","","-1.2","","78","","27","","9","","32.2","","100.49","","","","","","Mainly Clear"
"2013-02-23 09:00","2013","02","23","09:00","4.4","","-0.5","","70","","30","","15","","32.2","","100.59","","","","","","Mainly Clear"
"2013-02-23 10:00","2013","02","23","10:00","6.4","","-0.5","","61","","31","","22","","32.2","","100.68","","","","","","Mostly Cloudy"
"2013-02-23 11:00","2013","02","23","11:00","6.8","","-1.2","","57","","30","","24","","48.3","","100.76","","","","","","Mostly Cloudy"
"2013-02-23 12:00","2013","02","23","12:00","7.3","","-1.9","","52","","29","","17","","48.3","","100.83","","","","","","Mostly Cloudy"
"2013-02-23 13:00","2013","02","23","13:00","7.3","","-1.6","","53","","31","","28","","48.3","","100.87","","","","","","Mostly Cloudy"
"2013-02-23 14:00","2013","02","23","14:00","7.6","","-2.8","","48","","32","","15","","48.3","","100.94","","","","","","Mostly Cloudy"
"2013-02-23 15:00","2013","02","23","15:00","8.0","","-2.2","","48","","32","","15","","48.3","","100.94","","","","","","Mostly Cloudy"
"2013-02-23 16:00","2013","02","23","16:00","7.5","","-2.5","","49","","31","","13","","48.3","","100.99","","","","","","Mostly Cloudy"
"2013-02-23 17:00","2013","02","23","17:00","7.0","","-1.8","","53","","36","","6","","48.3","","101.05","","","","","","Mostly Cloudy"
"2013-02-23 18:00","2013","02","23","18:00","5.7","","-0.6","","64","","35","","9","","32.2","","101.07","","","","","","Cloudy"
"2013-02-23 19:00","2013","02","23","19:00","5.5","","-1.5","","61","","","","0","","24.1","","101.12","","","","","","Cloudy"
"2013-02-23 20:00","2013","02","23","20:00","4.0","","-0.9","","70","","16","","6","","24.1","","101.19","","","","","","Cloudy"
"2013-02-23 21:00","2013","02","23","21:00","4.3","","-0.6","","70","","13","","4","","24.1","","101.17","","","","","","Cloudy"
"2013-02-23 22:00","2013","02","23","22:00"
"2013-02-23 23:00","2013","02","23","23:00"
"2013-02-24 00:00","2013","02","24","00:00"
"2013-02-24 01:00","2013","02","24","01:00"
"2013-02-24 02:00","2013","02","24","02:00"
"2013-02-24 03:00","2013","02","24","03:00"
"2013-02-24 04:00","2013","02","24","04:00"
"2013-02-24 05:00","2013","02","24","05:00"
"2013-02-24 06:00","2013","02","24","06:00","4.8","","1.1","","77","","12","","19","","24.1","","100.90","","","","","","Cloudy"
"2013-02-24 07:00","2013","02","24","07:00","5.0","","1.8","","80","","14","","22","","32.2","","100.86","","","","","","Cloudy"
"2013-02-24 08:00","2013","02","24","08:00","4.8","","1.9","","81","","13","","20","","32.2","","100.81","","","","","","Cloudy"
"2013-02-24 09:00","2013","02","24","09:00","5.1","","2.1","","81","","13","","26","","24.1","","100.78","","","","","","Cloudy"
"2013-02-24 10:00","2013","02","24","10:00","5.1","","2.9","","86","","14","","22","","19.3","","100.73","","","","","","Cloudy"
"2013-02-24 11:00","2013","02","24","11:00","4.9","","2.9","","87","","13","","28","","16.1","","100.63","","","","","","Drizzle"
"2013-02-24 12:00","2013","02","24","12:00","5.1","","3.0","","86","","12","","35","","12.9","","100.58","","","","","","Rain"
"2013-02-24 13:00","2013","02","24","13:00","5.1","","3.0","","86","","13","","33","","6.4","","100.51","","","","","","Rain,Fog"
"2013-02-24 14:00","2013","02","24","14:00","5.2","","2.9","","85","","13","","39","","8.0","","100.37","","","","","","Rain,Fog"
"2013-02-24 15:00","2013","02","24","15:00","5.4","","3.2","","86","","13","","37","","9.7","","100.25","","","","","","Rain,Fog"
"2013-02-24 16:00","2013","02","24","16:00","5.4","","3.5","","88","","13","","32","","9.7","","100.14","","","","","","Rain,Fog"
"2013-02-24 17:00","2013","02","24","17:00","5.5","","3.5","","87","","13","","35","","8.0","","99.99","","","","","","Rain,Fog"
"2013-02-24 18:00","2013","02","24","18:00","5.3","","3.5","","88","","12","","33","","6.4","","99.81","","","","","","Rain,Fog"
"2013-02-24 19:00","2013","02","24","19:00","5.2","","3.2","","87","","14","","44","","6.4","","99.68","","","","","","Rain,Fog"
"2013-02-24 20:00","2013","02","24","20:00","5.2","","3.2","","87","","13","","32","","6.4","","99.59","","","","","","Rain,Fog"
"2013-02-24 21:00","2013","02","24","21:00","5.2","","3.1","","86","","13","","35","","6.4","","99.42","","","","","","Rain,Fog"
"2013-02-24 22:00","2013","02","24","22:00"
"2013-02-24 23:00","2013","02","24","23:00"
"2013-02-25 00:00","2013","02","25","00:00"
"2013-02-25 01:00","2013","02","25","01:00"
"2013-02-25 02:00","2013","02","25","02:00"
"2013-02-25 03:00","2013","02","25","03:00"
"2013-02-25 04:00","2013","02","25","04:00"
"2013-02-25 05:00","2013","02","25","05:00"
"2013-02-25 06:00","2013","02","25","06:00","4.1","","2.1","","87","","33","","7","","6.4","","99.23","","","","","","Drizzle,Fog"
"2013-02-25 07:00","2013","02","25","07:00","4.2","","0.9","","79","","32","","26","","19.3","","99.44","","","","","","Drizzle"
"2013-02-25 08:00","2013","02","25","08:00","3.7","","0.7","","81","","30","","11","","32.2","","99.56","","","","","","Mostly Cloudy"
"2013-02-25 09:00","2013","02","25","09:00","4.2","","1.0","","80","","31","","7","","32.2","","99.71","","","","","","Mostly Cloudy"
"2013-02-25 10:00","2013","02","25","10:00","6.6","","1.3","","69","","32","","7","","32.2","","99.84","","","","","","Mostly Cloudy"
"2013-02-25 11:00","2013","02","25","11:00","8.1","","-2.0","","49","","30","","33","","32.2","","99.98","","","","","","Mostly Cloudy"
"2013-02-25 12:00","2013","02","25","12:00","8.3","","-4.1","","41","","31","","32","","48.3","","100.09","","","","","","Mainly Clear"
"2013-02-25 13:00","2013","02","25","13:00","8.5","","-5.1","","38","","32","","35","","48.3","","100.23","","","","","","Mainly Clear"
"2013-02-25 14:00","2013","02","25","14:00","8.8","","-5.6","","36","","30","","28","","48.3","","100.36","","","","","","Mainly Clear"
"2013-02-25 15:00","2013","02","25","15:00","8.7","","-5.8","","35","","31","","32","","48.3","","100.42","","","","","","Mainly Clear"
"2013-02-25 16:00","2013","02","25","16:00","8.5","","-5.4","","37","","30","","20","","48.3","","100.53","","","","","","Mainly Clear"
"2013-02-25 17:00","2013","02","25","17:00","7.7","","-5.4","","39","","29","","26","","48.3","","100.59","","","","","","Mainly Clear"
"2013-02-25 18:00","2013","02","25","18:00","6.1","","-4.5","","47","","32","","19","","48.3","","100.68","","","","","","Mainly Clear"
"2013-02-25 19:00","2013","02","25","19:00","3.9","","-4.1","","56","","30","","11","","48.3","","100.80","","","","","","Mostly Cloudy"
"2013-02-25 20:00","2013","02","25","20:00","2.5","","-3.7","","64","","29","","7","","48.3","","100.90","","","","","","Mostly Cloudy"
"2013-02-25 21:00","2013","02","25","21:00","1.1","","-3.6","","71","","28","","6","","48.3","","100.94","","","","","","Mostly Cloudy"
"2013-02-25 22:00","2013","02","25","22:00"
"2013-02-25 23:00","2013","02","25","23:00"
"2013-02-26 00:00","2013","02","26","00:00"
"2013-02-26 01:00","2013","02","26","01:00"
"2013-02-26 02:00","2013","02","26","02:00"
"2013-02-26 03:00","2013","02","26","03:00"
"2013-02-26 04:00","2013","02","26","04:00"
"2013-02-26 05:00","2013","02","26","05:00"
"2013-02-26 06:00","2013","02","26","06:00","-0.3","","-3.0","","82","","31","","6","","24.1","","101.01","","","","-2","","Mostly Cloudy"
"2013-02-26 07:00","2013","02","26","07:00","-0.3","","-3.0","","82","","","","0","","32.2","","100.98","","","","","","Mostly Cloudy"
"2013-02-26 08:00","2013","02","26","08:00","2.3","","-1.5","","76","","14","","6","","32.2","","100.96","","","","","","Mostly Cloudy"
"2013-02-26 09:00","2013","02","26","09:00","4.0","","0.0","","75","","12","","13","","24.1","","100.94","","","","","","Cloudy"
"2013-02-26 10:00","2013","02","26","10:00","4.7","","1.4","","79","","14","","24","","24.1","","100.88","","","","","","Cloudy"
"2013-02-26 11:00","2013","02","26","11:00","5.1","","1.7","","79","","15","","19","","12.9","","100.83","","","","","","Rain"
"2013-02-26 12:00","2013","02","26","12:00","5.5","","1.9","","78","","14","","20","","12.9","","100.81","","","","","","Rain"
"2013-02-26 13:00","2013","02","26","13:00","5.6","","1.5","","75","","13","","30","","12.9","","100.75","","","","","","Rain"
"2013-02-26 14:00","2013","02","26","14:00","4.6","","1.7","","81","","14","","22","","9.7","","100.66","","","","","","Rain,Fog"
"2013-02-26 15:00","2013","02","26","15:00","4.5","","1.4","","80","","13","","35","","8.0","","100.61","","","","","","Rain,Fog"
"2013-02-26 16:00","2013","02","26","16:00","4.3","","1.7","","83","","13","","44","","8.0","","100.53","","","","","","Rain,Fog"
"2013-02-26 17:00","2013","02","26","17:00","4.3","","1.8","","84","","14","","35","","8.0","","100.49","","","","","","Rain,Fog"
"2013-02-26 18:00","2013","02","26","18:00","4.2","","2.0","","86","","14","","28","","8.0","","100.49","","","","","","Rain,Fog"
"2013-02-26 19:00","2013","02","26","19:00","4.1","","2.1","","87","","14","","24","","8.0","","100.49","","","","","","Rain,Fog"
"2013-02-26 20:00","2013","02","26","20:00","3.7","","1.7","","87","","14","","20","","8.0","","100.51","","","","","","Rain,Fog"
"2013-02-26 21:00","2013","02","26","21:00","3.5","","1.4","","86","","15","","17","","8.0","","100.54","","","","","","Rain,Fog"
"2013-02-26 22:00","2013","02","26","22:00"
"2013-02-26 23:00","2013","02","26","23:00"
"2013-02-27 00:00","2013","02","27","00:00"
"2013-02-27 01:00","2013","02","27","01:00"
"2013-02-27 02:00","2013","02","27","02:00"
"2013-02-27 03:00","2013","02","27","03:00"
"2013-02-27 04:00","2013","02","27","04:00"
"2013-02-27 05:00","2013","02","27","05:00"
"2013-02-27 06:00","2013","02","27","06:00","-1.0","","-3.1","","86","","31","","4","","25.0","","101.00","","","","-2","","Cloudy"
"2013-02-27 07:00","2013","02","27","07:00","-0.8","","-2.8","","86","","32","","4","","32.2","","101.01","","","","-2","","Mostly Cloudy"
"2013-02-27 08:00","2013","02","27","08:00","-0.4","","-2.3","","87","","","","0","","32.2","","101.05","","","","","","Mostly Cloudy"
"2013-02-27 09:00","2013","02","27","09:00","0.4","","-1.5","","87","","","","0","","32.2","","101.11","","","","","","Mostly Cloudy"
"2013-02-27 10:00","2013","02","27","10:00","3.1","","1.1","","87","","","","0","","48.3","","101.12","","","","","","Cloudy"
"2013-02-27 11:00","2013","02","27","11:00","4.5","","1.7","","82","","11","","9","","48.3","","101.16","","","","","","Cloudy"
"2013-02-27 12:00","2013","02","27","12:00","5.1","","1.3","","76","","12","","19","","48.3","","101.15","","","","","","Cloudy"
"2013-02-27 13:00","2013","02","27","13:00","5.0","","1.4","","78","","12","","13","","24.1","","101.08","","","","","","Cloudy"
"2013-02-27 14:00","2013","02","27","14:00","5.1","","1.2","","76","","13","","17","","24.1","","101.10","","","","","","Rain"
"2013-02-27 15:00","2013","02","27","15:00","5.3","","1.5","","76","","13","","15","","24.1","","101.10","","","","","","Cloudy"
"2013-02-27 16:00","2013","02","27","16:00","5.1","","1.7","","79","","12","","11","","24.1","","101.12","","","","","","Cloudy"
"2013-02-27 17:00","2013","02","27","17:00","5.1","","1.5","","78","","12","","26","","24.1","","101.10","","","","","","Cloudy"
"2013-02-27 18:00","2013","02","27","18:00","4.6","","1.3","","79","","13","","28","","24.1","","101.14","","","","","","Cloudy"
"2013-02-27 19:00","2013","02","27","19:00","4.4","","1.2","","80","","13","","15","","25.0","","101.15","","","","","","Cloudy"
"2013-02-27 20:00","2013","02","27","20:00","4.5","","1.8","","83","","12","","19","","16.1","","101.17","","","","","","Cloudy"
"2013-02-27 21:00","2013","02","27","21:00","4.5","","1.5","","81","","12","","15","","16.1","","101.15","","","","","","Cloudy"
"2013-02-27 22:00","2013","02","27","22:00"
"2013-02-27 23:00","2013","02","27","23:00"
"2013-02-28 00:00","2013","02","28","00:00"
"2013-02-28 01:00","2013","02","28","01:00"
"2013-02-28 02:00","2013","02","28","02:00"
"2013-02-28 03:00","2013","02","28","03:00"
"2013-02-28 04:00","2013","02","28","04:00"
"2013-02-28 05:00","2013","02","28","05:00"
"2013-02-28 06:00","2013","02","28","06:00","3.7","","1.2","","84","","14","","9","","12.9","","100.92","","","","","","Rain"
"2013-02-28 07:00","2013","02","28","07:00","3.6","","1.3","","85","","13","","11","","16.1","","100.88","","","","","","Rain"
"2013-02-28 08:00","2013","02","28","08:00","3.6","","1.3","","85","","12","","11","","16.1","","100.81","","","","","","Rain"
"2013-02-28 09:00","2013","02","28","09:00","3.3","","0.9","","84","","14","","19","","9.7","","100.79","","","","","","Rain,Fog"
"2013-02-28 10:00","2013","02","28","10:00","2.3","","-0.1","","84","","14","","20","","8.0","","100.82","","","","","","Rain,Snow"
"2013-02-28 11:00","2013","02","28","11:00","1.8","","-0.6","","84","","13","","19","","8.0","","100.83","","","","","","Rain,Snow"
"2013-02-28 12:00","2013","02","28","12:00","2.5","","0.5","","87","","12","","17","","8.0","","100.81","","","","","","Rain,Fog"
"2013-02-28 13:00","2013","02","28","13:00","3.8","","1.8","","87","","13","","26","","4.8","","100.81","","","","","","Rain,Fog"
"2013-02-28 14:00","2013","02","28","14:00","4.2","","2.1","","86","","12","","28","","6.4","","100.77","","","","","","Rain,Fog"
"2013-02-28 15:00","2013","02","28","15:00","4.4","","2.3","","86","","13","","26","","8.0","","100.71","","","","","","Rain,Fog"
"2013-02-28 16:00","2013","02","28","16:00","4.6","","2.6","","87","","13","","26","","8.0","","100.68","","","","","","Rain,Fog"
"2013-02-28 17:00","2013","02","28","17:00","4.8","","3.0","","88","","14","","33","","8.0","","100.62","","","","","","Rain,Fog"
"2013-02-28 18:00","2013","02","28","18:00","5.0","","3.3","","89","","13","","20","","6.4","","100.65","","","","","","Rain,Fog"
"2013-02-28 19:00","2013","02","28","19:00","5.4","","3.7","","89","","13","","24","","6.4","","100.62","","","","","","Rain,Fog"
"2013-02-28 20:00","2013","02","28","20:00","5.6","","3.9","","89","","13","","24","","6.4","","100.65","","","","","","Rain,Fog"
"2013-02-28 21:00","2013","02","28","21:00","5.7","","4.1","","89","","13","","9","","3.2","","100.69","","","","","","Rain,Fog"
"2013-02-28 22:00","2013","02","28","22:00"
"2013-02-28 23:00","2013","02","28","23:00"
