"Station Name","CAMPBELL RIVER A"
"Province","BRITISH COLUMBIA"
"Latitude","49.95"
"Longitude","-125.27"
"Elevation","108.80"
"Climate Identifier","1021261"
"WMO Identifier",""
"TC Identifier","YBL"
"All times are specified in Local Standard Time (LST). Add 1 hour to adjust for Daylight Saving Time where and when it is observed."

"Legend"
"E","Estimated"
"M","Missing"
"NA","Not Available"

"Date/Time","Year","Month","Day","Time","Temp (°C)","Temp Flag","Dew Point Temp (°C)","Dew Point Temp Flag","Rel Hum (%)","Rel Hum Flag","Wind Dir (10s deg)","Wind Dir Flag","Wind Spd (km/h)","Wind Spd Flag","Visibility (km)","Visibility Flag","Stn Press (kPa)","Stn Press Flag","Hmdx","Hmdx Flag","Wind Chill","Wind Chill Flag","Weather"
"1986-01-01 00:00","1986","01","01","00:00","","","","","","","16","","15","","","","","","","","","","NA"
"1986-01-01 01:00","1986","01","01","01:00","","","","","","","15","","19","","","","","","","","","","NA"
"1986-01-01 02:00","1986","01","01","02:00","","","","","","","16","","22","","","","","","","","","","NA"
"1986-01-01 03:00","1986","01","01","03:00","","","","","","","18","","15","","","","","","","","","","NA"
"1986-01-01 04:00","1986","01","01","04:00","","","","","","","15","","22","","","","","","","","","","NA"
"1986-01-01 05:00","1986","01","01","05:00","","","","","","","18","","19","","","","","","","","","","NA"
"1986-01-01 06:00","1986","01","01","06:00","2.2","","1.3","","93","","12","","15","","12.9","","98.60","","","","","","Mostly Cloudy"
"1986-01-01 07:00","1986","01","01","07:00","2.9","","2.3","","96","","14","","19","","11.3","","98.56","","","","","","Mostly Cloudy"
"1986-01-01 08:00","1986","01","01","08:00","3.2","","2.5","","95","","11","","9","","11.3","","98.70","","","","","","Mostly Cloudy"
"1986-01-01 09:00","1986","01","01","09:00","2.8","","2.3","","97","","29","","11","","16.1","","98.97","","","","","","Mostly Cloudy"
"1986-01-01 10:00","1986","01","01","10:00","3.8","","2.1","","89","","30","","22","","24.1","","99.23","","","","","","Mostly Cloudy"
"1986-01-01 11:00","1986","01","01","11:00","4.4","","3.1","","91","","","","0","","24.1","","99.40","","","","","","Mainly Clear"
"1986-01-01 12:00","1986","01","01","12:00","5.9","","3.3","","83","","32","","22","","24.1","","99.57","","","","","","Mainly Clear"
"1986-01-01 13:00","1986","01","01","13:00","6.9","","3.0","","76","","33","","15","","24.1","","99.67","","","","","","Mainly Clear"
"1986-01-01 14:00","1986","01","01","14:00","6.7","","1.1","","67","","34","","24","","24.1","","99.84","","","","","","Mainly Clear"
"1986-01-01 15:00","1986","01","01","15:00","5.7","","-0.9","","62","","32","","17","","24.1","","100.01","","","","","","Mostly Cloudy"
"1986-01-01 16:00","1986","01","01","16:00","3.1","","0.9","","85","","","","0","","24.1","","100.14","","","","","","Cloudy"
"1986-01-01 17:00","1986","01","01","17:00","0.7","","-0.2","","93","","24","","4","","24.1","","100.24","","","","","","Cloudy"
"1986-01-01 18:00","1986","01","01","18:00","0.3","","-0.9","","92","","30","","6","","24.1","","100.27","","","","","","Cloudy"
"1986-01-01 19:00","1986","01","01","19:00","0.0","","-1.0","","93","","","","0","","24.1","","100.31","","","","","","Cloudy"
"1986-01-01 20:00","1986","01","01","20:00","0.4","","-1.1","","90","","","","0","","24.1","","100.41","","","","","","Cloudy"
"1986-01-01 21:00","1986","01","01","21:00","-0.7","","-1.1","","97","","","","0","","24.1","","100.44","","","","","","Cloudy"
"1986-01-01 22:00","1986","01","01","22:00","","","","","","","29","","17","","","","","","","","","","NA"
"1986-01-01 23:00","1986","01","01","23:00","","","","","","","","","0","","","","","","","","","","NA"
"1986-01-02 00:00","1986","01","02","00:00","","","","","","","","","0","","","","","","","","","","NA"
"1986-01-02 01:00","1986","01","02","01:00","","","","","","","","","0","","","","","","","","","","NA"
"1986-01-02 02:00","1986","01","02","02:00","","","","","","","","","0","","","","","","","","","","NA"
"1986-01-02 03:00","1986","01","02","03:00","","","","","","","","","0","","","","","","","","","","NA"
"1986-01-02 04:00","1986","01","02","04:00","","","","","","","","","0","","","","","","","","","","NA"
"1986-01-02 05:00","1986","01","02","05:00","","","","","","","","","0","","","","","","","","","","NA"
"1986-01-02 06:00","1986","01","02","06:00","-0.7","","-1.1","","97","","","","0","","24.1","","99.97","","","","","","Cloudy"
"1986-01-02 07:00","1986","01","02","07:00","-0.5","","-0.8","","98","","","","0","","24.1","","99.90","","","","","","Cloudy"
"1986-01-02 08:00","1986","01","02","08:00","0.0","","-0.3","","98","","","","0","","12.9","","99.84","","","","","","Rain"
"1986-01-02 09:00","1986","01","02","09:00","0.1","","-0.2","","98","","31","","6","","12.9","","99.77","","","","","","Rain"
"1986-01-02 10:00","1986","01","02","10:00","0.2","","0.2","","100","","","","0","","12.9","","99.74","","","","","","Cloudy"
"1986-01-02 11:00","1986","01","02","11:00","0.4","","0.4","","100","","","","0","","16.1","","99.60","","","","","","Mostly Cloudy"
"1986-01-02 12:00","1986","01","02","12:00","1.2","","0.8","","97","","32","","6","","16.1","","99.44","","","","","","Mostly Cloudy"
"1986-01-02 13:00","1986","01","02","13:00","1.9","","1.6","","98","","25","","6","","16.1","","99.30","","","","","","Mostly Cloudy"
"1986-01-02 14:00","1986","01","02","14:00","2.1","","1.7","","97","","32","","4","","24.1","","99.20","","","","","","Mostly Cloudy"
"1986-01-02 15:00","1986","01","02","15:00","1.7","","1.3","","97","","","","0","","16.1","","99.17","","","","","","Mostly Cloudy"
"1986-01-02 16:00","1986","01","02","16:00","1.5","","1.2","","98","","","","0","","16.1","","99.23","","","","","","Rain"
"1986-01-02 17:00","1986","01","02","17:00","1.1","","0.7","","97","","","","0","","8.0","","99.37","","","","","","Rain,Fog"
"1986-01-02 18:00","1986","01","02","18:00","0.5","","0.3","","98","","","","0","","8.0","","99.37","","","","","","Rain,Fog"
"1986-01-02 19:00","1986","01","02","19:00","-0.3","","-0.5","","98","","","","0","","9.7","","99.44","","","","","","Fog"
"1986-01-02 20:00","1986","01","02","20:00","-0.5","","-1.0","","96","","","","0","","11.3","","99.50","","","","","","Mainly Clear"
"1986-01-02 21:00","1986","01","02","21:00","-0.7","","-1.0","","98","","30","","6","","11.3","","99.64","","","","-3","","Mostly Cloudy"
"1986-01-02 22:00","1986","01","02","22:00","","","","","","","","","0","","","","","","","","","","NA"
"1986-01-02 23:00","1986","01","02","23:00","","","","","","","","","0","","","","","","","","","","NA"
"1986-01-03 00:00","1986","01","03","00:00","","","","","","","","","0","","","","","","","","","","NA"
"1986-01-03 01:00","1986","01","03","01:00","","","","","","","","","0","","","","","","","","","","NA"
"1986-01-03 02:00","1986","01","03","02:00","","","","","","","","","0","","","","","","","","","","NA"
"1986-01-03 03:00","1986","01","03","03:00","","","","","","","","","0","","","","","","","","","","NA"
"1986-01-03 04:00","1986","01","03","04:00","","","","","","","","","0","","","","","","","","","","NA"
"1986-01-03 05:00","1986","01","03","05:00","","","","","","","","","0","","","","","","","","","","NA"
"1986-01-03 06:00","1986","01","03","06:00","-3.5","","-4.1","","96","","31","","9","","25.0","","100.61","","","","-7","","Clear"
"1986-01-03 07:00","1986","01","03","07:00","-3.6","","-4.5","","94","","","","0","","25.0","","100.71","","","","","","Clear"
"1986-01-03 08:00","1986","01","03","08:00","-3.2","","-4.0","","94","","32","","6","","24.1","","100.88","","","","-6","","Mostly Cloudy"
"1986-01-03 09:00","1986","01","03","09:00","-2.3","","-3.2","","93","","32","","7","","24.1","","101.04","","","","-5","","Mostly Cloudy"
"1986-01-03 10:00","1986","01","03","10:00","-1.4","","-2.2","","94","","31","","6","","24.1","","101.15","","","","-4","","Mostly Cloudy"
"1986-01-03 11:00","1986","01","03","11:00","-0.7","","-1.3","","96","","30","","6","","24.1","","101.25","","","","-3","","Cloudy"
"1986-01-03 12:00","1986","01","03","12:00","-0.2","","-0.6","","97","","","","0","","16.1","","101.21","","","","","","Cloudy"
"1986-01-03 13:00","1986","01","03","13:00","0.5","","-0.2","","95","","","","0","","12.9","","101.25","","","","","","Rain,Snow"
"1986-01-03 14:00","1986","01","03","14:00","0.6","","0.3","","98","","","","0","","6.4","","101.21","","","","","","Rain,Snow"
"1986-01-03 15:00","1986","01","03","15:00","0.8","","0.4","","97","","","","0","","16.1","","101.28","","","","","","Cloudy"
"1986-01-03 16:00","1986","01","03","16:00","0.4","","0.1","","98","","","","0","","16.1","","101.28","","","","","","Cloudy"
"1986-01-03 17:00","1986","01","03","17:00","0.5","","0.4","","99","","","","0","","16.1","","101.31","","","","","","Cloudy"
"1986-01-03 18:00","1986","01","03","18:00","0.1","","0.0","","99","","","","0","","16.1","","101.35","","","","","","Cloudy"
"1986-01-03 19:00","1986","01","03","19:00","0.2","","0.1","","99","","","","0","","16.1","","101.35","","","","","","Cloudy"
"1986-01-03 20:00","1986","01","03","20:00","0.3","","0.0","","98","","","","0","","16.1","","101.35","","","","","","Cloudy"
"1986-01-03 21:00","1986","01","03","21:00","0.4","","0.4","","100","","","","0","","8.0","","101.35","","","","","","Rain Showers,Fog"
"1986-01-03 22:00","1986","01","03","22:00","","","","","","","","","0","","","","","","","","","","NA"
"1986-01-03 23:00","1986","01","03","23:00","","","","","","","","","0","","","","","","","","","","NA"
"1986-01-04 00:00","1986","01","04","00:00","","","","","","","","","0","","","","","","","","","","NA"
"1986-01-04 01:00","1986","01","04","01:00","","","","","","","","","0","","","","","","","","","","NA"
"1986-01-04 02:00","1986","01","04","02:00","","","","","","","","","0","","","","","","","","","","NA"
"1986-01-04 03:00","1986","01","04","03:00","","","","","","","","","0","","","","","","","","","","NA"
"1986-01-04 04:00","1986","01","04","04:00","","","","","","","","","0","","","","","","","","","","NA"
"1986-01-04 05:00","1986","01","04","05:00","","","","","","","","","0","","","","","","","","","","NA"
"1986-01-04 06:00","1986","01","04","06:00","-0.1","","-0.4","","98","","","","0","","19.3","","100.91","","","","","","Mostly Cloudy"
"1986-01-04 07:00","1986","01","04","07:00","-0.1","","-0.4","","98","","30","","4","","19.3","","100.84","","","","-1","","Mostly Cloudy"
"1986-01-04 08:00","1986","01","04","08:00","-0.5","","-0.6","","99","","","","0","","19.3","","100.81","","","","","","Mostly Cloudy"
"1986-01-04 09:00","1986","01","04","09:00","-0.5","","-0.9","","97","","28","","4","","19.3","","100.78","","","","-2","","Mostly Cloudy"
"1986-01-04 10:00","1986","01","04","10:00","-0.1","","-0.6","","96","","","","0","","19.3","","100.74","","","","","","Mostly Cloudy"
"1986-01-04 11:00","1986","01","04","11:00","0.8","","-0.2","","93","","","","0","","19.3","","100.71","","","","","","Mostly Cloudy"
"1986-01-04 12:00","1986","01","04","12:00","2.1","","-0.3","","84","","","","0","","19.3","","100.54","","","","","","Mostly Cloudy"
"1986-01-04 13:00","1986","01","04","13:00","3.1","","1.7","","91","","4","","6","","19.3","","100.44","","","","","","Mostly Cloudy"
"1986-01-04 14:00","1986","01","04","14:00","3.7","","1.9","","88","","10","","11","","24.1","","100.31","","","","","","Mostly Cloudy"
"1986-01-04 15:00","1986","01","04","15:00","3.1","","2.0","","92","","11","","9","","24.1","","100.21","","","","","","Mostly Cloudy"
"1986-01-04 16:00","1986","01","04","16:00","1.6","","1.2","","97","","","","0","","24.1","","100.11","","","","","","Cloudy"
"1986-01-04 17:00","1986","01","04","17:00","0.6","","0.3","","98","","","","0","","24.1","","100.01","","","","","","Cloudy"
"1986-01-04 18:00","1986","01","04","18:00","0.4","","0.3","","99","","","","0","","24.1","","99.90","","","","","","Cloudy"
"1986-01-04 19:00","1986","01","04","19:00","0.4","","0.3","","99","","","","0","","24.1","","99.84","","","","","","Cloudy"
"1986-01-04 20:00","1986","01","04","20:00","0.6","","0.4","","98","","","","0","","24.1","","99.80","","","","","","Cloudy"
"1986-01-04 21:00","1986","01","04","21:00","0.5","","0.3","","98","","","","0","","24.1","","99.70","","","","","","Cloudy"
"1986-01-04 22:00","1986","01","04","22:00"
"1986-01-04 23:00","1986","01","04","23:00"
"1986-01-05 00:00","1986","01","05","00:00"
"1986-01-05 01:00","1986","01","05","01:00"
"1986-01-05 02:00","1986","01","05","02:00"
"1986-01-05 03:00","1986","01","05","03:00"
"1986-01-05 04:00","1986","01","05","04:00"
"1986-01-05 05:00","1986","01","05","05:00"
"1986-01-05 06:00","1986","01","05","06:00","1.2","","0.7","","96","","12","","9","","6.4","","99.17","","","","","","Rain,Fog"
"1986-01-05 07:00","1986","01","05","07:00","0.2","","0.1","","99","","7","","4","","3.2","","99.13","","","","","","Rain,Snow"
"1986-01-05 08:00","1986","01","05","08:00","0.2","","0.2","","100","","","","0","","2.4","","99.13","","","","","","Rain,Snow"
"1986-01-05 09:00","1986","01","05","09:00","0.2","","0.2","","100","","","","0","","2.4","","99.17","","","","","","Rain,Snow"
"1986-01-05 10:00","1986","01","05","10:00","0.5","","0.4","","99","","","","0","","4.8","","99.20","","","","","","Rain,Drizzle,Fog"
"1986-01-05 11:00","1986","01","05","11:00","3.5","","3.2","","98","","15","","19","","4.8","","99.20","","","","","","Drizzle,Fog"
"1986-01-05 12:00","1986","01","05","12:00","4.3","","3.8","","97","","14","","13","","6.4","","99.17","","","","","","Fog"
"1986-01-05 13:00","1986","01","05","13:00","4.7","","4.4","","98","","13","","13","","4.8","","99.07","","","","","","Fog"
"1986-01-05 14:00","1986","01","05","14:00","5.1","","4.7","","97","","12","","19","","4.8","","99.00","","","","","","Rain,Fog"
"1986-01-05 15:00","1986","01","05","15:00","5.4","","5.2","","99","","12","","13","","4.8","","98.97","","","","","","Rain,Fog"
"1986-01-05 16:00","1986","01","05","16:00","5.5","","5.3","","98","","12","","13","","4.8","","98.97","","","","","","Rain,Fog"
"1986-01-05 17:00","1986","01","05","17:00","5.8","","5.4","","97","","13","","15","","4.8","","98.97","","","","","","Rain,Fog"
"1986-01-05 18:00","1986","01","05","18:00","6.3","","6.1","","99","","12","","9","","4.8","","98.97","","","","","","Rain,Fog"
"1986-01-05 19:00","1986","01","05","19:00","6.0","","5.9","","99","","12","","4","","4.8","","99.00","","","","","","Rain,Fog"
"1986-01-05 20:00","1986","01","05","20:00","4.8","","4.6","","99","","31","","4","","4.8","","99.13","","","","","","Rain,Fog"
"1986-01-05 21:00","1986","01","05","21:00","4.5","","4.3","","98","","31","","4","","4.8","","99.30","","","","","","Rain,Fog"
"1986-01-05 22:00","1986","01","05","22:00","","","","","","","31","","19","","","","","","","","","","NA"
"1986-01-05 23:00","1986","01","05","23:00"
"1986-01-06 00:00","1986","01","06","00:00"
"1986-01-06 01:00","1986","01","06","01:00"
"1986-01-06 02:00","1986","01","06","02:00"
"1986-01-06 03:00","1986","01","06","03:00"
"1986-01-06 04:00","1986","01","06","04:00"
"1986-01-06 05:00","1986","01","06","05:00"
"1986-01-06 06:00","1986","01","06","06:00","-0.5","","-1.0","","96","","28","","9","","24.1","","101.21","","","","-4","","Clear"
"1986-01-06 07:00","1986","01","06","07:00","0.3","","-0.6","","94","","24","","11","","24.1","","101.25","","","","","","Clear"
"1986-01-06 08:00","1986","01","06","08:00","-1.2","","-1.5","","98","","","","0","","24.1","","101.41","","","","","","Mostly Cloudy"
"1986-01-06 09:00","1986","01","06","09:00","-1.0","","-1.7","","95","","30","","11","","24.1","","101.55","","","","-5","","Mostly Cloudy"
"1986-01-06 10:00","1986","01","06","10:00","-0.1","","-0.4","","98","","23","","7","","24.1","","101.68","","","","-3","","Mostly Cloudy"
"1986-01-06 11:00","1986","01","06","11:00","0.7","","0.1","","96","","24","","6","","24.1","","101.78","","","","","","Mostly Cloudy"
"1986-01-06 12:00","1986","01","06","12:00","1.3","","0.9","","97","","","","0","","24.1","","101.75","","","","","","Cloudy"
"1986-01-06 13:00","1986","01","06","13:00","2.1","","1.7","","97","","7","","7","","24.1","","101.72","","","","","","Cloudy"
"1986-01-06 14:00","1986","01","06","14:00","4.4","","2.7","","89","","10","","11","","24.1","","101.68","","","","","","Cloudy"
"1986-01-06 15:00","1986","01","06","15:00","5.0","","2.9","","86","","10","","19","","24.1","","101.68","","","","","","Cloudy"
"1986-01-06 16:00","1986","01","06","16:00","5.0","","3.8","","92","","11","","17","","24.1","","101.61","","","","","","Cloudy"
"1986-01-06 17:00","1986","01","06","17:00","4.5","","3.8","","95","","11","","15","","24.1","","101.58","","","","","","Cloudy"
"1986-01-06 18:00","1986","01","06","18:00","5.1","","3.5","","89","","13","","22","","24.1","","101.48","","","","","","Cloudy"
"1986-01-06 19:00","1986","01","06","19:00","5.2","","3.8","","90","","14","","19","","24.1","","101.38","","","","","","Cloudy"
"1986-01-06 20:00","1986","01","06","20:00","5.0","","3.8","","92","","14","","17","","24.1","","101.38","","","","","","Cloudy"
"1986-01-06 21:00","1986","01","06","21:00","5.2","","4.0","","92","","14","","22","","24.1","","101.35","","","","","","Cloudy"
"1986-01-06 22:00","1986","01","06","22:00","","","","","","","13","","19","","","","","","","","","","NA"
"1986-01-06 23:00","1986","01","06","23:00","","","","","","","13","","19","","","","","","","","","","NA"
"1986-01-07 00:00","1986","01","07","00:00","","","","","","","13","","22","","","","","","","","","","NA"
"1986-01-07 01:00","1986","01","07","01:00","","","","","","","13","","19","","","","","","","","","","NA"
"1986-01-07 02:00","1986","01","07","02:00","","","","","","","13","","19","","","","","","","","","","NA"
"1986-01-07 03:00","1986","01","07","03:00","","","","","","","13","","19","","","","","","","","","","NA"
"1986-01-07 04:00","1986","01","07","04:00","","","","","","","13","","19","","","","","","","","","","NA"
"1986-01-07 05:00","1986","01","07","05:00","","","","","","","13","","22","","","","","","","","","","NA"
"1986-01-07 06:00","1986","01","07","06:00","5.8","","1.3","","73","","13","","30","","16.1","","100.51","","","","","","Ice Pellet Showers"
"1986-01-07 07:00","1986","01","07","07:00","6.2","","1.2","","70","","15","","28","","16.1","","100.54","","","","","","Rain"
"1986-01-07 08:00","1986","01","07","08:00","4.8","","2.7","","87","","13","","26","","24.1","","100.44","","","","","","Rain"
"1986-01-07 09:00","1986","01","07","09:00","5.0","","3.4","","89","","13","","26","","24.1","","100.51","","","","","","Rain"
"1986-01-07 10:00","1986","01","07","10:00","5.2","","3.9","","91","","13","","19","","24.1","","100.51","","","","","","Rain"
"1986-01-07 11:00","1986","01","07","11:00","5.6","","4.6","","93","","13","","19","","16.1","","100.41","","","","","","Rain"
"1986-01-07 12:00","1986","01","07","12:00","5.4","","4.7","","95","","13","","22","","16.1","","100.34","","","","","","Rain"
"1986-01-07 13:00","1986","01","07","13:00","5.3","","4.5","","95","","12","","20","","16.1","","100.14","","","","","","Rain"
"1986-01-07 14:00","1986","01","07","14:00","5.2","","4.6","","96","","11","","19","","9.7","","100.04","","","","","","Rain"
"1986-01-07 15:00","1986","01","07","15:00","5.2","","4.7","","97","","9","","15","","11.3","","99.90","","","","","","Rain"
"1986-01-07 16:00","1986","01","07","16:00","5.4","","4.5","","94","","9","","11","","11.3","","99.80","","","","","","Rain"
"1986-01-07 17:00","1986","01","07","17:00","6.0","","5.2","","95","","11","","17","","9.7","","99.74","","","","","","Rain"
"1986-01-07 18:00","1986","01","07","18:00","6.5","","5.5","","93","","13","","15","","9.7","","99.57","","","","","","Rain"
"1986-01-07 19:00","1986","01","07","19:00","6.5","","5.7","","95","","11","","22","","9.7","","99.47","","","","","","Rain"
"1986-01-07 20:00","1986","01","07","20:00","6.7","","6.5","","98","","13","","15","","8.0","","99.37","","","","","","Rain"
"1986-01-07 21:00","1986","01","07","21:00","6.6","","5.2","","91","","12","","28","","8.0","","99.37","","","","","","Rain"
"1986-01-07 22:00","1986","01","07","22:00"
"1986-01-07 23:00","1986","01","07","23:00"
"1986-01-08 00:00","1986","01","08","00:00"
"1986-01-08 01:00","1986","01","08","01:00"
"1986-01-08 02:00","1986","01","08","02:00"
"1986-01-08 03:00","1986","01","08","03:00"
"1986-01-08 04:00","1986","01","08","04:00"
"1986-01-08 05:00","1986","01","08","05:00"
"1986-01-08 06:00","1986","01","08","06:00","7.8","","5.8","","87","","17","","15","","8.0","","99.23","","","","","","Rain Showers,Fog"
"1986-01-08 07:00","1986","01","08","07:00","6.2","","5.3","","94","","10","","11","","24.1","","99.54","","","","","","Mainly Clear"
"1986-01-08 08:00","1986","01","08","08:00","4.0","","3.6","","97","","","","0","","24.1","","99.77","","","","","","Mainly Clear"
"1986-01-08 09:00","1986","01","08","09:00","3.4","","3.1","","98","","","","0","","24.1","","100.14","","","","","","Mainly Clear"
"1986-01-08 10:00","1986","01","08","10:00","3.8","","3.5","","98","","","","0","","24.1","","100.41","","","","","","Mostly Cloudy"
"1986-01-08 11:00","1986","01","08","11:00","6.7","","5.4","","91","","","","0","","24.1","","100.61","","","","","","Mostly Cloudy"
"1986-01-08 12:00","1986","01","08","12:00","6.9","","6.6","","98","","","","0","","24.1","","100.71","","","","","","Mostly Cloudy"
"1986-01-08 13:00","1986","01","08","13:00","7.5","","5.4","","86","","35","","6","","24.1","","100.78","","","","","","Cloudy"
"1986-01-08 14:00","1986","01","08","14:00","8.0","","5.7","","86","","","","0","","24.1","","100.81","","","","","","Mostly Cloudy"
"1986-01-08 15:00","1986","01","08","15:00","7.8","","6.3","","90","","","","0","","24.1","","100.84","","","","","","Mostly Cloudy"
"1986-01-08 16:00","1986","01","08","16:00","6.6","","4.2","","85","","11","","7","","24.1","","100.84","","","","","","Cloudy"
"1986-01-08 17:00","1986","01","08","17:00","5.8","","3.1","","83","","15","","4","","24.1","","100.84","","","","","","Cloudy"
"1986-01-08 18:00","1986","01","08","18:00","4.4","","3.6","","95","","","","0","","24.1","","100.81","","","","","","Cloudy"
"1986-01-08 19:00","1986","01","08","19:00","3.5","","3.2","","98","","9","","6","","24.1","","100.84","","","","","","Mostly Cloudy"
"1986-01-08 20:00","1986","01","08","20:00","4.4","","2.6","","88","","12","","9","","24.1","","100.84","","","","","","Mostly Cloudy"
"1986-01-08 21:00","1986","01","08","21:00","2.4","","1.3","","92","","","","0","","24.1","","100.84","","","","","","Mostly Cloudy"
"1986-01-08 22:00","1986","01","08","22:00","","","","","","","","","0","","","","","","","","","","NA"
"1986-01-08 23:00","1986","01","08","23:00","","","","","","","13","","7","","","","","","","","","","NA"
"1986-01-09 00:00","1986","01","09","00:00","","","","","","","13","","11","","","","","","","","","","NA"
"1986-01-09 01:00","1986","01","09","01:00","","","","","","","13","","11","","","","","","","","","","NA"
"1986-01-09 02:00","1986","01","09","02:00","","","","","","","13","","15","","","","","","","","","","NA"
"1986-01-09 03:00","1986","01","09","03:00","","","","","","","13","","15","","","","","","","","","","NA"
"1986-01-09 04:00","1986","01","09","04:00","","","","","","","13","","15","","","","","","","","","","NA"
"1986-01-09 05:00","1986","01","09","05:00","","","","","","","13","","24","","","","","","","","","","NA"
"1986-01-09 06:00","1986","01","09","06:00","5.8","","4.5","","91","","13","","22","","9.7","","100.74","","","","","","Rain,Fog"
"1986-01-09 07:00","1986","01","09","07:00","5.6","","4.4","","92","","12","","22","","9.7","","100.71","","","","","","Rain,Fog"
"1986-01-09 08:00","1986","01","09","08:00","5.8","","5.2","","96","","13","","24","","6.4","","100.74","","","","","","Rain,Fog"
"1986-01-09 09:00","1986","01","09","09:00","6.0","","5.2","","95","","13","","28","","8.0","","100.78","","","","","","Rain,Fog"
"1986-01-09 10:00","1986","01","09","10:00","6.1","","5.1","","93","","14","","24","","9.7","","100.74","","","","","","Rain,Fog"
"1986-01-09 11:00","1986","01","09","11:00","6.3","","5.3","","93","","14","","31","","9.7","","100.71","","","","","","Rain,Fog"
"1986-01-09 12:00","1986","01","09","12:00","6.4","","5.4","","93","","15","","28","","9.7","","100.68","","","","","","Rain,Fog"
"1986-01-09 13:00","1986","01","09","13:00","6.6","","6.0","","96","","16","","28","","9.7","","100.64","","","","","","Rain,Fog"
"1986-01-09 14:00","1986","01","09","14:00","6.7","","5.6","","93","","13","","31","","9.7","","100.54","","","","","","Rain,Fog"
"1986-01-09 15:00","1986","01","09","15:00","6.8","","5.8","","93","","13","","31","","9.7","","100.54","","","","","","Rain,Fog"
"1986-01-09 16:00","1986","01","09","16:00","7.0","","5.9","","93","","13","","26","","9.7","","100.44","","","","","","Rain,Fog"
"1986-01-09 17:00","1986","01","09","17:00","7.0","","6.1","","94","","14","","26","","9.7","","100.41","","","","","","Rain,Fog"
"1986-01-09 18:00","1986","01","09","18:00","7.1","","6.2","","94","","14","","30","","9.7","","100.34","","","","","","Rain,Fog"
"1986-01-09 19:00","1986","01","09","19:00","7.3","","6.4","","94","","13","","28","","9.7","","100.24","","","","","","Rain,Fog"
"1986-01-09 20:00","1986","01","09","20:00","7.4","","6.7","","96","","13","","26","","9.7","","100.21","","","","","","Rain,Fog"
"1986-01-09 21:00","1986","01","09","21:00","7.6","","7.1","","97","","14","","30","","9.7","","100.11","","","","","","Rain,Fog"
"1986-01-09 22:00","1986","01","09","22:00","","","","","","","13","","31","","","","","","","","","","NA"
"1986-01-09 23:00","1986","01","09","23:00","","","","","","","13","","26","","","","","","","","","","NA"
"1986-01-10 00:00","1986","01","10","00:00","","","","","","","13","","37","","","","","","","","","","NA"
"1986-01-10 01:00","1986","01","10","01:00","","","","","","","13","","33","","","","","","","","","","NA"
"1986-01-10 02:00","1986","01","10","02:00","","","","","","","13","","33","","","","","","","","","","NA"
"1986-01-10 03:00","1986","01","10","03:00","","","","","","","13","","33","","","","","","","","","","NA"
"1986-01-10 04:00","1986","01","10","04:00","","","","","","","13","","30","","","","","","","","","","NA"
"1986-01-10 05:00","1986","01","10","05:00","","","","","","","12","","33","","","","","","","","","","NA"
"1986-01-10 06:00","1986","01","10","06:00","11.0","","4.5","","64","","14","","28","","19.3","","99.64","","","","","","Mostly Cloudy"
"1986-01-10 07:00","1986","01","10","07:00","10.5","","4.9","","68","","12","","22","","19.3","","99.57","","","","","","Mostly Cloudy"
"1986-01-10 08:00","1986","01","10","08:00","9.8","","5.4","","74","","12","","20","","12.9","","99.57","","","","","","Rain"
"1986-01-10 09:00","1986","01","10","09:00","8.4","","6.4","","87","","12","","15","","11.3","","99.54","","","","","","Rain"
"1986-01-10 10:00","1986","01","10","10:00","8.7","","6.8","","88","","14","","26","","11.3","","99.50","","","","","","Rain Showers"
"1986-01-10 11:00","1986","01","10","11:00","8.4","","6.9","","90","","14","","24","","11.3","","99.50","","","","","","Rain Showers"
"1986-01-10 12:00","1986","01","10","12:00","8.3","","7.5","","95","","13","","22","","11.3","","99.37","","","","","","Rain Showers"
"1986-01-10 13:00","1986","01","10","13:00","8.2","","7.5","","95","","13","","19","","11.3","","99.33","","","","","","Rain Showers"
"1986-01-10 14:00","1986","01","10","14:00","8.0","","7.5","","97","","13","","24","","6.4","","99.20","","","","","","Rain,Fog"
"1986-01-10 15:00","1986","01","10","15:00","7.8","","7.4","","97","","13","","20","","6.4","","99.30","","","","","","Moderate Rain,Fog"
"1986-01-10 16:00","1986","01","10","16:00","7.9","","7.5","","97","","14","","13","","4.8","","99.33","","","","","","Rain,Fog"
"1986-01-10 17:00","1986","01","10","17:00","7.8","","7.5","","98","","14","","13","","8.0","","99.44","","","","","","Rain,Fog"
"1986-01-10 18:00","1986","01","10","18:00","7.6","","7.4","","98","","30","","7","","16.1","","99.60","","","","","","Cloudy"
"1986-01-10 19:00","1986","01","10","19:00","6.0","","5.9","","99","","30","","6","","24.1","","99.90","","","","","","Mostly Cloudy"
"1986-01-10 20:00","1986","01","10","20:00","5.7","","4.7","","93","","32","","19","","24.1","","100.24","","","","","","Mainly Clear"
"1986-01-10 21:00","1986","01","10","21:00","5.0","","3.8","","92","","30","","15","","24.1","","100.51","","","","","","Mostly Cloudy"
"1986-01-10 22:00","1986","01","10","22:00","","","","","","","31","","11","","","","","","","","","","NA"
"1986-01-10 23:00","1986","01","10","23:00","","","","","","","","","0","","","","","","","","","","NA"
"1986-01-11 00:00","1986","01","11","00:00","","","","","","","31","","4","","","","","","","","","","NA"
"1986-01-11 01:00","1986","01","11","01:00","","","","","","","29","","4","","","","","","","","","","NA"
"1986-01-11 02:00","1986","01","11","02:00","","","","","","","29","","4","","","","","","","","","","NA"
"1986-01-11 03:00","1986","01","11","03:00","","","","","","","30","","11","","","","","","","","","","NA"
"1986-01-11 04:00","1986","01","11","04:00","","","","","","","","","0","","","","","","","","","","NA"
"1986-01-11 05:00","1986","01","11","05:00","","","","","","","32","","7","","","","","","","","","","NA"
"1986-01-11 06:00","1986","01","11","06:00","2.0","","1.9","","99","","33","","4","","3.2","","101.38","","","","","","Fog"
"1986-01-11 07:00","1986","01","11","07:00","2.4","","2.2","","99","","29","","4","","3.2","","101.41","","","","","","Fog"
"1986-01-11 08:00","1986","01","11","08:00","2.9","","2.9","","100","","","","0","","2.4","","101.48","","","","","","Fog"
"1986-01-11 09:00","1986","01","11","09:00","3.0","","3.0","","100","","","","0","","1.6","","101.58","","","","","","Fog"
"1986-01-11 10:00","1986","01","11","10:00","4.9","","4.7","","99","","13","","19","","24.1","","101.58","","","","","","Mostly Cloudy"
"1986-01-11 11:00","1986","01","11","11:00","6.5","","5.3","","92","","12","","19","","24.1","","101.58","","","","","","Mostly Cloudy"
"1986-01-11 12:00","1986","01","11","12:00","7.5","","5.5","","87","","12","","15","","24.1","","101.55","","","","","","Mostly Cloudy"
"1986-01-11 13:00","1986","01","11","13:00","6.8","","5.5","","92","","11","","9","","24.1","","101.48","","","","","","Cloudy"
"1986-01-11 14:00","1986","01","11","14:00","7.5","","5.4","","86","","13","","15","","24.1","","101.35","","","","","","Mostly Cloudy"
"1986-01-11 15:00","1986","01","11","15:00","7.7","","5.5","","86","","11","","9","","24.1","","101.28","","","","","","Mostly Cloudy"
"1986-01-11 16:00","1986","01","11","16:00","6.7","","5.4","","91","","10","","13","","24.1","","101.25","","","","","","Mostly Cloudy"
"1986-01-11 17:00","1986","01","11","17:00","4.5","","4.2","","98","","","","0","","24.1","","101.18","","","","","","Mostly Cloudy"
"1986-01-11 18:00","1986","01","11","18:00","2.9","","2.6","","98","","","","0","","24.1","","101.11","","","","","","Mostly Cloudy"
"1986-01-11 19:00","1986","01","11","19:00","2.5","","2.3","","98","","15","","4","","24.1","","101.04","","","","","","Mostly Cloudy"
"1986-01-11 20:00","1986","01","11","20:00","2.0","","1.9","","99","","","","0","","24.1","","101.04","","","","","","Mostly Cloudy"
"1986-01-11 21:00","1986","01","11","21:00","1.9","","1.7","","99","","","","0","","1.6","","100.98","","","","","","Fog"
"1986-01-11 22:00","1986","01","11","22:00","","","","","","","","","0","","","","","","","","","","NA"
"1986-01-11 23:00","1986","01","11","23:00","","","","","","","30","","7","","","","","","","","","","NA"
"1986-01-12 00:00","1986","01","12","00:00","","","","","","","31","","4","","","","","","","","","","NA"
"1986-01-12 01:00","1986","01","12","01:00","","","","","","","","","0","","","","","","","","","","NA"
"1986-01-12 02:00","1986","01","12","02:00","","","","","","","","","0","","","","","","","","","","NA"
"1986-01-12 03:00","1986","01","12","03:00","","","","","","","11","","7","","","","","","","","","","NA"
"1986-01-12 04:00","1986","01","12","04:00","","","","","","","11","","15","","","","","","","","","","NA"
"1986-01-12 05:00","1986","01","12","05:00","","","","","","","2","","7","","","","","","","","","","NA"
"1986-01-12 06:00","1986","01","12","06:00","4.8","","4.1","","95","","","","0","","24.1","","100.68","","","","","","Mostly Cloudy"
"1986-01-12 07:00","1986","01","12","07:00","3.7","","3.6","","99","","","","0","","12.9","","100.68","","","","","","Mostly Cloudy"
"1986-01-12 08:00","1986","01","12","08:00","2.9","","2.7","","99","","","","0","","9.7","","100.68","","","","","","Fog"
"1986-01-12 09:00","1986","01","12","09:00","2.8","","2.6","","99","","","","0","","12.9","","100.64","","","","","","Mostly Cloudy"
"1986-01-12 10:00","1986","01","12","10:00","6.7","","5.7","","93","","10","","4","","24.1","","100.64","","","","","","Mostly Cloudy"
"1986-01-12 11:00","1986","01","12","11:00","8.6","","5.4","","80","","11","","9","","24.1","","100.58","","","","","","Mostly Cloudy"
"1986-01-12 12:00","1986","01","12","12:00","7.8","","4.8","","81","","6","","11","","24.1","","100.51","","","","","","Mostly Cloudy"
"1986-01-12 13:00","1986","01","12","13:00","7.6","","4.6","","81","","","","0","","24.1","","100.44","","","","","","Mostly Cloudy"
"1986-01-12 14:00","1986","01","12","14:00","8.3","","3.5","","72","","11","","15","","24.1","","100.31","","","","","","Mostly Cloudy"
"1986-01-12 15:00","1986","01","12","15:00","8.0","","2.8","","70","","12","","9","","24.1","","100.24","","","","","","Cloudy"
"1986-01-12 16:00","1986","01","12","16:00","6.8","","3.0","","77","","14","","7","","24.1","","100.27","","","","","","Cloudy"
"1986-01-12 17:00","1986","01","12","17:00","5.3","","3.2","","87","","","","0","","24.1","","100.21","","","","","","Cloudy"
"1986-01-12 18:00","1986","01","12","18:00","3.6","","3.1","","97","","","","0","","24.1","","100.11","","","","","","Cloudy"
"1986-01-12 19:00","1986","01","12","19:00","2.1","","1.7","","97","","","","0","","24.1","","100.04","","","","","","Mostly Cloudy"
"1986-01-12 20:00","1986","01","12","20:00","1.1","","0.8","","98","","","","0","","24.1","","100.01","","","","","","Cloudy"
"1986-01-12 21:00","1986","01","12","21:00","0.8","","0.5","","98","","","","0","","24.1","","100.01","","","","","","Mostly Cloudy"
"1986-01-12 22:00","1986","01","12","22:00","","","","","","","13","","9","","","","","","","","","","NA"
"1986-01-12 23:00","1986","01","12","23:00","","","","","","","11","","6","","","","","","","","","","NA"
"1986-01-13 00:00","1986","01","13","00:00","","","","","","","10","","6","","","","","","","","","","NA"
"1986-01-13 01:00","1986","01","13","01:00","","","","","","","10","","4","","","","","","","","","","NA"
"1986-01-13 02:00","1986","01","13","02:00","","","","","","","8","","11","","","","","","","","","","NA"
"1986-01-13 03:00","1986","01","13","03:00","","","","","","","5","","7","","","","","","","","","","NA"
"1986-01-13 04:00","1986","01","13","04:00","","","","","","","12","","11","","","","","","","","","","NA"
"1986-01-13 05:00","1986","01","13","05:00","","","","","","","12","","4","","","","","","","","","","NA"
"1986-01-13 06:00","1986","01","13","06:00","5.9","","3.7","","86","","9","","15","","24.1","","99.37","","","","","","Cloudy"
"1986-01-13 07:00","1986","01","13","07:00","5.7","","3.0","","83","","31","","7","","24.1","","99.40","","","","","","Cloudy"
"1986-01-13 08:00","1986","01","13","08:00","7.7","","3.1","","73","","12","","15","","24.1","","99.40","","","","","","Mostly Cloudy"
"1986-01-13 09:00","1986","01","13","09:00","7.9","","3.5","","74","","10","","15","","19.3","","99.40","","","","","","Rain Showers"
"1986-01-13 10:00","1986","01","13","10:00","9.4","","3.0","","64","","12","","31","","19.3","","99.40","","","","","","Cloudy"
"1986-01-13 11:00","1986","01","13","11:00","10.9","","4.6","","65","","11","","26","","19.3","","99.44","","","","","","Rain"
"1986-01-13 12:00","1986","01","13","12:00","10.5","","6.3","","75","","13","","22","","19.3","","99.40","","","","","","Rain"
"1986-01-13 13:00","1986","01","13","13:00","10.5","","7.2","","80","","12","","24","","19.3","","99.44","","","","","","Mostly Cloudy"
"1986-01-13 14:00","1986","01","13","14:00","11.0","","7.4","","78","","13","","19","","24.1","","99.40","","","","","","Mostly Cloudy"
"1986-01-13 15:00","1986","01","13","15:00","9.6","","7.2","","85","","13","","30","","19.3","","99.50","","","","","","Rain Showers"
"1986-01-13 16:00","1986","01","13","16:00","8.2","","7.4","","94","","12","","20","","16.1","","99.54","","","","","","Rain"
"1986-01-13 17:00","1986","01","13","17:00","8.3","","7.8","","97","","12","","17","","16.1","","99.57","","","","","","Rain"
"1986-01-13 18:00","1986","01","13","18:00","7.9","","7.0","","94","","13","","22","","16.1","","99.60","","","","","","Rain"
"1986-01-13 19:00","1986","01","13","19:00","8.0","","6.8","","92","","15","","26","","24.1","","99.74","","","","","","Rain"
"1986-01-13 20:00","1986","01","13","20:00","7.6","","6.6","","93","","14","","20","","24.1","","99.80","","","","","","Mainly Clear"
"1986-01-13 21:00","1986","01","13","21:00","7.8","","5.4","","85","","14","","22","","24.1","","99.90","","","","","","Mostly Cloudy"
"1986-01-13 22:00","1986","01","13","22:00","","","","","","","14","","13","","","","","","","","","","NA"
"1986-01-13 23:00","1986","01","13","23:00","","","","","","","13","","6","","","","","","","","","","NA"
"1986-01-14 00:00","1986","01","14","00:00","","","","","","","15","","9","","","","","","","","","","NA"
"1986-01-14 01:00","1986","01","14","01:00","","","","","","","16","","9","","","","","","","","","","NA"
"1986-01-14 02:00","1986","01","14","02:00","","","","","","","","","0","","","","","","","","","","NA"
"1986-01-14 03:00","1986","01","14","03:00","","","","","","","13","","9","","","","","","","","","","NA"
"1986-01-14 04:00","1986","01","14","04:00","","","","","","","12","","17","","","","","","","","","","NA"
"1986-01-14 05:00","1986","01","14","05:00","","","","","","","15","","9","","","","","","","","","","NA"
"1986-01-14 06:00","1986","01","14","06:00","5.8","","5.2","","96","","11","","11","","24.1","","100.24","","","","","","Cloudy"
"1986-01-14 07:00","1986","01","14","07:00","5.8","","5.2","","96","","11","","7","","24.1","","100.17","","","","","","Cloudy"
"1986-01-14 08:00","1986","01","14","08:00","4.4","","4.3","","99","","","","0","","24.1","","100.11","","","","","","Cloudy"
"1986-01-14 09:00","1986","01","14","09:00","2.6","","2.4","","98","","","","0","","24.1","","100.07","","","","","","Mostly Cloudy"
"1986-01-14 10:00","1986","01","14","10:00","3.6","","3.6","","100","","","","0","","24.1","","100.01","","","","","","Cloudy"
"1986-01-14 11:00","1986","01","14","11:00","4.5","","4.5","","100","","","","0","","24.1","","99.84","","","","","","Cloudy"
"1986-01-14 12:00","1986","01","14","12:00","6.5","","6.3","","98","","","","0","","24.1","","99.74","","","","","","Cloudy"
"1986-01-14 13:00","1986","01","14","13:00","7.5","","6.6","","94","","30","","9","","24.1","","99.54","","","","","","Cloudy"
"1986-01-14 14:00","1986","01","14","14:00","8.2","","6.6","","90","","","","0","","24.1","","99.44","","","","","","Cloudy"
"1986-01-14 15:00","1986","01","14","15:00","8.0","","6.6","","91","","","","0","","24.1","","99.37","","","","","","Cloudy"
"1986-01-14 16:00","1986","01","14","16:00","7.0","","6.4","","96","","","","0","","24.1","","99.30","","","","","","Cloudy"
"1986-01-14 17:00","1986","01","14","17:00","6.1","","5.8","","98","","","","0","","24.1","","99.27","","","","","","Cloudy"
"1986-01-14 18:00","1986","01","14","18:00","5.6","","5.4","","98","","","","0","","24.1","","99.27","","","","","","Cloudy"
"1986-01-14 19:00","1986","01","14","19:00","5.3","","5.2","","100","","","","0","","16.1","","99.27","","","","","","Rain"
"1986-01-14 20:00","1986","01","14","20:00","4.9","","4.7","","99","","31","","6","","12.9","","99.27","","","","","","Rain"
"1986-01-14 21:00","1986","01","14","21:00","4.8","","4.7","","100","","","","0","","12.9","","99.27","","","","","","Rain"
"1986-01-14 22:00","1986","01","14","22:00","","","","","","","","","0","","","","","","","","","","NA"
"1986-01-14 23:00","1986","01","14","23:00","","","","","","","","","0","","","","","","","","","","NA"
"1986-01-15 00:00","1986","01","15","00:00","","","","","","","","","0","","","","","","","","","","NA"
"1986-01-15 01:00","1986","01","15","01:00","","","","","","","","","0","","","","","","","","","","NA"
"1986-01-15 02:00","1986","01","15","02:00","","","","","","","","","0","","","","","","","","","","NA"
"1986-01-15 03:00","1986","01","15","03:00","","","","","","","","","0","","","","","","","","","","NA"
"1986-01-15 04:00","1986","01","15","04:00","","","","","","","","","0","","","","","","","","","","NA"
"1986-01-15 05:00","1986","01","15","05:00","","","","","","","","","0","","","","","","","","","","NA"
"1986-01-15 06:00","1986","01","15","06:00","5.3","","3.7","","90","","","","0","","4.0","","99.10","","","","","","Rain,Fog"
"1986-01-15 07:00","1986","01","15","07:00","5.5","","5.1","","97","","","","0","","3.2","","99.10","","","","","","Rain,Fog"
"1986-01-15 08:00","1986","01","15","08:00","5.3","","5.3","","100","","","","0","","2.0","","99.13","","","","","","Rain,Fog"
"1986-01-15 09:00","1986","01","15","09:00","5.3","","5.1","","99","","","","0","","2.0","","99.17","","","","","","Rain,Fog"
"1986-01-15 10:00","1986","01","15","10:00","5.4","","5.4","","100","","11","","4","","2.0","","99.20","","","","","","Rain,Fog"
"1986-01-15 11:00","1986","01","15","11:00","5.7","","5.7","","100","","11","","7","","2.4","","99.20","","","","","","Fog"
"1986-01-15 12:00","1986","01","15","12:00","5.7","","5.5","","98","","11","","4","","2.4","","99.13","","","","","","Rain Showers,Fog"
"1986-01-15 13:00","1986","01","15","13:00","5.5","","5.3","","98","","","","0","","3.2","","99.10","","","","","","Rain Showers,Fog"
"1986-01-15 14:00","1986","01","15","14:00","5.8","","5.6","","99","","11","","15","","3.2","","99.07","","","","","","Rain,Fog"
"1986-01-15 15:00","1986","01","15","15:00","5.8","","5.4","","97","","11","","15","","3.2","","99.03","","","","","","Rain,Fog"
"1986-01-15 16:00","1986","01","15","16:00","5.9","","5.7","","99","","13","","15","","2.4","","99.00","","","","","","Rain,Fog"
"1986-01-15 17:00","1986","01","15","17:00","6.1","","5.7","","97","","13","","28","","2.4","","98.93","","","","","","Rain,Fog"
"1986-01-15 18:00","1986","01","15","18:00","6.3","","6.0","","98","","12","","24","","2.4","","98.90","","","","","","Rain,Fog"
"1986-01-15 19:00","1986","01","15","19:00","6.4","","6.2","","99","","13","","30","","2.4","","98.80","","","","","","Rain,Fog"
"1986-01-15 20:00","1986","01","15","20:00","6.1","","6.0","","99","","12","","24","","2.4","","98.76","","","","","","Rain,Fog"
"1986-01-15 21:00","1986","01","15","21:00","6.0","","5.7","","98","","12","","19","","2.4","","98.66","","","","","","Rain,Fog"
"1986-01-15 22:00","1986","01","15","22:00","","","","","","","12","","28","","","","","","","","","","NA"
"1986-01-15 23:00","1986","01","15","23:00","","","","","","","13","","26","","","","","","","","","","NA"
"1986-01-16 00:00","1986","01","16","00:00","","","","","","","11","","24","","","","","","","","","","NA"
"1986-01-16 01:00","1986","01","16","01:00","","","","","","","14","","26","","","","","","","","","","NA"
"1986-01-16 02:00","1986","01","16","02:00","","","","","","","12","","15","","","","","","","","","","NA"
"1986-01-16 03:00","1986","01","16","03:00","","","","","","","14","","19","","","","","","","","","","NA"
"1986-01-16 04:00","1986","01","16","04:00","","","","","","","12","","9","","","","","","","","","","NA"
"1986-01-16 05:00","1986","01","16","05:00","","","","","","","","","0","","","","","","","","","","NA"
"1986-01-16 06:00","1986","01","16","06:00","2.0","","2.0","","100","","","","0","","24.1","","99.03","","","","","","Mainly Clear"
"1986-01-16 07:00","1986","01","16","07:00","2.8","","2.6","","99","","","","0","","24.1","","99.03","","","","","","Mainly Clear"
"1986-01-16 08:00","1986","01","16","08:00","5.5","","5.4","","99","","13","","19","","24.1","","99.07","","","","","","Mostly Cloudy"
"1986-01-16 09:00","1986","01","16","09:00","3.4","","3.3","","99","","13","","19","","24.1","","99.07","","","","","","Cloudy"
"1986-01-16 10:00","1986","01","16","10:00","6.6","","5.6","","93","","13","","19","","16.1","","99.07","","","","","","Cloudy"
"1986-01-16 11:00","1986","01","16","11:00","6.8","","5.7","","93","","12","","19","","19.3","","99.07","","","","","","Cloudy"
"1986-01-16 12:00","1986","01","16","12:00","6.6","","4.7","","88","","13","","19","","12.9","","98.90","","","","","","Rain"
"1986-01-16 13:00","1986","01","16","13:00","5.4","","4.8","","96","","12","","7","","6.4","","98.70","","","","","","Moderate Rain,Fog"
"1986-01-16 14:00","1986","01","16","14:00","5.1","","4.4","","95","","11","","15","","9.7","","98.43","","","","","","Rain,Fog"
"1986-01-16 15:00","1986","01","16","15:00","5.2","","4.5","","95","","12","","13","","8.0","","98.29","","","","","","Rain,Fog"
"1986-01-16 16:00","1986","01","16","16:00","4.5","","3.6","","94","","16","","9","","8.0","","98.23","","","","","","Rain,Fog"
"1986-01-16 17:00","1986","01","16","17:00","4.3","","3.9","","97","","","","0","","8.0","","98.13","","","","","","Rain,Fog"
"1986-01-16 18:00","1986","01","16","18:00","4.8","","4.4","","97","","36","","15","","4.8","","98.09","","","","","","Heavy Rain,Fog"
"1986-01-16 19:00","1986","01","16","19:00","5.3","","4.5","","95","","15","","4","","8.0","","98.13","","","","","","Rain,Fog"
"1986-01-16 20:00","1986","01","16","20:00","4.6","","4.1","","97","","25","","4","","9.7","","98.16","","","","","","Rain,Fog"
"1986-01-16 21:00","1986","01","16","21:00","4.2","","3.9","","98","","33","","4","","16.1","","98.29","","","","","","Cloudy"
"1986-01-16 22:00","1986","01","16","22:00","","","","","","","33","","6","","","","","","","","","","NA"
"1986-01-16 23:00","1986","01","16","23:00","","","","","","","","","0","","","","","","","","","","NA"
"1986-01-17 00:00","1986","01","17","00:00","","","","","","","33","","4","","","","","","","","","","NA"
"1986-01-17 01:00","1986","01","17","01:00","","","","","","","","","0","","","","","","","","","","NA"
"1986-01-17 02:00","1986","01","17","02:00","","","","","","","","","0","","","","","","","","","","NA"
"1986-01-17 03:00","1986","01","17","03:00","","","","","","","","","0","","","","","","","","","","NA"
"1986-01-17 04:00","1986","01","17","04:00","","","","","","","30","","4","","","","","","","","","","NA"
"1986-01-17 05:00","1986","01","17","05:00","","","","","","","","","0","","","","","","","","","","NA"
"1986-01-17 06:00","1986","01","17","06:00","2.4","","2.1","","98","","","","0","","24.1","","99.90","","","","","","Cloudy"
"1986-01-17 07:00","1986","01","17","07:00","1.9","","1.6","","98","","","","0","","24.1","","100.01","","","","","","Mostly Cloudy"
"1986-01-17 08:00","1986","01","17","08:00","1.5","","1.3","","98","","","","0","","24.1","","100.21","","","","","","Mostly Cloudy"
"1986-01-17 09:00","1986","01","17","09:00","2.2","","1.8","","97","","30","","4","","24.1","","100.37","","","","","","Mostly Cloudy"
"1986-01-17 10:00","1986","01","17","10:00","3.2","","3.0","","98","","","","0","","24.1","","100.51","","","","","","Mostly Cloudy"
"1986-01-17 11:00","1986","01","17","11:00","5.8","","5.1","","95","","","","0","","24.1","","100.64","","","","","","Mostly Cloudy"
"1986-01-17 12:00","1986","01","17","12:00","6.6","","5.4","","92","","","","0","","24.1","","100.71","","","","","","Mostly Cloudy"
"1986-01-17 13:00","1986","01","17","13:00","7.2","","6.1","","93","","14","","7","","24.1","","100.74","","","","","","Mostly Cloudy"
"1986-01-17 14:00","1986","01","17","14:00","7.0","","6.0","","93","","12","","4","","19.3","","100.61","","","","","","Cloudy"
"1986-01-17 15:00","1986","01","17","15:00","6.0","","5.5","","97","","","","0","","24.1","","100.64","","","","","","Cloudy"
"1986-01-17 16:00","1986","01","17","16:00","5.9","","3.0","","82","","14","","15","","24.1","","100.58","","","","","","Cloudy"
"1986-01-17 17:00","1986","01","17","17:00","6.0","","2.3","","77","","12","","19","","19.3","","100.41","","","","","","Cloudy"
"1986-01-17 18:00","1986","01","17","18:00","6.4","","3.7","","83","","13","","22","","19.3","","100.24","","","","","","Rain"
"1986-01-17 19:00","1986","01","17","19:00","4.2","","3.0","","92","","12","","28","","12.9","","100.14","","","","","","Rain"
"1986-01-17 20:00","1986","01","17","20:00","1.8","","1.1","","95","","14","","26","","9.7","","100.04","","","","","","Rain"
"1986-01-17 21:00","1986","01","17","21:00","1.5","","1.0","","96","","13","","19","","4.8","","99.87","","","","","","Rain,Snow"
"1986-01-17 22:00","1986","01","17","22:00","","","","","","","13","","33","","","","","","","","","","NA"
"1986-01-17 23:00","1986","01","17","23:00","","","","","","","13","","30","","","","","","","","","","NA"
"1986-01-18 00:00","1986","01","18","00:00","","","","","","","13","","22","","","","","","","","","","NA"
"1986-01-18 01:00","1986","01","18","01:00","","","","","","","12","","19","","","","","","","","","","NA"
"1986-01-18 02:00","1986","01","18","02:00","","","","","","","13","","19","","","","","","","","","","NA"
"1986-01-18 03:00","1986","01","18","03:00","","","","","","","13","","19","","","","","","","","","","NA"
"1986-01-18 04:00","1986","01","18","04:00","","","","","","","14","","11","","","","","","","","","","NA"
"1986-01-18 05:00","1986","01","18","05:00","","","","","","","14","","7","","","","","","","","","","NA"
"1986-01-18 06:00","1986","01","18","06:00","1.2","","1.0","","98","","","","0","","3.2","","98.70","","","","","","Rain,Fog"
"1986-01-18 07:00","1986","01","18","07:00","1.7","","1.5","","98","","31","","6","","3.2","","98.70","","","","","","Rain,Fog"
"1986-01-18 08:00","1986","01","18","08:00","1.8","","1.5","","98","","31","","4","","4.8","","98.70","","","","","","Rain,Fog"
"1986-01-18 09:00","1986","01","18","09:00","1.8","","1.5","","98","","31","","9","","4.8","","98.73","","","","","","Rain,Fog"
"1986-01-18 10:00","1986","01","18","10:00","2.1","","1.7","","97","","32","","4","","4.8","","98.80","","","","","","Rain,Fog"
"1986-01-18 11:00","1986","01","18","11:00","2.4","","1.8","","96","","31","","6","","4.8","","98.83","","","","","","Rain,Fog"
"1986-01-18 12:00","1986","01","18","12:00","3.0","","2.4","","96","","32","","7","","3.2","","98.80","","","","","","Rain,Fog"
"1986-01-18 13:00","1986","01","18","13:00","3.6","","3.3","","98","","","","0","","3.2","","98.76","","","","","","Rain,Fog"
"1986-01-18 14:00","1986","01","18","14:00","3.7","","3.5","","98","","31","","9","","3.2","","98.76","","","","","","Rain,Fog"
"1986-01-18 15:00","1986","01","18","15:00","4.3","","4.2","","100","","","","0","","3.2","","98.76","","","","","","Rain,Fog"
"1986-01-18 16:00","1986","01","18","16:00","8.3","","8.1","","99","","14","","19","","4.0","","98.70","","","","","","Rain,Fog"
"1986-01-18 17:00","1986","01","18","17:00","8.7","","8.7","","100","","14","","22","","4.0","","98.66","","","","","","Rain,Fog"
"1986-01-18 18:00","1986","01","18","18:00","9.0","","8.6","","97","","12","","19","","3.2","","98.63","","","","","","Rain,Fog"
"1986-01-18 19:00","1986","01","18","19:00","8.5","","8.4","","99","","11","","22","","1.6","","98.60","","","","","","Rain,Fog"
"1986-01-18 20:00","1986","01","18","20:00","8.4","","8.3","","99","","13","","22","","1.6","","98.56","","","","","","Rain,Fog"
"1986-01-18 21:00","1986","01","18","21:00","8.5","","8.3","","99","","11","","19","","1.6","","98.50","","","","","","Rain,Fog"
"1986-01-18 22:00","1986","01","18","22:00","","","","","","","12","","30","","","","","","","","","","NA"
"1986-01-18 23:00","1986","01","18","23:00","","","","","","","11","","22","","","","","","","","","","NA"
"1986-01-19 00:00","1986","01","19","00:00","","","","","","","13","","13","","","","","","","","","","NA"
"1986-01-19 01:00","1986","01","19","01:00","","","","","","","27","","2","","","","","","","","","","NA"
"1986-01-19 02:00","1986","01","19","02:00","","","","","","","31","","15","","","","","","","","","","NA"
"1986-01-19 03:00","1986","01","19","03:00","","","","","","","31","","22","","","","","","","","","","NA"
"1986-01-19 04:00","1986","01","19","04:00","","","","","","","31","","13","","","","","","","","","","NA"
"1986-01-19 05:00","1986","01","19","05:00","","","","","","","31","","19","","","","","","","","","","NA"
"1986-01-19 06:00","1986","01","19","06:00","4.8","","3.0","","88","","33","","15","","19.3","","99.80","","","","","","Mostly Cloudy"
"1986-01-19 07:00","1986","01","19","07:00","4.8","","2.5","","85","","31","","22","","19.3","","99.90","","","","","","Mostly Cloudy"
"1986-01-19 08:00","1986","01","19","08:00","3.7","","2.5","","92","","28","","7","","19.3","","100.04","","","","","","Mostly Cloudy"
"1986-01-19 09:00","1986","01","19","09:00","3.7","","3.1","","96","","","","0","","19.3","","100.14","","","","","","Mostly Cloudy"
"1986-01-19 10:00","1986","01","19","10:00","5.1","","2.2","","82","","","","0","","19.3","","100.27","","","","","","Mostly Cloudy"
"1986-01-19 11:00","1986","01","19","11:00","5.9","","1.7","","75","","","","0","","19.3","","100.34","","","","","","Mostly Cloudy"
"1986-01-19 12:00","1986","01","19","12:00","6.6","","2.1","","73","","34","","7","","19.3","","100.37","","","","","","Mostly Cloudy"
"1986-01-19 13:00","1986","01","19","13:00","6.6","","1.9","","72","","31","","6","","19.3","","100.34","","","","","","Mostly Cloudy"
"1986-01-19 14:00","1986","01","19","14:00","7.1","","2.1","","70","","29","","7","","19.3","","100.34","","","","","","Mostly Cloudy"
"1986-01-19 15:00","1986","01","19","15:00","7.1","","0.8","","64","","29","","9","","19.3","","100.34","","","","","","Mainly Clear"
"1986-01-19 16:00","1986","01","19","16:00","6.4","","1.9","","73","","29","","6","","19.3","","100.37","","","","","","Mainly Clear"
"1986-01-19 17:00","1986","01","19","17:00","2.6","","1.7","","94","","","","0","","24.1","","100.34","","","","","","Mainly Clear"
"1986-01-19 18:00","1986","01","19","18:00","1.1","","0.6","","96","","","","0","","24.1","","100.37","","","","","","Mainly Clear"
"1986-01-19 19:00","1986","01","19","19:00","0.6","","-0.4","","93","","","","0","","24.1","","100.37","","","","","","Mainly Clear"
"1986-01-19 20:00","1986","01","19","20:00","-0.7","","-1.1","","97","","","","0","","24.1","","100.41","","","","","","Mainly Clear"
"1986-01-19 21:00","1986","01","19","21:00","-1.1","","-1.3","","99","","","","0","","24.1","","100.41","","","","","","Mainly Clear"
"1986-01-19 22:00","1986","01","19","22:00","","","","","","","","","0","","","","","","","","","","NA"
"1986-01-19 23:00","1986","01","19","23:00","","","","","","","","","0","","","","","","","","","","NA"
"1986-01-20 00:00","1986","01","20","00:00","","","","","","","","","0","","","","","","","","","","NA"
"1986-01-20 01:00","1986","01","20","01:00","","","","","","","9","","7","","","","","","","","","","NA"
"1986-01-20 02:00","1986","01","20","02:00","","","","","","","31","","7","","","","","","","","","","NA"
"1986-01-20 03:00","1986","01","20","03:00","","","","","","","","","0","","","","","","","","","","NA"
"1986-01-20 04:00","1986","01","20","04:00","","","","","","","","","0","","","","","","","","","","NA"
"1986-01-20 05:00","1986","01","20","05:00","","","","","","","","","0","","","","","","","","","","NA"
"1986-01-20 06:00","1986","01","20","06:00","-2.5","","-3.0","","96","","32","","4","","24.1","","100.64","","","","-4","","Clear"
"1986-01-20 07:00","1986","01","20","07:00","-3.1","","-3.5","","97","","31","","9","","24.1","","100.64","","","","-7","","Mainly Clear"
"1986-01-20 08:00","1986","01","20","08:00","-3.1","","-3.8","","95","","31","","4","","24.1","","100.68","","","","-5","","Mainly Clear"
"1986-01-20 09:00","1986","01","20","09:00","-3.0","","-3.9","","94","","","","0","","1.6","","100.74","","","","","","Fog"
"1986-01-20 10:00","1986","01","20","10:00","-1.0","","-1.4","","97","","31","","6","","0.8","","100.78","","","","-3","","Fog"
"1986-01-20 11:00","1986","01","20","11:00","-0.2","","-0.3","","100","","27","","4","","24.1","","100.81","","","","-1","","Mostly Cloudy"
"1986-01-20 12:00","1986","01","20","12:00","0.5","","0.2","","98","","","","0","","24.1","","100.78","","","","","","Cloudy"
"1986-01-20 13:00","1986","01","20","13:00","1.5","","1.3","","98","","","","0","","16.1","","100.74","","","","","","Cloudy"
"1986-01-20 14:00","1986","01","20","14:00","2.9","","2.6","","98","","","","0","","16.1","","100.74","","","","","","Mostly Cloudy"
"1986-01-20 15:00","1986","01","20","15:00","3.6","","2.4","","92","","31","","6","","24.1","","100.78","","","","","","Mostly Cloudy"
"1986-01-20 16:00","1986","01","20","16:00","2.8","","2.1","","95","","30","","4","","24.1","","100.81","","","","","","Mostly Cloudy"
"1986-01-20 17:00","1986","01","20","17:00","1.7","","1.2","","96","","","","0","","24.1","","100.81","","","","","","Mostly Cloudy"
"1986-01-20 18:00","1986","01","20","18:00","1.3","","1.0","","98","","","","0","","19.3","","100.84","","","","","","Rain Showers"
"1986-01-20 19:00","1986","01","20","19:00","0.0","","-0.2","","98","","","","0","","16.1","","100.74","","","","","","Mostly Cloudy"
"1986-01-20 20:00","1986","01","20","20:00","-0.6","","-1.0","","97","","","","0","","24.1","","100.78","","","","","","Mostly Cloudy"
"1986-01-20 21:00","1986","01","20","21:00","-0.5","","-0.9","","97","","","","0","","24.1","","100.81","","","","","","Mostly Cloudy"
"1986-01-20 22:00","1986","01","20","22:00","","","","","","","","","0","","","","","","","","","","NA"
"1986-01-20 23:00","1986","01","20","23:00","","","","","","","29","","6","","","","","","","","","","NA"
"1986-01-21 00:00","1986","01","21","00:00","","","","","","","","","0","","","","","","","","","","NA"
"1986-01-21 01:00","1986","01","21","01:00","","","","","","","","","0","","","","","","","","","","NA"
"1986-01-21 02:00","1986","01","21","02:00","","","","","","","","","0","","","","","","","","","","NA"
"1986-01-21 03:00","1986","01","21","03:00","","","","","","","","","0","","","","","","","","","","NA"
"1986-01-21 04:00","1986","01","21","04:00","","","","","","","13","","11","","","","","","","","","","NA"
"1986-01-21 05:00","1986","01","21","05:00","","","","","","","13","","15","","","","","","","","","","NA"
"1986-01-21 06:00","1986","01","21","06:00","2.5","","0.6","","87","","15","","15","","12.9","","100.61","","","","","","Rain Showers"
"1986-01-21 07:00","1986","01","21","07:00","2.2","","1.2","","93","","14","","13","","12.9","","100.51","","","","","","Rain"
"1986-01-21 08:00","1986","01","21","08:00","2.3","","1.5","","95","","12","","13","","4.8","","100.44","","","","","","Rain,Fog"
"1986-01-21 09:00","1986","01","21","09:00","2.8","","2.3","","97","","13","","13","","4.8","","100.41","","","","","","Rain,Fog"
"1986-01-21 10:00","1986","01","21","10:00","3.5","","2.8","","95","","15","","15","","4.8","","100.44","","","","","","Rain,Fog"
"1986-01-21 11:00","1986","01","21","11:00","3.9","","3.3","","96","","14","","22","","8.0","","100.44","","","","","","Rain,Fog"
"1986-01-21 12:00","1986","01","21","12:00","4.7","","3.6","","92","","12","","22","","4.8","","100.37","","","","","","Rain,Fog"
"1986-01-21 13:00","1986","01","21","13:00","4.7","","3.9","","94","","13","","22","","6.4","","100.31","","","","","","Rain,Fog"
"1986-01-21 14:00","1986","01","21","14:00","4.7","","4.2","","97","","12","","22","","6.4","","100.27","","","","","","Rain,Fog"
"1986-01-21 15:00","1986","01","21","15:00","4.9","","4.8","","99","","12","","22","","6.4","","100.24","","","","","","Rain,Fog"
"1986-01-21 16:00","1986","01","21","16:00","5.1","","3.9","","92","","12","","20","","9.7","","100.27","","","","","","Rain,Fog"
"1986-01-21 17:00","1986","01","21","17:00","4.8","","3.9","","94","","13","","20","","8.0","","100.24","","","","","","Rain Showers,Fog"
"1986-01-21 18:00","1986","01","21","18:00","4.7","","3.8","","94","","12","","20","","8.0","","100.21","","","","","","Rain Showers,Fog"
"1986-01-21 19:00","1986","01","21","19:00","4.5","","3.6","","94","","13","","15","","6.4","","100.14","","","","","","Rain Showers,Fog"
"1986-01-21 20:00","1986","01","21","20:00","4.3","","3.9","","97","","13","","13","","6.4","","100.11","","","","","","Rain Showers,Fog"
"1986-01-21 21:00","1986","01","21","21:00","4.5","","3.9","","96","","13","","19","","6.4","","100.04","","","","","","Rain Showers,Fog"
"1986-01-21 22:00","1986","01","21","22:00","","","","","","","14","","13","","","","","","","","","","NA"
"1986-01-21 23:00","1986","01","21","23:00","","","","","","","13","","13","","","","","","","","","","NA"
"1986-01-22 00:00","1986","01","22","00:00","","","","","","","12","","15","","","","","","","","","","NA"
"1986-01-22 01:00","1986","01","22","01:00","","","","","","","13","","9","","","","","","","","","","NA"
"1986-01-22 02:00","1986","01","22","02:00","","","","","","","12","","22","","","","","","","","","","NA"
"1986-01-22 03:00","1986","01","22","03:00","","","","","","","13","","26","","","","","","","","","","NA"
"1986-01-22 04:00","1986","01","22","04:00","","","","","","","13","","30","","","","","","","","","","NA"
"1986-01-22 05:00","1986","01","22","05:00","","","","","","","11","","33","","","","","","","","","","NA"
"1986-01-22 06:00","1986","01","22","06:00","4.1","","2.9","","92","","12","","37","","6.4","","99.13","","","","","","Rain,Fog"
"1986-01-22 07:00","1986","01","22","07:00","4.0","","3.1","","94","","12","","35","","6.4","","99.10","","","","","","Moderate Rain,Fog"
"1986-01-22 08:00","1986","01","22","08:00","3.7","","2.9","","94","","12","","26","","6.4","","99.00","","","","","","Moderate Rain,Fog"
"1986-01-22 09:00","1986","01","22","09:00","3.4","","2.4","","93","","13","","30","","6.4","","98.97","","","","","","Moderate Rain,Snow,Fog"
"1986-01-22 10:00","1986","01","22","10:00","3.3","","2.6","","95","","14","","19","","6.4","","98.97","","","","","","Moderate Rain,Snow"
"1986-01-22 11:00","1986","01","22","11:00","3.5","","3.0","","97","","13","","17","","8.0","","98.97","","","","","","Rain,Fog"
"1986-01-22 12:00","1986","01","22","12:00","3.8","","3.3","","97","","14","","9","","8.0","","98.93","","","","","","Rain,Fog"
"1986-01-22 13:00","1986","01","22","13:00","4.6","","4.3","","98","","12","","15","","16.1","","98.86","","","","","","Cloudy"
"1986-01-22 14:00","1986","01","22","14:00","5.4","","4.4","","93","","12","","13","","12.9","","98.86","","","","","","Cloudy"
"1986-01-22 15:00","1986","01","22","15:00","5.8","","5.2","","96","","13","","22","","8.0","","98.80","","","","","","Rain Showers,Fog"
"1986-01-22 16:00","1986","01","22","16:00","6.1","","5.4","","95","","13","","19","","8.0","","98.86","","","","","","Rain Showers,Fog"
"1986-01-22 17:00","1986","01","22","17:00","6.0","","5.4","","96","","13","","15","","8.0","","98.86","","","","","","Rain Showers,Fog"
"1986-01-22 18:00","1986","01","22","18:00","6.0","","5.4","","96","","13","","17","","8.0","","98.80","","","","","","Rain Showers,Fog"
"1986-01-22 19:00","1986","01","22","19:00","6.1","","5.4","","95","","13","","17","","8.0","","98.76","","","","","","Rain Showers,Fog"
"1986-01-22 20:00","1986","01","22","20:00","5.9","","5.4","","97","","13","","19","","8.0","","98.80","","","","","","Rain Showers,Fog"
"1986-01-22 21:00","1986","01","22","21:00","5.7","","5.4","","98","","13","","9","","4.8","","98.80","","","","","","Rain Showers,Fog"
"1986-01-22 22:00","1986","01","22","22:00","","","","","","","14","","15","","","","","","","","","","NA"
"1986-01-22 23:00","1986","01","22","23:00","","","","","","","13","","11","","","","","","","","","","NA"
"1986-01-23 00:00","1986","01","23","00:00","","","","","","","13","","19","","","","","","","","","","NA"
"1986-01-23 01:00","1986","01","23","01:00","","","","","","","12","","13","","","","","","","","","","NA"
"1986-01-23 02:00","1986","01","23","02:00","","","","","","","12","","24","","","","","","","","","","NA"
"1986-01-23 03:00","1986","01","23","03:00","","","","","","","12","","19","","","","","","","","","","NA"
"1986-01-23 04:00","1986","01","23","04:00","","","","","","","12","","11","","","","","","","","","","NA"
"1986-01-23 05:00","1986","01","23","05:00","","","","","","","13","","7","","","","","","","","","","NA"
"1986-01-23 06:00","1986","01","23","06:00","5.1","","4.9","","98","","","","0","","16.1","","99.23","","","","","","Mostly Cloudy"
"1986-01-23 07:00","1986","01","23","07:00","3.7","","3.3","","97","","","","0","","19.3","","99.37","","","","","","Mostly Cloudy"
"1986-01-23 08:00","1986","01","23","08:00","2.7","","2.6","","99","","26","","6","","24.1","","99.47","","","","","","Mostly Cloudy"
"1986-01-23 09:00","1986","01","23","09:00","2.9","","2.6","","98","","","","0","","24.1","","99.64","","","","","","Mostly Cloudy"
"1986-01-23 10:00","1986","01","23","10:00","3.6","","3.3","","98","","30","","7","","24.1","","99.77","","","","","","Mostly Cloudy"
"1986-01-23 11:00","1986","01","23","11:00","4.9","","4.4","","97","","","","0","","24.1","","99.90","","","","","","Mostly Cloudy"
"1986-01-23 12:00","1986","01","23","12:00","5.7","","5.6","","99","","","","0","","24.1","","100.04","","","","","","Mostly Cloudy"
"1986-01-23 13:00","1986","01","23","13:00","6.9","","3.3","","78","","30","","13","","24.1","","100.14","","","","","","Mostly Cloudy"
"1986-01-23 14:00","1986","01","23","14:00","6.9","","2.6","","74","","34","","9","","24.1","","100.24","","","","","","Mostly Cloudy"
"1986-01-23 15:00","1986","01","23","15:00","8.8","","3.5","","69","","14","","7","","24.1","","100.31","","","","","","Mainly Clear"
"1986-01-23 16:00","1986","01","23","16:00","6.8","","5.6","","92","","28","","6","","24.1","","100.47","","","","","","Mostly Cloudy"
"1986-01-23 17:00","1986","01","23","17:00","5.4","","4.3","","93","","","","0","","24.1","","100.58","","","","","","Mostly Cloudy"
"1986-01-23 18:00","1986","01","23","18:00","3.6","","2.6","","93","","31","","7","","24.1","","100.64","","","","","","Mostly Cloudy"
"1986-01-23 19:00","1986","01","23","19:00","2.6","","1.6","","93","","26","","6","","24.1","","100.71","","","","","","Mostly Cloudy"
"1986-01-23 20:00","1986","01","23","20:00","1.4","","0.9","","96","","","","0","","24.1","","100.81","","","","","","Mainly Clear"
"1986-01-23 21:00","1986","01","23","21:00","0.2","","-0.2","","97","","32","","4","","24.1","","100.94","","","","","","Mainly Clear"
"1986-01-23 22:00","1986","01","23","22:00","","","","","","","29","","4","","","","","","","","","","NA"
"1986-01-23 23:00","1986","01","23","23:00","","","","","","","","","0","","","","","","","","","","NA"
"1986-01-24 00:00","1986","01","24","00:00","","","","","","","","","0","","","","","","","","","","NA"
"1986-01-24 01:00","1986","01","24","01:00","","","","","","","31","","7","","","","","","","","","","NA"
"1986-01-24 02:00","1986","01","24","02:00","","","","","","","","","0","","","","","","","","","","NA"
"1986-01-24 03:00","1986","01","24","03:00","","","","","","","31","","4","","","","","","","","","","NA"
"1986-01-24 04:00","1986","01","24","04:00","","","","","","","31","","6","","","","","","","","","","NA"
"1986-01-24 05:00","1986","01","24","05:00","","","","","","","31","","6","","","","","","","","","","NA"
"1986-01-24 06:00","1986","01","24","06:00","-0.4","","-0.9","","96","","31","","4","","24.1","","101.61","","","","-2","","Cloudy"
"1986-01-24 07:00","1986","01","24","07:00","0.1","","-0.3","","97","","30","","6","","24.1","","101.65","","","","","","Cloudy"
"1986-01-24 08:00","1986","01","24","08:00","0.1","","-0.3","","97","","31","","4","","24.1","","101.68","","","","","","Cloudy"
"1986-01-24 09:00","1986","01","24","09:00","0.6","","0.1","","96","","","","0","","16.1","","101.78","","","","","","Cloudy"
"1986-01-24 10:00","1986","01","24","10:00","1.3","","0.7","","96","","","","0","","24.1","","101.85","","","","","","Mostly Cloudy"
"1986-01-24 11:00","1986","01","24","11:00","2.4","","2.0","","97","","","","0","","24.1","","101.85","","","","","","Cloudy"
"1986-01-24 12:00","1986","01","24","12:00","4.9","","3.1","","88","","9","","9","","24.1","","101.85","","","","","","Cloudy"
"1986-01-24 13:00","1986","01","24","13:00","5.2","","3.1","","86","","12","","13","","24.1","","101.85","","","","","","Cloudy"
"1986-01-24 14:00","1986","01","24","14:00","5.8","","3.4","","85","","10","","15","","16.1","","101.85","","","","","","Rain"
"1986-01-24 15:00","1986","01","24","15:00","5.7","","3.4","","85","","12","","11","","12.9","","101.85","","","","","","Rain"
"1986-01-24 16:00","1986","01","24","16:00","5.2","","3.9","","91","","12","","11","","12.9","","101.88","","","","","","Rain"
"1986-01-24 17:00","1986","01","24","17:00","5.1","","3.9","","92","","12","","9","","12.9","","101.88","","","","","","Rain"
"1986-01-24 18:00","1986","01","24","18:00","5.4","","3.9","","90","","11","","9","","12.9","","101.88","","","","","","Rain"
"1986-01-24 19:00","1986","01","24","19:00","5.4","","4.1","","91","","12","","15","","12.9","","101.92","","","","","","Cloudy"
"1986-01-24 20:00","1986","01","24","20:00","5.4","","4.3","","93","","13","","15","","19.3","","101.95","","","","","","Cloudy"
"1986-01-24 21:00","1986","01","24","21:00","5.3","","4.3","","93","","13","","11","","19.3","","101.95","","","","","","Cloudy"
"1986-01-24 22:00","1986","01","24","22:00","","","","","","","14","","9","","","","","","","","","","NA"
"1986-01-24 23:00","1986","01","24","23:00","","","","","","","13","","6","","","","","","","","","","NA"
"1986-01-25 00:00","1986","01","25","00:00","","","","","","","","","0","","","","","","","","","","NA"
"1986-01-25 01:00","1986","01","25","01:00","","","","","","","","","0","","","","","","","","","","NA"
"1986-01-25 02:00","1986","01","25","02:00","","","","","","","31","","4","","","","","","","","","","NA"
"1986-01-25 03:00","1986","01","25","03:00","","","","","","","31","","6","","","","","","","","","","NA"
"1986-01-25 04:00","1986","01","25","04:00","","","","","","","","","0","","","","","","","","","","NA"
"1986-01-25 05:00","1986","01","25","05:00","","","","","","","","","0","","","","","","","","","","NA"
"1986-01-25 06:00","1986","01","25","06:00","2.0","","1.5","","96","","","","0","","19.3","","101.78","","","","","","Mostly Cloudy"
"1986-01-25 07:00","1986","01","25","07:00","1.7","","1.3","","97","","","","0","","24.1","","101.78","","","","","","Mostly Cloudy"
"1986-01-25 08:00","1986","01","25","08:00","1.4","","1.2","","99","","30","","6","","24.1","","101.75","","","","","","Mostly Cloudy"
"1986-01-25 09:00","1986","01","25","09:00","1.1","","0.7","","97","","27","","4","","24.1","","101.75","","","","","","Mostly Cloudy"
"1986-01-25 10:00","1986","01","25","10:00","2.9","","2.5","","97","","","","0","","24.1","","101.72","","","","","","Mostly Cloudy"
"1986-01-25 11:00","1986","01","25","11:00","5.3","","2.7","","84","","","","0","","24.1","","101.68","","","","","","Mostly Cloudy"
"1986-01-25 12:00","1986","01","25","12:00","5.8","","2.6","","80","","5","","4","","24.1","","101.61","","","","","","Mostly Cloudy"
"1986-01-25 13:00","1986","01","25","13:00","5.6","","2.5","","80","","10","","9","","24.1","","101.48","","","","","","Mostly Cloudy"
"1986-01-25 14:00","1986","01","25","14:00","5.3","","2.4","","82","","","","0","","19.3","","101.41","","","","","","Mostly Cloudy"
"1986-01-25 15:00","1986","01","25","15:00","5.7","","3.8","","87","","12","","7","","24.1","","101.38","","","","","","Mostly Cloudy"
"1986-01-25 16:00","1986","01","25","16:00","5.1","","3.9","","92","","","","0","","24.1","","101.38","","","","","","Mostly Cloudy"
"1986-01-25 17:00","1986","01","25","17:00","4.7","","3.6","","92","","","","0","","24.1","","101.38","","","","","","Mostly Cloudy"
"1986-01-25 18:00","1986","01","25","18:00","3.7","","3.2","","97","","","","0","","19.3","","101.28","","","","","","Mostly Cloudy"
"1986-01-25 19:00","1986","01","25","19:00","2.6","","2.3","","98","","29","","4","","19.3","","101.21","","","","","","Mostly Cloudy"
"1986-01-25 20:00","1986","01","25","20:00","1.7","","1.7","","100","","32","","4","","19.3","","101.18","","","","","","Mostly Cloudy"
"1986-01-25 21:00","1986","01","25","21:00","1.7","","1.4","","98","","32","","4","","24.1","","101.18","","","","","","Mostly Cloudy"
"1986-01-25 22:00","1986","01","25","22:00","","","","","","","","","0","","","","","","","","","","NA"
"1986-01-25 23:00","1986","01","25","23:00","","","","","","","","","0","","","","","","","","","","NA"
"1986-01-26 00:00","1986","01","26","00:00","","","","","","","","","0","","","","","","","","","","NA"
"1986-01-26 01:00","1986","01","26","01:00","","","","","","","","","0","","","","","","","","","","NA"
"1986-01-26 02:00","1986","01","26","02:00","","","","","","","","","0","","","","","","","","","","NA"
"1986-01-26 03:00","1986","01","26","03:00","","","","","","","","","0","","","","","","","","","","NA"
"1986-01-26 04:00","1986","01","26","04:00","","","","","","","","","0","","","","","","","","","","NA"
"1986-01-26 05:00","1986","01","26","05:00","","","","","","","","","0","","","","","","","","","","NA"
"1986-01-26 06:00","1986","01","26","06:00","0.2","","0.0","","98","","","","0","","16.1","","100.94","","","","","","Cloudy"
"1986-01-26 07:00","1986","01","26","07:00","0.4","","0.1","","98","","","","0","","6.4","","100.98","","","","","","Fog"
"1986-01-26 08:00","1986","01","26","08:00","1.0","","0.8","","98","","31","","6","","1.2","","100.98","","","","","","Fog"
"1986-01-26 09:00","1986","01","26","09:00","0.4","","0.2","","99","","29","","7","","4.8","","100.98","","","","","","Fog"
"1986-01-26 10:00","1986","01","26","10:00","0.8","","0.4","","97","","31","","7","","9.7","","100.98","","","","","","Fog"
"1986-01-26 11:00","1986","01","26","11:00","1.6","","1.3","","98","","","","0","","19.3","","100.98","","","","","","Cloudy"
"1986-01-26 12:00","1986","01","26","12:00","2.0","","1.4","","96","","","","0","","19.3","","100.84","","","","","","Cloudy"
"1986-01-26 13:00","1986","01","26","13:00","2.9","","2.3","","96","","31","","6","","6.4","","100.84","","","","","","Rain,Fog"
"1986-01-26 14:00","1986","01","26","14:00","3.3","","3.1","","99","","32","","6","","4.8","","100.74","","","","","","Rain,Fog"
"1986-01-26 15:00","1986","01","26","15:00","3.8","","3.7","","100","","26","","4","","3.2","","100.64","","","","","","Rain,Fog"
"1986-01-26 16:00","1986","01","26","16:00","3.8","","3.8","","100","","","","0","","8.0","","100.64","","","","","","Rain,Fog"
"1986-01-26 17:00","1986","01","26","17:00","3.6","","3.5","","99","","","","0","","6.4","","100.61","","","","","","Fog"
"1986-01-26 18:00","1986","01","26","18:00","3.4","","3.4","","100","","","","0","","6.4","","100.54","","","","","","Fog"
"1986-01-26 19:00","1986","01","26","19:00","3.2","","3.1","","99","","","","0","","8.0","","100.44","","","","","","Rain,Fog"
"1986-01-26 20:00","1986","01","26","20:00","3.4","","2.9","","97","","32","","9","","8.0","","100.44","","","","","","Rain,Fog"
"1986-01-26 21:00","1986","01","26","21:00","3.2","","3.0","","98","","27","","4","","9.7","","100.34","","","","","","Rain"
"1986-01-26 22:00","1986","01","26","22:00","","","","","","","","","0","","","","","","","","","","NA"
"1986-01-26 23:00","1986","01","26","23:00","","","","","","","","","0","","","","","","","","","","NA"
"1986-01-27 00:00","1986","01","27","00:00","","","","","","","","","0","","","","","","","","","","NA"
"1986-01-27 01:00","1986","01","27","01:00","","","","","","","","","0","","","","","","","","","","NA"
"1986-01-27 02:00","1986","01","27","02:00","","","","","","","13","","4","","","","","","","","","","NA"
"1986-01-27 03:00","1986","01","27","03:00","","","","","","","12","","4","","","","","","","","","","NA"
"1986-01-27 04:00","1986","01","27","04:00","","","","","","","12","","7","","","","","","","","","","NA"
"1986-01-27 05:00","1986","01","27","05:00","","","","","","","12","","9","","","","","","","","","","NA"
"1986-01-27 06:00","1986","01","27","06:00","4.2","","4.0","","98","","10","","6","","3.2","","99.60","","","","","","Rain,Fog"
"1986-01-27 07:00","1986","01","27","07:00","4.3","","4.2","","100","","","","0","","3.2","","99.57","","","","","","Rain,Fog"
"1986-01-27 08:00","1986","01","27","08:00","4.5","","4.2","","98","","2","","7","","3.2","","99.50","","","","","","Rain,Fog"
"1986-01-27 09:00","1986","01","27","09:00","4.7","","4.3","","97","","33","","13","","4.8","","99.50","","","","","","Rain,Fog"
"1986-01-27 10:00","1986","01","27","10:00","3.9","","3.3","","96","","30","","13","","12.9","","99.60","","","","","","Rain"
"1986-01-27 11:00","1986","01","27","11:00","3.8","","2.6","","92","","29","","9","","24.1","","99.64","","","","","","Cloudy"
"1986-01-27 12:00","1986","01","27","12:00","4.3","","3.4","","94","","27","","9","","24.1","","99.64","","","","","","Mostly Cloudy"
"1986-01-27 13:00","1986","01","27","13:00","4.9","","3.6","","91","","31","","9","","24.1","","99.70","","","","","","Mostly Cloudy"
"1986-01-27 14:00","1986","01","27","14:00","5.1","","3.3","","88","","30","","9","","24.1","","99.80","","","","","","Mostly Cloudy"
"1986-01-27 15:00","1986","01","27","15:00","6.3","","3.9","","85","","30","","19","","24.1","","99.90","","","","","","Mostly Cloudy"
"1986-01-27 16:00","1986","01","27","16:00","5.7","","3.6","","86","","32","","11","","24.1","","100.01","","","","","","Mostly Cloudy"
"1986-01-27 17:00","1986","01","27","17:00","5.3","","2.9","","85","","27","","7","","24.1","","100.11","","","","","","Mostly Cloudy"
"1986-01-27 18:00","1986","01","27","18:00","4.6","","2.6","","87","","26","","7","","24.1","","100.21","","","","","","Mostly Cloudy"
"1986-01-27 19:00","1986","01","27","19:00","2.1","","1.8","","98","","","","0","","24.1","","100.31","","","","","","Mainly Clear"
"1986-01-27 20:00","1986","01","27","20:00","1.6","","1.2","","97","","29","","6","","24.1","","100.34","","","","","","Mostly Cloudy"
"1986-01-27 21:00","1986","01","27","21:00","0.8","","0.8","","100","","33","","6","","24.1","","100.41","","","","","","Mainly Clear"
"1986-01-27 22:00","1986","01","27","22:00","","","","","","","","","0","","","","","","","","","","NA"
"1986-01-27 23:00","1986","01","27","23:00","","","","","","","","","0","","","","","","","","","","NA"
"1986-01-28 00:00","1986","01","28","00:00","","","","","","","28","","4","","","","","","","","","","NA"
"1986-01-28 01:00","1986","01","28","01:00","","","","","","","30","","4","","","","","","","","","","NA"
"1986-01-28 02:00","1986","01","28","02:00","","","","","","","","","0","","","","","","","","","","NA"
"1986-01-28 03:00","1986","01","28","03:00","","","","","","","","","0","","","","","","","","","","NA"
"1986-01-28 04:00","1986","01","28","04:00","","","","","","","","","0","","","","","","","","","","NA"
"1986-01-28 05:00","1986","01","28","05:00","","","","","","","","","0","","","","","","","","","","NA"
"1986-01-28 06:00","1986","01","28","06:00","0.7","","0.4","","98","","","","0","","24.1","","100.58","","","","","","Mostly Cloudy"
"1986-01-28 07:00","1986","01","28","07:00","0.8","","0.7","","100","","","","0","","24.1","","100.58","","","","","","Mostly Cloudy"
"1986-01-28 08:00","1986","01","28","08:00","1.0","","0.7","","98","","","","0","","24.1","","100.61","","","","","","Cloudy"
"1986-01-28 09:00","1986","01","28","09:00","1.8","","1.6","","99","","","","0","","24.1","","100.64","","","","","","Cloudy"
"1986-01-28 10:00","1986","01","28","10:00","2.2","","2.2","","100","","","","0","","24.1","","100.64","","","","","","Cloudy"
"1986-01-28 11:00","1986","01","28","11:00","4.0","","3.9","","99","","","","0","","24.1","","100.64","","","","","","Cloudy"
"1986-01-28 12:00","1986","01","28","12:00","4.5","","3.1","","91","","1","","4","","24.1","","100.61","","","","","","Cloudy"
"1986-01-28 13:00","1986","01","28","13:00","5.0","","3.1","","88","","35","","4","","24.1","","100.47","","","","","","Mostly Cloudy"
"1986-01-28 14:00","1986","01","28","14:00","5.6","","3.1","","84","","30","","4","","19.3","","100.34","","","","","","Cloudy"
"1986-01-28 15:00","1986","01","28","15:00","5.4","","2.3","","80","","","","0","","19.3","","100.24","","","","","","Cloudy"
"1986-01-28 16:00","1986","01","28","16:00","4.6","","3.5","","92","","","","0","","24.1","","100.21","","","","","","Cloudy"
"1986-01-28 17:00","1986","01","28","17:00","3.2","","2.8","","97","","","","0","","24.1","","100.11","","","","","","Cloudy"
"1986-01-28 18:00","1986","01","28","18:00","1.4","","1.2","","99","","","","0","","24.1","","100.04","","","","","","Cloudy"
"1986-01-28 19:00","1986","01","28","19:00","1.0","","0.8","","98","","","","0","","19.3","","100.01","","","","","","Cloudy"
"1986-01-28 20:00","1986","01","28","20:00","0.5","","0.4","","99","","","","0","","19.3","","99.94","","","","","","Cloudy"
"1986-01-28 21:00","1986","01","28","21:00","-0.1","","-0.4","","98","","","","0","","19.3","","99.90","","","","","","Cloudy"
"1986-01-28 22:00","1986","01","28","22:00","","","","","","","","","0","","","","","","","","","","NA"
"1986-01-28 23:00","1986","01","28","23:00","","","","","","","31","","6","","","","","","","","","","NA"
"1986-01-29 00:00","1986","01","29","00:00","","","","","","","","","0","","","","","","","","","","NA"
"1986-01-29 01:00","1986","01","29","01:00","","","","","","","","","0","","","","","","","","","","NA"
"1986-01-29 02:00","1986","01","29","02:00","","","","","","","","","0","","","","","","","","","","NA"
"1986-01-29 03:00","1986","01","29","03:00","","","","","","","","","0","","","","","","","","","","NA"
"1986-01-29 04:00","1986","01","29","04:00","","","","","","","","","4","","","","","","","","","","NA"
"1986-01-29 05:00","1986","01","29","05:00","","","","","","","","","0","","","","","","","","","","NA"
"1986-01-29 06:00","1986","01","29","06:00","2.3","","2.3","","100","","","","0","","4.8","","99.57","","","","","","Rain,Fog"
"1986-01-29 07:00","1986","01","29","07:00","2.2","","2.2","","100","","","","0","","2.4","","99.57","","","","","","Rain,Fog"
"1986-01-29 08:00","1986","01","29","08:00","2.3","","2.3","","100","","","","0","","1.0","","99.50","","","","","","Rain,Fog"
"1986-01-29 09:00","1986","01","29","09:00","2.5","","2.4","","99","","","","0","","1.2","","99.50","","","","","","Fog"
"1986-01-29 10:00","1986","01","29","10:00","2.8","","2.7","","100","","","","0","","0.8","","99.47","","","","","","Fog"
"1986-01-29 11:00","1986","01","29","11:00","3.2","","3.2","","100","","","","0","","3.2","","99.50","","","","","","Rain,Fog"
"1986-01-29 12:00","1986","01","29","12:00","3.5","","3.4","","99","","","","0","","4.8","","99.40","","","","","","Fog"
"1986-01-29 13:00","1986","01","29","13:00","4.1","","3.4","","95","","","","0","","4.8","","99.33","","","","","","Fog"
"1986-01-29 14:00","1986","01","29","14:00","4.1","","3.7","","97","","","","0","","6.4","","99.27","","","","","","Rain,Fog"
"1986-01-29 15:00","1986","01","29","15:00","4.1","","3.7","","97","","","","0","","6.4","","99.20","","","","","","Rain,Fog"
"1986-01-29 16:00","1986","01","29","16:00","3.9","","3.9","","100","","","","0","","6.4","","99.17","","","","","","Rain,Fog"
"1986-01-29 17:00","1986","01","29","17:00","3.7","","3.6","","99","","","","0","","4.8","","99.17","","","","","","Rain,Fog"
"1986-01-29 18:00","1986","01","29","18:00","3.5","","3.5","","100","","","","0","","4.8","","99.10","","","","","","Rain,Fog"
"1986-01-29 19:00","1986","01","29","19:00","3.5","","3.3","","98","","","","0","","4.8","","99.07","","","","","","Rain,Fog"
"1986-01-29 20:00","1986","01","29","20:00","3.5","","3.4","","99","","","","0","","4.8","","99.03","","","","","","Rain,Fog"
"1986-01-29 21:00","1986","01","29","21:00","3.5","","3.3","","98","","","","0","","3.2","","99.03","","","","","","Rain,Fog"
"1986-01-29 22:00","1986","01","29","22:00","","","","","","","","","0","","","","","","","","","","NA"
"1986-01-29 23:00","1986","01","29","23:00","","","","","","","","","0","","","","","","","","","","NA"
"1986-01-30 00:00","1986","01","30","00:00","","","","","","","","","0","","","","","","","","","","NA"
"1986-01-30 01:00","1986","01","30","01:00","","","","","","","","","0","","","","","","","","","","NA"
"1986-01-30 02:00","1986","01","30","02:00","","","","","","","","","0","","","","","","","","","","NA"
"1986-01-30 03:00","1986","01","30","03:00","","","","","","","","","0","","","","","","","","","","NA"
"1986-01-30 04:00","1986","01","30","04:00","","","","","","","","","0","","","","","","","","","","NA"
"1986-01-30 05:00","1986","01","30","05:00","","","","","","","","","0","","","","","","","","","","NA"
"1986-01-30 06:00","1986","01","30","06:00","3.4","","3.1","","98","","","","0","","3.2","","98.83","","","","","","Rain,Fog"
"1986-01-30 07:00","1986","01","30","07:00","3.5","","3.4","","99","","","","0","","3.2","","98.83","","","","","","Rain,Fog"
"1986-01-30 08:00","1986","01","30","08:00","3.5","","3.5","","100","","","","0","","2.4","","98.83","","","","","","Rain,Fog"
"1986-01-30 09:00","1986","01","30","09:00","3.7","","3.6","","99","","","","0","","1.6","","98.86","","","","","","Rain,Drizzle,Fog"
"1986-01-30 10:00","1986","01","30","10:00","4.1","","4.1","","100","","","","0","","1.6","","98.90","","","","","","Rain,Drizzle,Fog"
"1986-01-30 11:00","1986","01","30","11:00","4.6","","4.5","","99","","","","0","","1.6","","98.90","","","","","","Rain,Drizzle,Fog"
"1986-01-30 12:00","1986","01","30","12:00","5.0","","4.9","","99","","","","0","","1.2","","98.90","","","","","","Rain,Fog"
"1986-01-30 13:00","1986","01","30","13:00","5.6","","5.4","","98","","","","0","","1.2","","98.90","","","","","","Rain,Fog"
"1986-01-30 14:00","1986","01","30","14:00","5.6","","5.4","","98","","","","0","","1.6","","98.90","","","","","","Rain,Fog"
"1986-01-30 15:00","1986","01","30","15:00","5.7","","5.6","","99","","","","0","","1.0","","98.90","","","","","","Rain,Fog"
"1986-01-30 16:00","1986","01","30","16:00","5.8","","5.8","","100","","","","0","","0.2","","99.00","","","","","","Drizzle,Fog"
"1986-01-30 17:00","1986","01","30","17:00","6.0","","5.9","","99","","12","","6","","1.6","","99.03","","","","","","Drizzle,Fog"
"1986-01-30 18:00","1986","01","30","18:00","5.9","","5.9","","100","","8","","6","","1.6","","99.07","","","","","","Fog"
"1986-01-30 19:00","1986","01","30","19:00","5.7","","5.7","","100","","7","","4","","1.0","","99.10","","","","","","Fog"
"1986-01-30 20:00","1986","01","30","20:00","6.3","","6.3","","100","","11","","9","","1.2","","99.13","","","","","","Fog"
"1986-01-30 21:00","1986","01","30","21:00","6.5","","6.5","","100","","11","","6","","1.6","","99.17","","","","","","Fog"
"1986-01-30 22:00","1986","01","30","22:00","","","","","","","12","","7","","","","","","","","","","NA"
"1986-01-30 23:00","1986","01","30","23:00","","","","","","","11","","9","","","","","","","","","","NA"
"1986-01-31 00:00","1986","01","31","00:00","","","","","","","9","","6","","","","","","","","","","NA"
"1986-01-31 01:00","1986","01","31","01:00","","","","","","","8","","4","","","","","","","","","","NA"
"1986-01-31 02:00","1986","01","31","02:00","","","","","","","7","","4","","","","","","","","","","NA"
"1986-01-31 03:00","1986","01","31","03:00","","","","","","","7","","4","","","","","","","","","","NA"
"1986-01-31 04:00","1986","01","31","04:00","","","","","","","","","0","","","","","","","","","","NA"
"1986-01-31 05:00","1986","01","31","05:00","","","","","","","","","0","","","","","","","","","","NA"
"1986-01-31 06:00","1986","01","31","06:00","6.5","","6.3","","98","","7","","4","","1.2","","99.23","","","","","","Fog"
"1986-01-31 07:00","1986","01","31","07:00","6.3","","6.3","","100","","","","0","","1.6","","99.20","","","","","","Rain,Fog"
"1986-01-31 08:00","1986","01","31","08:00","6.1","","6.1","","100","","","","0","","2.0","","99.17","","","","","","Rain,Fog"
"1986-01-31 09:00","1986","01","31","09:00","6.3","","6.3","","100","","","","0","","1.2","","99.17","","","","","","Rain,Fog"
"1986-01-31 10:00","1986","01","31","10:00","6.3","","6.3","","100","","","","0","","1.2","","99.13","","","","","","Rain,Fog"
"1986-01-31 11:00","1986","01","31","11:00","6.3","","6.3","","100","","","","0","","1.2","","99.07","","","","","","Rain,Fog"
"1986-01-31 12:00","1986","01","31","12:00","6.6","","6.6","","100","","12","","6","","0.4","","99.00","","","","","","Fog"
"1986-01-31 13:00","1986","01","31","13:00","7.1","","6.8","","98","","7","","4","","3.2","","98.90","","","","","","Rain,Fog"
"1986-01-31 14:00","1986","01","31","14:00","7.4","","7.3","","99","","12","","4","","3.2","","98.86","","","","","","Rain,Fog"
"1986-01-31 15:00","1986","01","31","15:00","7.2","","6.9","","98","","14","","7","","4.8","","98.83","","","","","","Fog"
"1986-01-31 16:00","1986","01","31","16:00","7.2","","6.9","","98","","11","","6","","4.8","","98.73","","","","","","Rain,Fog"
"1986-01-31 17:00","1986","01","31","17:00","7.0","","6.8","","98","","11","","6","","3.2","","98.76","","","","","","Rain,Fog"
"1986-01-31 18:00","1986","01","31","18:00","6.8","","6.6","","99","","12","","6","","3.2","","98.70","","","","","","Rain,Fog"
"1986-01-31 19:00","1986","01","31","19:00","6.8","","6.5","","98","","10","","7","","3.2","","98.70","","","","","","Rain,Fog"
"1986-01-31 20:00","1986","01","31","20:00","7.0","","6.8","","98","","8","","17","","3.2","","98.70","","","","","","Rain,Fog"
"1986-01-31 21:00","1986","01","31","21:00","7.2","","6.9","","98","","9","","11","","2.4","","98.70","","","","","","Rain,Fog"
"1986-01-31 22:00","1986","01","31","22:00","","","","","","","8","","6","","","","","","","","","","NA"
"1986-01-31 23:00","1986","01","31","23:00","","","","","","","11","","13","","","","","","","","","","NA"
