"Station Name","CAMPBELL RIVER A"
"Province","BRITISH COLUMBIA"
"Latitude","49.95"
"Longitude","-125.27"
"Elevation","108.80"
"Climate Identifier","1021261"
"WMO Identifier",""
"TC Identifier","YBL"
"All times are specified in Local Standard Time (LST). Add 1 hour to adjust for Daylight Saving Time where and when it is observed."

"Legend"
"E","Estimated"
"M","Missing"
"NA","Not Available"

"Date/Time","Year","Month","Day","Time","Temp (°C)","Temp Flag","Dew Point Temp (°C)","Dew Point Temp Flag","Rel Hum (%)","Rel Hum Flag","Wind Dir (10s deg)","Wind Dir Flag","Wind Spd (km/h)","Wind Spd Flag","Visibility (km)","Visibility Flag","Stn Press (kPa)","Stn Press Flag","Hmdx","Hmdx Flag","Wind Chill","Wind Chill Flag","Weather"
"2013-01-01 00:00","2013","01","01","00:00"
"2013-01-01 01:00","2013","01","01","01:00"
"2013-01-01 02:00","2013","01","01","02:00"
"2013-01-01 03:00","2013","01","01","03:00"
"2013-01-01 04:00","2013","01","01","04:00"
"2013-01-01 05:00","2013","01","01","05:00"
"2013-01-01 06:00","2013","01","01","06:00","1.2","","-0.2","","90","","","","0","","24.1","","101.85","","","","","","Cloudy"
"2013-01-01 07:00","2013","01","01","07:00","1.4","","-0.2","","89","","","","0","","24.1","","101.89","","","","","","Cloudy"
"2013-01-01 08:00","2013","01","01","08:00","1.5","","-0.1","","89","","","","0","","24.1","","101.91","","","","","","Cloudy"
"2013-01-01 09:00","2013","01","01","09:00","1.5","","0.0","","90","","","","0","","24.1","","101.97","","","","","","Cloudy"
"2013-01-01 10:00","2013","01","01","10:00","1.4","","0.0","","90","","","","0","","24.1","","102.00","","","","","","Cloudy"
"2013-01-01 11:00","2013","01","01","11:00","1.7","","0.4","","91","","","","0","","19.3","","101.99","","","","","","Cloudy"
"2013-01-01 12:00","2013","01","01","12:00","2.0","","0.4","","89","","33","","7","","19.3","","101.94","","","","","","Cloudy"
"2013-01-01 13:00","2013","01","01","13:00","2.4","","1.0","","90","","","","0","","16.1","","101.87","","","","","","Cloudy"
"2013-01-01 14:00","2013","01","01","14:00","2.9","","1.3","","89","","","","0","","16.1","","101.82","","","","","","Cloudy"
"2013-01-01 15:00","2013","01","01","15:00","3.0","","1.4","","89","","","","0","","16.1","","101.81","","","","","","Cloudy"
"2013-01-01 16:00","2013","01","01","16:00","2.6","","1.2","","90","","","","0","","16.1","","101.79","","","","","","Cloudy"
"2013-01-01 17:00","2013","01","01","17:00","2.2","","0.9","","91","","","","0","","24.1","","101.76","","","","","","Cloudy"
"2013-01-01 18:00","2013","01","01","18:00","1.8","","0.4","","90","","","","0","","24.1","","101.71","","","","","","Cloudy"
"2013-01-01 19:00","2013","01","01","19:00","1.6","","0.1","","90","","","","0","","24.1","","101.66","","","","","","Cloudy"
"2013-01-01 20:00","2013","01","01","20:00","1.4","","0.0","","90","","","","0","","24.1","","101.62","","","","","","Cloudy"
"2013-01-01 21:00","2013","01","01","21:00","1.1","","-0.3","","90","","","","0","","16.1","","101.57","","","","","","Cloudy"
"2013-01-01 22:00","2013","01","01","22:00"
"2013-01-01 23:00","2013","01","01","23:00"
"2013-01-02 00:00","2013","01","02","00:00"
"2013-01-02 01:00","2013","01","02","01:00"
"2013-01-02 02:00","2013","01","02","02:00"
"2013-01-02 03:00","2013","01","02","03:00"
"2013-01-02 04:00","2013","01","02","04:00"
"2013-01-02 05:00","2013","01","02","05:00"
"2013-01-02 06:00","2013","01","02","06:00","0.6","","-0.8","","90","","","","0","","8.0","","101.34","","","","","","Fog"
"2013-01-02 07:00","2013","01","02","07:00","0.3","","-1.3","","89","","","","0","","8.0","","101.31","","","","","","Fog"
"2013-01-02 08:00","2013","01","02","08:00","0.1","","-1.3","","90","","","","0","","24.1","","101.28","","","","","","Mostly Cloudy"
"2013-01-02 09:00","2013","01","02","09:00","0.6","","-0.9","","90","","","","0","","24.1","","101.29","","","","","","Mostly Cloudy"
"2013-01-02 10:00","2013","01","02","10:00","1.3","","-0.1","","90","","","","0","","8.0","","101.31","","","","","","Fog"
"2013-01-02 11:00","2013","01","02","11:00","1.9","","0.5","","90","","","","0","","4.8","","101.32","","","","","","Fog"
"2013-01-02 12:00","2013","01","02","12:00","2.8","","1.3","","90","","","","0","","8.0","","101.25","","","","","","Fog"
"2013-01-02 13:00","2013","01","02","13:00","2.9","","1.0","","87","","9","","9","","8.0","","101.19","","","","","","Fog"
"2013-01-02 14:00","2013","01","02","14:00","3.3","","1.3","","87","","10","","7","","16.1","","101.15","","","","","","Cloudy"
"2013-01-02 15:00","2013","01","02","15:00","3.3","","1.3","","87","","10","","6","","16.1","","101.17","","","","","","Cloudy"
"2013-01-02 16:00","2013","01","02","16:00","3.1","","1.2","","87","","","","0","","12.9","","101.18","","","","","","Cloudy"
"2013-01-02 17:00","2013","01","02","17:00","2.7","","1.0","","89","","","","0","","16.1","","101.16","","","","","","Cloudy"
"2013-01-02 18:00","2013","01","02","18:00","1.7","","-0.1","","88","","","","0","","24.1","","101.12","","","","","","Mostly Cloudy"
"2013-01-02 19:00","2013","01","02","19:00","1.0","","-0.6","","89","","","","0","","24.1","","101.09","","","","","","Mostly Cloudy"
"2013-01-02 20:00","2013","01","02","20:00","0.8","","-0.7","","90","","","","0","","24.1","","101.07","","","","","","Mostly Cloudy"
"2013-01-02 21:00","2013","01","02","21:00","1.0","","-0.6","","89","","","","0","","16.1","","101.06","","","","","","Mostly Cloudy"
"2013-01-02 22:00","2013","01","02","22:00"
"2013-01-02 23:00","2013","01","02","23:00"
"2013-01-03 00:00","2013","01","03","00:00"
"2013-01-03 01:00","2013","01","03","01:00"
"2013-01-03 02:00","2013","01","03","02:00"
"2013-01-03 03:00","2013","01","03","03:00"
"2013-01-03 04:00","2013","01","03","04:00"
"2013-01-03 05:00","2013","01","03","05:00"
"2013-01-03 06:00","2013","01","03","06:00","0.9","","-0.6","","90","","30","","6","","1.2","","100.77","","","","","","Fog"
"2013-01-03 07:00","2013","01","03","07:00","1.0","","-0.4","","90","","","","0","","2.4","","100.73","","","","","","Fog"
"2013-01-03 08:00","2013","01","03","08:00","0.9","","-0.6","","90","","","","0","","1.2","","100.71","","","","","","Fog"
"2013-01-03 09:00","2013","01","03","09:00","1.0","","-0.5","","90","","","","0","","0.8","","100.70","","","","","","Fog"
"2013-01-03 10:00","2013","01","03","10:00","1.1","","-0.4","","90","","","","0","","1.6","","100.70","","","","","","Fog"
"2013-01-03 11:00","2013","01","03","11:00","1.2","","-0.2","","90","","","","0","","4.8","","100.69","","","","","","Fog"
"2013-01-03 12:00","2013","01","03","12:00","2.0","","0.5","","90","","","","0","","6.4","","100.66","","","","","","Fog"
"2013-01-03 13:00","2013","01","03","13:00","2.4","","0.7","","89","","13","","6","","6.4","","100.61","","","","","","Fog"
"2013-01-03 14:00","2013","01","03","14:00","2.5","","0.7","","88","","","","0","","8.0","","100.58","","","","","","Fog"
"2013-01-03 15:00","2013","01","03","15:00","2.7","","-0.1","","82","","14","","6","","12.9","","100.58","","","","","","Cloudy"
"2013-01-03 16:00","2013","01","03","16:00","2.6","","-0.1","","82","","14","","4","","16.1","","100.61","","","","","","Cloudy"
"2013-01-03 17:00","2013","01","03","17:00","2.1","","-0.2","","85","","","","0","","24.1","","100.59","","","","","","Cloudy"
"2013-01-03 18:00","2013","01","03","18:00","2.0","","-0.2","","85","","9","","7","","24.1","","100.60","","","","","","Cloudy"
"2013-01-03 19:00","2013","01","03","19:00","2.2","","-0.1","","85","","11","","6","","24.1","","100.58","","","","","","Cloudy"
"2013-01-03 20:00","2013","01","03","20:00","2.2","","0.1","","86","","14","","7","","11.3","","100.61","","","","","","Rain"
"2013-01-03 21:00","2013","01","03","21:00","1.8","","0.0","","88","","10","","11","","11.3","","100.62","","","","","","Rain"
"2013-01-03 22:00","2013","01","03","22:00"
"2013-01-03 23:00","2013","01","03","23:00"
"2013-01-04 00:00","2013","01","04","00:00"
"2013-01-04 01:00","2013","01","04","01:00"
"2013-01-04 02:00","2013","01","04","02:00"
"2013-01-04 03:00","2013","01","04","03:00"
"2013-01-04 04:00","2013","01","04","04:00"
"2013-01-04 05:00","2013","01","04","05:00"
"2013-01-04 06:00","2013","01","04","06:00","1.7","","0.4","","91","","","","0","","8.0","","101.01","","","","","","Rain,Fog"
"2013-01-04 07:00","2013","01","04","07:00","1.7","","0.3","","90","","","","0","","8.0","","101.09","","","","","","Rain,Fog"
"2013-01-04 08:00","2013","01","04","08:00","1.6","","0.2","","90","","","","0","","1.6","","101.13","","","","","","Rain,Fog"
"2013-01-04 09:00","2013","01","04","09:00","1.8","","0.5","","91","","","","0","","1.6","","101.19","","","","","","Rain,Fog"
"2013-01-04 10:00","2013","01","04","10:00","2.3","","1.0","","91","","","","0","","2.0","","101.25","","","","","","Rain,Fog"
"2013-01-04 11:00","2013","01","04","11:00","2.4","","1.2","","92","","","","0","","2.0","","101.31","","","","","","Rain,Fog"
"2013-01-04 12:00","2013","01","04","12:00","2.7","","1.4","","91","","","","0","","2.0","","101.31","","","","","","Rain,Fog"
"2013-01-04 13:00","2013","01","04","13:00","3.5","","2.4","","92","","","","0","","2.4","","101.23","","","","","","Rain,Fog"
"2013-01-04 14:00","2013","01","04","14:00","3.6","","2.5","","93","","","","0","","2.4","","101.19","","","","","","Rain,Fog"
"2013-01-04 15:00","2013","01","04","15:00","3.9","","2.8","","93","","","","0","","2.4","","101.20","","","","","","Fog"
"2013-01-04 16:00","2013","01","04","16:00","3.8","","2.7","","93","","","","0","","3.2","","101.18","","","","","","Rain,Fog"
"2013-01-04 17:00","2013","01","04","17:00","3.7","","2.6","","93","","","","0","","1.0","","101.12","","","","","","Drizzle,Fog"
"2013-01-04 18:00","2013","01","04","18:00","3.6","","2.4","","92","","","","0","","0.8","","101.08","","","","","","Drizzle,Fog"
"2013-01-04 19:00","2013","01","04","19:00","3.4","","2.2","","92","","","","0","","1.0","","101.04","","","","","","Drizzle,Fog"
"2013-01-04 20:00","2013","01","04","20:00","3.6","","2.4","","92","","10","","6","","0.4","","100.98","","","","","","Drizzle,Fog"
"2013-01-04 21:00","2013","01","04","21:00","3.9","","2.8","","93","","9","","7","","0.6","","100.94","","","","","","Drizzle,Fog"
"2013-01-04 22:00","2013","01","04","22:00"
"2013-01-04 23:00","2013","01","04","23:00"
"2013-01-05 00:00","2013","01","05","00:00"
"2013-01-05 01:00","2013","01","05","01:00"
"2013-01-05 02:00","2013","01","05","02:00"
"2013-01-05 03:00","2013","01","05","03:00"
"2013-01-05 04:00","2013","01","05","04:00"
"2013-01-05 05:00","2013","01","05","05:00"
"2013-01-05 06:00","2013","01","05","06:00","5.2","","4.0","","92","","14","","22","","3.2","","100.58","","","","","","Rain,Fog"
"2013-01-05 07:00","2013","01","05","07:00","5.0","","3.7","","91","","14","","17","","3.2","","100.60","","","","","","Rain,Fog"
"2013-01-05 08:00","2013","01","05","08:00","4.9","","3.6","","91","","14","","17","","3.2","","100.56","","","","","","Rain,Fog"
"2013-01-05 09:00","2013","01","05","09:00","5.2","","3.8","","91","","14","","24","","3.2","","100.57","","","","","","Rain,Fog"
"2013-01-05 10:00","2013","01","05","10:00","5.4","","3.9","","90","","14","","33","","8.0","","100.60","","","","","","Fog"
"2013-01-05 11:00","2013","01","05","11:00","5.5","","3.9","","89","","12","","26","","8.0","","100.55","","","","","","Fog"
"2013-01-05 12:00","2013","01","05","12:00","5.4","","4.0","","91","","13","","24","","8.0","","100.49","","","","","","Rain,Fog"
"2013-01-05 13:00","2013","01","05","13:00","5.5","","4.1","","91","","12","","19","","8.0","","100.40","","","","","","Rain,Fog"
"2013-01-05 14:00","2013","01","05","14:00","5.8","","4.0","","88","","15","","15","","11.3","","100.33","","","","","","Rain"
"2013-01-05 15:00","2013","01","05","15:00","5.8","","3.9","","88","","14","","20","","11.3","","100.32","","","","","","Rain"
"2013-01-05 16:00","2013","01","05","16:00","5.3","","3.8","","90","","16","","13","","9.7","","100.34","","","","","","Rain,Fog"
"2013-01-05 17:00","2013","01","05","17:00","4.3","","3.0","","91","","15","","9","","32.2","","100.33","","","","","","Mostly Cloudy"
"2013-01-05 18:00","2013","01","05","18:00","3.8","","2.2","","89","","","","0","","25.0","","100.31","","","","","","Mostly Cloudy"
"2013-01-05 19:00","2013","01","05","19:00","1.3","","-0.3","","89","","25","","7","","11.3","","100.29","","","","","","Mostly Cloudy"
"2013-01-05 20:00","2013","01","05","20:00","1.1","","-0.5","","89","","29","","6","","24.1","","100.27","","","","","","Mostly Cloudy"
"2013-01-05 21:00","2013","01","05","21:00","1.0","","-0.5","","90","","","","0","","24.1","","100.29","","","","","","Mostly Cloudy"
"2013-01-05 22:00","2013","01","05","22:00"
"2013-01-05 23:00","2013","01","05","23:00"
"2013-01-06 00:00","2013","01","06","00:00"
"2013-01-06 01:00","2013","01","06","01:00"
"2013-01-06 02:00","2013","01","06","02:00"
"2013-01-06 03:00","2013","01","06","03:00"
"2013-01-06 04:00","2013","01","06","04:00"
"2013-01-06 05:00","2013","01","06","05:00"
"2013-01-06 06:00","2013","01","06","06:00","-0.2","","-1.7","","90","","","","0","","24.1","","100.33","","","","","","Mostly Cloudy"
"2013-01-06 07:00","2013","01","06","07:00","-0.2","","-1.8","","89","","27","","4","","24.1","","100.35","","","","-1","","Mostly Cloudy"
"2013-01-06 08:00","2013","01","06","08:00","0.4","","-1.2","","89","","31","","6","","32.2","","100.36","","","","","","Mostly Cloudy"
"2013-01-06 09:00","2013","01","06","09:00","0.1","","-1.5","","89","","","","0","","32.2","","100.39","","","","","","Mostly Cloudy"
"2013-01-06 10:00","2013","01","06","10:00","0.9","","-0.6","","90","","","","0","","32.2","","100.39","","","","","","Mostly Cloudy"
"2013-01-06 11:00","2013","01","06","11:00","3.6","","2.0","","89","","","","0","","32.2","","100.38","","","","","","Mostly Cloudy"
"2013-01-06 12:00","2013","01","06","12:00","3.3","","1.6","","89","","","","0","","32.2","","100.34","","","","","","Cloudy"
"2013-01-06 13:00","2013","01","06","13:00","3.7","","2.3","","91","","32","","7","","32.2","","100.34","","","","","","Cloudy"
"2013-01-06 14:00","2013","01","06","14:00","4.0","","2.6","","91","","","","0","","32.2","","100.27","","","","","","Cloudy"
"2013-01-06 15:00","2013","01","06","15:00","4.4","","3.0","","91","","","","0","","32.2","","100.23","","","","","","Cloudy"
"2013-01-06 16:00","2013","01","06","16:00","4.1","","2.8","","91","","","","0","","24.1","","100.19","","","","","","Cloudy"
"2013-01-06 17:00","2013","01","06","17:00","4.8","","3.2","","89","","15","","6","","24.1","","100.16","","","","","","Cloudy"
"2013-01-06 18:00","2013","01","06","18:00","5.0","","3.7","","91","","14","","19","","9.7","","100.14","","","","","","Rain,Fog"
"2013-01-06 19:00","2013","01","06","19:00","4.6","","3.4","","92","","11","","24","","4.8","","100.11","","","","","","Rain,Fog"
"2013-01-06 20:00","2013","01","06","20:00","4.4","","3.3","","93","","11","","20","","4.8","","100.04","","","","","","Rain,Fog"
"2013-01-06 21:00","2013","01","06","21:00","4.4","","3.2","","92","","13","","26","","4.8","","100.00","","","","","","Rain,Fog"
"2013-01-06 22:00","2013","01","06","22:00"
"2013-01-06 23:00","2013","01","06","23:00"
"2013-01-07 00:00","2013","01","07","00:00"
"2013-01-07 01:00","2013","01","07","01:00"
"2013-01-07 02:00","2013","01","07","02:00"
"2013-01-07 03:00","2013","01","07","03:00"
"2013-01-07 04:00","2013","01","07","04:00"
"2013-01-07 05:00","2013","01","07","05:00"
"2013-01-07 06:00","2013","01","07","06:00","3.8","","2.5","","91","","11","","15","","6.4","","99.47","","","","","","Rain,Fog"
"2013-01-07 07:00","2013","01","07","07:00","3.7","","2.6","","93","","12","","13","","6.4","","99.47","","","","","","Rain,Fog"
"2013-01-07 08:00","2013","01","07","08:00","3.8","","2.8","","93","","12","","7","","4.8","","99.45","","","","","","Rain,Fog"
"2013-01-07 09:00","2013","01","07","09:00","3.9","","2.9","","93","","","","0","","3.2","","99.55","","","","","","Rain,Fog"
"2013-01-07 10:00","2013","01","07","10:00","3.3","","2.1","","92","","36","","6","","3.2","","99.60","","","","","","Rain,Fog"
"2013-01-07 11:00","2013","01","07","11:00","3.3","","2.1","","92","","30","","6","","2.4","","99.74","","","","","","Drizzle"
"2013-01-07 12:00","2013","01","07","12:00","4.0","","2.9","","93","","32","","6","","6.4","","99.78","","","","","","Drizzle"
"2013-01-07 13:00","2013","01","07","13:00","4.3","","3.1","","92","","","","0","","8.0","","99.85","","","","","","Drizzle"
"2013-01-07 14:00","2013","01","07","14:00","4.7","","2.9","","88","","32","","6","","16.1","","99.94","","","","","","Cloudy"
"2013-01-07 15:00","2013","01","07","15:00","4.9","","3.1","","88","","","","0","","24.1","","100.03","","","","","","Cloudy"
"2013-01-07 16:00","2013","01","07","16:00","4.7","","3.4","","91","","","","0","","16.1","","100.18","","","","","","Cloudy"
"2013-01-07 17:00","2013","01","07","17:00","3.5","","2.3","","92","","","","0","","24.1","","100.33","","","","","","Cloudy"
"2013-01-07 18:00","2013","01","07","18:00","1.9","","0.5","","90","","","","0","","9.7","","100.36","","","","","","Fog"
"2013-01-07 19:00","2013","01","07","19:00","1.1","","-0.5","","89","","","","0","","24.1","","100.42","","","","","","Mainly Clear"
"2013-01-07 20:00","2013","01","07","20:00","0.4","","-1.2","","89","","","","0","","24.1","","100.44","","","","","","Clear"
"2013-01-07 21:00","2013","01","07","21:00","0.0","","-1.5","","90","","","","0","","24.1","","100.51","","","","","","Mainly Clear"
"2013-01-07 22:00","2013","01","07","22:00"
"2013-01-07 23:00","2013","01","07","23:00"
"2013-01-08 00:00","2013","01","08","00:00"
"2013-01-08 01:00","2013","01","08","01:00"
"2013-01-08 02:00","2013","01","08","02:00"
"2013-01-08 03:00","2013","01","08","03:00"
"2013-01-08 04:00","2013","01","08","04:00"
"2013-01-08 05:00","2013","01","08","05:00"
"2013-01-08 06:00","2013","01","08","06:00","0.4","","-1.1","","90","","","","0","","0.8","","100.43","","","","","","Fog"
"2013-01-08 07:00","2013","01","08","07:00","0.7","","-0.7","","90","","","","0","","1.6","","100.34","","","","","","Rain,Fog"
"2013-01-08 08:00","2013","01","08","08:00","1.9","","0.6","","91","","11","","4","","4.8","","100.25","","","","","","Rain,Fog"
"2013-01-08 09:00","2013","01","08","09:00","2.3","","1.1","","92","","12","","15","","6.4","","100.20","","","","","","Rain,Fog"
"2013-01-08 10:00","2013","01","08","10:00","2.4","","1.1","","91","","13","","15","","6.4","","100.07","","","","","","Rain,Fog"
"2013-01-08 11:00","2013","01","08","11:00","1.6","","0.1","","90","","13","","15","","4.8","","99.87","","","","","","Rain,Fog"
"2013-01-08 12:00","2013","01","08","12:00","0.4","","-1.1","","90","","12","","13","","0.8","","99.74","","","","","","Moderate Snow"
"2013-01-08 13:00","2013","01","08","13:00","0.3","","-1.2","","90","","12","","15","","0.8","","99.55","","","","","","Moderate Snow"
"2013-01-08 14:00","2013","01","08","14:00","0.3","","-1.2","","90","","12","","13","","0.8","","99.37","","","","","","Moderate Snow"
"2013-01-08 15:00","2013","01","08","15:00","0.4","","-1.1","","90","","12","","15","","1.2","","99.17","","","","","","Snow"
"2013-01-08 16:00","2013","01","08","16:00","0.6","","-0.9","","90","","13","","15","","1.6","","99.07","","","","","","Snow"
"2013-01-08 17:00","2013","01","08","17:00","0.7","","-0.7","","90","","13","","20","","4.8","","98.87","","","","","","Snow"
"2013-01-08 18:00","2013","01","08","18:00","1.2","","-0.3","","90","","14","","15","","4.8","","98.70","","","","","","Rain,Fog"
"2013-01-08 19:00","2013","01","08","19:00","1.7","","0.2","","90","","15","","15","","4.8","","98.59","","","","","","Rain,Fog"
"2013-01-08 20:00","2013","01","08","20:00","2.3","","1.1","","92","","13","","13","","4.8","","98.48","","","","","","Rain,Fog"
"2013-01-08 21:00","2013","01","08","21:00","3.2","","2.2","","93","","16","","19","","3.2","","98.45","","","","","","Fog"
"2013-01-08 22:00","2013","01","08","22:00"
"2013-01-08 23:00","2013","01","08","23:00"
"2013-01-09 00:00","2013","01","09","00:00"
"2013-01-09 01:00","2013","01","09","01:00"
"2013-01-09 02:00","2013","01","09","02:00"
"2013-01-09 03:00","2013","01","09","03:00"
"2013-01-09 04:00","2013","01","09","04:00"
"2013-01-09 05:00","2013","01","09","05:00"
"2013-01-09 06:00","2013","01","09","06:00","0.8","","-0.7","","90","","","","0","","11.3","","98.99","","","","","","Mostly Cloudy"
"2013-01-09 07:00","2013","01","09","07:00","0.6","","-0.8","","90","","","","0","","11.3","","98.98","","","","","","Rain"
"2013-01-09 08:00","2013","01","09","08:00","0.5","","-0.9","","90","","","","0","","24.1","","99.03","","","","","","Mostly Cloudy"
"2013-01-09 09:00","2013","01","09","09:00","1.4","","-0.1","","90","","26","","6","","24.1","","99.11","","","","","","Rain"
"2013-01-09 10:00","2013","01","09","10:00","2.1","","0.8","","91","","32","","6","","24.1","","99.14","","","","","","Mostly Cloudy"
"2013-01-09 11:00","2013","01","09","11:00","2.3","","1.0","","91","","","","0","","32.2","","99.16","","","","","","Mostly Cloudy"
"2013-01-09 12:00","2013","01","09","12:00","2.9","","1.7","","92","","","","0","","32.2","","99.16","","","","","","Mostly Cloudy"
"2013-01-09 13:00","2013","01","09","13:00","3.5","","2.3","","92","","","","0","","24.1","","99.21","","","","","","Mostly Cloudy"
"2013-01-09 14:00","2013","01","09","14:00","3.1","","1.8","","91","","","","0","","24.1","","99.28","","","","","","Cloudy"
"2013-01-09 15:00","2013","01","09","15:00","3.0","","1.8","","92","","","","0","","24.1","","99.34","","","","","","Rain Showers"
"2013-01-09 16:00","2013","01","09","16:00","2.7","","1.5","","92","","27","","6","","24.1","","99.44","","","","","","Mostly Cloudy"
"2013-01-09 17:00","2013","01","09","17:00","2.6","","1.3","","91","","31","","9","","19.3","","99.50","","","","","","Mostly Cloudy"
"2013-01-09 18:00","2013","01","09","18:00","2.2","","1.0","","92","","26","","6","","16.1","","99.56","","","","","","Cloudy"
"2013-01-09 19:00","2013","01","09","19:00","2.4","","0.5","","87","","29","","9","","16.1","","99.63","","","","","","Cloudy"
"2013-01-09 20:00","2013","01","09","20:00","0.9","","-0.6","","90","","","","0","","25.0","","99.71","","","","","","Mostly Cloudy"
"2013-01-09 21:00","2013","01","09","21:00","0.4","","-1.1","","90","","29","","6","","25.0","","99.80","","","","","","Mainly Clear"
"2013-01-09 22:00","2013","01","09","22:00"
"2013-01-09 23:00","2013","01","09","23:00"
"2013-01-10 00:00","2013","01","10","00:00"
"2013-01-10 01:00","2013","01","10","01:00"
"2013-01-10 02:00","2013","01","10","02:00"
"2013-01-10 03:00","2013","01","10","03:00"
"2013-01-10 04:00","2013","01","10","04:00"
"2013-01-10 05:00","2013","01","10","05:00"
"2013-01-10 06:00","2013","01","10","06:00","0.2","","-2.4","","83","","30","","20","","24.1","","100.41","","","","","","Clear"
"2013-01-10 07:00","2013","01","10","07:00","0.5","","-2.6","","80","","29","","11","","24.1","","100.48","","","","","","Clear"
"2013-01-10 08:00","2013","01","10","08:00","0.2","","-2.8","","80","","29","","19","","32.2","","100.55","","","","","","Clear"
"2013-01-10 09:00","2013","01","10","09:00","0.4","","-2.6","","80","","28","","13","","32.2","","100.61","","","","","","Clear"
"2013-01-10 10:00","2013","01","10","10:00","1.5","","-2.2","","76","","30","","15","","32.2","","100.64","","","","","","Clear"
"2013-01-10 11:00","2013","01","10","11:00","2.3","","-1.9","","74","","31","","17","","32.2","","100.69","","","","","","Clear"
"2013-01-10 12:00","2013","01","10","12:00","3.0","","-2.0","","70","","29","","15","","32.2","","100.67","","","","","","Clear"
"2013-01-10 13:00","2013","01","10","13:00","3.3","","-2.1","","68","","31","","26","","32.2","","100.64","","","","","","Clear"
"2013-01-10 14:00","2013","01","10","14:00","3.4","","-2.1","","67","","30","","26","","48.3","","100.64","","","","","","Clear"
"2013-01-10 15:00","2013","01","10","15:00","3.4","","-2.2","","67","","30","","19","","48.3","","100.68","","","","","","Clear"
"2013-01-10 16:00","2013","01","10","16:00","2.9","","-2.6","","67","","30","","17","","48.3","","100.70","","","","","","Clear"
"2013-01-10 17:00","2013","01","10","17:00","1.1","","-3.1","","74","","29","","9","","48.3","","100.72","","","","","","Clear"
"2013-01-10 18:00","2013","01","10","18:00","0.1","","-3.3","","78","","28","","11","","24.1","","100.74","","","","","","Clear"
"2013-01-10 19:00","2013","01","10","19:00","-0.7","","-3.7","","80","","27","","11","","24.1","","100.77","","","","-4","","Clear"
"2013-01-10 20:00","2013","01","10","20:00","-1.4","","-4.1","","82","","","","0","","24.1","","100.80","","","","","","Clear"
"2013-01-10 21:00","2013","01","10","21:00","-1.4","","-3.7","","84","","36","","7","","24.1","","100.85","","","","-4","","Clear"
"2013-01-10 22:00","2013","01","10","22:00"
"2013-01-10 23:00","2013","01","10","23:00"
"2013-01-11 00:00","2013","01","11","00:00"
"2013-01-11 01:00","2013","01","11","01:00"
"2013-01-11 02:00","2013","01","11","02:00"
"2013-01-11 03:00","2013","01","11","03:00"
"2013-01-11 04:00","2013","01","11","04:00"
"2013-01-11 05:00","2013","01","11","05:00"
"2013-01-11 06:00","2013","01","11","06:00","-4.1","","-7.3","","78","","30","","4","","25.0","","101.08","","","","-6","","Clear"
"2013-01-11 07:00","2013","01","11","07:00","-4.9","","-7.9","","79","","29","","7","","25.0","","101.19","","","","-8","","Clear"
"2013-01-11 08:00","2013","01","11","08:00","-4.9","","-7.7","","81","","32","","7","","48.3","","101.24","","","","-8","","Clear"
"2013-01-11 09:00","2013","01","11","09:00","-4.8","","-7.8","","79","","27","","6","","48.3","","101.29","","","","-8","","Clear"
"2013-01-11 10:00","2013","01","11","10:00","-3.0","","-6.4","","77","","","","0","","48.3","","101.36","","","","","","Clear"
"2013-01-11 11:00","2013","01","11","11:00","-0.7","","-4.8","","74","","32","","4","","48.3","","101.38","","","","-2","","Mainly Clear"
"2013-01-11 12:00","2013","01","11","12:00","0.5","","-5.6","","64","","29","","4","","48.3","","101.33","","","","","","Mainly Clear"
"2013-01-11 13:00","2013","01","11","13:00","2.1","","-6.2","","54","","","","0","","48.3","","101.28","","","","","","Mainly Clear"
"2013-01-11 14:00","2013","01","11","14:00","1.1","","-7.0","","55","","","","0","","48.3","","101.28","","","","","","Mostly Cloudy"
"2013-01-11 15:00","2013","01","11","15:00","1.1","","-5.8","","60","","","","0","","48.3","","101.31","","","","","","Mostly Cloudy"
"2013-01-11 16:00","2013","01","11","16:00","-0.3","","-4.8","","72","","","","0","","48.3","","101.32","","","","","","Mostly Cloudy"
"2013-01-11 17:00","2013","01","11","17:00","-1.3","","-4.8","","77","","","","0","","48.3","","101.35","","","","","","Cloudy"
"2013-01-11 18:00","2013","01","11","18:00","-1.9","","-5.0","","79","","","","0","","24.1","","101.33","","","","","","Cloudy"
"2013-01-11 19:00","2013","01","11","19:00","-2.5","","-5.1","","82","","","","0","","24.1","","101.31","","","","","","Cloudy"
"2013-01-11 20:00","2013","01","11","20:00","-2.9","","-5.2","","84","","","","0","","24.1","","101.33","","","","","","Cloudy"
"2013-01-11 21:00","2013","01","11","21:00","-3.2","","-5.4","","85","","","","0","","24.1","","101.34","","","","","","Mostly Cloudy"
"2013-01-11 22:00","2013","01","11","22:00"
"2013-01-11 23:00","2013","01","11","23:00"
"2013-01-12 00:00","2013","01","12","00:00"
"2013-01-12 01:00","2013","01","12","01:00"
"2013-01-12 02:00","2013","01","12","02:00"
"2013-01-12 03:00","2013","01","12","03:00"
"2013-01-12 04:00","2013","01","12","04:00"
"2013-01-12 05:00","2013","01","12","05:00"
"2013-01-12 06:00","2013","01","12","06:00","-3.9","","-6.5","","82","","","","0","","25.0","","101.50","","","","","","Mostly Cloudy"
"2013-01-12 07:00","2013","01","12","07:00","-4.3","","-6.7","","83","","","","0","","25.0","","101.54","","","","","","Mostly Cloudy"
"2013-01-12 08:00","2013","01","12","08:00","-5.4","","-7.5","","85","","","","0","","48.3","","101.57","","","","","","Mainly Clear"
"2013-01-12 09:00","2013","01","12","09:00","-5.5","","-7.7","","84","","","","0","","48.3","","101.63","","","","","","Mainly Clear"
"2013-01-12 10:00","2013","01","12","10:00","-3.5","","-6.3","","81","","","","0","","48.3","","101.67","","","","","","Mainly Clear"
"2013-01-12 11:00","2013","01","12","11:00","-1.3","","-4.9","","76","","35","","4","","48.3","","101.67","","","","-3","","Mostly Cloudy"
"2013-01-12 12:00","2013","01","12","12:00","0.1","","-4.3","","72","","31","","4","","48.3","","101.69","","","","","","Mostly Cloudy"
"2013-01-12 13:00","2013","01","12","13:00","0.9","","-4.5","","67","","","","0","","48.3","","101.66","","","","","","Mostly Cloudy"
"2013-01-12 14:00","2013","01","12","14:00","1.8","","-4.6","","62","","","","0","","48.3","","101.62","","","","","","Mostly Cloudy"
"2013-01-12 15:00","2013","01","12","15:00","1.3","","-5.1","","62","","","","0","","48.3","","101.66","","","","","","Mostly Cloudy"
"2013-01-12 16:00","2013","01","12","16:00","1.1","","-4.7","","65","","","","0","","48.3","","101.60","","","","","","Mostly Cloudy"
"2013-01-12 17:00","2013","01","12","17:00","-1.6","","-4.9","","78","","","","0","","48.3","","101.63","","","","","","Mainly Clear"
"2013-01-12 18:00","2013","01","12","18:00","-2.5","","-5.3","","81","","","","0","","25.0","","101.67","","","","","","Mainly Clear"
"2013-01-12 19:00","2013","01","12","19:00","-3.3","","-5.8","","83","","","","0","","25.0","","101.67","","","","","","Mainly Clear"
"2013-01-12 20:00","2013","01","12","20:00","-3.8","","-6.1","","84","","31","","6","","25.0","","101.64","","","","-6","","Mainly Clear"
"2013-01-12 21:00","2013","01","12","21:00","-4.6","","-6.8","","85","","","","0","","25.0","","101.68","","","","","","Mostly Cloudy"
"2013-01-12 22:00","2013","01","12","22:00"
"2013-01-12 23:00","2013","01","12","23:00"
"2013-01-13 00:00","2013","01","13","00:00"
"2013-01-13 01:00","2013","01","13","01:00"
"2013-01-13 02:00","2013","01","13","02:00"
"2013-01-13 03:00","2013","01","13","03:00"
"2013-01-13 04:00","2013","01","13","04:00"
"2013-01-13 05:00","2013","01","13","05:00"
"2013-01-13 06:00","2013","01","13","06:00","-3.1","","-5.3","","85","","","","0","","24.1","","101.79","","","","","","Mostly Cloudy"
"2013-01-13 07:00","2013","01","13","07:00","-3.0","","-5.2","","85","","","","0","","24.1","","101.80","","","","","","Cloudy"
"2013-01-13 08:00","2013","01","13","08:00","-2.9","","-5.1","","85","","","","0","","32.2","","101.82","","","","","","Cloudy"
"2013-01-13 09:00","2013","01","13","09:00","-2.5","","-4.7","","85","","","","0","","32.2","","101.84","","","","","","Cloudy"
"2013-01-13 10:00","2013","01","13","10:00","-1.5","","-4.1","","82","","","","0","","32.2","","101.82","","","","","","Cloudy"
"2013-01-13 11:00","2013","01","13","11:00","-0.8","","-3.3","","83","","","","0","","32.2","","101.84","","","","","","Cloudy"
"2013-01-13 12:00","2013","01","13","12:00","0.4","","-3.1","","77","","","","0","","24.1","","101.77","","","","","","Cloudy"
"2013-01-13 13:00","2013","01","13","13:00","0.8","","-3.2","","75","","","","0","","24.1","","101.74","","","","","","Cloudy"
"2013-01-13 14:00","2013","01","13","14:00","0.8","","-3.0","","76","","","","0","","19.3","","101.76","","","","","","Snow"
"2013-01-13 15:00","2013","01","13","15:00","0.2","","-2.4","","83","","5","","6","","19.3","","101.75","","","","","","Snow"
"2013-01-13 16:00","2013","01","13","16:00","0.1","","-1.9","","86","","","","0","","4.0","","101.75","","","","","","Snow"
"2013-01-13 17:00","2013","01","13","17:00","0.1","","-1.7","","88","","","","0","","4.8","","101.73","","","","","","Rain,Snow"
"2013-01-13 18:00","2013","01","13","18:00","-0.1","","-1.6","","90","","","","0","","4.8","","101.77","","","","","","Rain,Snow"
"2013-01-13 19:00","2013","01","13","19:00","0.0","","-1.5","","90","","","","0","","3.2","","101.81","","","","","","Rain,Snow"
"2013-01-13 20:00","2013","01","13","20:00","0.0","","-1.6","","89","","","","0","","4.0","","101.82","","","","","","Rain,Snow"
"2013-01-13 21:00","2013","01","13","21:00","-0.1","","-1.7","","89","","","","0","","4.8","","101.83","","","","","","Snow"
"2013-01-13 22:00","2013","01","13","22:00"
"2013-01-13 23:00","2013","01","13","23:00"
"2013-01-14 00:00","2013","01","14","00:00"
"2013-01-14 01:00","2013","01","14","01:00"
"2013-01-14 02:00","2013","01","14","02:00"
"2013-01-14 03:00","2013","01","14","03:00"
"2013-01-14 04:00","2013","01","14","04:00"
"2013-01-14 05:00","2013","01","14","05:00"
"2013-01-14 06:00","2013","01","14","06:00","0.3","","-1.2","","90","","","","0","","2.4","","101.78","","","","","","Drizzle,Fog"
"2013-01-14 07:00","2013","01","14","07:00","0.3","","-1.2","","90","","","","0","","2.4","","101.82","","","","","","Drizzle,Fog"
"2013-01-14 08:00","2013","01","14","08:00","0.3","","-1.2","","90","","","","0","","2.4","","101.89","","","","","","Drizzle,Fog"
"2013-01-14 09:00","2013","01","14","09:00","0.4","","-1.1","","90","","27","","4","","2.4","","101.90","","","","","","Drizzle,Fog"
"2013-01-14 10:00","2013","01","14","10:00","0.3","","-1.1","","90","","","","0","","2.4","","101.91","","","","","","Drizzle,Fog"
"2013-01-14 11:00","2013","01","14","11:00","0.4","","-1.0","","90","","","","0","","2.0","","101.91","","","","","","Drizzle,Fog"
"2013-01-14 12:00","2013","01","14","12:00","0.5","","-0.9","","90","","","","0","","2.0","","101.93","","","","","","Drizzle,Fog"
"2013-01-14 13:00","2013","01","14","13:00","0.8","","-0.6","","90","","","","0","","2.0","","101.92","","","","","","Drizzle,Fog"
"2013-01-14 14:00","2013","01","14","14:00","0.9","","-0.5","","90","","","","0","","2.0","","101.90","","","","","","Drizzle"
"2013-01-14 15:00","2013","01","14","15:00","1.1","","-0.3","","90","","","","0","","2.0","","101.94","","","","","","Drizzle"
"2013-01-14 16:00","2013","01","14","16:00","1.1","","-0.3","","90","","","","0","","2.0","","101.96","","","","","","Drizzle"
"2013-01-14 17:00","2013","01","14","17:00","1.0","","-0.5","","90","","","","0","","1.6","","101.99","","","","","","Drizzle"
"2013-01-14 18:00","2013","01","14","18:00","0.9","","-0.6","","90","","","","0","","1.2","","101.99","","","","","","Drizzle"
"2013-01-14 19:00","2013","01","14","19:00","0.8","","-0.7","","90","","","","0","","1.2","","102.06","","","","","","Drizzle"
"2013-01-14 20:00","2013","01","14","20:00","0.7","","-0.8","","90","","","","0","","1.2","","102.08","","","","","","Drizzle"
"2013-01-14 21:00","2013","01","14","21:00","0.8","","-0.8","","89","","","","0","","2.0","","102.14","","","","","","Drizzle"
"2013-01-14 22:00","2013","01","14","22:00"
"2013-01-14 23:00","2013","01","14","23:00"
"2013-01-15 00:00","2013","01","15","00:00"
"2013-01-15 01:00","2013","01","15","01:00"
"2013-01-15 02:00","2013","01","15","02:00"
"2013-01-15 03:00","2013","01","15","03:00"
"2013-01-15 04:00","2013","01","15","04:00"
"2013-01-15 05:00","2013","01","15","05:00"
"2013-01-15 06:00","2013","01","15","06:00","1.0","","-0.5","","90","","","","0","","2.4","","102.43","","","","","","Drizzle,Fog"
"2013-01-15 07:00","2013","01","15","07:00","0.9","","-0.7","","89","","","","0","","2.4","","102.46","","","","","","Drizzle,Fog"
"2013-01-15 08:00","2013","01","15","08:00","0.9","","-0.6","","90","","","","0","","2.4","","102.50","","","","","","Drizzle,Fog"
"2013-01-15 09:00","2013","01","15","09:00","1.1","","-0.3","","90","","","","0","","1.2","","102.57","","","","","","Drizzle"
"2013-01-15 10:00","2013","01","15","10:00","1.4","","0.1","","91","","","","0","","1.2","","102.62","","","","","","Drizzle,Fog"
"2013-01-15 11:00","2013","01","15","11:00","2.2","","0.9","","91","","","","0","","1.2","","102.65","","","","","","Fog"
"2013-01-15 12:00","2013","01","15","12:00","2.8","","1.5","","91","","","","0","","1.2","","102.64","","","","","","Fog"
"2013-01-15 13:00","2013","01","15","13:00","3.2","","2.0","","92","","","","0","","11.3","","102.60","","","","","","Drizzle"
"2013-01-15 14:00","2013","01","15","14:00","3.4","","1.4","","87","","","","0","","16.1","","102.57","","","","","","Cloudy"
"2013-01-15 15:00","2013","01","15","15:00","3.2","","1.8","","91","","","","0","","16.1","","102.58","","","","","","Cloudy"
"2013-01-15 16:00","2013","01","15","16:00","2.8","","1.5","","91","","","","0","","16.1","","102.61","","","","","","Cloudy"
"2013-01-15 17:00","2013","01","15","17:00","2.5","","1.3","","92","","","","0","","16.1","","102.59","","","","","","Cloudy"
"2013-01-15 18:00","2013","01","15","18:00","2.2","","0.7","","90","","23","","6","","11.3","","102.57","","","","","","Cloudy"
"2013-01-15 19:00","2013","01","15","19:00","1.8","","0.3","","90","","","","0","","16.1","","102.57","","","","","","Cloudy"
"2013-01-15 20:00","2013","01","15","20:00","1.6","","0.0","","89","","","","0","","16.1","","102.58","","","","","","Cloudy"
"2013-01-15 21:00","2013","01","15","21:00","1.3","","-0.3","","89","","","","0","","16.1","","102.59","","","","","","Cloudy"
"2013-01-15 22:00","2013","01","15","22:00"
"2013-01-15 23:00","2013","01","15","23:00"
"2013-01-16 00:00","2013","01","16","00:00"
"2013-01-16 01:00","2013","01","16","01:00"
"2013-01-16 02:00","2013","01","16","02:00"
"2013-01-16 03:00","2013","01","16","03:00"
"2013-01-16 04:00","2013","01","16","04:00"
"2013-01-16 05:00","2013","01","16","05:00"
"2013-01-16 06:00","2013","01","16","06:00","0.8","","-0.7","","90","","","","0","","11.3","","102.44","","","","","","Cloudy"
"2013-01-16 07:00","2013","01","16","07:00","0.6","","-0.9","","90","","","","0","","6.4","","102.41","","","","","","Drizzle"
"2013-01-16 08:00","2013","01","16","08:00","0.6","","-0.9","","90","","","","0","","6.4","","102.42","","","","","","Drizzle"
"2013-01-16 09:00","2013","01","16","09:00","0.6","","-0.9","","90","","","","0","","6.4","","102.46","","","","","","Drizzle"
"2013-01-16 10:00","2013","01","16","10:00","0.8","","-0.8","","89","","","","0","","6.4","","102.49","","","","","","Drizzle"
"2013-01-16 11:00","2013","01","16","11:00","1.2","","-0.2","","90","","","","0","","4.8","","102.46","","","","","","Fog"
"2013-01-16 12:00","2013","01","16","12:00","1.5","","0.1","","90","","","","0","","4.8","","102.41","","","","","","Fog"
"2013-01-16 13:00","2013","01","16","13:00","1.8","","0.4","","90","","","","0","","3.2","","102.33","","","","","","Fog"
"2013-01-16 14:00","2013","01","16","14:00","2.0","","0.7","","91","","","","0","","3.2","","102.26","","","","","","Fog"
"2013-01-16 15:00","2013","01","16","15:00","2.3","","0.8","","90","","","","0","","4.8","","102.27","","","","","","Drizzle"
"2013-01-16 16:00","2013","01","16","16:00","2.3","","0.9","","90","","","","0","","4.8","","102.28","","","","","","Drizzle"
"2013-01-16 17:00","2013","01","16","17:00","1.9","","0.4","","90","","","","0","","6.4","","102.24","","","","","","Drizzle"
"2013-01-16 18:00","2013","01","16","18:00","1.7","","0.3","","90","","","","0","","6.4","","102.21","","","","","","Fog"
"2013-01-16 19:00","2013","01","16","19:00","1.6","","0.0","","89","","","","0","","6.4","","102.22","","","","","","Fog"
"2013-01-16 20:00","2013","01","16","20:00","1.4","","-0.2","","89","","","","0","","6.4","","102.17","","","","","","Fog"
"2013-01-16 21:00","2013","01","16","21:00","1.1","","-0.4","","90","","","","0","","6.4","","102.17","","","","","","Fog"
"2013-01-16 22:00","2013","01","16","22:00"
"2013-01-16 23:00","2013","01","16","23:00"
"2013-01-17 00:00","2013","01","17","00:00"
"2013-01-17 01:00","2013","01","17","01:00"
"2013-01-17 02:00","2013","01","17","02:00"
"2013-01-17 03:00","2013","01","17","03:00"
"2013-01-17 04:00","2013","01","17","04:00"
"2013-01-17 05:00","2013","01","17","05:00"
"2013-01-17 06:00","2013","01","17","06:00","1.2","","-0.2","","90","","","","0","","4.8","","101.81","","","","","","Drizzle"
"2013-01-17 07:00","2013","01","17","07:00","1.5","","0.0","","90","","","","0","","4.8","","101.78","","","","","","Drizzle"
"2013-01-17 08:00","2013","01","17","08:00","1.2","","-0.2","","90","","","","0","","8.0","","101.78","","","","","","Drizzle"
"2013-01-17 09:00","2013","01","17","09:00","1.4","","-0.1","","90","","","","0","","4.8","","101.82","","","","","","Drizzle"
"2013-01-17 10:00","2013","01","17","10:00","1.5","","0.0","","90","","","","0","","4.8","","101.84","","","","","","Drizzle"
"2013-01-17 11:00","2013","01","17","11:00","2.1","","0.6","","90","","","","0","","4.8","","101.81","","","","","","Drizzle"
"2013-01-17 12:00","2013","01","17","12:00","2.4","","0.6","","88","","","","0","","8.0","","101.69","","","","","","Drizzle"
"2013-01-17 13:00","2013","01","17","13:00","2.6","","0.7","","87","","13","","4","","8.0","","101.58","","","","","","Drizzle"
"2013-01-17 14:00","2013","01","17","14:00","2.6","","0.8","","88","","","","0","","8.0","","101.44","","","","","","Fog"
"2013-01-17 15:00","2013","01","17","15:00","2.8","","0.7","","86","","16","","4","","8.0","","101.37","","","","","","Fog"
"2013-01-17 16:00","2013","01","17","16:00","2.8","","0.8","","87","","","","0","","9.7","","101.37","","","","","","Fog"
"2013-01-17 17:00","2013","01","17","17:00","2.4","","0.9","","90","","","","0","","9.7","","101.35","","","","","","Fog"
"2013-01-17 18:00","2013","01","17","18:00","2.1","","0.7","","90","","","","0","","9.7","","101.37","","","","","","Fog"
"2013-01-17 19:00","2013","01","17","19:00","1.9","","0.3","","89","","","","0","","8.0","","101.34","","","","","","Fog"
"2013-01-17 20:00","2013","01","17","20:00","1.8","","0.0","","88","","","","0","","8.0","","101.32","","","","","","Fog"
"2013-01-17 21:00","2013","01","17","21:00","1.6","","-0.1","","88","","","","0","","8.0","","101.34","","","","","","Fog"
"2013-01-17 22:00","2013","01","17","22:00"
"2013-01-17 23:00","2013","01","17","23:00"
"2013-01-18 00:00","2013","01","18","00:00"
"2013-01-18 01:00","2013","01","18","01:00"
"2013-01-18 02:00","2013","01","18","02:00"
"2013-01-18 03:00","2013","01","18","03:00"
"2013-01-18 04:00","2013","01","18","04:00"
"2013-01-18 05:00","2013","01","18","05:00"
"2013-01-18 06:00","2013","01","18","06:00","1.1","","-0.5","","89","","27","","6","","16.1","","101.24","","","","","","Cloudy"
"2013-01-18 07:00","2013","01","18","07:00","1.3","","-0.5","","88","","24","","6","","16.1","","101.25","","","","","","Cloudy"
"2013-01-18 08:00","2013","01","18","08:00","1.4","","-0.7","","86","","25","","4","","16.1","","101.25","","","","","","Cloudy"
"2013-01-18 09:00","2013","01","18","09:00","1.5","","-0.6","","86","","","","0","","16.1","","101.30","","","","","","Cloudy"
"2013-01-18 10:00","2013","01","18","10:00","1.8","","-0.3","","86","","","","0","","16.1","","101.33","","","","","","Mostly Cloudy"
"2013-01-18 11:00","2013","01","18","11:00","2.4","","0.0","","84","","","","0","","16.1","","101.39","","","","","","Cloudy"
"2013-01-18 12:00","2013","01","18","12:00","3.1","","0.4","","82","","","","0","","16.1","","101.38","","","","","","Cloudy"
"2013-01-18 13:00","2013","01","18","13:00","3.2","","0.2","","81","","8","","4","","16.1","","101.37","","","","","","Cloudy"
"2013-01-18 14:00","2013","01","18","14:00","3.4","","0.4","","81","","","","0","","16.1","","101.35","","","","","","Cloudy"
"2013-01-18 15:00","2013","01","18","15:00","3.5","","0.3","","80","","","","0","","16.1","","101.35","","","","","","Cloudy"
"2013-01-18 16:00","2013","01","18","16:00","3.2","","0.0","","79","","","","0","","16.1","","101.38","","","","","","Cloudy"
"2013-01-18 17:00","2013","01","18","17:00","2.9","","0.1","","82","","23","","4","","16.1","","101.40","","","","","","Cloudy"
"2013-01-18 18:00","2013","01","18","18:00","2.5","","0.0","","84","","26","","4","","16.1","","101.42","","","","","","Cloudy"
"2013-01-18 19:00","2013","01","18","19:00","2.2","","-0.1","","85","","27","","6","","16.1","","101.42","","","","","","Cloudy"
"2013-01-18 20:00","2013","01","18","20:00","2.0","","-0.4","","84","","29","","6","","16.1","","101.41","","","","","","Cloudy"
"2013-01-18 21:00","2013","01","18","21:00","1.6","","-0.6","","85","","29","","6","","12.9","","101.43","","","","","","Cloudy"
"2013-01-18 22:00","2013","01","18","22:00"
"2013-01-18 23:00","2013","01","18","23:00"
"2013-01-19 00:00","2013","01","19","00:00"
"2013-01-19 01:00","2013","01","19","01:00"
"2013-01-19 02:00","2013","01","19","02:00"
"2013-01-19 03:00","2013","01","19","03:00"
"2013-01-19 04:00","2013","01","19","04:00"
"2013-01-19 05:00","2013","01","19","05:00"
"2013-01-19 06:00","2013","01","19","06:00","0.8","","-0.7","","90","","31","","6","","3.2","","101.56","","","","","","Fog"
"2013-01-19 07:00","2013","01","19","07:00","0.8","","-0.7","","90","","25","","6","","1.6","","101.58","","","","","","Fog"
"2013-01-19 08:00","2013","01","19","08:00","0.5","","-0.8","","91","","23","","4","","1.6","","101.59","","","","","","Fog"
"2013-01-19 09:00","2013","01","19","09:00","0.2","","-1.3","","90","","24","","6","","1.6","","101.62","","","","","","Fog"
"2013-01-19 10:00","2013","01","19","10:00","0.5","","-1.0","","90","","27","","4","","1.6","","101.64","","","","","","Fog"
"2013-01-19 11:00","2013","01","19","11:00","0.8","","-0.9","","88","","26","","6","","1.6","","101.65","","","","","","Fog"
"2013-01-19 12:00","2013","01","19","12:00","1.5","","-0.2","","88","","27","","6","","3.2","","101.62","","","","","","Fog"
"2013-01-19 13:00","2013","01","19","13:00","1.6","","-0.3","","87","","","","0","","3.2","","101.60","","","","","","Fog"
"2013-01-19 14:00","2013","01","19","14:00","1.5","","-0.5","","87","","","","0","","3.2","","101.59","","","","","","Fog"
"2013-01-19 15:00","2013","01","19","15:00","1.3","","-0.7","","87","","","","0","","4.8","","101.57","","","","","","Fog"
"2013-01-19 16:00","2013","01","19","16:00","1.4","","-0.6","","87","","30","","4","","4.8","","101.58","","","","","","Fog"
"2013-01-19 17:00","2013","01","19","17:00","0.9","","-0.8","","88","","31","","4","","2.0","","101.58","","","","","","Fog"
"2013-01-19 18:00","2013","01","19","18:00","0.8","","-0.7","","90","","","","0","","0.8","","101.56","","","","","","Fog"
"2013-01-19 19:00","2013","01","19","19:00","0.4","","-1.2","","89","","","","0","","0.6","","101.58","","","","","","Fog"
"2013-01-19 20:00","2013","01","19","20:00","0.1","","-1.7","","88","","27","","4","","0.6","","101.60","","","","","","Fog"
"2013-01-19 21:00","2013","01","19","21:00","0.0","","-2.0","","86","","28","","4","","0.4","","101.59","","","","-1","","Freezing Fog"
"2013-01-19 22:00","2013","01","19","22:00"
"2013-01-19 23:00","2013","01","19","23:00"
"2013-01-20 00:00","2013","01","20","00:00"
"2013-01-20 01:00","2013","01","20","01:00"
"2013-01-20 02:00","2013","01","20","02:00"
"2013-01-20 03:00","2013","01","20","03:00"
"2013-01-20 04:00","2013","01","20","04:00"
"2013-01-20 05:00","2013","01","20","05:00"
"2013-01-20 06:00","2013","01","20","06:00","-0.8","","-2.0","","92","","31","","4","","0.6","","101.65","","","","-2","","Freezing Fog"
"2013-01-20 07:00","2013","01","20","07:00","-0.6","","-1.9","","91","","24","","4","","0.6","","101.62","","","","-2","","Freezing Fog"
"2013-01-20 08:00","2013","01","20","08:00","-0.9","","-2.5","","89","","","","0","","0.6","","101.61","","","","","","Freezing Fog"
"2013-01-20 09:00","2013","01","20","09:00","-2.0","","-3.8","","87","","","","0","","0.8","","101.65","","","","","","Freezing Fog"
"2013-01-20 10:00","2013","01","20","10:00","-1.5","","-3.0","","89","","","","0","","0.4","","101.67","","","","","","Freezing Fog"
"2013-01-20 11:00","2013","01","20","11:00","-0.3","","-1.5","","92","","","","0","","0.4","","101.67","","","","","","Freezing Fog"
"2013-01-20 12:00","2013","01","20","12:00","-0.1","","-1.3","","92","","","","0","","0.6","","101.61","","","","","","Freezing Fog"
"2013-01-20 13:00","2013","01","20","13:00","1.0","","-0.4","","90","","","","0","","4.0","","101.53","","","","","","Fog"
"2013-01-20 14:00","2013","01","20","14:00","3.3","","1.4","","87","","","","0","","48.3","","101.47","","","","","","Mostly Cloudy"
"2013-01-20 15:00","2013","01","20","15:00","4.2","","2.0","","86","","","","0","","48.3","","101.46","","","","","","Mostly Cloudy"
"2013-01-20 16:00","2013","01","20","16:00","3.2","","1.2","","87","","11","","4","","48.3","","101.45","","","","","","Mostly Cloudy"
"2013-01-20 17:00","2013","01","20","17:00","1.4","","-0.6","","87","","","","0","","48.3","","101.42","","","","","","Mostly Cloudy"
"2013-01-20 18:00","2013","01","20","18:00","0.5","","-0.9","","90","","","","0","","0.2","","101.37","","","","","","Fog"
"2013-01-20 19:00","2013","01","20","19:00","-0.6","","-1.6","","93","","","","0","","0.2","","101.36","","","","","","Freezing Fog"
"2013-01-20 20:00","2013","01","20","20:00","-1.3","","-2.8","","90","","","","0","","3.2","","101.36","","","","","","Fog"
"2013-01-20 21:00","2013","01","20","21:00","-1.5","","-2.9","","90","","29","","4","","6.4","","101.34","","","","-3","","Fog"
"2013-01-20 22:00","2013","01","20","22:00"
"2013-01-20 23:00","2013","01","20","23:00"
"2013-01-21 00:00","2013","01","21","00:00"
"2013-01-21 01:00","2013","01","21","01:00"
"2013-01-21 02:00","2013","01","21","02:00"
"2013-01-21 03:00","2013","01","21","03:00"
"2013-01-21 04:00","2013","01","21","04:00"
"2013-01-21 05:00","2013","01","21","05:00"
"2013-01-21 06:00","2013","01","21","06:00","-4.3","","-6.6","","84","","","","0","","24.1","","101.04","","","","","","Clear"
"2013-01-21 07:00","2013","01","21","07:00","-4.7","","-7.1","","83","","","","0","","24.1","","101.02","","","","","","Clear"
"2013-01-21 08:00","2013","01","21","08:00","-4.7","","-7.1","","83","","","","0","","48.3","","101.01","","","","","","Mainly Clear"
"2013-01-21 09:00","2013","01","21","09:00","-4.0","","-6.4","","83","","","","0","","48.3","","101.04","","","","","","Mainly Clear"
"2013-01-21 10:00","2013","01","21","10:00","-1.8","","-3.8","","86","","","","0","","48.3","","101.07","","","","","","Mainly Clear"
"2013-01-21 11:00","2013","01","21","11:00","0.7","","-1.3","","86","","11","","4","","48.3","","101.08","","","","","","Mainly Clear"
"2013-01-21 12:00","2013","01","21","12:00","1.3","","-0.8","","86","","11","","4","","48.3","","101.03","","","","","","Mainly Clear"
"2013-01-21 13:00","2013","01","21","13:00","0.7","","-1.3","","86","","7","","4","","48.3","","100.95","","","","","","Mainly Clear"
"2013-01-21 14:00","2013","01","21","14:00","0.8","","-1.2","","86","","11","","6","","32.2","","100.89","","","","","","Mostly Cloudy"
"2013-01-21 15:00","2013","01","21","15:00","0.2","","-1.5","","88","","","","0","","0.2","","100.84","","","","","","Fog"
"2013-01-21 16:00","2013","01","21","16:00","0.0","","-1.7","","88","","","","0","","0.2","","100.83","","","","","","Freezing Fog"
"2013-01-21 17:00","2013","01","21","17:00","-0.5","","-2.4","","87","","10","","6","","0.2","","100.81","","","","-3","","Freezing Fog"
"2013-01-21 18:00","2013","01","21","18:00","-1.0","","-3.2","","85","","","","0","","0.2","","100.76","","","","","","Freezing Fog"
"2013-01-21 19:00","2013","01","21","19:00","-1.3","","-3.6","","84","","34","","6","","0.2","","100.75","","","","-4","","Freezing Fog"
"2013-01-21 20:00","2013","01","21","20:00","-1.0","","-3.6","","82","","","","0","","0.2","","100.72","","","","","","Freezing Fog"
"2013-01-21 21:00","2013","01","21","21:00","-1.5","","-3.9","","84","","","","0","","0.2","","100.75","","","","","","Freezing Fog"
"2013-01-21 22:00","2013","01","21","22:00"
"2013-01-21 23:00","2013","01","21","23:00"
"2013-01-22 00:00","2013","01","22","00:00"
"2013-01-22 01:00","2013","01","22","01:00"
"2013-01-22 02:00","2013","01","22","02:00"
"2013-01-22 03:00","2013","01","22","03:00"
"2013-01-22 04:00","2013","01","22","04:00"
"2013-01-22 05:00","2013","01","22","05:00"
"2013-01-22 06:00","2013","01","22","06:00","-0.3","","-0.3","","100","","28","","4","","0.4","","100.62","","","","-2","","Freezing Fog"
"2013-01-22 07:00","2013","01","22","07:00","-0.1","","-0.1","","100","","","","0","","0.4","","100.58","","","","","","Freezing Fog"
"2013-01-22 08:00","2013","01","22","08:00","0.0","","0.0","","100","","","","0","","0.4","","100.56","","","","","","Freezing Fog"
"2013-01-22 09:00","2013","01","22","09:00","0.0","","-0.1","","99","","","","0","","0.4","","100.55","","","","","","Freezing Fog"
"2013-01-22 10:00","2013","01","22","10:00","0.1","","-1.5","","89","","","","0","","0.2","","100.55","","","","","","Fog"
"2013-01-22 11:00","2013","01","22","11:00","0.2","","-1.4","","89","","","","0","","0.4","","100.56","","","","","","Fog"
"2013-01-22 12:00","2013","01","22","12:00","0.4","","-1.1","","90","","","","0","","0.4","","100.50","","","","","","Fog"
"2013-01-22 13:00","2013","01","22","13:00","0.8","","-0.8","","89","","","","0","","1.6","","100.42","","","","","","Fog"
"2013-01-22 14:00","2013","01","22","14:00","1.2","","-0.5","","88","","","","0","","2.0","","100.30","","","","","","Fog"
"2013-01-22 15:00","2013","01","22","15:00","1.5","","-0.2","","88","","","","0","","2.0","","100.27","","","","","","Fog"
"2013-01-22 16:00","2013","01","22","16:00","1.3","","-0.2","","90","","","","0","","1.6","","100.25","","","","","","Fog"
"2013-01-22 17:00","2013","01","22","17:00","1.2","","-0.3","","90","","","","0","","1.2","","100.18","","","","","","Fog"
"2013-01-22 18:00","2013","01","22","18:00","1.1","","-0.5","","89","","","","0","","0.8","","100.13","","","","","","Fog"
"2013-01-22 19:00","2013","01","22","19:00","0.9","","-0.7","","89","","","","0","","0.8","","100.12","","","","","","Fog"
"2013-01-22 20:00","2013","01","22","20:00","0.8","","-0.8","","89","","","","0","","3.2","","100.11","","","","","","Fog"
"2013-01-22 21:00","2013","01","22","21:00","1.0","","-0.6","","89","","","","0","","3.2","","100.07","","","","","","Fog"
"2013-01-22 22:00","2013","01","22","22:00"
"2013-01-22 23:00","2013","01","22","23:00"
"2013-01-23 00:00","2013","01","23","00:00"
"2013-01-23 01:00","2013","01","23","01:00"
"2013-01-23 02:00","2013","01","23","02:00"
"2013-01-23 03:00","2013","01","23","03:00"
"2013-01-23 04:00","2013","01","23","04:00"
"2013-01-23 05:00","2013","01","23","05:00"
"2013-01-23 06:00","2013","01","23","06:00","1.3","","-0.2","","90","","","","0","","2.4","","99.91","","","","","","Fog"
"2013-01-23 07:00","2013","01","23","07:00","1.3","","-0.3","","89","","","","0","","2.4","","99.82","","","","","","Fog"
"2013-01-23 08:00","2013","01","23","08:00","1.2","","-0.3","","90","","","","0","","2.4","","99.81","","","","","","Rain,Fog"
"2013-01-23 09:00","2013","01","23","09:00","1.6","","0.2","","90","","","","0","","3.2","","99.78","","","","","","Rain,Fog"
"2013-01-23 10:00","2013","01","23","10:00","2.0","","0.5","","90","","","","0","","3.2","","99.74","","","","","","Rain,Fog"
"2013-01-23 11:00","2013","01","23","11:00","2.6","","1.2","","90","","","","0","","2.4","","99.73","","","","","","Rain,Fog"
"2013-01-23 12:00","2013","01","23","12:00","3.4","","2.0","","91","","","","0","","2.4","","99.72","","","","","","Rain,Fog"
"2013-01-23 13:00","2013","01","23","13:00","2.9","","1.5","","90","","","","0","","2.4","","99.68","","","","","","Rain,Fog"
"2013-01-23 14:00","2013","01","23","14:00","3.0","","1.5","","90","","29","","6","","6.4","","99.68","","","","","","Rain,Fog"
"2013-01-23 15:00","2013","01","23","15:00","2.5","","0.8","","89","","31","","7","","11.3","","99.70","","","","","","Rain"
"2013-01-23 16:00","2013","01","23","16:00","2.3","","0.6","","89","","30","","7","","11.3","","99.75","","","","","","Rain"
"2013-01-23 17:00","2013","01","23","17:00","2.2","","0.7","","90","","30","","4","","24.1","","99.87","","","","","","Rain"
"2013-01-23 18:00","2013","01","23","18:00","2.1","","0.5","","89","","","","0","","24.1","","99.89","","","","","","Rain"
"2013-01-23 19:00","2013","01","23","19:00","1.9","","0.4","","90","","","","0","","24.1","","99.98","","","","","","Rain"
"2013-01-23 20:00","2013","01","23","20:00","1.5","","-0.1","","89","","","","0","","24.1","","100.10","","","","","","Rain"
"2013-01-23 21:00","2013","01","23","21:00","1.4","","-0.2","","89","","25","","4","","24.1","","100.22","","","","","","Rain"
"2013-01-23 22:00","2013","01","23","22:00"
"2013-01-23 23:00","2013","01","23","23:00"
"2013-01-24 00:00","2013","01","24","00:00"
"2013-01-24 01:00","2013","01","24","01:00"
"2013-01-24 02:00","2013","01","24","02:00"
"2013-01-24 03:00","2013","01","24","03:00"
"2013-01-24 04:00","2013","01","24","04:00"
"2013-01-24 05:00","2013","01","24","05:00"
"2013-01-24 06:00","2013","01","24","06:00","1.7","","0.2","","90","","","","0","","8.0","","100.69","","","","","","Fog"
"2013-01-24 07:00","2013","01","24","07:00","1.8","","0.3","","90","","","","0","","8.0","","100.67","","","","","","Fog"
"2013-01-24 08:00","2013","01","24","08:00","2.5","","1.0","","90","","","","0","","2.0","","100.64","","","","","","Fog"
"2013-01-24 09:00","2013","01","24","09:00","2.6","","1.1","","90","","13","","13","","3.2","","100.60","","","","","","Fog"
"2013-01-24 10:00","2013","01","24","10:00","3.8","","1.9","","87","","15","","28","","3.2","","100.63","","","","","","Fog"
"2013-01-24 11:00","2013","01","24","11:00","3.9","","2.5","","91","","14","","22","","8.0","","100.57","","","","","","Fog"
"2013-01-24 12:00","2013","01","24","12:00","4.0","","2.7","","91","","14","","19","","4.8","","100.45","","","","","","Fog"
"2013-01-24 13:00","2013","01","24","13:00","4.0","","2.4","","89","","13","","26","","4.8","","100.37","","","","","","Rain,Fog"
"2013-01-24 14:00","2013","01","24","14:00","3.5","","1.9","","89","","14","","17","","9.7","","100.32","","","","","","Rain,Fog"
"2013-01-24 15:00","2013","01","24","15:00","3.7","","2.1","","89","","13","","32","","9.7","","100.24","","","","","","Rain,Fog"
"2013-01-24 16:00","2013","01","24","16:00","3.9","","2.3","","89","","14","","33","","6.4","","100.21","","","","","","Moderate Rain,Fog"
"2013-01-24 17:00","2013","01","24","17:00","2.8","","2.3","","97","","14","","24","","6.4","","100.17","","","","","","Rain,Fog"
"2013-01-24 18:00","2013","01","24","18:00","3.7","","2.3","","91","","13","","32","","8.0","","100.14","","","","","","Rain,Fog"
"2013-01-24 19:00","2013","01","24","19:00","3.7","","2.2","","90","","13","","28","","8.0","","100.10","","","","","","Rain,Fog"
"2013-01-24 20:00","2013","01","24","20:00","3.6","","2.0","","89","","13","","26","","6.4","","100.10","","","","","","Rain,Fog"
"2013-01-24 21:00","2013","01","24","21:00","3.6","","2.0","","89","","14","","32","","6.4","","100.05","","","","","","Rain,Fog"
"2013-01-24 22:00","2013","01","24","22:00"
"2013-01-24 23:00","2013","01","24","23:00"
"2013-01-25 00:00","2013","01","25","00:00"
"2013-01-25 01:00","2013","01","25","01:00"
"2013-01-25 02:00","2013","01","25","02:00"
"2013-01-25 03:00","2013","01","25","03:00"
"2013-01-25 04:00","2013","01","25","04:00"
"2013-01-25 05:00","2013","01","25","05:00"
"2013-01-25 06:00","2013","01","25","06:00","1.8","","0.2","","89","","","","0","","12.9","","100.20","","","","","","Mostly Cloudy"
"2013-01-25 07:00","2013","01","25","07:00","0.6","","-1.0","","89","","","","0","","16.1","","100.19","","","","","","Mainly Clear"
"2013-01-25 08:00","2013","01","25","08:00","0.8","","-0.9","","88","","","","0","","24.1","","100.21","","","","","","Mostly Cloudy"
"2013-01-25 09:00","2013","01","25","09:00","1.3","","-0.3","","89","","","","0","","24.1","","100.24","","","","","","Mostly Cloudy"
"2013-01-25 10:00","2013","01","25","10:00","3.8","","2.3","","90","","11","","11","","24.1","","100.22","","","","","","Mostly Cloudy"
"2013-01-25 11:00","2013","01","25","11:00","5.5","","3.9","","89","","11","","17","","24.1","","100.20","","","","","","Mostly Cloudy"
"2013-01-25 12:00","2013","01","25","12:00","6.4","","4.5","","88","","12","","17","","24.1","","100.11","","","","","","Mostly Cloudy"
"2013-01-25 13:00","2013","01","25","13:00","6.6","","4.0","","83","","14","","26","","24.1","","100.04","","","","","","Mostly Cloudy"
"2013-01-25 14:00","2013","01","25","14:00","6.5","","4.3","","86","","14","","26","","16.1","","99.95","","","","","","Mostly Cloudy"
"2013-01-25 15:00","2013","01","25","15:00","6.6","","3.9","","83","","14","","20","","24.1","","99.90","","","","","","Mostly Cloudy"
"2013-01-25 16:00","2013","01","25","16:00","6.4","","4.0","","85","","14","","19","","24.1","","99.91","","","","","","Mostly Cloudy"
"2013-01-25 17:00","2013","01","25","17:00","5.9","","4.2","","89","","15","","7","","16.1","","99.91","","","","","","Rain"
"2013-01-25 18:00","2013","01","25","18:00","5.5","","4.5","","93","","15","","7","","12.9","","99.88","","","","","","Rain"
"2013-01-25 19:00","2013","01","25","19:00","4.8","","3.4","","91","","15","","11","","12.9","","99.85","","","","","","Rain"
"2013-01-25 20:00","2013","01","25","20:00","4.3","","3.0","","91","","15","","6","","8.0","","99.82","","","","","","Rain,Fog"
"2013-01-25 21:00","2013","01","25","21:00","4.0","","3.0","","93","","","","0","","8.0","","99.82","","","","","","Rain,Fog"
"2013-01-25 22:00","2013","01","25","22:00"
"2013-01-25 23:00","2013","01","25","23:00"
"2013-01-26 00:00","2013","01","26","00:00"
"2013-01-26 01:00","2013","01","26","01:00"
"2013-01-26 02:00","2013","01","26","02:00"
"2013-01-26 03:00","2013","01","26","03:00"
"2013-01-26 04:00","2013","01","26","04:00"
"2013-01-26 05:00","2013","01","26","05:00"
"2013-01-26 06:00","2013","01","26","06:00","3.2","","1.8","","91","","10","","6","","9.7","","99.76","","","","","","Rain,Fog"
"2013-01-26 07:00","2013","01","26","07:00","2.6","","1.3","","91","","","","0","","9.7","","99.81","","","","","","Rain,Fog"
"2013-01-26 08:00","2013","01","26","08:00","2.1","","0.7","","90","","29","","7","","9.7","","99.85","","","","","","Rain,Fog"
"2013-01-26 09:00","2013","01","26","09:00","1.9","","0.3","","89","","30","","6","","9.7","","99.90","","","","","","Rain,Fog"
"2013-01-26 10:00","2013","01","26","10:00","2.1","","0.6","","90","","31","","6","","16.1","","99.95","","","","","","Rain"
"2013-01-26 11:00","2013","01","26","11:00","2.6","","1.0","","89","","29","","6","","16.1","","99.99","","","","","","Rain"
"2013-01-26 12:00","2013","01","26","12:00","3.2","","1.4","","88","","31","","6","","16.1","","99.98","","","","","","Rain"
"2013-01-26 13:00","2013","01","26","13:00","3.7","","2.1","","89","","35","","6","","12.9","","99.97","","","","","","Rain"
"2013-01-26 14:00","2013","01","26","14:00","4.4","","2.6","","88","","32","","4","","16.1","","99.98","","","","","","Mostly Cloudy"
"2013-01-26 15:00","2013","01","26","15:00","4.2","","2.7","","90","","","","0","","16.1","","100.00","","","","","","Mostly Cloudy"
"2013-01-26 16:00","2013","01","26","16:00","4.9","","2.9","","87","","","","0","","16.1","","100.02","","","","","","Mostly Cloudy"
"2013-01-26 17:00","2013","01","26","17:00","4.3","","2.8","","90","","","","0","","16.1","","100.07","","","","","","Mostly Cloudy"
"2013-01-26 18:00","2013","01","26","18:00","3.3","","2.0","","91","","","","0","","24.1","","100.10","","","","","","Mostly Cloudy"
"2013-01-26 19:00","2013","01","26","19:00","2.4","","1.1","","91","","","","0","","16.1","","100.13","","","","","","Mostly Cloudy"
"2013-01-26 20:00","2013","01","26","20:00","1.9","","0.6","","91","","31","","6","","24.1","","100.17","","","","","","Mostly Cloudy"
"2013-01-26 21:00","2013","01","26","21:00","1.5","","0.1","","90","","","","0","","24.1","","100.17","","","","","","Mostly Cloudy"
"2013-01-26 22:00","2013","01","26","22:00"
"2013-01-26 23:00","2013","01","26","23:00"
"2013-01-27 00:00","2013","01","27","00:00"
"2013-01-27 01:00","2013","01","27","01:00"
"2013-01-27 02:00","2013","01","27","02:00"
"2013-01-27 03:00","2013","01","27","03:00"
"2013-01-27 04:00","2013","01","27","04:00"
"2013-01-27 05:00","2013","01","27","05:00"
"2013-01-27 06:00","2013","01","27","06:00","0.4","","-1.2","","89","","","","0","","24.1","","100.14","","","","","","Cloudy"
"2013-01-27 07:00","2013","01","27","07:00","0.2","","-1.4","","89","","","","0","","24.1","","100.13","","","","","","Cloudy"
"2013-01-27 08:00","2013","01","27","08:00","0.1","","-1.4","","90","","","","0","","24.1","","100.12","","","","","","Cloudy"
"2013-01-27 09:00","2013","01","27","09:00","0.5","","-1.1","","89","","","","0","","24.1","","100.13","","","","","","Mostly Cloudy"
"2013-01-27 10:00","2013","01","27","10:00","1.1","","-0.4","","90","","","","0","","24.1","","100.17","","","","","","Mostly Cloudy"
"2013-01-27 11:00","2013","01","27","11:00","2.5","","1.2","","91","","","","0","","24.1","","100.16","","","","","","Mostly Cloudy"
"2013-01-27 12:00","2013","01","27","12:00","4.3","","1.8","","84","","","","0","","24.1","","100.10","","","","","","Mostly Cloudy"
"2013-01-27 13:00","2013","01","27","13:00","4.7","","2.7","","87","","12","","7","","19.3","","100.06","","","","","","Cloudy"
"2013-01-27 14:00","2013","01","27","14:00","4.8","","2.9","","87","","","","0","","19.3","","100.05","","","","","","Rain"
"2013-01-27 15:00","2013","01","27","15:00","4.7","","2.9","","88","","27","","4","","19.3","","100.08","","","","","","Rain"
"2013-01-27 16:00","2013","01","27","16:00","4.7","","2.8","","87","","","","0","","24.1","","100.08","","","","","","Mostly Cloudy"
"2013-01-27 17:00","2013","01","27","17:00","3.9","","2.4","","90","","30","","6","","32.2","","100.09","","","","","","Mostly Cloudy"
"2013-01-27 18:00","2013","01","27","18:00","3.5","","1.9","","89","","25","","4","","24.1","","100.12","","","","","","Mostly Cloudy"
"2013-01-27 19:00","2013","01","27","19:00","2.2","","0.8","","90","","","","0","","24.1","","100.16","","","","","","Mostly Cloudy"
"2013-01-27 20:00","2013","01","27","20:00","2.3","","0.9","","90","","","","0","","24.1","","100.19","","","","","","Mostly Cloudy"
"2013-01-27 21:00","2013","01","27","21:00","2.3","","0.5","","88","","29","","11","","24.1","","100.17","","","","","","Mostly Cloudy"
"2013-01-27 22:00","2013","01","27","22:00"
"2013-01-27 23:00","2013","01","27","23:00"
"2013-01-28 00:00","2013","01","28","00:00"
"2013-01-28 01:00","2013","01","28","01:00"
"2013-01-28 02:00","2013","01","28","02:00"
"2013-01-28 03:00","2013","01","28","03:00"
"2013-01-28 04:00","2013","01","28","04:00"
"2013-01-28 05:00","2013","01","28","05:00"
"2013-01-28 06:00","2013","01","28","06:00","1.2","","-0.8","","86","","27","","7","","25.0","","100.30","","","","","","Cloudy"
"2013-01-28 07:00","2013","01","28","07:00","1.0","","-0.9","","87","","","","0","","25.0","","100.29","","","","","","Cloudy"
"2013-01-28 08:00","2013","01","28","08:00","0.9","","-1.0","","87","","","","0","","24.1","","100.27","","","","","","Cloudy"
"2013-01-28 09:00","2013","01","28","09:00","1.0","","-0.7","","88","","","","0","","24.1","","100.25","","","","","","Cloudy"
"2013-01-28 10:00","2013","01","28","10:00","1.7","","-0.1","","88","","","","0","","12.9","","100.26","","","","","","Rain"
"2013-01-28 11:00","2013","01","28","11:00","2.9","","1.1","","88","","","","0","","12.9","","100.28","","","","","","Rain"
"2013-01-28 12:00","2013","01","28","12:00","3.4","","0.8","","83","","","","0","","16.1","","100.28","","","","","","Rain"
"2013-01-28 13:00","2013","01","28","13:00","3.5","","1.5","","87","","","","0","","11.3","","100.25","","","","","","Rain"
"2013-01-28 14:00","2013","01","28","14:00","3.7","","1.6","","86","","","","0","","11.3","","100.21","","","","","","Rain"
"2013-01-28 15:00","2013","01","28","15:00","3.4","","1.7","","89","","5","","4","","11.3","","100.20","","","","","","Rain"
"2013-01-28 16:00","2013","01","28","16:00","3.1","","1.4","","89","","36","","4","","11.3","","100.24","","","","","","Rain"
"2013-01-28 17:00","2013","01","28","17:00","2.8","","1.3","","90","","","","0","","11.3","","100.25","","","","","","Rain"
"2013-01-28 18:00","2013","01","28","18:00","2.5","","1.1","","90","","","","0","","12.9","","100.29","","","","","","Drizzle"
"2013-01-28 19:00","2013","01","28","19:00","2.6","","1.3","","91","","","","0","","4.8","","100.29","","","","","","Drizzle,Fog"
"2013-01-28 20:00","2013","01","28","20:00","2.3","","1.0","","91","","","","0","","4.8","","100.30","","","","","","Drizzle,Fog"
"2013-01-28 21:00","2013","01","28","21:00","1.8","","0.4","","90","","","","0","","2.4","","100.33","","","","","","Fog"
"2013-01-28 22:00","2013","01","28","22:00"
"2013-01-28 23:00","2013","01","28","23:00"
"2013-01-29 00:00","2013","01","29","00:00"
"2013-01-29 01:00","2013","01","29","01:00"
"2013-01-29 02:00","2013","01","29","02:00"
"2013-01-29 03:00","2013","01","29","03:00"
"2013-01-29 04:00","2013","01","29","04:00"
"2013-01-29 05:00","2013","01","29","05:00"
"2013-01-29 06:00","2013","01","29","06:00","1.1","","-0.6","","88","","","","0","","24.1","","100.75","","","","","","Mostly Cloudy"
"2013-01-29 07:00","2013","01","29","07:00","1.2","","-0.7","","87","","24","","4","","24.1","","100.86","","","","","","Mostly Cloudy"
"2013-01-29 08:00","2013","01","29","08:00","1.1","","-0.7","","88","","","","0","","48.3","","100.90","","","","","","Mostly Cloudy"
"2013-01-29 09:00","2013","01","29","09:00","1.7","","0.1","","89","","30","","4","","32.2","","101.00","","","","","","Mostly Cloudy"
"2013-01-29 10:00","2013","01","29","10:00","3.4","","1.5","","87","","","","0","","48.3","","101.05","","","","","","Mostly Cloudy"
"2013-01-29 11:00","2013","01","29","11:00","5.8","","3.6","","86","","","","0","","32.2","","101.10","","","","","","Mostly Cloudy"
"2013-01-29 12:00","2013","01","29","12:00","5.7","","3.1","","83","","","","0","","48.3","","101.14","","","","","","Mostly Cloudy"
"2013-01-29 13:00","2013","01","29","13:00","6.5","","3.7","","82","","10","","9","","48.3","","101.08","","","","","","Mostly Cloudy"
"2013-01-29 14:00","2013","01","29","14:00","5.8","","3.7","","86","","11","","7","","48.3","","101.14","","","","","","Cloudy"
"2013-01-29 15:00","2013","01","29","15:00","5.5","","3.9","","89","","11","","7","","19.3","","101.13","","","","","","Rain"
"2013-01-29 16:00","2013","01","29","16:00","5.2","","3.9","","91","","10","","6","","6.4","","101.17","","","","","","Rain,Fog"
"2013-01-29 17:00","2013","01","29","17:00","5.0","","3.8","","92","","10","","7","","4.8","","101.17","","","","","","Rain,Fog"
"2013-01-29 18:00","2013","01","29","18:00","4.8","","3.7","","93","","11","","7","","4.0","","101.19","","","","","","Rain,Fog"
"2013-01-29 19:00","2013","01","29","19:00","4.8","","3.7","","93","","10","","6","","4.8","","101.22","","","","","","Fog"
"2013-01-29 20:00","2013","01","29","20:00","4.6","","3.3","","91","","8","","6","","3.2","","101.24","","","","","","Fog"
"2013-01-29 21:00","2013","01","29","21:00","4.4","","3.3","","93","","8","","6","","3.2","","101.24","","","","","","Fog"
"2013-01-29 22:00","2013","01","29","22:00"
"2013-01-29 23:00","2013","01","29","23:00"
"2013-01-30 00:00","2013","01","30","00:00"
"2013-01-30 01:00","2013","01","30","01:00"
"2013-01-30 02:00","2013","01","30","02:00"
"2013-01-30 03:00","2013","01","30","03:00"
"2013-01-30 04:00","2013","01","30","04:00"
"2013-01-30 05:00","2013","01","30","05:00"
"2013-01-30 06:00","2013","01","30","06:00","3.7","","2.5","","92","","","","0","","0.8","","101.40","","","","","","Fog"
"2013-01-30 07:00","2013","01","30","07:00","3.8","","2.4","","91","","28","","4","","0.8","","101.40","","","","","","Fog"
"2013-01-30 08:00","2013","01","30","08:00","3.9","","2.5","","91","","28","","4","","1.2","","101.42","","","","","","Fog"
"2013-01-30 09:00","2013","01","30","09:00","3.9","","2.7","","92","","24","","4","","0.8","","101.46","","","","","","Fog"
"2013-01-30 10:00","2013","01","30","10:00","3.9","","2.6","","91","","32","","6","","1.6","","101.47","","","","","","Fog"
"2013-01-30 11:00","2013","01","30","11:00","4.0","","2.8","","92","","27","","4","","1.2","","101.49","","","","","","Fog"
"2013-01-30 12:00","2013","01","30","12:00","4.5","","3.4","","93","","","","0","","3.2","","101.49","","","","","","Fog"
"2013-01-30 13:00","2013","01","30","13:00","4.7","","3.5","","92","","","","0","","6.4","","101.49","","","","","","Fog"
"2013-01-30 14:00","2013","01","30","14:00","5.3","","3.1","","86","","","","0","","8.0","","101.48","","","","","","Fog"
"2013-01-30 15:00","2013","01","30","15:00","5.3","","3.4","","88","","","","0","","9.7","","101.46","","","","","","Fog"
"2013-01-30 16:00","2013","01","30","16:00","5.3","","3.5","","88","","","","0","","6.4","","101.47","","","","","","Fog"
"2013-01-30 17:00","2013","01","30","17:00","5.3","","3.8","","90","","","","0","","4.8","","101.48","","","","","","Fog"
"2013-01-30 18:00","2013","01","30","18:00","5.0","","3.7","","91","","","","0","","4.8","","101.47","","","","","","Rain,Fog"
"2013-01-30 19:00","2013","01","30","19:00","4.8","","3.4","","91","","","","0","","4.8","","101.46","","","","","","Rain,Fog"
"2013-01-30 20:00","2013","01","30","20:00","4.4","","3.2","","92","","","","0","","4.8","","101.46","","","","","","Rain,Fog"
"2013-01-30 21:00","2013","01","30","21:00","4.5","","3.2","","91","","","","0","","4.8","","101.46","","","","","","Rain,Fog"
"2013-01-30 22:00","2013","01","30","22:00"
"2013-01-30 23:00","2013","01","30","23:00"
"2013-01-31 00:00","2013","01","31","00:00"
"2013-01-31 01:00","2013","01","31","01:00"
"2013-01-31 02:00","2013","01","31","02:00"
"2013-01-31 03:00","2013","01","31","03:00"
"2013-01-31 04:00","2013","01","31","04:00"
"2013-01-31 05:00","2013","01","31","05:00"
"2013-01-31 06:00","2013","01","31","06:00","5.1","","3.8","","91","","12","","13","","0.8","","101.21","","","","","","Fog"
"2013-01-31 07:00","2013","01","31","07:00","5.1","","3.9","","92","","20","","4","","1.2","","101.24","","","","","","Fog"
"2013-01-31 08:00","2013","01","31","08:00","4.4","","3.2","","92","","","","0","","1.2","","101.20","","","","","","Drizzle"
"2013-01-31 09:00","2013","01","31","09:00","4.5","","3.3","","92","","","","0","","1.2","","101.20","","","","","","Drizzle,Fog"
"2013-01-31 10:00","2013","01","31","10:00","4.8","","3.6","","92","","","","0","","0.6","","101.24","","","","","","Fog"
"2013-01-31 11:00","2013","01","31","11:00","4.9","","3.7","","92","","","","0","","0.8","","101.22","","","","","","Fog"
"2013-01-31 12:00","2013","01","31","12:00","5.4","","4.2","","92","","","","0","","0.4","","101.23","","","","","","Fog"
"2013-01-31 13:00","2013","01","31","13:00","5.6","","4.5","","93","","","","0","","0.8","","101.19","","","","","","Fog"
"2013-01-31 14:00","2013","01","31","14:00","5.8","","4.6","","92","","","","0","","1.6","","101.19","","","","","","Fog"
"2013-01-31 15:00","2013","01","31","15:00","5.8","","4.7","","93","","","","0","","1.6","","101.20","","","","","","Fog"
"2013-01-31 16:00","2013","01","31","16:00","6.0","","4.8","","92","","","","0","","2.4","","101.25","","","","","","Fog"
"2013-01-31 17:00","2013","01","31","17:00","6.2","","4.8","","91","","","","0","","3.2","","101.24","","","","","","Fog"
"2013-01-31 18:00","2013","01","31","18:00","6.0","","4.7","","91","","","","0","","4.8","","101.24","","","","","","Fog"
"2013-01-31 19:00","2013","01","31","19:00","5.6","","4.1","","90","","28","","6","","6.4","","101.29","","","","","","Fog"
"2013-01-31 20:00","2013","01","31","20:00","5.3","","3.9","","91","","28","","6","","9.7","","101.32","","","","","","Rain,Fog"
"2013-01-31 21:00","2013","01","31","21:00","4.4","","3.2","","92","","33","","6","","16.1","","101.31","","","","","","Mostly Cloudy"
"2013-01-31 22:00","2013","01","31","22:00"
"2013-01-31 23:00","2013","01","31","23:00"
