"Station Name","CAMPBELL RIVER A"
"Province","BRITISH COLUMBIA"
"Latitude","49.95"
"Longitude","-125.27"
"Elevation","108.80"
"Climate Identifier","1021261"
"WMO Identifier",""
"TC Identifier","YBL"
"All times are specified in Local Standard Time (LST). Add 1 hour to adjust for Daylight Saving Time where and when it is observed."

"Legend"
"E","Estimated"
"M","Missing"
"NA","Not Available"

"Date/Time","Year","Month","Day","Time","Temp (°C)","Temp Flag","Dew Point Temp (°C)","Dew Point Temp Flag","Rel Hum (%)","Rel Hum Flag","Wind Dir (10s deg)","Wind Dir Flag","Wind Spd (km/h)","Wind Spd Flag","Visibility (km)","Visibility Flag","Stn Press (kPa)","Stn Press Flag","Hmdx","Hmdx Flag","Wind Chill","Wind Chill Flag","Weather"
"1983-11-01 00:00","1983","11","01","00:00","5.1","","4.9","","98","","","","0","","4.8","","99.79","","","","","","Fog"
"1983-11-01 01:00","1983","11","01","01:00"
"1983-11-01 02:00","1983","11","01","02:00"
"1983-11-01 03:00","1983","11","01","03:00"
"1983-11-01 04:00","1983","11","01","04:00"
"1983-11-01 05:00","1983","11","01","05:00"
"1983-11-01 06:00","1983","11","01","06:00","7.6","","7.4","","98","","9","","6","","16.1","","99.39","","","","","","Rain"
"1983-11-01 07:00","1983","11","01","07:00","7.5","","7.4","","99","","9","","6","","12.9","","99.26","","","","","","Rain"
"1983-11-01 08:00","1983","11","01","08:00","8.0","","7.4","","96","","11","","4","","12.9","","99.29","","","","","","Cloudy"
"1983-11-01 09:00","1983","11","01","09:00","8.4","","7.9","","97","","11","","11","","19.3","","99.29","","","","","","Cloudy"
"1983-11-01 10:00","1983","11","01","10:00","8.9","","8.3","","96","","12","","11","","19.3","","99.19","","","","","","Rain"
"1983-11-01 11:00","1983","11","01","11:00","9.6","","8.3","","91","","","","0","","19.3","","99.06","","","","","","Rain"
"1983-11-01 12:00","1983","11","01","12:00","8.9","","8.4","","97","","","","0","","8.0","","99.02","","","","","","Rain,Fog"
"1983-11-01 13:00","1983","11","01","13:00","8.7","","8.5","","99","","8","","13","","3.2","","98.99","","","","","","Rain,Fog"
"1983-11-01 14:00","1983","11","01","14:00","9.0","","8.6","","97","","12","","19","","2.4","","98.99","","","","","","Rain,Fog"
"1983-11-01 15:00","1983","11","01","15:00","9.4","","8.6","","95","","9","","11","","8.0","","99.02","","","","","","Fog"
"1983-11-01 16:00","1983","11","01","16:00","10.0","","9.0","","93","","12","","19","","19.3","","99.09","","","","","","Cloudy"
"1983-11-01 17:00","1983","11","01","17:00","9.9","","8.9","","93","","11","","24","","8.0","","99.16","","","","","","Rain Showers,Fog"
"1983-11-01 18:00","1983","11","01","18:00","9.7","","8.9","","95","","15","","13","","8.0","","99.16","","","","","","Rain Showers,Fog"
"1983-11-01 19:00","1983","11","01","19:00","9.5","","8.7","","95","","12","","26","","8.0","","99.19","","","","","","Rain Showers,Fog"
"1983-11-01 20:00","1983","11","01","20:00","9.8","","9.4","","97","","14","","22","","8.0","","99.16","","","","","","Rain Showers,Fog"
"1983-11-01 21:00","1983","11","01","21:00","10.1","","9.8","","98","","12","","22","","8.0","","99.16","","","","","","Rain Showers,Fog"
"1983-11-01 22:00","1983","11","01","22:00"
"1983-11-01 23:00","1983","11","01","23:00"
"1983-11-02 00:00","1983","11","02","00:00"
"1983-11-02 01:00","1983","11","02","01:00"
"1983-11-02 02:00","1983","11","02","02:00"
"1983-11-02 03:00","1983","11","02","03:00"
"1983-11-02 04:00","1983","11","02","04:00"
"1983-11-02 05:00","1983","11","02","05:00"
"1983-11-02 06:00","1983","11","02","06:00","10.0","","9.3","","95","","12","","19","","9.7","","98.89","","","","","","Rain,Fog"
"1983-11-02 07:00","1983","11","02","07:00","10.0","","9.3","","95","","14","","24","","8.0","","98.99","","","","","","Moderate Rain,Fog"
"1983-11-02 08:00","1983","11","02","08:00","10.1","","9.3","","95","","13","","26","","11.3","","99.09","","","","","","Rain"
"1983-11-02 09:00","1983","11","02","09:00","10.1","","9.5","","96","","13","","19","","16.1","","99.22","","","","","","Mostly Cloudy"
"1983-11-02 10:00","1983","11","02","10:00","10.9","","10.1","","95","","","","0","","19.3","","99.29","","","","","","Mostly Cloudy"
"1983-11-02 11:00","1983","11","02","11:00","11.4","","10.0","","91","","","","0","","19.3","","99.43","","","","","","Mostly Cloudy"
"1983-11-02 12:00","1983","11","02","12:00","12.2","","10.4","","89","","","","0","","24.1","","99.49","","","","","","Mostly Cloudy"
"1983-11-02 13:00","1983","11","02","13:00","12.3","","9.8","","85","","5","","9","","24.1","","99.56","","","","","","Mostly Cloudy"
"1983-11-02 14:00","1983","11","02","14:00","12.4","","10.3","","87","","","","0","","24.1","","99.46","","","","","","Mostly Cloudy"
"1983-11-02 15:00","1983","11","02","15:00","12.5","","10.3","","86","","11","","7","","24.1","","99.46","","","","","","Cloudy"
"1983-11-02 16:00","1983","11","02","16:00","11.2","","8.0","","81","","11","","15","","24.1","","99.46","","","","","","Cloudy"
"1983-11-02 17:00","1983","11","02","17:00","10.9","","7.3","","78","","12","","15","","24.1","","99.39","","","","","","Cloudy"
"1983-11-02 18:00","1983","11","02","18:00","10.7","","9.0","","89","","13","","20","","24.1","","99.26","","","","","","Rain"
"1983-11-02 19:00","1983","11","02","19:00","10.3","","9.8","","97","","14","","26","","8.0","","99.09","","","","","","Rain,Fog"
"1983-11-02 20:00","1983","11","02","20:00","10.4","","9.8","","96","","14","","37","","8.0","","98.85","","","","","","Rain,Fog"
"1983-11-02 21:00","1983","11","02","21:00","10.1","","10.1","","100","","15","","24","","6.4","","98.75","","","","","","Heavy Rain,Fog"
"1983-11-02 22:00","1983","11","02","22:00"
"1983-11-02 23:00","1983","11","02","23:00"
"1983-11-03 00:00","1983","11","03","00:00"
"1983-11-03 01:00","1983","11","03","01:00"
"1983-11-03 02:00","1983","11","03","02:00"
"1983-11-03 03:00","1983","11","03","03:00"
"1983-11-03 04:00","1983","11","03","04:00"
"1983-11-03 05:00","1983","11","03","05:00"
"1983-11-03 06:00","1983","11","03","06:00","8.3","","8.1","","99","","","","0","","24.1","","99.22","","","","","","Mainly Clear"
"1983-11-03 07:00","1983","11","03","07:00","7.8","","7.8","","100","","","","0","","24.1","","99.22","","","","","","Mostly Cloudy"
"1983-11-03 08:00","1983","11","03","08:00","7.9","","7.9","","100","","","","0","","24.1","","99.29","","","","","","Mostly Cloudy"
"1983-11-03 09:00","1983","11","03","09:00","9.2","","9.0","","99","","","","0","","24.1","","99.26","","","","","","Mostly Cloudy"
"1983-11-03 10:00","1983","11","03","10:00","10.6","","8.4","","86","","","","0","","24.1","","99.26","","","","","","Mostly Cloudy"
"1983-11-03 11:00","1983","11","03","11:00","10.5","","5.9","","73","","15","","19","","24.1","","99.22","","","","","","Cloudy"
"1983-11-03 12:00","1983","11","03","12:00","10.3","","7.9","","85","","11","","13","","24.1","","99.19","","","","","","Cloudy"
"1983-11-03 13:00","1983","11","03","13:00","10.0","","8.5","","90","","12","","13","","9.7","","99.09","","","","","","Rain Showers,Fog"
"1983-11-03 14:00","1983","11","03","14:00","9.9","","9.4","","97","","14","","22","","9.7","","98.96","","","","","","Rain Showers,Fog"
"1983-11-03 15:00","1983","11","03","15:00","9.8","","9.5","","98","","13","","19","","6.4","","98.89","","","","","","Rain Showers,Fog"
"1983-11-03 16:00","1983","11","03","16:00","9.4","","9.3","","99","","11","","11","","6.4","","98.75","","","","","","Rain Showers,Fog"
"1983-11-03 17:00","1983","11","03","17:00","8.5","","8.5","","100","","4","","9","","2.4","","98.65","","","","","","Rain Showers,Fog"
"1983-11-03 18:00","1983","11","03","18:00","9.0","","8.1","","94","","","","0","","8.0","","98.59","","","","","","Fog"
"1983-11-03 19:00","1983","11","03","19:00","8.9","","8.6","","98","","13","","11","","8.0","","98.59","","","","","","Fog"
"1983-11-03 20:00","1983","11","03","20:00","8.7","","8.4","","98","","14","","6","","8.0","","98.55","","","","","","Rain Showers,Fog"
"1983-11-03 21:00","1983","11","03","21:00","7.5","","7.5","","100","","","","0","","9.7","","98.72","","","","","","Fog"
"1983-11-03 22:00","1983","11","03","22:00"
"1983-11-03 23:00","1983","11","03","23:00"
"1983-11-04 00:00","1983","11","04","00:00"
"1983-11-04 01:00","1983","11","04","01:00"
"1983-11-04 02:00","1983","11","04","02:00"
"1983-11-04 03:00","1983","11","04","03:00"
"1983-11-04 04:00","1983","11","04","04:00"
"1983-11-04 05:00","1983","11","04","05:00"
"1983-11-04 06:00","1983","11","04","06:00","3.9","","3.9","","100","","","","0","","19.3","","99.59","","","","","","Mostly Cloudy"
"1983-11-04 07:00","1983","11","04","07:00","3.5","","3.5","","100","","","","0","","19.3","","99.69","","","","","","Mainly Clear"
"1983-11-04 08:00","1983","11","04","08:00","3.5","","3.5","","100","","","","0","","19.3","","99.79","","","","","","Mostly Cloudy"
"1983-11-04 09:00","1983","11","04","09:00","4.9","","4.8","","99","","","","0","","24.1","","99.86","","","","","","Mostly Cloudy"
"1983-11-04 10:00","1983","11","04","10:00","7.9","","6.7","","92","","","","0","","24.1","","99.93","","","","","","Mainly Clear"
"1983-11-04 11:00","1983","11","04","11:00","8.6","","6.4","","86","","","","0","","24.1","","100.00","","","","","","Mainly Clear"
"1983-11-04 12:00","1983","11","04","12:00","9.5","","5.5","","76","","35","","4","","24.1","","100.03","","","","","","Mostly Cloudy"
"1983-11-04 13:00","1983","11","04","13:00","9.0","","5.7","","80","","","","0","","24.1","","100.06","","","","","","Mainly Clear"
"1983-11-04 14:00","1983","11","04","14:00","9.5","","6.5","","82","","36","","6","","24.1","","100.10","","","","","","Mainly Clear"
"1983-11-04 15:00","1983","11","04","15:00","8.7","","5.4","","80","","12","","4","","24.1","","100.16","","","","","","Mainly Clear"
"1983-11-04 16:00","1983","11","04","16:00","7.4","","6.5","","94","","","","0","","24.1","","100.20","","","","","","Mainly Clear"
"1983-11-04 17:00","1983","11","04","17:00","5.7","","5.2","","97","","","","0","","24.1","","100.23","","","","","","Mainly Clear"
"1983-11-04 18:00","1983","11","04","18:00","3.8","","3.6","","99","","","","0","","24.1","","100.30","","","","","","Mainly Clear"
"1983-11-04 19:00","1983","11","04","19:00","2.9","","2.8","","99","","","","0","","24.1","","100.33","","","","","","Mainly Clear"
"1983-11-04 20:00","1983","11","04","20:00","2.4","","2.2","","99","","31","","4","","24.1","","100.36","","","","","","Mainly Clear"
"1983-11-04 21:00","1983","11","04","21:00","2.0","","1.9","","99","","","","0","","24.1","","100.40","","","","","","Mainly Clear"
"1983-11-04 22:00","1983","11","04","22:00"
"1983-11-04 23:00","1983","11","04","23:00"
"1983-11-05 00:00","1983","11","05","00:00"
"1983-11-05 01:00","1983","11","05","01:00"
"1983-11-05 02:00","1983","11","05","02:00"
"1983-11-05 03:00","1983","11","05","03:00"
"1983-11-05 04:00","1983","11","05","04:00"
"1983-11-05 05:00","1983","11","05","05:00"
"1983-11-05 06:00","1983","11","05","06:00","0.3","","0.3","","100","","31","","9","","19.3","","100.20","","","","","","Mostly Cloudy"
"1983-11-05 07:00","1983","11","05","07:00","0.6","","0.5","","99","","","","0","","19.3","","100.03","","","","","","Cloudy"
"1983-11-05 08:00","1983","11","05","08:00","5.5","","4.2","","91","","14","","19","","19.3","","100.00","","","","","","Rain"
"1983-11-05 09:00","1983","11","05","09:00","6.2","","4.9","","91","","12","","19","","16.1","","99.86","","","","","","Rain"
"1983-11-05 10:00","1983","11","05","10:00","6.7","","5.6","","93","","14","","22","","16.1","","99.69","","","","","","Rain Showers"
"1983-11-05 11:00","1983","11","05","11:00","7.7","","5.7","","87","","12","","28","","19.3","","99.49","","","","","","Cloudy"
"1983-11-05 12:00","1983","11","05","12:00","7.6","","5.4","","86","","13","","37","","19.3","","99.36","","","","","","Rain"
"1983-11-05 13:00","1983","11","05","13:00","7.3","","5.3","","87","","12","","30","","9.7","","99.19","","","","","","Rain,Fog"
"1983-11-05 14:00","1983","11","05","14:00","6.8","","4.7","","87","","14","","56","","6.4","","99.02","","","","","","Rain,Fog"
"1983-11-05 15:00","1983","11","05","15:00","6.2","","5.0","","92","","12","","37","","8.0","","98.92","","","","","","Rain,Fog"
"1983-11-05 16:00","1983","11","05","16:00","6.1","","4.8","","91","","12","","43","","8.0","","98.85","","","","","","Rain,Fog"
"1983-11-05 17:00","1983","11","05","17:00","6.5","","5.9","","96","","13","","46","","8.0","","98.69","","","","","","Rain,Fog"
"1983-11-05 18:00","1983","11","05","18:00","6.8","","6.3","","97","","14","","37","","6.4","","98.65","","","","","","Rain,Fog"
"1983-11-05 19:00","1983","11","05","19:00","6.9","","6.2","","96","","13","","46","","4.8","","98.59","","","","","","Rain,Fog"
"1983-11-05 20:00","1983","11","05","20:00","7.0","","6.5","","97","","13","","26","","4.8","","98.59","","","","","","Rain,Fog"
"1983-11-05 21:00","1983","11","05","21:00","7.6","","7.1","","97","","15","","26","","6.4","","98.59","","","","","","Rain,Fog"
"1983-11-05 22:00","1983","11","05","22:00"
"1983-11-05 23:00","1983","11","05","23:00"
"1983-11-06 00:00","1983","11","06","00:00"
"1983-11-06 01:00","1983","11","06","01:00"
"1983-11-06 02:00","1983","11","06","02:00"
"1983-11-06 03:00","1983","11","06","03:00"
"1983-11-06 04:00","1983","11","06","04:00"
"1983-11-06 05:00","1983","11","06","05:00"
"1983-11-06 06:00","1983","11","06","06:00","4.1","","3.3","","94","","","","0","","19.3","","99.12","","","","","","Mostly Cloudy"
"1983-11-06 07:00","1983","11","06","07:00","3.9","","2.4","","90","","","","0","","24.1","","99.16","","","","","","Mainly Clear"
"1983-11-06 08:00","1983","11","06","08:00","4.2","","3.1","","92","","15","","11","","24.1","","99.19","","","","","","Mainly Clear"
"1983-11-06 09:00","1983","11","06","09:00","5.4","","3.0","","85","","14","","19","","24.1","","99.29","","","","","","Mostly Cloudy"
"1983-11-06 10:00","1983","11","06","10:00","6.3","","4.2","","87","","14","","28","","24.1","","99.36","","","","","","Mainly Clear"
"1983-11-06 11:00","1983","11","06","11:00","8.0","","4.1","","76","","14","","19","","24.1","","99.39","","","","","","Mainly Clear"
"1983-11-06 12:00","1983","11","06","12:00","8.2","","4.1","","75","","14","","24","","24.1","","99.43","","","","","","Mostly Cloudy"
"1983-11-06 13:00","1983","11","06","13:00","8.2","","4.2","","76","","15","","22","","24.1","","99.46","","","","","","Mostly Cloudy"
"1983-11-06 14:00","1983","11","06","14:00","8.4","","4.2","","75","","15","","31","","24.1","","99.39","","","","","","Cloudy"
"1983-11-06 15:00","1983","11","06","15:00","8.2","","4.3","","76","","12","","22","","24.1","","99.46","","","","","","Cloudy"
"1983-11-06 16:00","1983","11","06","16:00","7.6","","4.3","","79","","14","","22","","24.1","","99.49","","","","","","Cloudy"
"1983-11-06 17:00","1983","11","06","17:00","7.0","","4.4","","83","","14","","17","","24.1","","99.53","","","","","","Cloudy"
"1983-11-06 18:00","1983","11","06","18:00","6.7","","4.8","","87","","14","","15","","24.1","","99.56","","","","","","Mostly Cloudy"
"1983-11-06 19:00","1983","11","06","19:00","6.7","","4.3","","84","","11","","11","","24.1","","99.56","","","","","","Mostly Cloudy"
"1983-11-06 20:00","1983","11","06","20:00","6.4","","3.9","","84","","12","","17","","24.1","","99.59","","","","","","Mostly Cloudy"
"1983-11-06 21:00","1983","11","06","21:00","6.4","","3.8","","83","","15","","6","","24.1","","99.63","","","","","","Mostly Cloudy"
"1983-11-06 22:00","1983","11","06","22:00"
"1983-11-06 23:00","1983","11","06","23:00"
"1983-11-07 00:00","1983","11","07","00:00"
"1983-11-07 01:00","1983","11","07","01:00"
"1983-11-07 02:00","1983","11","07","02:00"
"1983-11-07 03:00","1983","11","07","03:00"
"1983-11-07 04:00","1983","11","07","04:00"
"1983-11-07 05:00","1983","11","07","05:00"
"1983-11-07 06:00","1983","11","07","06:00","3.4","","3.4","","100","","","","0","","24.1","","100.23","","","","","","Mainly Clear"
"1983-11-07 07:00","1983","11","07","07:00","2.4","","2.3","","99","","","","0","","24.1","","100.33","","","","","","Mostly Cloudy"
"1983-11-07 08:00","1983","11","07","08:00","2.3","","2.3","","100","","","","0","","16.1","","100.36","","","","","","Mostly Cloudy"
"1983-11-07 09:00","1983","11","07","09:00","3.7","","3.5","","98","","29","","4","","24.1","","100.43","","","","","","Mostly Cloudy"
"1983-11-07 10:00","1983","11","07","10:00","6.3","","5.6","","95","","","","0","","24.1","","100.50","","","","","","Mostly Cloudy"
"1983-11-07 11:00","1983","11","07","11:00","7.6","","6.2","","91","","","","0","","24.1","","100.53","","","","","","Mostly Cloudy"
"1983-11-07 12:00","1983","11","07","12:00","8.6","","6.2","","85","","12","","9","","24.1","","100.53","","","","","","Mostly Cloudy"
"1983-11-07 13:00","1983","11","07","13:00","8.7","","5.7","","81","","12","","7","","24.1","","100.53","","","","","","Mainly Clear"
"1983-11-07 14:00","1983","11","07","14:00","8.8","","5.7","","81","","","","0","","24.1","","100.53","","","","","","Mainly Clear"
"1983-11-07 15:00","1983","11","07","15:00","9.2","","5.4","","77","","","","0","","24.1","","100.53","","","","","","Mainly Clear"
"1983-11-07 16:00","1983","11","07","16:00","8.8","","5.7","","81","","","","0","","24.1","","100.60","","","","","","Mostly Cloudy"
"1983-11-07 17:00","1983","11","07","17:00","7.5","","6.3","","92","","","","0","","24.1","","100.60","","","","","","Mostly Cloudy"
"1983-11-07 18:00","1983","11","07","18:00","6.4","","6.0","","97","","","","0","","24.1","","100.70","","","","","","Mostly Cloudy"
"1983-11-07 19:00","1983","11","07","19:00","5.7","","5.4","","98","","","","0","","24.1","","100.67","","","","","","Mostly Cloudy"
"1983-11-07 20:00","1983","11","07","20:00","5.5","","5.4","","99","","31","","4","","24.1","","100.70","","","","","","Mostly Cloudy"
"1983-11-07 21:00","1983","11","07","21:00","6.2","","5.7","","97","","","","0","","19.3","","100.70","","","","","","Rain Showers"
"1983-11-07 22:00","1983","11","07","22:00"
"1983-11-07 23:00","1983","11","07","23:00"
"1983-11-08 00:00","1983","11","08","00:00"
"1983-11-08 01:00","1983","11","08","01:00"
"1983-11-08 02:00","1983","11","08","02:00"
"1983-11-08 03:00","1983","11","08","03:00"
"1983-11-08 04:00","1983","11","08","04:00"
"1983-11-08 05:00","1983","11","08","05:00"
"1983-11-08 06:00","1983","11","08","06:00","5.1","","5.1","","100","","","","0","","3.2","","100.67","","","","","","Fog"
"1983-11-08 07:00","1983","11","08","07:00","4.9","","4.9","","100","","24","","4","","4.8","","100.63","","","","","","Fog"
"1983-11-08 08:00","1983","11","08","08:00","4.8","","4.7","","100","","","","0","","16.1","","100.63","","","","","","Rain Showers"
"1983-11-08 09:00","1983","11","08","09:00","5.6","","5.4","","98","","12","","9","","19.3","","100.53","","","","","","Cloudy"
"1983-11-08 10:00","1983","11","08","10:00","5.9","","5.4","","97","","11","","7","","19.3","","100.57","","","","","","Cloudy"
"1983-11-08 11:00","1983","11","08","11:00","6.7","","5.3","","90","","13","","13","","16.1","","100.50","","","","","","Mostly Cloudy"
"1983-11-08 12:00","1983","11","08","12:00","7.4","","5.5","","88","","13","","20","","16.1","","100.43","","","","","","Cloudy"
"1983-11-08 13:00","1983","11","08","13:00","7.4","","5.7","","89","","13","","22","","16.1","","100.33","","","","","","Rain Showers"
"1983-11-08 14:00","1983","11","08","14:00","7.7","","5.6","","86","","12","","19","","16.1","","100.23","","","","","","Rain Showers"
"1983-11-08 15:00","1983","11","08","15:00","7.6","","4.5","","81","","12","","19","","16.1","","100.16","","","","","","Rain Showers"
"1983-11-08 16:00","1983","11","08","16:00","7.6","","4.5","","81","","13","","19","","16.1","","100.03","","","","","","Cloudy"
"1983-11-08 17:00","1983","11","08","17:00","7.2","","4.4","","82","","13","","19","","19.3","","99.89","","","","","","Cloudy"
"1983-11-08 18:00","1983","11","08","18:00","7.0","","4.7","","85","","12","","19","","19.3","","99.83","","","","","","Cloudy"
"1983-11-08 19:00","1983","11","08","19:00","6.8","","4.6","","86","","12","","15","","19.3","","99.73","","","","","","Cloudy"
"1983-11-08 20:00","1983","11","08","20:00","6.4","","4.1","","85","","14","","15","","19.3","","99.63","","","","","","Cloudy"
"1983-11-08 21:00","1983","11","08","21:00","6.7","","4.3","","84","","12","","19","","19.3","","99.59","","","","","","Cloudy"
"1983-11-08 22:00","1983","11","08","22:00"
"1983-11-08 23:00","1983","11","08","23:00"
"1983-11-09 00:00","1983","11","09","00:00"
"1983-11-09 01:00","1983","11","09","01:00"
"1983-11-09 02:00","1983","11","09","02:00"
"1983-11-09 03:00","1983","11","09","03:00"
"1983-11-09 04:00","1983","11","09","04:00"
"1983-11-09 05:00","1983","11","09","05:00"
"1983-11-09 06:00","1983","11","09","06:00","5.8","","5.4","","97","","14","","22","","4.8","","99.46","","","","","","Rain Showers,Fog"
"1983-11-09 07:00","1983","11","09","07:00","5.8","","5.1","","95","","11","","15","","11.3","","99.49","","","","","","Rain Showers"
"1983-11-09 08:00","1983","11","09","08:00","5.9","","5.4","","97","","14","","17","","16.1","","99.59","","","","","","Rain Showers"
"1983-11-09 09:00","1983","11","09","09:00","5.8","","5.7","","100","","16","","9","","16.1","","99.63","","","","","","Rain Showers"
"1983-11-09 10:00","1983","11","09","10:00","6.1","","6.0","","99","","15","","13","","8.0","","99.69","","","","","","Rain Showers"
"1983-11-09 11:00","1983","11","09","11:00","7.3","","6.6","","96","","12","","11","","24.1","","99.76","","","","","","Mostly Cloudy"
"1983-11-09 12:00","1983","11","09","12:00","8.0","","6.3","","89","","14","","15","","24.1","","99.86","","","","","","Mostly Cloudy"
"1983-11-09 13:00","1983","11","09","13:00","8.1","","6.4","","89","","12","","11","","24.1","","99.86","","","","","","Mostly Cloudy"
"1983-11-09 14:00","1983","11","09","14:00","8.1","","6.3","","88","","13","","11","","24.1","","99.89","","","","","","Mostly Cloudy"
"1983-11-09 15:00","1983","11","09","15:00","8.5","","5.4","","81","","11","","17","","24.1","","99.93","","","","","","Mostly Cloudy"
"1983-11-09 16:00","1983","11","09","16:00","8.2","","5.5","","83","","11","","11","","24.1","","99.96","","","","","","Mostly Cloudy"
"1983-11-09 17:00","1983","11","09","17:00","7.6","","5.7","","88","","11","","9","","24.1","","100.00","","","","","","Mostly Cloudy"
"1983-11-09 18:00","1983","11","09","18:00","7.3","","5.9","","91","","12","","6","","24.1","","100.00","","","","","","Mostly Cloudy"
"1983-11-09 19:00","1983","11","09","19:00","7.2","","6.2","","93","","12","","9","","24.1","","100.03","","","","","","Mostly Cloudy"
"1983-11-09 20:00","1983","11","09","20:00","7.2","","6.9","","98","","12","","9","","16.1","","100.03","","","","","","Rain Showers"
"1983-11-09 21:00","1983","11","09","21:00","7.4","","6.6","","95","","12","","11","","12.9","","100.00","","","","","","Rain"
"1983-11-09 22:00","1983","11","09","22:00"
"1983-11-09 23:00","1983","11","09","23:00"
"1983-11-10 00:00","1983","11","10","00:00"
"1983-11-10 01:00","1983","11","10","01:00"
"1983-11-10 02:00","1983","11","10","02:00"
"1983-11-10 03:00","1983","11","10","03:00"
"1983-11-10 04:00","1983","11","10","04:00"
"1983-11-10 05:00","1983","11","10","05:00"
"1983-11-10 06:00","1983","11","10","06:00","4.1","","4.1","","100","","","","0","","4.8","","98.52","","","","","","Fog"
"1983-11-10 07:00","1983","11","10","07:00","5.3","","5.1","","99","","","","0","","9.7","","98.42","","","","","","Rain,Fog"
"1983-11-10 08:00","1983","11","10","08:00","6.0","","5.7","","98","","12","","11","","3.2","","98.25","","","","","","Rain,Fog"
"1983-11-10 09:00","1983","11","10","09:00","5.5","","5.4","","99","","12","","13","","3.2","","98.18","","","","","","Moderate Rain,Fog"
"1983-11-10 10:00","1983","11","10","10:00","5.6","","5.6","","100","","12","","15","","3.2","","98.02","","","","","","Moderate Rain,Fog"
"1983-11-10 11:00","1983","11","10","11:00","5.9","","5.7","","99","","13","","9","","4.8","","97.92","","","","","","Rain,Fog"
"1983-11-10 12:00","1983","11","10","12:00","6.1","","6.1","","100","","11","","11","","4.8","","97.82","","","","","","Rain,Fog"
"1983-11-10 13:00","1983","11","10","13:00","6.4","","6.3","","99","","11","","7","","3.2","","97.65","","","","","","Rain,Fog"
"1983-11-10 14:00","1983","11","10","14:00","6.8","","6.6","","99","","9","","11","","3.2","","97.61","","","","","","Rain,Fog"
"1983-11-10 15:00","1983","11","10","15:00","6.8","","6.8","","100","","10","","11","","1.6","","97.48","","","","","","Moderate Rain,Fog"
"1983-11-10 16:00","1983","11","10","16:00","6.9","","6.9","","100","","9","","9","","2.4","","97.31","","","","","","Moderate Rain,Fog"
"1983-11-10 17:00","1983","11","10","17:00","8.5","","8.3","","99","","11","","19","","4.8","","97.21","","","","","","Rain,Fog"
"1983-11-10 18:00","1983","11","10","18:00","9.4","","8.4","","93","","11","","19","","9.7","","97.18","","","","","","Rain,Fog"
"1983-11-10 19:00","1983","11","10","19:00","9.8","","8.3","","90","","11","","30","","9.7","","97.04","","","","","","Rain,Fog"
"1983-11-10 20:00","1983","11","10","20:00","10.2","","8.2","","87","","11","","33","","12.9","","96.94","","","","","","Rain"
"1983-11-10 21:00","1983","11","10","21:00","10.3","","8.5","","89","","11","","37","","9.7","","96.94","","","","","","Rain,Fog"
"1983-11-10 22:00","1983","11","10","22:00"
"1983-11-10 23:00","1983","11","10","23:00"
"1983-11-11 00:00","1983","11","11","00:00"
"1983-11-11 01:00","1983","11","11","01:00"
"1983-11-11 02:00","1983","11","11","02:00"
"1983-11-11 03:00","1983","11","11","03:00"
"1983-11-11 04:00","1983","11","11","04:00"
"1983-11-11 05:00","1983","11","11","05:00"
"1983-11-11 06:00","1983","11","11","06:00","8.6","","8.0","","96","","20","","7","","24.1","","97.95","","","","","","Cloudy"
"1983-11-11 07:00","1983","11","11","07:00","8.4","","7.3","","93","","25","","6","","24.1","","98.12","","","","","","Cloudy"
"1983-11-11 08:00","1983","11","11","08:00","6.8","","6.8","","100","","","","0","","24.1","","98.18","","","","","","Mostly Cloudy"
"1983-11-11 09:00","1983","11","11","09:00","7.8","","7.7","","100","","","","0","","24.1","","98.35","","","","","","Mostly Cloudy"
"1983-11-11 10:00","1983","11","11","10:00","9.4","","8.3","","93","","14","","13","","24.1","","98.49","","","","","","Mostly Cloudy"
"1983-11-11 11:00","1983","11","11","11:00","10.2","","7.8","","85","","20","","6","","24.1","","98.65","","","","","","Rain Showers"
"1983-11-11 12:00","1983","11","11","12:00","11.2","","7.2","","76","","16","","15","","24.1","","98.75","","","","","","Mostly Cloudy"
"1983-11-11 13:00","1983","11","11","13:00","10.8","","5.8","","71","","16","","11","","24.1","","98.89","","","","","","Mostly Cloudy"
"1983-11-11 14:00","1983","11","11","14:00","11.1","","7.4","","78","","12","","7","","24.1","","98.99","","","","","","Mostly Cloudy"
"1983-11-11 15:00","1983","11","11","15:00","10.0","","7.7","","86","","","","0","","24.1","","98.99","","","","","","Mostly Cloudy"
"1983-11-11 16:00","1983","11","11","16:00","10.0","","4.1","","67","","16","","11","","24.1","","99.19","","","","","","Mostly Cloudy"
"1983-11-11 17:00","1983","11","11","17:00","8.4","","4.7","","78","","15","","17","","19.3","","99.16","","","","","","Mostly Cloudy"
"1983-11-11 18:00","1983","11","11","18:00","8.1","","5.5","","84","","14","","7","","19.3","","99.12","","","","","","Mostly Cloudy"
"1983-11-11 19:00","1983","11","11","19:00","8.3","","5.4","","82","","13","","22","","19.3","","99.12","","","","","","Rain Showers"
"1983-11-11 20:00","1983","11","11","20:00","7.9","","6.3","","90","","13","","28","","16.1","","99.12","","","","","","Rain Showers"
"1983-11-11 21:00","1983","11","11","21:00","8.4","","7.5","","94","","12","","22","","11.3","","99.02","","","","","","Rain"
"1983-11-11 22:00","1983","11","11","22:00"
"1983-11-11 23:00","1983","11","11","23:00"
"1983-11-12 00:00","1983","11","12","00:00"
"1983-11-12 01:00","1983","11","12","01:00"
"1983-11-12 02:00","1983","11","12","02:00"
"1983-11-12 03:00","1983","11","12","03:00"
"1983-11-12 04:00","1983","11","12","04:00"
"1983-11-12 05:00","1983","11","12","05:00"
"1983-11-12 06:00","1983","11","12","06:00","6.5","","5.6","","94","","16","","7","","24.1","","98.49","","","","","","Rain"
"1983-11-12 07:00","1983","11","12","07:00","6.0","","5.8","","98","","","","0","","24.1","","98.45","","","","","","Rain"
"1983-11-12 08:00","1983","11","12","08:00","5.8","","5.6","","99","","","","0","","24.1","","98.42","","","","","","Rain"
"1983-11-12 09:00","1983","11","12","09:00","6.6","","6.3","","98","","","","0","","24.1","","98.45","","","","","","Mostly Cloudy"
"1983-11-12 10:00","1983","11","12","10:00","7.2","","6.2","","93","","","","0","","24.1","","98.42","","","","","","Mostly Cloudy"
"1983-11-12 11:00","1983","11","12","11:00","7.6","","6.2","","91","","13","","4","","19.3","","98.42","","","","","","Mostly Cloudy"
"1983-11-12 12:00","1983","11","12","12:00","7.6","","6.4","","92","","13","","7","","19.3","","98.42","","","","","","Rain"
"1983-11-12 13:00","1983","11","12","13:00","7.4","","6.5","","94","","14","","13","","16.1","","98.39","","","","","","Rain"
"1983-11-12 14:00","1983","11","12","14:00","8.1","","7.0","","93","","12","","15","","16.1","","98.35","","","","","","Mostly Cloudy"
"1983-11-12 15:00","1983","11","12","15:00","8.0","","7.1","","94","","13","","15","","16.1","","98.32","","","","","","Mostly Cloudy"
"1983-11-12 16:00","1983","11","12","16:00","7.8","","6.8","","93","","12","","13","","19.3","","98.28","","","","","","Mostly Cloudy"
"1983-11-12 17:00","1983","11","12","17:00","7.2","","6.5","","95","","13","","7","","19.3","","98.25","","","","","","Rain Showers"
"1983-11-12 18:00","1983","11","12","18:00","7.1","","6.5","","96","","10","","7","","19.3","","98.25","","","","","","Rain Showers"
"1983-11-12 19:00","1983","11","12","19:00","7.1","","6.5","","96","","14","","13","","19.3","","98.25","","","","","","Mostly Cloudy"
"1983-11-12 20:00","1983","11","12","20:00","7.0","","4.4","","83","","13","","13","","19.3","","98.25","","","","","","Mostly Cloudy"
"1983-11-12 21:00","1983","11","12","21:00","5.2","","4.9","","98","","","","0","","19.3","","98.35","","","","","","Mostly Cloudy"
"1983-11-12 22:00","1983","11","12","22:00"
"1983-11-12 23:00","1983","11","12","23:00"
"1983-11-13 00:00","1983","11","13","00:00"
"1983-11-13 01:00","1983","11","13","01:00"
"1983-11-13 02:00","1983","11","13","02:00"
"1983-11-13 03:00","1983","11","13","03:00"
"1983-11-13 04:00","1983","11","13","04:00"
"1983-11-13 05:00","1983","11","13","05:00"
"1983-11-13 06:00","1983","11","13","06:00","6.4","","5.9","","97","","12","","20","","19.3","","98.32","","","","","","Rain Showers"
"1983-11-13 07:00","1983","11","13","07:00","7.0","","6.0","","93","","13","","17","","19.3","","98.22","","","","","","Rain"
"1983-11-13 08:00","1983","11","13","08:00","7.0","","6.3","","95","","11","","11","","16.1","","98.15","","","","","","Rain"
"1983-11-13 09:00","1983","11","13","09:00","6.6","","6.0","","96","","7","","9","","9.7","","98.15","","","","","","Rain,Fog"
"1983-11-13 10:00","1983","11","13","10:00","6.8","","6.1","","96","","11","","13","","8.0","","98.18","","","","","","Rain,Fog"
"1983-11-13 11:00","1983","11","13","11:00","6.6","","6.3","","98","","4","","7","","6.4","","98.22","","","","","","Rain,Fog"
"1983-11-13 12:00","1983","11","13","12:00","6.4","","6.1","","98","","","","0","","9.7","","98.18","","","","","","Moderate Rain,Fog"
"1983-11-13 13:00","1983","11","13","13:00","6.2","","6.0","","98","","","","0","","9.7","","98.15","","","","","","Moderate Rain,Fog"
"1983-11-13 14:00","1983","11","13","14:00","6.4","","6.1","","98","","","","0","","9.7","","98.15","","","","","","Rain,Fog"
"1983-11-13 15:00","1983","11","13","15:00","7.1","","6.2","","94","","","","0","","9.7","","98.15","","","","","","Moderate Rain,Fog"
"1983-11-13 16:00","1983","11","13","16:00","7.7","","6.3","","91","","12","","22","","9.7","","98.22","","","","","","Rain,Fog"
"1983-11-13 17:00","1983","11","13","17:00","7.7","","6.8","","94","","10","","15","","9.7","","98.25","","","","","","Rain,Fog"
"1983-11-13 18:00","1983","11","13","18:00","7.9","","6.5","","91","","16","","7","","9.7","","98.35","","","","","","Rain,Fog"
"1983-11-13 19:00","1983","11","13","19:00","7.3","","5.8","","90","","12","","15","","9.7","","98.45","","","","","","Rain,Fog"
"1983-11-13 20:00","1983","11","13","20:00","7.1","","6.1","","93","","9","","17","","9.7","","98.52","","","","","","Rain,Fog"
"1983-11-13 21:00","1983","11","13","21:00","7.2","","6.0","","92","","9","","22","","9.7","","98.65","","","","","","Rain,Fog"
"1983-11-13 22:00","1983","11","13","22:00"
"1983-11-13 23:00","1983","11","13","23:00"
"1983-11-14 00:00","1983","11","14","00:00"
"1983-11-14 01:00","1983","11","14","01:00"
"1983-11-14 02:00","1983","11","14","02:00"
"1983-11-14 03:00","1983","11","14","03:00"
"1983-11-14 04:00","1983","11","14","04:00"
"1983-11-14 05:00","1983","11","14","05:00"
"1983-11-14 06:00","1983","11","14","06:00","6.1","","6.1","","100","","32","","4","","16.1","","99.43","","","","","","Rain"
"1983-11-14 07:00","1983","11","14","07:00","5.5","","5.4","","99","","31","","7","","24.1","","99.46","","","","","","Mostly Cloudy"
"1983-11-14 08:00","1983","11","14","08:00","4.2","","4.2","","100","","","","0","","1.6","","99.56","","","","","","Fog"
"1983-11-14 09:00","1983","11","14","09:00","5.3","","5.3","","100","","","","0","","16.1","","99.63","","","","","","Mostly Cloudy"
"1983-11-14 10:00","1983","11","14","10:00","5.4","","5.3","","99","","","","0","","19.3","","99.63","","","","","","Mostly Cloudy"
"1983-11-14 11:00","1983","11","14","11:00","6.5","","5.7","","95","","12","","11","","12.9","","99.63","","","","","","Rain Showers"
"1983-11-14 12:00","1983","11","14","12:00","7.6","","6.8","","94","","12","","28","","8.0","","99.56","","","","","","Moderate Rain Showers,Fog"
"1983-11-14 13:00","1983","11","14","13:00","7.6","","6.7","","94","","12","","22","","8.0","","99.46","","","","","","Moderate Rain Showers,Fog"
"1983-11-14 14:00","1983","11","14","14:00","7.0","","5.9","","93","","14","","22","","8.0","","99.46","","","","","","Moderate Rain Showers,Fog"
"1983-11-14 15:00","1983","11","14","15:00","6.6","","5.9","","95","","13","","22","","9.7","","99.39","","","","","","Rain Showers,Fog"
"1983-11-14 16:00","1983","11","14","16:00","6.4","","5.6","","95","","13","","15","","9.7","","99.29","","","","","","Rain Showers,Fog"
"1983-11-14 17:00","1983","11","14","17:00","6.3","","6.0","","98","","15","","22","","9.7","","99.19","","","","","","Rain Showers,Fog"
"1983-11-14 18:00","1983","11","14","18:00","6.9","","6.6","","98","","16","","24","","6.4","","99.16","","","","","","Rain,Fog"
"1983-11-14 19:00","1983","11","14","19:00","7.3","","6.6","","96","","14","","35","","6.4","","99.12","","","","","","Moderate Rain,Fog"
"1983-11-14 20:00","1983","11","14","20:00","7.6","","6.7","","94","","15","","39","","6.4","","99.06","","","","","","Rain,Fog"
"1983-11-14 21:00","1983","11","14","21:00","7.7","","7.0","","95","","15","","31","","6.4","","98.96","","","","","","Rain,Fog"
"1983-11-14 22:00","1983","11","14","22:00"
"1983-11-14 23:00","1983","11","14","23:00"
"1983-11-15 00:00","1983","11","15","00:00"
"1983-11-15 01:00","1983","11","15","01:00"
"1983-11-15 02:00","1983","11","15","02:00"
"1983-11-15 03:00","1983","11","15","03:00"
"1983-11-15 04:00","1983","11","15","04:00"
"1983-11-15 05:00","1983","11","15","05:00"
"1983-11-15 06:00","1983","11","15","06:00","9.4","","9.3","","99","","12","","19","","4.8","","98.45","","","","","","Rain,Fog"
"1983-11-15 07:00","1983","11","15","07:00","10.1","","9.9","","99","","12","","11","","4.8","","98.52","","","","","","Rain,Fog"
"1983-11-15 08:00","1983","11","15","08:00","10.4","","10.0","","97","","14","","19","","6.4","","98.59","","","","","","Rain Showers,Fog"
"1983-11-15 09:00","1983","11","15","09:00","10.2","","9.9","","98","","11","","19","","6.4","","98.59","","","","","","Rain Showers,Fog"
"1983-11-15 10:00","1983","11","15","10:00","10.7","","10.3","","97","","10","","19","","6.4","","98.62","","","","","","Rain Showers,Fog"
"1983-11-15 11:00","1983","11","15","11:00","10.4","","10.1","","98","","12","","15","","3.2","","98.65","","","","","","Rain Showers,Fog"
"1983-11-15 12:00","1983","11","15","12:00","10.8","","10.3","","97","","12","","22","","3.2","","98.59","","","","","","Rain Showers,Fog"
"1983-11-15 13:00","1983","11","15","13:00","10.6","","10.3","","98","","13","","15","","3.2","","98.59","","","","","","Rain Showers,Fog"
"1983-11-15 14:00","1983","11","15","14:00","10.8","","10.3","","97","","14","","17","","3.2","","98.55","","","","","","Rain Showers,Fog"
"1983-11-15 15:00","1983","11","15","15:00","10.8","","10.3","","97","","14","","13","","3.2","","98.59","","","","","","Rain Showers,Fog"
"1983-11-15 16:00","1983","11","15","16:00","10.8","","10.3","","97","","13","","19","","4.8","","98.59","","","","","","Fog"
"1983-11-15 17:00","1983","11","15","17:00","10.4","","10.2","","99","","9","","6","","8.0","","98.55","","","","","","Fog"
"1983-11-15 18:00","1983","11","15","18:00","10.5","","10.1","","97","","14","","15","","6.4","","98.59","","","","","","Fog"
"1983-11-15 19:00","1983","11","15","19:00","10.4","","10.0","","97","","11","","15","","6.4","","98.59","","","","","","Fog"
"1983-11-15 20:00","1983","11","15","20:00","9.8","","9.6","","99","","10","","20","","2.4","","98.59","","","","","","Fog"
"1983-11-15 21:00","1983","11","15","21:00","10.2","","9.3","","94","","13","","19","","16.1","","98.62","","","","","","Cloudy"
"1983-11-15 22:00","1983","11","15","22:00"
"1983-11-15 23:00","1983","11","15","23:00"
"1983-11-16 00:00","1983","11","16","00:00"
"1983-11-16 01:00","1983","11","16","01:00"
"1983-11-16 02:00","1983","11","16","02:00"
"1983-11-16 03:00","1983","11","16","03:00"
"1983-11-16 04:00","1983","11","16","04:00"
"1983-11-16 05:00","1983","11","16","05:00"
"1983-11-16 06:00","1983","11","16","06:00","9.4","","8.4","","93","","13","","19","","12.9","","98.49","","","","","","Cloudy"
"1983-11-16 07:00","1983","11","16","07:00","9.3","","8.4","","94","","12","","19","","12.9","","98.45","","","","","","Cloudy"
"1983-11-16 08:00","1983","11","16","08:00","9.2","","8.6","","96","","12","","17","","12.9","","98.49","","","","","","Cloudy"
"1983-11-16 09:00","1983","11","16","09:00","9.4","","8.9","","97","","12","","11","","8.0","","98.55","","","","","","Rain Showers,Fog"
"1983-11-16 10:00","1983","11","16","10:00","9.8","","9.2","","96","","12","","19","","11.3","","98.59","","","","","","Rain Showers"
"1983-11-16 11:00","1983","11","16","11:00","9.7","","9.1","","96","","11","","19","","11.3","","98.62","","","","","","Cloudy"
"1983-11-16 12:00","1983","11","16","12:00","9.8","","9.2","","96","","14","","19","","11.3","","98.65","","","","","","Cloudy"
"1983-11-16 13:00","1983","11","16","13:00","10.9","","9.9","","94","","13","","19","","16.1","","98.69","","","","","","Mostly Cloudy"
"1983-11-16 14:00","1983","11","16","14:00","10.5","","9.5","","94","","7","","7","","24.1","","98.65","","","","","","Mostly Cloudy"
"1983-11-16 15:00","1983","11","16","15:00","10.8","","8.1","","84","","13","","26","","24.1","","98.59","","","","","","Cloudy"
"1983-11-16 16:00","1983","11","16","16:00","9.7","","8.8","","94","","11","","22","","19.3","","98.55","","","","","","Cloudy"
"1983-11-16 17:00","1983","11","16","17:00","9.6","","8.8","","95","","14","","24","","16.1","","98.49","","","","","","Rain Showers"
"1983-11-16 18:00","1983","11","16","18:00","9.4","","9.0","","97","","12","","26","","6.4","","98.39","","","","","","Rain,Fog"
"1983-11-16 19:00","1983","11","16","19:00","9.2","","8.8","","97","","12","","37","","6.4","","98.28","","","","","","Rain,Fog"
"1983-11-16 20:00","1983","11","16","20:00","9.2","","8.4","","95","","13","","31","","4.8","","98.15","","","","","","Rain,Fog"
"1983-11-16 21:00","1983","11","16","21:00","9.2","","8.3","","94","","12","","46","","6.4","","98.02","","","","","","Rain,Fog"
"1983-11-16 22:00","1983","11","16","22:00"
"1983-11-16 23:00","1983","11","16","23:00"
"1983-11-17 00:00","1983","11","17","00:00"
"1983-11-17 01:00","1983","11","17","01:00"
"1983-11-17 02:00","1983","11","17","02:00"
"1983-11-17 03:00","1983","11","17","03:00"
"1983-11-17 04:00","1983","11","17","04:00"
"1983-11-17 05:00","1983","11","17","05:00"
"1983-11-17 06:00","1983","11","17","06:00","7.4","","6.6","","95","","12","","11","","19.3","","97.75","","","","","","Mostly Cloudy"
"1983-11-17 07:00","1983","11","17","07:00","6.2","","5.6","","96","","14","","11","","24.1","","97.75","","","","","","Mainly Clear"
"1983-11-17 08:00","1983","11","17","08:00","7.6","","6.1","","90","","13","","19","","24.1","","97.82","","","","","","Mostly Cloudy"
"1983-11-17 09:00","1983","11","17","09:00","7.4","","6.6","","95","","14","","15","","16.1","","97.85","","","","","","Rain Showers"
"1983-11-17 10:00","1983","11","17","10:00","6.9","","6.1","","95","","13","","11","","9.7","","97.95","","","","","","Rain Showers,Fog"
"1983-11-17 11:00","1983","11","17","11:00","7.3","","6.4","","94","","16","","19","","16.1","","97.95","","","","","","Rain Showers"
"1983-11-17 12:00","1983","11","17","12:00","7.4","","6.8","","96","","14","","22","","11.3","","97.95","","","","","","Rain Showers"
"1983-11-17 13:00","1983","11","17","13:00","7.9","","6.9","","93","","12","","19","","11.3","","97.95","","","","","","Rain Showers"
"1983-11-17 14:00","1983","11","17","14:00","8.4","","7.4","","93","","12","","28","","9.7","","97.98","","","","","","Rain Showers,Fog"
"1983-11-17 15:00","1983","11","17","15:00","8.8","","7.5","","92","","12","","28","","4.8","","98.02","","","","","","Moderate Rain Showers,Fog"
"1983-11-17 16:00","1983","11","17","16:00","8.0","","7.2","","95","","12","","28","","8.0","","98.12","","","","","","Rain Showers,Fog"
"1983-11-17 17:00","1983","11","17","17:00","7.6","","6.2","","91","","14","","28","","16.1","","98.18","","","","","","Rain"
"1983-11-17 18:00","1983","11","17","18:00","7.2","","6.3","","94","","14","","22","","16.1","","98.25","","","","","","Cloudy"
"1983-11-17 19:00","1983","11","17","19:00","7.1","","6.1","","93","","14","","13","","19.3","","98.32","","","","","","Rain Showers"
"1983-11-17 20:00","1983","11","17","20:00","7.3","","6.0","","92","","13","","9","","19.3","","98.42","","","","","","Rain Showers"
"1983-11-17 21:00","1983","11","17","21:00","6.7","","5.8","","94","","16","","4","","24.1","","98.49","","","","","","Rain"
"1983-11-17 22:00","1983","11","17","22:00"
"1983-11-17 23:00","1983","11","17","23:00"
"1983-11-18 00:00","1983","11","18","00:00"
"1983-11-18 01:00","1983","11","18","01:00"
"1983-11-18 02:00","1983","11","18","02:00"
"1983-11-18 03:00","1983","11","18","03:00"
"1983-11-18 04:00","1983","11","18","04:00"
"1983-11-18 05:00","1983","11","18","05:00"
"1983-11-18 06:00","1983","11","18","06:00","3.9","","3.9","","100","","29","","7","","9.7","","99.59","","","","","","Rain Showers,Fog"
"1983-11-18 07:00","1983","11","18","07:00","4.6","","4.5","","99","","","","0","","12.9","","99.73","","","","","","Rain Showers"
"1983-11-18 08:00","1983","11","18","08:00","4.5","","4.3","","98","","","","0","","19.3","","99.83","","","","","","Mostly Cloudy"
"1983-11-18 09:00","1983","11","18","09:00","5.1","","5.1","","100","","","","0","","24.1","","99.93","","","","","","Mostly Cloudy"
"1983-11-18 10:00","1983","11","18","10:00","6.3","","5.9","","97","","","","0","","24.1","","100.06","","","","","","Mostly Cloudy"
"1983-11-18 11:00","1983","11","18","11:00","7.9","","6.8","","93","","32","","6","","24.1","","100.20","","","","","","Mostly Cloudy"
"1983-11-18 12:00","1983","11","18","12:00","9.5","","6.5","","82","","34","","7","","24.1","","100.20","","","","","","Mostly Cloudy"
"1983-11-18 13:00","1983","11","18","13:00","9.3","","6.0","","80","","3","","7","","24.1","","100.23","","","","","","Mostly Cloudy"
"1983-11-18 14:00","1983","11","18","14:00","8.2","","5.1","","81","","","","0","","24.1","","100.23","","","","","","Mostly Cloudy"
"1983-11-18 15:00","1983","11","18","15:00","7.6","","5.9","","89","","25","","6","","16.1","","100.30","","","","","","Rain Showers"
"1983-11-18 16:00","1983","11","18","16:00","7.0","","6.4","","96","","16","","6","","19.3","","100.33","","","","","","Rain Showers"
"1983-11-18 17:00","1983","11","18","17:00","6.2","","5.0","","92","","21","","6","","19.3","","100.33","","","","","","Rain Showers"
"1983-11-18 18:00","1983","11","18","18:00","6.0","","4.3","","89","","19","","13","","19.3","","100.33","","","","","","Rain Showers"
"1983-11-18 19:00","1983","11","18","19:00","5.9","","3.9","","87","","18","","15","","19.3","","100.36","","","","","","Mostly Cloudy"
"1983-11-18 20:00","1983","11","18","20:00","5.5","","4.3","","92","","","","0","","19.3","","100.33","","","","","","Mostly Cloudy"
"1983-11-18 21:00","1983","11","18","21:00","4.8","","4.4","","97","","","","0","","19.3","","100.26","","","","","","Mostly Cloudy"
"1983-11-18 22:00","1983","11","18","22:00"
"1983-11-18 23:00","1983","11","18","23:00"
"1983-11-19 00:00","1983","11","19","00:00"
"1983-11-19 01:00","1983","11","19","01:00"
"1983-11-19 02:00","1983","11","19","02:00"
"1983-11-19 03:00","1983","11","19","03:00"
"1983-11-19 04:00","1983","11","19","04:00"
"1983-11-19 05:00","1983","11","19","05:00"
"1983-11-19 06:00","1983","11","19","06:00","4.5","","4.0","","97","","","","0","","12.9","","99.26","","","","","","Cloudy"
"1983-11-19 07:00","1983","11","19","07:00","4.3","","3.9","","97","","","","0","","12.9","","99.06","","","","","","Rain"
"1983-11-19 08:00","1983","11","19","08:00","4.2","","3.9","","98","","","","0","","8.0","","98.89","","","","","","Rain,Fog"
"1983-11-19 09:00","1983","11","19","09:00","4.4","","4.1","","98","","","","0","","4.8","","98.72","","","","","","Rain,Fog"
"1983-11-19 10:00","1983","11","19","10:00","4.8","","4.6","","99","","","","0","","4.8","","98.55","","","","","","Fog"
"1983-11-19 11:00","1983","11","19","11:00","5.1","","4.4","","95","","","","0","","8.0","","98.45","","","","","","Fog"
"1983-11-19 12:00","1983","11","19","12:00","5.5","","4.6","","94","","","","0","","9.7","","98.28","","","","","","Fog"
"1983-11-19 13:00","1983","11","19","13:00","5.7","","3.9","","88","","","","0","","9.7","","98.18","","","","","","Fog"
"1983-11-19 14:00","1983","11","19","14:00","5.8","","4.0","","88","","","","0","","19.3","","98.05","","","","","","Cloudy"
"1983-11-19 15:00","1983","11","19","15:00","6.0","","4.1","","88","","","","0","","24.1","","97.95","","","","","","Cloudy"
"1983-11-19 16:00","1983","11","19","16:00","5.8","","4.8","","93","","30","","7","","24.1","","97.92","","","","","","Cloudy"
"1983-11-19 17:00","1983","11","19","17:00","5.2","","4.2","","93","","28","","7","","24.1","","97.85","","","","","","Cloudy"
"1983-11-19 18:00","1983","11","19","18:00","5.2","","3.9","","91","","28","","13","","19.3","","97.82","","","","","","Rain"
"1983-11-19 19:00","1983","11","19","19:00","5.0","","3.1","","88","","26","","22","","24.1","","97.82","","","","","","Cloudy"
"1983-11-19 20:00","1983","11","19","20:00","4.8","","3.0","","88","","27","","13","","24.1","","97.75","","","","","","Cloudy"
"1983-11-19 21:00","1983","11","19","21:00","4.5","","3.1","","91","","27","","19","","24.1","","97.75","","","","","","Cloudy"
"1983-11-19 22:00","1983","11","19","22:00"
"1983-11-19 23:00","1983","11","19","23:00"
"1983-11-20 00:00","1983","11","20","00:00"
"1983-11-20 01:00","1983","11","20","01:00"
"1983-11-20 02:00","1983","11","20","02:00"
"1983-11-20 03:00","1983","11","20","03:00"
"1983-11-20 04:00","1983","11","20","04:00"
"1983-11-20 05:00","1983","11","20","05:00"
"1983-11-20 06:00","1983","11","20","06:00","4.0","","2.9","","92","","28","","11","","12.9","","98.35","","","","","","Rain Showers"
"1983-11-20 07:00","1983","11","20","07:00","4.0","","2.7","","91","","28","","11","","16.1","","98.42","","","","","","Cloudy"
"1983-11-20 08:00","1983","11","20","08:00","4.0","","2.3","","89","","28","","9","","19.3","","98.49","","","","","","Mostly Cloudy"
"1983-11-20 09:00","1983","11","20","09:00","4.2","","2.5","","89","","28","","11","","24.1","","98.55","","","","","","Mostly Cloudy"
"1983-11-20 10:00","1983","11","20","10:00","5.3","","3.1","","86","","28","","13","","24.1","","98.65","","","","","","Mostly Cloudy"
"1983-11-20 11:00","1983","11","20","11:00","6.9","","4.2","","83","","30","","11","","24.1","","98.69","","","","","","Mostly Cloudy"
"1983-11-20 12:00","1983","11","20","12:00","7.3","","3.2","","75","","30","","15","","24.1","","98.75","","","","","","Mostly Cloudy"
"1983-11-20 13:00","1983","11","20","13:00","8.1","","2.6","","68","","28","","15","","24.1","","98.82","","","","","","Mostly Cloudy"
"1983-11-20 14:00","1983","11","20","14:00","9.4","","3.2","","65","","30","","15","","24.1","","98.89","","","","","","Mostly Cloudy"
"1983-11-20 15:00","1983","11","20","15:00","8.5","","3.1","","69","","30","","19","","24.1","","98.96","","","","","","Mostly Cloudy"
"1983-11-20 16:00","1983","11","20","16:00","7.2","","3.9","","79","","30","","11","","24.1","","99.06","","","","","","Mostly Cloudy"
"1983-11-20 17:00","1983","11","20","17:00","6.6","","3.2","","79","","30","","15","","24.1","","99.16","","","","","","Mostly Cloudy"
"1983-11-20 18:00","1983","11","20","18:00","6.0","","2.7","","79","","30","","11","","24.1","","99.22","","","","","","Mostly Cloudy"
"1983-11-20 19:00","1983","11","20","19:00","5.5","","2.5","","81","","30","","9","","24.1","","99.29","","","","","","Mostly Cloudy"
"1983-11-20 20:00","1983","11","20","20:00","5.2","","2.3","","81","","30","","19","","24.1","","99.36","","","","","","Mostly Cloudy"
"1983-11-20 21:00","1983","11","20","21:00","4.6","","2.3","","85","","30","","11","","24.1","","99.43","","","","","","Mostly Cloudy"
"1983-11-20 22:00","1983","11","20","22:00"
"1983-11-20 23:00","1983","11","20","23:00"
"1983-11-21 00:00","1983","11","21","00:00"
"1983-11-21 01:00","1983","11","21","01:00"
"1983-11-21 02:00","1983","11","21","02:00"
"1983-11-21 03:00","1983","11","21","03:00"
"1983-11-21 04:00","1983","11","21","04:00"
"1983-11-21 05:00","1983","11","21","05:00"
"1983-11-21 06:00","1983","11","21","06:00","4.0","","1.5","","84","","29","","15","","24.1","","99.93","","","","","","Mostly Cloudy"
"1983-11-21 07:00","1983","11","21","07:00","1.9","","0.5","","90","","29","","11","","24.1","","100.00","","","","","","Mainly Clear"
"1983-11-21 08:00","1983","11","21","08:00","2.9","","0.7","","86","","28","","13","","24.1","","100.10","","","","","","Mainly Clear"
"1983-11-21 09:00","1983","11","21","09:00","3.3","","1.0","","85","","30","","11","","24.1","","100.06","","","","","","Mainly Clear"
"1983-11-21 10:00","1983","11","21","10:00","5.7","","1.9","","76","","29","","11","","24.1","","100.13","","","","","","Mainly Clear"
"1983-11-21 11:00","1983","11","21","11:00","6.1","","1.9","","74","","29","","13","","24.1","","100.16","","","","","","Mostly Cloudy"
"1983-11-21 12:00","1983","11","21","12:00","7.9","","1.2","","63","","30","","17","","24.1","","100.13","","","","","","Mainly Clear"
"1983-11-21 13:00","1983","11","21","13:00","8.5","","1.0","","59","","30","","15","","24.1","","100.10","","","","","","Mainly Clear"
"1983-11-21 14:00","1983","11","21","14:00","7.8","","1.3","","63","","29","","7","","24.1","","100.10","","","","","","Mostly Cloudy"
"1983-11-21 15:00","1983","11","21","15:00","6.8","","3.9","","82","","","","0","","24.1","","100.10","","","","","","Mostly Cloudy"
"1983-11-21 16:00","1983","11","21","16:00","6.4","","3.9","","84","","","","0","","24.1","","100.10","","","","","","Mostly Cloudy"
"1983-11-21 17:00","1983","11","21","17:00","3.6","","3.0","","96","","","","0","","24.1","","100.13","","","","","","Mostly Cloudy"
"1983-11-21 18:00","1983","11","21","18:00","3.4","","2.6","","95","","","","0","","24.1","","100.16","","","","","","Mostly Cloudy"
"1983-11-21 19:00","1983","11","21","19:00","3.2","","2.3","","94","","","","0","","24.1","","100.13","","","","","","Mostly Cloudy"
"1983-11-21 20:00","1983","11","21","20:00","1.8","","1.5","","98","","","","0","","24.1","","100.13","","","","","","Mostly Cloudy"
"1983-11-21 21:00","1983","11","21","21:00","1.2","","0.8","","97","","","","0","","24.1","","100.13","","","","","","Mostly Cloudy"
"1983-11-21 22:00","1983","11","21","22:00"
"1983-11-21 23:00","1983","11","21","23:00"
"1983-11-22 00:00","1983","11","22","00:00"
"1983-11-22 01:00","1983","11","22","01:00"
"1983-11-22 02:00","1983","11","22","02:00"
"1983-11-22 03:00","1983","11","22","03:00"
"1983-11-22 04:00","1983","11","22","04:00"
"1983-11-22 05:00","1983","11","22","05:00"
"1983-11-22 06:00","1983","11","22","06:00","4.1","","4.0","","99","","","","0","","8.0","","99.79","","","","","","Rain,Fog"
"1983-11-22 07:00","1983","11","22","07:00","3.7","","3.6","","99","","","","0","","8.0","","99.76","","","","","","Rain,Fog"
"1983-11-22 08:00","1983","11","22","08:00","3.6","","3.5","","99","","31","","4","","9.7","","99.79","","","","","","Rain,Fog"
"1983-11-22 09:00","1983","11","22","09:00","4.1","","3.9","","98","","31","","7","","9.7","","99.76","","","","","","Rain,Fog"
"1983-11-22 10:00","1983","11","22","10:00","4.3","","4.3","","100","","","","0","","6.4","","99.73","","","","","","Rain,Fog"
"1983-11-22 11:00","1983","11","22","11:00","5.1","","4.8","","98","","","","0","","8.0","","99.73","","","","","","Rain,Fog"
"1983-11-22 12:00","1983","11","22","12:00","5.5","","4.4","","93","","","","0","","8.0","","99.69","","","","","","Rain,Fog"
"1983-11-22 13:00","1983","11","22","13:00","6.1","","4.9","","92","","8","","4","","8.0","","99.63","","","","","","Rain Showers,Fog"
"1983-11-22 14:00","1983","11","22","14:00","5.7","","4.5","","92","","4","","4","","8.0","","99.66","","","","","","Fog"
"1983-11-22 15:00","1983","11","22","15:00","5.7","","4.6","","93","","","","0","","8.0","","99.66","","","","","","Fog"
"1983-11-22 16:00","1983","11","22","16:00","5.7","","5.1","","96","","","","0","","8.0","","99.69","","","","","","Rain Showers,Fog"
"1983-11-22 17:00","1983","11","22","17:00","4.9","","4.7","","99","","33","","4","","4.8","","99.69","","","","","","Fog"
"1983-11-22 18:00","1983","11","22","18:00","4.6","","4.5","","99","","","","0","","4.8","","99.69","","","","","","Fog"
"1983-11-22 19:00","1983","11","22","19:00","4.5","","4.3","","98","","26","","6","","4.8","","99.69","","","","","","Fog"
"1983-11-22 20:00","1983","11","22","20:00","4.7","","4.7","","100","","29","","4","","4.8","","99.69","","","","","","Fog"
"1983-11-22 21:00","1983","11","22","21:00","4.5","","4.5","","100","","","","0","","4.8","","99.73","","","","","","Fog"
"1983-11-22 22:00","1983","11","22","22:00"
"1983-11-22 23:00","1983","11","22","23:00"
"1983-11-23 00:00","1983","11","23","00:00"
"1983-11-23 01:00","1983","11","23","01:00"
"1983-11-23 02:00","1983","11","23","02:00"
"1983-11-23 03:00","1983","11","23","03:00"
"1983-11-23 04:00","1983","11","23","04:00"
"1983-11-23 05:00","1983","11","23","05:00"
"1983-11-23 06:00","1983","11","23","06:00","5.2","","3.9","","91","","15","","17","","19.3","","99.56","","","","","","Rain"
"1983-11-23 07:00","1983","11","23","07:00","5.0","","4.3","","95","","14","","9","","4.8","","99.49","","","","","","Rain,Fog"
"1983-11-23 08:00","1983","11","23","08:00","5.0","","4.3","","95","","12","","11","","8.0","","99.46","","","","","","Rain,Fog"
"1983-11-23 09:00","1983","11","23","09:00","5.1","","4.5","","96","","12","","9","","8.0","","99.46","","","","","","Rain,Fog"
"1983-11-23 10:00","1983","11","23","10:00","5.1","","4.5","","96","","10","","7","","11.3","","99.43","","","","","","Rain"
"1983-11-23 11:00","1983","11","23","11:00","5.4","","4.3","","93","","12","","13","","11.3","","99.36","","","","","","Cloudy"
"1983-11-23 12:00","1983","11","23","12:00","5.4","","4.5","","94","","12","","15","","11.3","","99.29","","","","","","Cloudy"
"1983-11-23 13:00","1983","11","23","13:00","5.6","","4.5","","93","","12","","13","","11.3","","99.22","","","","","","Cloudy"
"1983-11-23 14:00","1983","11","23","14:00","5.6","","4.7","","94","","13","","9","","11.3","","99.19","","","","","","Rain Showers"
"1983-11-23 15:00","1983","11","23","15:00","5.5","","4.8","","95","","13","","6","","11.3","","99.16","","","","","","Rain Showers"
"1983-11-23 16:00","1983","11","23","16:00","5.3","","4.9","","97","","15","","6","","8.0","","99.09","","","","","","Rain Showers,Fog"
"1983-11-23 17:00","1983","11","23","17:00","5.0","","4.0","","93","","14","","13","","6.4","","99.09","","","","","","Rain Showers,Fog"
"1983-11-23 18:00","1983","11","23","18:00","4.5","","3.8","","95","","15","","13","","6.4","","98.99","","","","","","Rain Showers,Fog"
"1983-11-23 19:00","1983","11","23","19:00","4.4","","3.7","","95","","16","","11","","6.4","","98.85","","","","","","Rain Showers,Fog"
"1983-11-23 20:00","1983","11","23","20:00","4.4","","3.9","","97","","14","","11","","4.8","","98.79","","","","","","Rain,Fog"
"1983-11-23 21:00","1983","11","23","21:00","4.5","","4.2","","98","","12","","11","","4.8","","98.69","","","","","","Rain,Fog"
"1983-11-23 22:00","1983","11","23","22:00"
"1983-11-23 23:00","1983","11","23","23:00"
"1983-11-24 00:00","1983","11","24","00:00"
"1983-11-24 01:00","1983","11","24","01:00"
"1983-11-24 02:00","1983","11","24","02:00"
"1983-11-24 03:00","1983","11","24","03:00"
"1983-11-24 04:00","1983","11","24","04:00"
"1983-11-24 05:00","1983","11","24","05:00"
"1983-11-24 06:00","1983","11","24","06:00","3.6","","3.3","","98","","","","0","","16.1","","97.65","","","","","","Rain"
"1983-11-24 07:00","1983","11","24","07:00","2.8","","2.3","","97","","25","","7","","16.1","","97.55","","","","","","Rain"
"1983-11-24 08:00","1983","11","24","08:00","2.2","","1.9","","98","","26","","7","","16.1","","97.35","","","","","","Rain"
"1983-11-24 09:00","1983","11","24","09:00","2.2","","1.8","","97","","27","","9","","16.1","","97.35","","","","","","Rain"
"1983-11-24 10:00","1983","11","24","10:00","2.0","","1.6","","97","","29","","15","","16.1","","97.28","","","","","","Rain"
"1983-11-24 11:00","1983","11","24","11:00","2.3","","1.9","","97","","27","","15","","16.1","","97.25","","","","","","Rain"
"1983-11-24 12:00","1983","11","24","12:00","2.8","","2.3","","97","","27","","11","","16.1","","97.21","","","","","","Rain"
"1983-11-24 13:00","1983","11","24","13:00","3.2","","2.7","","97","","29","","15","","16.1","","97.25","","","","","","Rain"
"1983-11-24 14:00","1983","11","24","14:00","3.9","","3.2","","95","","28","","15","","12.9","","97.28","","","","","","Rain"
"1983-11-24 15:00","1983","11","24","15:00","4.4","","3.5","","94","","29","","15","","12.9","","97.35","","","","","","Rain"
"1983-11-24 16:00","1983","11","24","16:00","4.6","","3.6","","93","","30","","20","","16.1","","97.51","","","","","","Rain"
"1983-11-24 17:00","1983","11","24","17:00","5.1","","3.4","","89","","31","","19","","16.1","","97.61","","","","","","Cloudy"
"1983-11-24 18:00","1983","11","24","18:00","5.3","","3.4","","88","","31","","19","","16.1","","97.75","","","","","","Cloudy"
"1983-11-24 19:00","1983","11","24","19:00","5.0","","3.4","","89","","33","","13","","16.1","","97.95","","","","","","Cloudy"
"1983-11-24 20:00","1983","11","24","20:00","4.7","","3.9","","94","","31","","13","","16.1","","98.12","","","","","","Cloudy"
"1983-11-24 21:00","1983","11","24","21:00","3.9","","3.4","","97","","","","0","","16.1","","98.32","","","","","","Cloudy"
"1983-11-24 22:00","1983","11","24","22:00"
"1983-11-24 23:00","1983","11","24","23:00"
"1983-11-25 00:00","1983","11","25","00:00"
"1983-11-25 01:00","1983","11","25","01:00"
"1983-11-25 02:00","1983","11","25","02:00"
"1983-11-25 03:00","1983","11","25","03:00"
"1983-11-25 04:00","1983","11","25","04:00"
"1983-11-25 05:00","1983","11","25","05:00"
"1983-11-25 06:00","1983","11","25","06:00","2.3","","2.3","","100","","","","0","","24.1","","99.59","","","","","","Mostly Cloudy"
"1983-11-25 07:00","1983","11","25","07:00","2.3","","2.3","","100","","","","0","","24.1","","99.63","","","","","","Mostly Cloudy"
"1983-11-25 08:00","1983","11","25","08:00","3.0","","2.5","","97","","","","0","","24.1","","99.79","","","","","","Mostly Cloudy"
"1983-11-25 09:00","1983","11","25","09:00","3.0","","2.6","","97","","","","0","","24.1","","99.96","","","","","","Mostly Cloudy"
"1983-11-25 10:00","1983","11","25","10:00","3.3","","3.1","","99","","","","0","","24.1","","100.10","","","","","","Mostly Cloudy"
"1983-11-25 11:00","1983","11","25","11:00","4.7","","4.0","","95","","","","0","","24.1","","100.23","","","","","","Mostly Cloudy"
"1983-11-25 12:00","1983","11","25","12:00","6.2","","3.3","","81","","","","0","","24.1","","100.26","","","","","","Mostly Cloudy"
"1983-11-25 13:00","1983","11","25","13:00","7.5","","4.3","","80","","","","0","","24.1","","100.33","","","","","","Mostly Cloudy"
"1983-11-25 14:00","1983","11","25","14:00","7.5","","4.4","","81","","","","0","","24.1","","100.40","","","","","","Mostly Cloudy"
"1983-11-25 15:00","1983","11","25","15:00","7.1","","5.0","","86","","","","0","","24.1","","100.50","","","","","","Mostly Cloudy"
"1983-11-25 16:00","1983","11","25","16:00","5.7","","4.7","","93","","","","0","","24.1","","100.53","","","","","","Mostly Cloudy"
"1983-11-25 17:00","1983","11","25","17:00","4.0","","4.0","","100","","","","0","","24.1","","100.63","","","","","","Mostly Cloudy"
"1983-11-25 18:00","1983","11","25","18:00","3.3","","3.2","","100","","","","0","","24.1","","100.70","","","","","","Cloudy"
"1983-11-25 19:00","1983","11","25","19:00","2.7","","2.3","","97","","","","0","","24.1","","100.80","","","","","","Mostly Cloudy"
"1983-11-25 20:00","1983","11","25","20:00","1.3","","1.2","","100","","29","","4","","24.1","","100.83","","","","","","Cloudy"
"1983-11-25 21:00","1983","11","25","21:00","0.6","","0.5","","99","","31","","4","","24.1","","100.93","","","","","","Cloudy"
"1983-11-25 22:00","1983","11","25","22:00"
"1983-11-25 23:00","1983","11","25","23:00"
"1983-11-26 00:00","1983","11","26","00:00"
"1983-11-26 01:00","1983","11","26","01:00"
"1983-11-26 02:00","1983","11","26","02:00"
"1983-11-26 03:00","1983","11","26","03:00"
"1983-11-26 04:00","1983","11","26","04:00"
"1983-11-26 05:00","1983","11","26","05:00"
"1983-11-26 06:00","1983","11","26","06:00","4.3","","3.5","","95","","14","","15","","4.8","","100.97","","","","","","Rain,Fog"
"1983-11-26 07:00","1983","11","26","07:00","4.7","","3.5","","92","","15","","24","","4.8","","100.83","","","","","","Rain,Fog"
"1983-11-26 08:00","1983","11","26","08:00","4.6","","3.9","","95","","15","","19","","4.8","","100.80","","","","","","Rain,Fog"
"1983-11-26 09:00","1983","11","26","09:00","4.8","","4.2","","96","","14","","15","","4.8","","100.80","","","","","","Rain,Fog"
"1983-11-26 10:00","1983","11","26","10:00","5.8","","5.1","","95","","14","","19","","4.8","","100.70","","","","","","Rain,Fog"
"1983-11-26 11:00","1983","11","26","11:00","5.4","","4.8","","96","","14","","22","","4.8","","100.60","","","","","","Rain,Fog"
"1983-11-26 12:00","1983","11","26","12:00","5.6","","4.8","","94","","14","","22","","4.8","","100.43","","","","","","Rain,Fog"
"1983-11-26 13:00","1983","11","26","13:00","4.8","","3.8","","93","","14","","19","","6.4","","100.40","","","","","","Rain,Fog"
"1983-11-26 14:00","1983","11","26","14:00","4.2","","3.6","","96","","16","","19","","12.9","","100.33","","","","","","Rain"
"1983-11-26 15:00","1983","11","26","15:00","4.3","","3.6","","95","","13","","19","","12.9","","100.36","","","","","","Rain"
"1983-11-26 16:00","1983","11","26","16:00","4.2","","3.9","","98","","","","0","","4.8","","100.43","","","","","","Rain,Fog"
"1983-11-26 17:00","1983","11","26","17:00","4.6","","4.5","","99","","36","","6","","2.4","","100.53","","","","","","Rain,Fog"
"1983-11-26 18:00","1983","11","26","18:00","5.3","","5.2","","100","","28","","7","","2.4","","100.63","","","","","","Rain,Drizzle,Fog"
"1983-11-26 19:00","1983","11","26","19:00","4.9","","4.7","","99","","","","0","","4.8","","100.73","","","","","","Drizzle,Fog"
"1983-11-26 20:00","1983","11","26","20:00","4.7","","4.6","","99","","","","0","","6.4","","100.80","","","","","","Drizzle,Fog"
"1983-11-26 21:00","1983","11","26","21:00","4.7","","4.7","","100","","34","","6","","8.0","","100.90","","","","","","Drizzle,Fog"
"1983-11-26 22:00","1983","11","26","22:00"
"1983-11-26 23:00","1983","11","26","23:00"
"1983-11-27 00:00","1983","11","27","00:00"
"1983-11-27 01:00","1983","11","27","01:00"
"1983-11-27 02:00","1983","11","27","02:00"
"1983-11-27 03:00","1983","11","27","03:00"
"1983-11-27 04:00","1983","11","27","04:00"
"1983-11-27 05:00","1983","11","27","05:00"
"1983-11-27 06:00","1983","11","27","06:00","3.9","","3.7","","99","","28","","6","","6.4","","101.40","","","","","","Fog"
"1983-11-27 07:00","1983","11","27","07:00","4.1","","3.7","","97","","28","","7","","8.0","","101.44","","","","","","Fog"
"1983-11-27 08:00","1983","11","27","08:00","4.2","","3.7","","97","","27","","6","","19.3","","101.50","","","","","","Mostly Cloudy"
"1983-11-27 09:00","1983","11","27","09:00","4.4","","3.8","","96","","28","","7","","19.3","","101.57","","","","","","Mostly Cloudy"
"1983-11-27 10:00","1983","11","27","10:00","4.7","","4.1","","96","","27","","6","","19.3","","101.67","","","","","","Cloudy"
"1983-11-27 11:00","1983","11","27","11:00","5.1","","4.1","","93","","29","","9","","16.1","","101.67","","","","","","Cloudy"
"1983-11-27 12:00","1983","11","27","12:00","5.0","","3.9","","93","","29","","7","","16.1","","101.67","","","","","","Cloudy"
"1983-11-27 13:00","1983","11","27","13:00","5.7","","4.3","","90","","","","0","","16.1","","101.67","","","","","","Cloudy"
"1983-11-27 14:00","1983","11","27","14:00","5.9","","3.4","","84","","","","0","","16.1","","101.71","","","","","","Cloudy"
"1983-11-27 15:00","1983","11","27","15:00","5.6","","3.9","","89","","","","0","","16.1","","101.77","","","","","","Cloudy"
"1983-11-27 16:00","1983","11","27","16:00","5.0","","3.9","","93","","","","0","","16.1","","101.77","","","","","","Cloudy"
"1983-11-27 17:00","1983","11","27","17:00","4.5","","3.8","","95","","","","0","","24.1","","101.77","","","","","","Mostly Cloudy"
"1983-11-27 18:00","1983","11","27","18:00","4.3","","3.8","","97","","","","0","","24.1","","101.71","","","","","","Cloudy"
"1983-11-27 19:00","1983","11","27","19:00","4.0","","3.7","","98","","","","0","","24.1","","101.74","","","","","","Cloudy"
"1983-11-27 20:00","1983","11","27","20:00","3.8","","3.7","","100","","","","0","","24.1","","101.67","","","","","","Cloudy"
"1983-11-27 21:00","1983","11","27","21:00","3.4","","3.3","","99","","","","0","","24.1","","101.67","","","","","","Mostly Cloudy"
"1983-11-27 22:00","1983","11","27","22:00"
"1983-11-27 23:00","1983","11","27","23:00"
"1983-11-28 00:00","1983","11","28","00:00"
"1983-11-28 01:00","1983","11","28","01:00"
"1983-11-28 02:00","1983","11","28","02:00"
"1983-11-28 03:00","1983","11","28","03:00"
"1983-11-28 04:00","1983","11","28","04:00"
"1983-11-28 05:00","1983","11","28","05:00"
"1983-11-28 06:00","1983","11","28","06:00","2.3","","2.3","","100","","","","0","","16.1","","101.37","","","","","","Mostly Cloudy"
"1983-11-28 07:00","1983","11","28","07:00","3.1","","2.6","","97","","27","","7","","19.3","","101.40","","","","","","Mostly Cloudy"
"1983-11-28 08:00","1983","11","28","08:00","1.5","","1.4","","99","","","","0","","24.1","","101.40","","","","","","Mostly Cloudy"
"1983-11-28 09:00","1983","11","28","09:00","1.4","","1.2","","99","","","","0","","24.1","","101.40","","","","","","Mostly Cloudy"
"1983-11-28 10:00","1983","11","28","10:00","3.7","","2.4","","91","","30","","9","","24.1","","101.44","","","","","","Mostly Cloudy"
"1983-11-28 11:00","1983","11","28","11:00","5.2","","2.7","","84","","29","","19","","24.1","","101.40","","","","","","Mainly Clear"
"1983-11-28 12:00","1983","11","28","12:00","6.1","","3.1","","81","","32","","19","","24.1","","101.30","","","","","","Mainly Clear"
"1983-11-28 13:00","1983","11","28","13:00","7.0","","3.2","","77","","30","","19","","24.1","","101.27","","","","","","Mainly Clear"
"1983-11-28 14:00","1983","11","28","14:00","7.2","","2.4","","71","","32","","11","","24.1","","101.24","","","","","","Mainly Clear"
"1983-11-28 15:00","1983","11","28","15:00","7.1","","3.0","","75","","28","","15","","24.1","","101.17","","","","","","Mainly Clear"
"1983-11-28 16:00","1983","11","28","16:00","4.2","","2.0","","85","","28","","7","","24.1","","101.17","","","","","","Clear"
"1983-11-28 17:00","1983","11","28","17:00","1.3","","0.5","","95","","31","","7","","24.1","","101.17","","","","","","Clear"
"1983-11-28 18:00","1983","11","28","18:00","1.2","","0.4","","94","","31","","11","","24.1","","101.14","","","","","","Clear"
"1983-11-28 19:00","1983","11","28","19:00","0.4","","-0.3","","95","","31","","11","","24.1","","101.14","","","","","","Clear"
"1983-11-28 20:00","1983","11","28","20:00","-0.5","","-1.1","","96","","","","0","","24.1","","101.14","","","","","","Clear"
"1983-11-28 21:00","1983","11","28","21:00","-1.5","","-1.9","","97","","","","0","","24.1","","101.14","","","","","","Clear"
"1983-11-28 22:00","1983","11","28","22:00"
"1983-11-28 23:00","1983","11","28","23:00"
"1983-11-29 00:00","1983","11","29","00:00"
"1983-11-29 01:00","1983","11","29","01:00"
"1983-11-29 02:00","1983","11","29","02:00"
"1983-11-29 03:00","1983","11","29","03:00"
"1983-11-29 04:00","1983","11","29","04:00"
"1983-11-29 05:00","1983","11","29","05:00"
"1983-11-29 06:00","1983","11","29","06:00","-4.1","","-4.7","","95","","28","","4","","24.1","","101.03","","","","-6","","Clear"
"1983-11-29 07:00","1983","11","29","07:00","-3.8","","-4.4","","96","","","","0","","24.1","","101.00","","","","","","Mainly Clear"
"1983-11-29 08:00","1983","11","29","08:00","-3.6","","-4.3","","95","","28","","4","","24.1","","101.00","","","","-5","","Mostly Cloudy"
"1983-11-29 09:00","1983","11","29","09:00","-1.2","","-1.4","","99","","","","0","","24.1","","100.93","","","","","","Mostly Cloudy"
"1983-11-29 10:00","1983","11","29","10:00","0.0","","-0.6","","96","","","","0","","24.1","","100.93","","","","","","Mostly Cloudy"
"1983-11-29 11:00","1983","11","29","11:00","4.1","","0.4","","77","","30","","7","","24.1","","100.83","","","","","","Mainly Clear"
"1983-11-29 12:00","1983","11","29","12:00","3.0","","1.3","","88","","","","0","","24.1","","100.80","","","","","","Mainly Clear"
"1983-11-29 13:00","1983","11","29","13:00","4.3","","1.2","","80","","","","0","","24.1","","100.70","","","","","","Mainly Clear"
"1983-11-29 14:00","1983","11","29","14:00","4.4","","1.0","","79","","13","","7","","24.1","","100.67","","","","","","Mainly Clear"
"1983-11-29 15:00","1983","11","29","15:00","4.9","","0.4","","73","","","","0","","24.1","","100.60","","","","","","Mainly Clear"
"1983-11-29 16:00","1983","11","29","16:00","1.0","","0.3","","95","","","","0","","24.1","","100.57","","","","","","Mainly Clear"
"1983-11-29 17:00","1983","11","29","17:00","-1.1","","-1.5","","97","","","","0","","24.1","","100.53","","","","","","Mainly Clear"
"1983-11-29 18:00","1983","11","29","18:00","-1.7","","-1.7","","100","","","","0","","24.1","","100.50","","","","","","Clear"
"1983-11-29 19:00","1983","11","29","19:00","-2.5","","-3.4","","94","","30","","6","","24.1","","100.50","","","","-5","","Clear"
"1983-11-29 20:00","1983","11","29","20:00","-2.9","","-3.3","","97","","","","0","","24.1","","100.50","","","","","","Clear"
"1983-11-29 21:00","1983","11","29","21:00","-3.7","","-4.2","","96","","","","0","","24.1","","100.50","","","","","","Clear"
"1983-11-29 22:00","1983","11","29","22:00"
"1983-11-29 23:00","1983","11","29","23:00"
"1983-11-30 00:00","1983","11","30","00:00"
"1983-11-30 01:00","1983","11","30","01:00"
"1983-11-30 02:00","1983","11","30","02:00"
"1983-11-30 03:00","1983","11","30","03:00"
"1983-11-30 04:00","1983","11","30","04:00"
"1983-11-30 05:00","1983","11","30","05:00"
"1983-11-30 06:00","1983","11","30","06:00","-6.1","","-6.6","","96","","29","","4","","24.1","","100.46","","","","-8","","Clear"
"1983-11-30 07:00","1983","11","30","07:00","-6.6","","-7.4","","94","","30","","6","","24.1","","100.46","","","","-10","","Clear"
"1983-11-30 08:00","1983","11","30","08:00","-6.1","","-6.7","","95","","29","","7","","24.1","","100.50","","","","-9","","Clear"
"1983-11-30 09:00","1983","11","30","09:00","-5.1","","-5.9","","94","","30","","4","","24.1","","100.50","","","","-7","","Clear"
"1983-11-30 10:00","1983","11","30","10:00","-2.2","","-3.0","","94","","31","","7","","24.1","","100.53","","","","-5","","Clear"
"1983-11-30 11:00","1983","11","30","11:00","0.7","","-1.1","","87","","","","0","","24.1","","100.53","","","","","","Clear"
"1983-11-30 12:00","1983","11","30","12:00","2.3","","-2.3","","72","","29","","7","","24.1","","100.53","","","","","","Clear"
"1983-11-30 13:00","1983","11","30","13:00","3.4","","-3.8","","59","","31","","4","","24.1","","100.50","","","","","","Clear"
"1983-11-30 14:00","1983","11","30","14:00","3.7","","-4.3","","56","","","","0","","25.0","","100.40","","","","","","Clear"
"1983-11-30 15:00","1983","11","30","15:00","3.3","","-5.3","","53","","","","0","","25.0","","100.40","","","","","","Clear"
"1983-11-30 16:00","1983","11","30","16:00","-0.5","","-2.9","","84","","","","0","","25.0","","100.33","","","","","","Clear"
"1983-11-30 17:00","1983","11","30","17:00","-2.3","","-3.5","","91","","","","0","","25.0","","100.30","","","","","","Clear"
"1983-11-30 18:00","1983","11","30","18:00","-2.7","","-3.9","","92","","32","","6","","25.0","","100.33","","","","-5","","Clear"
"1983-11-30 19:00","1983","11","30","19:00","-3.7","","-4.1","","97","","","","0","","25.0","","100.30","","","","","","Clear"
"1983-11-30 20:00","1983","11","30","20:00","-4.4","","-5.1","","95","","31","","9","","25.0","","100.33","","","","-8","","Clear"
"1983-11-30 21:00","1983","11","30","21:00","-4.7","","-5.1","","97","","30","","6","","25.0","","100.33","","","","-7","","Clear"
"1983-11-30 22:00","1983","11","30","22:00"
"1983-11-30 23:00","1983","11","30","23:00"
