"Station Name","CAMPBELL RIVER A"
"Province","BRITISH COLUMBIA"
"Latitude","49.95"
"Longitude","-125.27"
"Elevation","108.80"
"Climate Identifier","1021261"
"WMO Identifier",""
"TC Identifier","YBL"
"All times are specified in Local Standard Time (LST). Add 1 hour to adjust for Daylight Saving Time where and when it is observed."

"Legend"
"E","Estimated"
"M","Missing"
"NA","Not Available"

"Date/Time","Year","Month","Day","Time","Temp (°C)","Temp Flag","Dew Point Temp (°C)","Dew Point Temp Flag","Rel Hum (%)","Rel Hum Flag","Wind Dir (10s deg)","Wind Dir Flag","Wind Spd (km/h)","Wind Spd Flag","Visibility (km)","Visibility Flag","Stn Press (kPa)","Stn Press Flag","Hmdx","Hmdx Flag","Wind Chill","Wind Chill Flag","Weather"
"2010-01-01 00:00","2010","01","01","00:00"
"2010-01-01 01:00","2010","01","01","01:00"
"2010-01-01 02:00","2010","01","01","02:00"
"2010-01-01 03:00","2010","01","01","03:00"
"2010-01-01 04:00","2010","01","01","04:00"
"2010-01-01 05:00","2010","01","01","05:00"
"2010-01-01 06:00","2010","01","01","06:00","5.8","","5.0","","95","","14","","13","","4.8","","98.82","","","","","","Rain,Fog"
"2010-01-01 07:00","2010","01","01","07:00","6.6","","5.8","","95","","15","","15","","4.8","","98.74","","","","","","Rain,Fog"
"2010-01-01 08:00","2010","01","01","08:00","6.6","","5.9","","95","","13","","24","","6.4","","98.63","","","","","","Rain,Fog"
"2010-01-01 09:00","2010","01","01","09:00","6.3","","5.5","","95","","13","","19","","8.0","","98.57","","","","","","Rain,Fog"
"2010-01-01 10:00","2010","01","01","10:00","6.6","","5.7","","94","","15","","17","","8.0","","98.58","","","","","","Rain,Fog"
"2010-01-01 11:00","2010","01","01","11:00","6.6","","5.7","","94","","13","","17","","8.0","","98.59","","","","","","Rain,Fog"
"2010-01-01 12:00","2010","01","01","12:00","6.6","","5.7","","94","","14","","20","","8.0","","98.63","","","","","","Rain,Fog"
"2010-01-01 13:00","2010","01","01","13:00","6.6","","5.7","","94","","15","","17","","8.0","","98.61","","","","","","Fog"
"2010-01-01 14:00","2010","01","01","14:00","7.4","","6.5","","94","","14","","17","","8.0","","98.66","","","","","","Fog"
"2010-01-01 15:00","2010","01","01","15:00","7.9","","6.8","","93","","13","","19","","9.7","","98.66","","","","","","Fog"
"2010-01-01 16:00","2010","01","01","16:00","7.8","","6.7","","93","","14","","15","","19.3","","98.75","","","","","","Rain Showers"
"2010-01-01 17:00","2010","01","01","17:00","6.2","","5.9","","98","","16","","13","","24.1","","98.85","","","","","","Mainly Clear"
"2010-01-01 18:00","2010","01","01","18:00","6.2","","4.7","","90","","29","","6","","24.1","","99.00","","","","","","Mostly Cloudy"
"2010-01-01 19:00","2010","01","01","19:00","5.0","","4.4","","96","","25","","6","","24.1","","99.15","","","","","","Mostly Cloudy"
"2010-01-01 20:00","2010","01","01","20:00","3.8","","3.1","","95","","","","0","","24.1","","99.31","","","","","","Mostly Cloudy"
"2010-01-01 21:00","2010","01","01","21:00","3.0","","2.3","","95","","27","","7","","24.1","","99.47","","","","","","Mostly Cloudy"
"2010-01-01 22:00","2010","01","01","22:00"
"2010-01-01 23:00","2010","01","01","23:00"
"2010-01-02 00:00","2010","01","02","00:00"
"2010-01-02 01:00","2010","01","02","01:00"
"2010-01-02 02:00","2010","01","02","02:00"
"2010-01-02 03:00","2010","01","02","03:00"
"2010-01-02 04:00","2010","01","02","04:00"
"2010-01-02 05:00","2010","01","02","05:00"
"2010-01-02 06:00","2010","01","02","06:00","-0.1","","-1.1","","93","","30","","4","","24.1","","100.44","","","","-1","","Mostly Cloudy"
"2010-01-02 07:00","2010","01","02","07:00","0.3","","-0.6","","94","","30","","6","","16.1","","100.50","","","","","","Mostly Cloudy"
"2010-01-02 08:00","2010","01","02","08:00","0.7","","-0.1","","94","","","","0","","19.3","","100.56","","","","","","Cloudy"
"2010-01-02 09:00","2010","01","02","09:00","1.0","","0.1","","94","","31","","4","","11.3","","100.62","","","","","","Cloudy"
"2010-01-02 10:00","2010","01","02","10:00","1.7","","0.9","","94","","","","0","","8.0","","100.72","","","","","","Fog"
"2010-01-02 11:00","2010","01","02","11:00","3.7","","2.9","","94","","33","","4","","8.0","","100.76","","","","","","Fog"
"2010-01-02 12:00","2010","01","02","12:00","4.8","","3.8","","93","","31","","6","","4.8","","100.78","","","","","","Fog"
"2010-01-02 13:00","2010","01","02","13:00","5.7","","4.8","","94","","","","0","","6.4","","100.80","","","","","","Fog"
"2010-01-02 14:00","2010","01","02","14:00","6.0","","5.1","","94","","29","","4","","8.0","","100.81","","","","","","Rain Showers,Fog"
"2010-01-02 15:00","2010","01","02","15:00","6.0","","5.0","","93","","","","0","","6.4","","100.87","","","","","","Fog"
"2010-01-02 16:00","2010","01","02","16:00","5.9","","5.1","","95","","","","0","","6.4","","100.95","","","","","","Fog"
"2010-01-02 17:00","2010","01","02","17:00","5.6","","4.8","","95","","","","0","","8.0","","100.97","","","","","","Fog"
"2010-01-02 18:00","2010","01","02","18:00","5.1","","4.5","","96","","26","","4","","8.0","","101.02","","","","","","Rain Showers,Fog"
"2010-01-02 19:00","2010","01","02","19:00","5.1","","4.5","","96","","31","","4","","6.4","","101.07","","","","","","Rain Showers,Fog"
"2010-01-02 20:00","2010","01","02","20:00","5.0","","4.3","","95","","25","","4","","4.8","","101.08","","","","","","Fog"
"2010-01-02 21:00","2010","01","02","21:00","4.8","","4.1","","95","","","","0","","8.0","","101.12","","","","","","Fog"
"2010-01-02 22:00","2010","01","02","22:00"
"2010-01-02 23:00","2010","01","02","23:00"
"2010-01-03 00:00","2010","01","03","00:00"
"2010-01-03 01:00","2010","01","03","01:00"
"2010-01-03 02:00","2010","01","03","02:00"
"2010-01-03 03:00","2010","01","03","03:00"
"2010-01-03 04:00","2010","01","03","04:00"
"2010-01-03 05:00","2010","01","03","05:00"
"2010-01-03 06:00","2010","01","03","06:00","3.8","","3.2","","96","","","","0","","2.4","","101.27","","","","","","Drizzle"
"2010-01-03 07:00","2010","01","03","07:00","3.7","","3.3","","97","","","","0","","2.4","","101.28","","","","","","Drizzle"
"2010-01-03 08:00","2010","01","03","08:00","3.7","","3.0","","95","","29","","4","","6.4","","101.26","","","","","","Drizzle"
"2010-01-03 09:00","2010","01","03","09:00","3.7","","3.0","","95","","","","0","","8.0","","101.28","","","","","","Fog"
"2010-01-03 10:00","2010","01","03","10:00","4.0","","3.3","","95","","","","0","","12.9","","101.28","","","","","","Cloudy"
"2010-01-03 11:00","2010","01","03","11:00","4.3","","3.6","","95","","","","0","","19.3","","101.29","","","","","","Cloudy"
"2010-01-03 12:00","2010","01","03","12:00","5.5","","4.4","","93","","","","0","","19.3","","101.23","","","","","","Cloudy"
"2010-01-03 13:00","2010","01","03","13:00","5.7","","4.7","","93","","4","","4","","11.3","","101.19","","","","","","Cloudy"
"2010-01-03 14:00","2010","01","03","14:00","6.1","","5.2","","94","","6","","7","","4.8","","101.13","","","","","","Fog"
"2010-01-03 15:00","2010","01","03","15:00","6.0","","5.1","","94","","8","","6","","8.0","","101.12","","","","","","Fog"
"2010-01-03 16:00","2010","01","03","16:00","6.0","","5.1","","94","","","","0","","4.8","","101.10","","","","","","Rain,Fog"
"2010-01-03 17:00","2010","01","03","17:00","5.6","","4.8","","95","","","","0","","4.0","","101.07","","","","","","Rain,Fog"
"2010-01-03 18:00","2010","01","03","18:00","5.4","","4.7","","95","","","","0","","3.2","","101.05","","","","","","Rain,Fog"
"2010-01-03 19:00","2010","01","03","19:00","5.2","","4.5","","95","","36","","6","","3.2","","101.02","","","","","","Rain,Fog"
"2010-01-03 20:00","2010","01","03","20:00","4.9","","4.2","","95","","","","0","","4.8","","101.01","","","","","","Rain,Fog"
"2010-01-03 21:00","2010","01","03","21:00","4.7","","4.1","","96","","","","0","","3.2","","100.98","","","","","","Rain,Fog"
"2010-01-03 22:00","2010","01","03","22:00"
"2010-01-03 23:00","2010","01","03","23:00"
"2010-01-04 00:00","2010","01","04","00:00"
"2010-01-04 01:00","2010","01","04","01:00"
"2010-01-04 02:00","2010","01","04","02:00"
"2010-01-04 03:00","2010","01","04","03:00"
"2010-01-04 04:00","2010","01","04","04:00"
"2010-01-04 05:00","2010","01","04","05:00"
"2010-01-04 06:00","2010","01","04","06:00","4.7","","3.9","","95","","","","0","","4.0","","100.55","","","","","","Rain,Fog"
"2010-01-04 07:00","2010","01","04","07:00","4.5","","3.8","","95","","","","0","","4.0","","100.51","","","","","","Rain,Fog"
"2010-01-04 08:00","2010","01","04","08:00","4.7","","3.7","","93","","","","0","","16.1","","100.48","","","","","","Rain"
"2010-01-04 09:00","2010","01","04","09:00","4.3","","3.6","","95","","","","0","","16.1","","100.46","","","","","","Rain"
"2010-01-04 10:00","2010","01","04","10:00","4.7","","3.6","","93","","","","0","","16.1","","100.44","","","","","","Rain"
"2010-01-04 11:00","2010","01","04","11:00","4.9","","3.6","","91","","31","","7","","16.1","","100.44","","","","","","Rain"
"2010-01-04 12:00","2010","01","04","12:00","5.4","","3.6","","88","","30","","4","","16.1","","100.36","","","","","","Rain"
"2010-01-04 13:00","2010","01","04","13:00","5.5","","4.3","","92","","31","","6","","4.0","","100.30","","","","","","Rain,Fog"
"2010-01-04 14:00","2010","01","04","14:00","5.5","","4.1","","91","","31","","6","","8.0","","100.27","","","","","","Fog"
"2010-01-04 15:00","2010","01","04","15:00","5.8","","4.5","","91","","25","","6","","6.4","","100.24","","","","","","Fog"
"2010-01-04 16:00","2010","01","04","16:00","5.7","","4.4","","91","","","","0","","16.1","","100.24","","","","","","Cloudy"
"2010-01-04 17:00","2010","01","04","17:00","5.5","","4.3","","92","","22","","6","","16.1","","100.24","","","","","","Cloudy"
"2010-01-04 18:00","2010","01","04","18:00","5.2","","4.1","","93","","","","0","","16.1","","100.24","","","","","","Cloudy"
"2010-01-04 19:00","2010","01","04","19:00","5.0","","4.1","","94","","27","","4","","16.1","","100.26","","","","","","Cloudy"
"2010-01-04 20:00","2010","01","04","20:00","4.8","","4.0","","95","","","","0","","16.1","","100.33","","","","","","Cloudy"
"2010-01-04 21:00","2010","01","04","21:00","4.9","","4.1","","95","","24","","4","","16.1","","100.39","","","","","","Cloudy"
"2010-01-04 22:00","2010","01","04","22:00"
"2010-01-04 23:00","2010","01","04","23:00"
"2010-01-05 00:00","2010","01","05","00:00"
"2010-01-05 01:00","2010","01","05","01:00"
"2010-01-05 02:00","2010","01","05","02:00"
"2010-01-05 03:00","2010","01","05","03:00"
"2010-01-05 04:00","2010","01","05","04:00"
"2010-01-05 05:00","2010","01","05","05:00"
"2010-01-05 06:00","2010","01","05","06:00","4.2","","3.3","","94","","","","0","","25.0","","100.61","","","","","","Cloudy"
"2010-01-05 07:00","2010","01","05","07:00","4.0","","3.2","","95","","","","0","","25.0","","100.65","","","","","","Cloudy"
"2010-01-05 08:00","2010","01","05","08:00","4.1","","3.1","","93","","30","","4","","24.1","","100.69","","","","","","Cloudy"
"2010-01-05 09:00","2010","01","05","09:00","4.1","","3.0","","93","","30","","4","","24.1","","100.75","","","","","","Cloudy"
"2010-01-05 10:00","2010","01","05","10:00","4.9","","3.1","","88","","","","0","","24.1","","100.82","","","","","","Cloudy"
"2010-01-05 11:00","2010","01","05","11:00","6.0","","3.7","","85","","30","","4","","32.2","","100.83","","","","","","Mostly Cloudy"
"2010-01-05 12:00","2010","01","05","12:00","6.9","","3.6","","79","","22","","4","","32.2","","100.80","","","","","","Cloudy"
"2010-01-05 13:00","2010","01","05","13:00","7.3","","3.2","","75","","","","0","","32.2","","100.79","","","","","","Cloudy"
"2010-01-05 14:00","2010","01","05","14:00","7.6","","2.1","","68","","","","0","","24.1","","100.79","","","","","","Mostly Cloudy"
"2010-01-05 15:00","2010","01","05","15:00","7.4","","2.9","","73","","","","0","","24.1","","100.84","","","","","","Cloudy"
"2010-01-05 16:00","2010","01","05","16:00","7.2","","4.3","","82","","","","0","","24.1","","100.87","","","","","","Mostly Cloudy"
"2010-01-05 17:00","2010","01","05","17:00","6.0","","4.4","","89","","","","0","","24.1","","100.90","","","","","","Mostly Cloudy"
"2010-01-05 18:00","2010","01","05","18:00","5.9","","4.4","","90","","","","0","","25.0","","100.92","","","","","","Cloudy"
"2010-01-05 19:00","2010","01","05","19:00","5.5","","4.3","","92","","","","0","","25.0","","100.94","","","","","","Cloudy"
"2010-01-05 20:00","2010","01","05","20:00","4.9","","3.9","","93","","","","0","","25.0","","101.01","","","","","","Cloudy"
"2010-01-05 21:00","2010","01","05","21:00","3.8","","2.9","","94","","","","0","","8.0","","101.06","","","","","","Fog"
"2010-01-05 22:00","2010","01","05","22:00"
"2010-01-05 23:00","2010","01","05","23:00"
"2010-01-06 00:00","2010","01","06","00:00"
"2010-01-06 01:00","2010","01","06","01:00"
"2010-01-06 02:00","2010","01","06","02:00"
"2010-01-06 03:00","2010","01","06","03:00"
"2010-01-06 04:00","2010","01","06","04:00"
"2010-01-06 05:00","2010","01","06","05:00"
"2010-01-06 06:00","2010","01","06","06:00","4.6","","3.7","","94","","9","","6","","8.0","","101.30","","","","","","Fog"
"2010-01-06 07:00","2010","01","06","07:00","4.8","","3.9","","94","","3","","7","","8.0","","101.36","","","","","","Fog"
"2010-01-06 08:00","2010","01","06","08:00","4.3","","2.9","","91","","","","0","","24.1","","101.37","","","","","","Mostly Cloudy"
"2010-01-06 09:00","2010","01","06","09:00","4.8","","2.9","","87","","9","","7","","48.3","","101.42","","","","","","Mostly Cloudy"
"2010-01-06 10:00","2010","01","06","10:00","5.2","","2.8","","84","","9","","9","","48.3","","101.49","","","","","","Cloudy"
"2010-01-06 11:00","2010","01","06","11:00","5.3","","1.5","","76","","10","","9","","48.3","","101.46","","","","","","Cloudy"
"2010-01-06 12:00","2010","01","06","12:00","5.4","","1.9","","78","","9","","7","","48.3","","101.50","","","","","","Cloudy"
"2010-01-06 13:00","2010","01","06","13:00","5.4","","2.0","","79","","9","","7","","48.3","","101.50","","","","","","Cloudy"
"2010-01-06 14:00","2010","01","06","14:00","5.7","","1.4","","74","","7","","9","","48.3","","101.48","","","","","","Cloudy"
"2010-01-06 15:00","2010","01","06","15:00","5.6","","0.5","","70","","8","","11","","48.3","","101.48","","","","","","Cloudy"
"2010-01-06 16:00","2010","01","06","16:00","5.4","","1.1","","74","","9","","4","","48.3","","101.47","","","","","","Cloudy"
"2010-01-06 17:00","2010","01","06","17:00","5.0","","0.9","","75","","9","","6","","48.3","","101.44","","","","","","Cloudy"
"2010-01-06 18:00","2010","01","06","18:00","4.3","","1.6","","83","","","","0","","25.0","","101.43","","","","","","Cloudy"
"2010-01-06 19:00","2010","01","06","19:00","4.2","","1.3","","81","","","","0","","25.0","","101.38","","","","","","Cloudy"
"2010-01-06 20:00","2010","01","06","20:00","4.0","","1.5","","84","","","","0","","25.0","","101.36","","","","","","Cloudy"
"2010-01-06 21:00","2010","01","06","21:00","3.1","","1.2","","87","","","","0","","25.0","","101.34","","","","","","Cloudy"
"2010-01-06 22:00","2010","01","06","22:00"
"2010-01-06 23:00","2010","01","06","23:00"
"2010-01-07 00:00","2010","01","07","00:00"
"2010-01-07 01:00","2010","01","07","01:00"
"2010-01-07 02:00","2010","01","07","02:00"
"2010-01-07 03:00","2010","01","07","03:00"
"2010-01-07 04:00","2010","01","07","04:00"
"2010-01-07 05:00","2010","01","07","05:00"
"2010-01-07 06:00","2010","01","07","06:00","1.1","","-0.9","","86","","","","0","","25.0","","100.93","","","","","","Mostly Cloudy"
"2010-01-07 07:00","2010","01","07","07:00","1.9","","-0.5","","84","","","","0","","25.0","","100.92","","","","","","Mostly Cloudy"
"2010-01-07 08:00","2010","01","07","08:00","0.1","","-1.3","","90","","32","","4","","32.2","","100.90","","","","","","Cloudy"
"2010-01-07 09:00","2010","01","07","09:00","0.3","","-1.1","","90","","","","0","","32.2","","100.90","","","","","","Cloudy"
"2010-01-07 10:00","2010","01","07","10:00","2.3","","0.8","","90","","12","","9","","32.2","","100.91","","","","","","Cloudy"
"2010-01-07 11:00","2010","01","07","11:00","3.9","","1.7","","86","","11","","9","","32.2","","100.85","","","","","","Cloudy"
"2010-01-07 12:00","2010","01","07","12:00","3.9","","-0.1","","75","","11","","20","","32.2","","100.77","","","","","","Cloudy"
"2010-01-07 13:00","2010","01","07","13:00","4.1","","0.1","","75","","12","","17","","32.2","","100.69","","","","","","Cloudy"
"2010-01-07 14:00","2010","01","07","14:00","4.4","","-1.0","","68","","11","","13","","32.2","","100.63","","","","","","Cloudy"
"2010-01-07 15:00","2010","01","07","15:00","4.4","","-1.0","","68","","12","","9","","48.3","","100.60","","","","","","Cloudy"
"2010-01-07 16:00","2010","01","07","16:00","4.2","","-1.1","","68","","10","","20","","32.2","","100.57","","","","","","Cloudy"
"2010-01-07 17:00","2010","01","07","17:00","4.1","","0.6","","78","","11","","11","","24.1","","100.57","","","","","","Rain"
"2010-01-07 18:00","2010","01","07","18:00","3.5","","1.0","","84","","9","","9","","16.1","","100.54","","","","","","Rain"
"2010-01-07 19:00","2010","01","07","19:00","3.4","","0.9","","84","","10","","13","","16.1","","100.53","","","","","","Rain"
"2010-01-07 20:00","2010","01","07","20:00","3.3","","1.5","","88","","9","","13","","12.9","","100.53","","","","","","Rain"
"2010-01-07 21:00","2010","01","07","21:00","3.4","","1.3","","86","","10","","9","","12.9","","100.57","","","","","","Rain"
"2010-01-07 22:00","2010","01","07","22:00"
"2010-01-07 23:00","2010","01","07","23:00"
"2010-01-08 00:00","2010","01","08","00:00"
"2010-01-08 01:00","2010","01","08","01:00"
"2010-01-08 02:00","2010","01","08","02:00"
"2010-01-08 03:00","2010","01","08","03:00"
"2010-01-08 04:00","2010","01","08","04:00"
"2010-01-08 05:00","2010","01","08","05:00"
"2010-01-08 06:00","2010","01","08","06:00","4.4","","3.6","","95","","9","","9","","4.8","","100.57","","","","","","Drizzle,Fog"
"2010-01-08 07:00","2010","01","08","07:00","4.5","","3.9","","96","","8","","6","","2.4","","100.53","","","","","","Drizzle,Fog"
"2010-01-08 08:00","2010","01","08","08:00","4.8","","4.1","","95","","11","","9","","2.4","","100.51","","","","","","Drizzle,Fog"
"2010-01-08 09:00","2010","01","08","09:00","5.0","","4.2","","95","","9","","9","","1.2","","100.46","","","","","","Rain,Fog"
"2010-01-08 10:00","2010","01","08","10:00","5.1","","4.4","","95","","11","","13","","1.2","","100.45","","","","","","Rain,Fog"
"2010-01-08 11:00","2010","01","08","11:00","5.4","","4.6","","95","","8","","11","","1.2","","100.38","","","","","","Rain,Fog"
"2010-01-08 12:00","2010","01","08","12:00","5.3","","4.6","","95","","10","","11","","0.6","","100.28","","","","","","Drizzle,Fog"
"2010-01-08 13:00","2010","01","08","13:00","5.1","","4.4","","95","","9","","9","","1.6","","100.07","","","","","","Rain,Fog"
"2010-01-08 14:00","2010","01","08","14:00","5.1","","4.4","","95","","11","","17","","0.8","","99.97","","","","","","Rain,Fog"
"2010-01-08 15:00","2010","01","08","15:00","5.5","","4.8","","95","","11","","13","","2.0","","99.91","","","","","","Rain,Fog"
"2010-01-08 16:00","2010","01","08","16:00","5.6","","4.9","","95","","11","","13","","2.0","","99.90","","","","","","Rain,Fog"
"2010-01-08 17:00","2010","01","08","17:00","5.9","","5.0","","94","","12","","26","","4.8","","99.87","","","","","","Rain,Fog"
"2010-01-08 18:00","2010","01","08","18:00","5.9","","5.0","","94","","13","","19","","4.8","","99.80","","","","","","Rain,Fog"
"2010-01-08 19:00","2010","01","08","19:00","5.9","","5.0","","94","","13","","11","","4.8","","99.81","","","","","","Rain,Fog"
"2010-01-08 20:00","2010","01","08","20:00","6.5","","5.5","","93","","14","","22","","4.8","","99.83","","","","","","Drizzle,Fog"
"2010-01-08 21:00","2010","01","08","21:00","6.5","","5.5","","93","","14","","20","","4.8","","99.85","","","","","","Drizzle,Fog"
"2010-01-08 22:00","2010","01","08","22:00"
"2010-01-08 23:00","2010","01","08","23:00"
"2010-01-09 00:00","2010","01","09","00:00"
"2010-01-09 01:00","2010","01","09","01:00"
"2010-01-09 02:00","2010","01","09","02:00"
"2010-01-09 03:00","2010","01","09","03:00"
"2010-01-09 04:00","2010","01","09","04:00"
"2010-01-09 05:00","2010","01","09","05:00"
"2010-01-09 06:00","2010","01","09","06:00","7.4","","6.6","","95","","13","","17","","3.2","","100.19","","","","","","Rain,Fog"
"2010-01-09 07:00","2010","01","09","07:00","7.6","","6.8","","95","","15","","19","","3.2","","100.26","","","","","","Rain,Fog"
"2010-01-09 08:00","2010","01","09","08:00","7.7","","6.8","","94","","14","","20","","4.0","","100.29","","","","","","Rain,Fog"
"2010-01-09 09:00","2010","01","09","09:00","7.9","","7.0","","94","","14","","19","","4.8","","100.35","","","","","","Rain,Fog"
"2010-01-09 10:00","2010","01","09","10:00","8.1","","7.2","","94","","13","","22","","4.8","","100.41","","","","","","Fog"
"2010-01-09 11:00","2010","01","09","11:00","8.3","","7.2","","93","","14","","26","","8.0","","100.48","","","","","","Fog"
"2010-01-09 12:00","2010","01","09","12:00","8.4","","7.4","","93","","14","","33","","8.0","","100.45","","","","","","Rain,Fog"
"2010-01-09 13:00","2010","01","09","13:00","8.6","","7.7","","94","","13","","24","","8.0","","100.42","","","","","","Rain,Fog"
"2010-01-09 14:00","2010","01","09","14:00","8.8","","7.6","","92","","14","","20","","8.0","","100.41","","","","","","Fog"
"2010-01-09 15:00","2010","01","09","15:00","8.7","","7.7","","93","","12","","20","","4.8","","100.47","","","","","","Rain,Fog"
"2010-01-09 16:00","2010","01","09","16:00","8.6","","7.5","","93","","13","","24","","8.0","","100.46","","","","","","Fog"
"2010-01-09 17:00","2010","01","09","17:00","8.6","","7.6","","93","","13","","17","","6.4","","100.49","","","","","","Fog"
"2010-01-09 18:00","2010","01","09","18:00","8.7","","7.8","","94","","13","","20","","4.8","","100.49","","","","","","Fog"
"2010-01-09 19:00","2010","01","09","19:00","8.5","","7.7","","95","","12","","15","","3.2","","100.52","","","","","","Fog"
"2010-01-09 20:00","2010","01","09","20:00","8.6","","7.8","","95","","14","","7","","3.2","","100.55","","","","","","Fog"
"2010-01-09 21:00","2010","01","09","21:00","8.6","","7.9","","95","","11","","9","","3.2","","100.53","","","","","","Fog"
"2010-01-09 22:00","2010","01","09","22:00"
"2010-01-09 23:00","2010","01","09","23:00"
"2010-01-10 00:00","2010","01","10","00:00"
"2010-01-10 01:00","2010","01","10","01:00"
"2010-01-10 02:00","2010","01","10","02:00"
"2010-01-10 03:00","2010","01","10","03:00"
"2010-01-10 04:00","2010","01","10","04:00"
"2010-01-10 05:00","2010","01","10","05:00"
"2010-01-10 06:00","2010","01","10","06:00","9.2","","6.9","","86","","16","","19","","11.3","","100.39","","","","","","Cloudy"
"2010-01-10 07:00","2010","01","10","07:00","9.3","","6.8","","84","","13","","22","","11.3","","100.38","","","","","","Cloudy"
"2010-01-10 08:00","2010","01","10","08:00","9.4","","6.5","","82","","15","","15","","19.3","","100.32","","","","","","Cloudy"
"2010-01-10 09:00","2010","01","10","09:00","8.0","","6.5","","90","","10","","19","","19.3","","100.28","","","","","","Rain"
"2010-01-10 10:00","2010","01","10","10:00","8.1","","6.6","","90","","9","","7","","12.9","","100.26","","","","","","Rain"
"2010-01-10 11:00","2010","01","10","11:00","8.7","","6.4","","85","","13","","17","","24.1","","100.21","","","","","","Mostly Cloudy"
"2010-01-10 12:00","2010","01","10","12:00","9.5","","6.0","","79","","14","","17","","19.3","","100.15","","","","","","Cloudy"
"2010-01-10 13:00","2010","01","10","13:00","9.1","","6.5","","84","","15","","24","","12.9","","100.10","","","","","","Rain"
"2010-01-10 14:00","2010","01","10","14:00","8.2","","6.8","","91","","13","","22","","11.3","","99.97","","","","","","Rain"
"2010-01-10 15:00","2010","01","10","15:00","7.9","","6.4","","90","","13","","22","","11.3","","99.88","","","","","","Rain"
"2010-01-10 16:00","2010","01","10","16:00","8.0","","6.2","","88","","15","","20","","11.3","","99.83","","","","","","Rain"
"2010-01-10 17:00","2010","01","10","17:00","7.8","","6.0","","88","","13","","24","","11.3","","99.69","","","","","","Rain"
"2010-01-10 18:00","2010","01","10","18:00","7.8","","6.0","","88","","13","","35","","8.0","","99.54","","","","","","Moderate Rain,Fog"
"2010-01-10 19:00","2010","01","10","19:00","7.9","","6.4","","90","","14","","30","","6.4","","99.46","","","","","","Moderate Rain,Fog"
"2010-01-10 20:00","2010","01","10","20:00","8.0","","6.5","","90","","14","","41","","4.8","","99.38","","","","","","Moderate Rain,Fog"
"2010-01-10 21:00","2010","01","10","21:00","8.0","","6.8","","92","","14","","32","","4.8","","99.34","","","","","","Moderate Rain,Fog"
"2010-01-10 22:00","2010","01","10","22:00"
"2010-01-10 23:00","2010","01","10","23:00"
"2010-01-11 00:00","2010","01","11","00:00"
"2010-01-11 01:00","2010","01","11","01:00"
"2010-01-11 02:00","2010","01","11","02:00"
"2010-01-11 03:00","2010","01","11","03:00"
"2010-01-11 04:00","2010","01","11","04:00"
"2010-01-11 05:00","2010","01","11","05:00"
"2010-01-11 06:00","2010","01","11","06:00","8.7","","7.8","","94","","13","","22","","3.2","","99.22","","","","","","Rain,Fog"
"2010-01-11 07:00","2010","01","11","07:00","8.6","","7.8","","95","","14","","22","","3.2","","99.24","","","","","","Rain,Fog"
"2010-01-11 08:00","2010","01","11","08:00","8.6","","7.7","","94","","13","","24","","4.0","","99.23","","","","","","Fog"
"2010-01-11 09:00","2010","01","11","09:00","8.6","","7.9","","95","","13","","22","","3.2","","99.19","","","","","","Rain Showers,Fog"
"2010-01-11 10:00","2010","01","11","10:00","8.7","","7.9","","95","","14","","24","","2.0","","99.17","","","","","","Rain,Fog"
"2010-01-11 11:00","2010","01","11","11:00","8.8","","7.9","","94","","14","","22","","2.4","","99.09","","","","","","Rain,Fog"
"2010-01-11 12:00","2010","01","11","12:00","9.0","","8.0","","93","","14","","32","","3.2","","99.02","","","","","","Rain,Fog"
"2010-01-11 13:00","2010","01","11","13:00","9.0","","8.0","","93","","13","","22","","8.0","","98.92","","","","","","Rain,Fog"
"2010-01-11 14:00","2010","01","11","14:00","8.8","","7.9","","94","","12","","28","","6.4","","98.77","","","","","","Rain,Fog"
"2010-01-11 15:00","2010","01","11","15:00","9.1","","8.1","","93","","13","","33","","8.0","","98.62","","","","","","Rain,Fog"
"2010-01-11 16:00","2010","01","11","16:00","9.6","","8.5","","93","","14","","30","","4.8","","98.51","","","","","","Moderate Rain,Fog"
"2010-01-11 17:00","2010","01","11","17:00","9.7","","8.7","","93","","13","","32","","4.8","","98.44","","","","","","Rain,Fog"
"2010-01-11 18:00","2010","01","11","18:00","9.8","","8.8","","93","","14","","28","","4.8","","98.38","","","","","","Moderate Rain,Fog"
"2010-01-11 19:00","2010","01","11","19:00","9.8","","8.5","","92","","14","","28","","8.0","","98.29","","","","","","Rain,Fog"
"2010-01-11 20:00","2010","01","11","20:00","9.7","","8.4","","92","","13","","39","","4.8","","98.23","","","","","","Rain,Fog"
"2010-01-11 21:00","2010","01","11","21:00","9.8","","8.5","","92","","13","","30","","4.8","","98.18","","","","","","Rain,Fog"
"2010-01-11 22:00","2010","01","11","22:00"
"2010-01-11 23:00","2010","01","11","23:00"
"2010-01-12 00:00","2010","01","12","00:00"
"2010-01-12 01:00","2010","01","12","01:00"
"2010-01-12 02:00","2010","01","12","02:00"
"2010-01-12 03:00","2010","01","12","03:00"
"2010-01-12 04:00","2010","01","12","04:00"
"2010-01-12 05:00","2010","01","12","05:00"
"2010-01-12 06:00","2010","01","12","06:00","6.8","","6.0","","95","","","","0","","25.0","","98.78","","","","","","Rain Showers"
"2010-01-12 07:00","2010","01","12","07:00","6.0","","5.3","","95","","28","","4","","4.8","","98.83","","","","","","Fog"
"2010-01-12 08:00","2010","01","12","08:00","4.3","","3.6","","95","","","","0","","1.6","","98.85","","","","","","Fog"
"2010-01-12 09:00","2010","01","12","09:00","5.1","","4.3","","95","","29","","6","","3.2","","98.92","","","","","","Fog"
"2010-01-12 10:00","2010","01","12","10:00","7.2","","6.5","","95","","32","","4","","2.4","","98.98","","","","","","Fog"
"2010-01-12 11:00","2010","01","12","11:00","7.9","","7.3","","96","","32","","4","","2.0","","99.03","","","","","","Fog"
"2010-01-12 12:00","2010","01","12","12:00","8.8","","8.0","","95","","","","0","","6.4","","99.01","","","","","","Fog"
"2010-01-12 13:00","2010","01","12","13:00","8.8","","7.7","","93","","9","","6","","12.9","","98.99","","","","","","Cloudy"
"2010-01-12 14:00","2010","01","12","14:00","9.0","","7.9","","93","","12","","9","","16.1","","98.95","","","","","","Mostly Cloudy"
"2010-01-12 15:00","2010","01","12","15:00","9.4","","8.1","","92","","9","","9","","16.1","","98.96","","","","","","Cloudy"
"2010-01-12 16:00","2010","01","12","16:00","9.2","","8.0","","92","","12","","17","","8.0","","99.00","","","","","","Fog"
"2010-01-12 17:00","2010","01","12","17:00","9.1","","8.0","","93","","14","","19","","8.0","","99.06","","","","","","Rain Showers,Fog"
"2010-01-12 18:00","2010","01","12","18:00","9.1","","8.0","","93","","14","","19","","8.0","","99.10","","","","","","Rain Showers,Fog"
"2010-01-12 19:00","2010","01","12","19:00","8.9","","8.0","","94","","12","","15","","6.4","","99.11","","","","","","Rain Showers,Fog"
"2010-01-12 20:00","2010","01","12","20:00","8.3","","7.7","","96","","10","","15","","3.2","","99.16","","","","","","Rain Showers,Fog"
"2010-01-12 21:00","2010","01","12","21:00","8.1","","7.3","","95","","13","","19","","8.0","","99.21","","","","","","Rain Showers,Fog"
"2010-01-12 22:00","2010","01","12","22:00"
"2010-01-12 23:00","2010","01","12","23:00"
"2010-01-13 00:00","2010","01","13","00:00"
"2010-01-13 01:00","2010","01","13","01:00"
"2010-01-13 02:00","2010","01","13","02:00"
"2010-01-13 03:00","2010","01","13","03:00"
"2010-01-13 04:00","2010","01","13","04:00"
"2010-01-13 05:00","2010","01","13","05:00"
"2010-01-13 06:00","2010","01","13","06:00","8.0","","7.1","","94","","17","","4","","3.2","","99.35","","","","","","Rain,Fog"
"2010-01-13 07:00","2010","01","13","07:00","8.0","","7.2","","95","","9","","4","","3.2","","99.33","","","","","","Rain,Fog"
"2010-01-13 08:00","2010","01","13","08:00","7.9","","7.1","","95","","8","","6","","1.2","","99.34","","","","","","Rain,Fog"
"2010-01-13 09:00","2010","01","13","09:00","7.7","","6.9","","95","","2","","6","","1.2","","99.35","","","","","","Rain,Fog"
"2010-01-13 10:00","2010","01","13","10:00","7.8","","6.9","","94","","","","0","","1.6","","99.40","","","","","","Rain,Fog"
"2010-01-13 11:00","2010","01","13","11:00","7.9","","7.0","","94","","9","","4","","2.4","","99.47","","","","","","Rain,Fog"
"2010-01-13 12:00","2010","01","13","12:00","7.4","","6.7","","95","","7","","9","","2.4","","99.48","","","","","","Rain,Fog"
"2010-01-13 13:00","2010","01","13","13:00","7.3","","6.4","","94","","9","","6","","2.4","","99.51","","","","","","Rain,Fog"
"2010-01-13 14:00","2010","01","13","14:00","7.4","","6.7","","95","","9","","6","","1.6","","99.55","","","","","","Rain,Fog"
"2010-01-13 15:00","2010","01","13","15:00","7.6","","6.9","","95","","8","","7","","1.0","","99.61","","","","","","Rain,Fog"
"2010-01-13 16:00","2010","01","13","16:00","7.7","","7.0","","95","","10","","6","","0.4","","99.68","","","","","","Drizzle,Fog"
"2010-01-13 17:00","2010","01","13","17:00","7.6","","7.0","","96","","9","","9","","0.8","","99.74","","","","","","Drizzle,Fog"
"2010-01-13 18:00","2010","01","13","18:00","7.6","","7.1","","97","","10","","7","","0.8","","99.83","","","","","","Fog"
"2010-01-13 19:00","2010","01","13","19:00","7.6","","7.0","","96","","10","","7","","0.6","","99.90","","","","","","Fog"
"2010-01-13 20:00","2010","01","13","20:00","7.5","","6.9","","96","","9","","7","","0.8","","99.98","","","","","","Fog"
"2010-01-13 21:00","2010","01","13","21:00","7.4","","6.9","","97","","9","","7","","1.6","","100.06","","","","","","Rain,Fog"
"2010-01-13 22:00","2010","01","13","22:00"
"2010-01-13 23:00","2010","01","13","23:00"
"2010-01-14 00:00","2010","01","14","00:00"
"2010-01-14 01:00","2010","01","14","01:00"
"2010-01-14 02:00","2010","01","14","02:00"
"2010-01-14 03:00","2010","01","14","03:00"
"2010-01-14 04:00","2010","01","14","04:00"
"2010-01-14 05:00","2010","01","14","05:00"
"2010-01-14 06:00","2010","01","14","06:00","7.1","","4.3","","82","","14","","24","","12.9","","100.42","","","","","","Rain"
"2010-01-14 07:00","2010","01","14","07:00","6.7","","4.4","","85","","14","","30","","12.9","","100.37","","","","","","Cloudy"
"2010-01-14 08:00","2010","01","14","08:00","6.3","","4.6","","89","","13","","20","","12.9","","100.32","","","","","","Rain"
"2010-01-14 09:00","2010","01","14","09:00","6.6","","5.1","","90","","13","","26","","8.0","","100.34","","","","","","Rain,Fog"
"2010-01-14 10:00","2010","01","14","10:00","6.2","","4.7","","90","","15","","26","","8.0","","100.28","","","","","","Rain,Fog"
"2010-01-14 11:00","2010","01","14","11:00","6.5","","5.0","","90","","15","","26","","6.4","","100.28","","","","","","Rain,Fog"
"2010-01-14 12:00","2010","01","14","12:00","6.1","","4.3","","88","","14","","30","","16.1","","100.21","","","","","","Rain"
"2010-01-14 13:00","2010","01","14","13:00","6.0","","4.7","","91","","15","","20","","16.1","","100.15","","","","","","Rain"
"2010-01-14 14:00","2010","01","14","14:00","6.7","","5.5","","92","","14","","28","","8.0","","100.04","","","","","","Rain,Fog"
"2010-01-14 15:00","2010","01","14","15:00","6.9","","5.8","","93","","14","","28","","8.0","","99.99","","","","","","Rain,Fog"
"2010-01-14 16:00","2010","01","14","16:00","7.0","","5.9","","93","","13","","26","","8.0","","99.98","","","","","","Rain,Fog"
"2010-01-14 17:00","2010","01","14","17:00","7.0","","5.9","","93","","14","","26","","8.0","","99.96","","","","","","Rain,Fog"
"2010-01-14 18:00","2010","01","14","18:00","7.1","","6.0","","93","","13","","32","","9.7","","99.87","","","","","","Rain,Fog"
"2010-01-14 19:00","2010","01","14","19:00","7.1","","6.0","","93","","13","","22","","8.0","","99.90","","","","","","Rain,Fog"
"2010-01-14 20:00","2010","01","14","20:00","7.1","","6.1","","93","","13","","19","","8.0","","99.83","","","","","","Rain,Fog"
"2010-01-14 21:00","2010","01","14","21:00","7.0","","6.0","","93","","13","","28","","8.0","","99.73","","","","","","Rain,Fog"
"2010-01-14 22:00","2010","01","14","22:00"
"2010-01-14 23:00","2010","01","14","23:00"
"2010-01-15 00:00","2010","01","15","00:00"
"2010-01-15 01:00","2010","01","15","01:00"
"2010-01-15 02:00","2010","01","15","02:00"
"2010-01-15 03:00","2010","01","15","03:00"
"2010-01-15 04:00","2010","01","15","04:00"
"2010-01-15 05:00","2010","01","15","05:00"
"2010-01-15 06:00","2010","01","15","06:00","7.0","","6.0","","93","","13","","22","","4.8","","98.46","","","","","","Moderate Rain,Fog"
"2010-01-15 07:00","2010","01","15","07:00","7.1","","5.9","","92","","14","","30","","4.8","","98.36","","","","","","Moderate Rain,Fog"
"2010-01-15 08:00","2010","01","15","08:00","7.3","","6.1","","92","","19","","9","","11.3","","98.42","","","","","","Rain"
"2010-01-15 09:00","2010","01","15","09:00","5.9","","3.8","","86","","30","","15","","19.3","","98.57","","","","","","Mostly Cloudy"
"2010-01-15 10:00","2010","01","15","10:00","5.9","","3.2","","83","","31","","22","","32.2","","98.81","","","","","","Mostly Cloudy"
"2010-01-15 11:00","2010","01","15","11:00","5.8","","3.2","","83","","33","","19","","32.2","","99.04","","","","","","Mainly Clear"
"2010-01-15 12:00","2010","01","15","12:00","7.6","","3.9","","77","","32","","19","","32.2","","99.21","","","","","","Mainly Clear"
"2010-01-15 13:00","2010","01","15","13:00","8.6","","3.4","","70","","33","","19","","32.2","","99.32","","","","","","Mainly Clear"
"2010-01-15 14:00","2010","01","15","14:00","8.8","","3.7","","70","","33","","20","","32.2","","99.40","","","","","","Mainly Clear"
"2010-01-15 15:00","2010","01","15","15:00","8.8","","3.7","","70","","34","","13","","32.2","","99.51","","","","","","Mainly Clear"
"2010-01-15 16:00","2010","01","15","16:00","7.1","","3.7","","79","","1","","6","","32.2","","99.61","","","","","","Mainly Clear"
"2010-01-15 17:00","2010","01","15","17:00","4.8","","3.0","","88","","","","0","","32.2","","99.73","","","","","","Mainly Clear"
"2010-01-15 18:00","2010","01","15","18:00","3.2","","1.6","","89","","","","0","","25.0","","99.83","","","","","","Mainly Clear"
"2010-01-15 19:00","2010","01","15","19:00","3.0","","1.9","","92","","","","0","","25.0","","99.88","","","","","","Mostly Cloudy"
"2010-01-15 20:00","2010","01","15","20:00","2.5","","1.5","","93","","","","0","","25.0","","99.94","","","","","","Mostly Cloudy"
"2010-01-15 21:00","2010","01","15","21:00","1.9","","0.9","","93","","32","","4","","25.0","","100.01","","","","","","Mostly Cloudy"
"2010-01-15 22:00","2010","01","15","22:00"
"2010-01-15 23:00","2010","01","15","23:00"
"2010-01-16 00:00","2010","01","16","00:00"
"2010-01-16 01:00","2010","01","16","01:00"
"2010-01-16 02:00","2010","01","16","02:00"
"2010-01-16 03:00","2010","01","16","03:00"
"2010-01-16 04:00","2010","01","16","04:00"
"2010-01-16 05:00","2010","01","16","05:00"
"2010-01-16 06:00","2010","01","16","06:00","-1.2","","-2.3","","92","","","","0","","12.9","","100.00","","","","","","Mainly Clear"
"2010-01-16 07:00","2010","01","16","07:00","0.0","","-1.0","","93","","30","","4","","1.2","","99.99","","","","-1","","Fog"
"2010-01-16 08:00","2010","01","16","08:00","0.4","","-0.5","","94","","25","","6","","0.8","","99.96","","","","","","Fog"
"2010-01-16 09:00","2010","01","16","09:00","1.2","","0.5","","95","","","","0","","0.6","","99.97","","","","","","Fog"
"2010-01-16 10:00","2010","01","16","10:00","2.5","","2.0","","96","","","","0","","1.2","","99.96","","","","","","Fog"
"2010-01-16 11:00","2010","01","16","11:00","2.2","","1.6","","96","","","","0","","0.8","","99.92","","","","","","Fog"
"2010-01-16 12:00","2010","01","16","12:00","2.8","","2.1","","95","","","","0","","0.8","","99.85","","","","","","Fog"
"2010-01-16 13:00","2010","01","16","13:00","3.2","","2.7","","97","","6","","4","","2.0","","99.75","","","","","","Fog"
"2010-01-16 14:00","2010","01","16","14:00","4.5","","3.9","","96","","11","","9","","6.4","","99.64","","","","","","Fog"
"2010-01-16 15:00","2010","01","16","15:00","4.4","","3.5","","94","","11","","11","","16.1","","99.54","","","","","","Cloudy"
"2010-01-16 16:00","2010","01","16","16:00","4.4","","3.5","","94","","10","","9","","19.3","","99.47","","","","","","Mostly Cloudy"
"2010-01-16 17:00","2010","01","16","17:00","3.5","","2.3","","92","","12","","15","","24.1","","99.41","","","","","","Mostly Cloudy"
"2010-01-16 18:00","2010","01","16","18:00","3.9","","2.5","","91","","11","","15","","24.1","","99.34","","","","","","Mostly Cloudy"
"2010-01-16 19:00","2010","01","16","19:00","3.9","","2.6","","91","","12","","11","","19.3","","99.24","","","","","","Cloudy"
"2010-01-16 20:00","2010","01","16","20:00","4.5","","2.7","","88","","13","","20","","19.3","","99.18","","","","","","Cloudy"
"2010-01-16 21:00","2010","01","16","21:00","4.5","","2.8","","89","","13","","4","","19.3","","99.11","","","","","","Cloudy"
"2010-01-16 22:00","2010","01","16","22:00"
"2010-01-16 23:00","2010","01","16","23:00"
"2010-01-17 00:00","2010","01","17","00:00"
"2010-01-17 01:00","2010","01","17","01:00"
"2010-01-17 02:00","2010","01","17","02:00"
"2010-01-17 03:00","2010","01","17","03:00"
"2010-01-17 04:00","2010","01","17","04:00"
"2010-01-17 05:00","2010","01","17","05:00"
"2010-01-17 06:00","2010","01","17","06:00","5.5","","4.3","","92","","14","","22","","6.4","","98.43","","","","","","Rain,Fog"
"2010-01-17 07:00","2010","01","17","07:00","5.1","","3.7","","91","","15","","24","","6.4","","98.41","","","","","","Rain,Fog"
"2010-01-17 08:00","2010","01","17","08:00","4.6","","3.2","","91","","14","","22","","24.1","","98.43","","","","","","Mostly Cloudy"
"2010-01-17 09:00","2010","01","17","09:00","5.1","","3.8","","91","","14","","17","","16.1","","98.48","","","","","","Mostly Cloudy"
"2010-01-17 10:00","2010","01","17","10:00","5.7","","4.4","","91","","14","","24","","19.3","","98.51","","","","","","Mostly Cloudy"
"2010-01-17 11:00","2010","01","17","11:00","6.5","","5.1","","91","","12","","13","","19.3","","98.57","","","","","","Mostly Cloudy"
"2010-01-17 12:00","2010","01","17","12:00","7.4","","5.7","","89","","12","","17","","19.3","","98.58","","","","","","Cloudy"
"2010-01-17 13:00","2010","01","17","13:00","7.5","","5.8","","89","","11","","19","","19.3","","98.51","","","","","","Mostly Cloudy"
"2010-01-17 14:00","2010","01","17","14:00","7.6","","6.1","","90","","13","","17","","19.3","","98.46","","","","","","Mostly Cloudy"
"2010-01-17 15:00","2010","01","17","15:00","7.5","","6.1","","91","","13","","15","","16.1","","98.35","","","","","","Cloudy"
"2010-01-17 16:00","2010","01","17","16:00","7.4","","6.4","","93","","12","","26","","2.8","","98.28","","","","","","Rain,Fog"
"2010-01-17 17:00","2010","01","17","17:00","7.4","","6.5","","94","","12","","20","","2.8","","98.17","","","","","","Rain,Fog"
"2010-01-17 18:00","2010","01","17","18:00","7.2","","6.4","","95","","12","","13","","2.8","","98.01","","","","","","Rain,Fog"
"2010-01-17 19:00","2010","01","17","19:00","7.1","","6.4","","95","","10","","17","","2.4","","97.87","","","","","","Rain,Fog"
"2010-01-17 20:00","2010","01","17","20:00","6.0","","5.2","","95","","9","","7","","2.4","","97.76","","","","","","Rain,Fog"
"2010-01-17 21:00","2010","01","17","21:00","5.5","","4.7","","95","","5","","7","","4.0","","97.66","","","","","","Rain,Fog"
"2010-01-17 22:00","2010","01","17","22:00"
"2010-01-17 23:00","2010","01","17","23:00"
"2010-01-18 00:00","2010","01","18","00:00"
"2010-01-18 01:00","2010","01","18","01:00"
"2010-01-18 02:00","2010","01","18","02:00"
"2010-01-18 03:00","2010","01","18","03:00"
"2010-01-18 04:00","2010","01","18","04:00"
"2010-01-18 05:00","2010","01","18","05:00"
"2010-01-18 06:00","2010","01","18","06:00","7.5","","6.0","","90","","12","","33","","6.4","","96.95","","","","","","Rain,Fog"
"2010-01-18 07:00","2010","01","18","07:00","7.1","","5.8","","91","","15","","19","","8.0","","97.02","","","","","","Rain,Fog"
"2010-01-18 08:00","2010","01","18","08:00","6.9","","5.8","","93","","14","","19","","19.3","","97.30","","","","","","Cloudy"
"2010-01-18 09:00","2010","01","18","09:00","7.5","","6.5","","93","","12","","28","","12.9","","97.51","","","","","","Cloudy"
"2010-01-18 10:00","2010","01","18","10:00","8.1","","7.0","","93","","12","","19","","19.3","","97.63","","","","","","Mostly Cloudy"
"2010-01-18 11:00","2010","01","18","11:00","9.2","","6.1","","81","","14","","22","","24.1","","97.78","","","","","","Mostly Cloudy"
"2010-01-18 12:00","2010","01","18","12:00","8.4","","5.3","","81","","15","","28","","24.1","","97.90","","","","","","Cloudy"
"2010-01-18 13:00","2010","01","18","13:00","8.7","","5.6","","81","","14","","26","","24.1","","97.98","","","","","","Mostly Cloudy"
"2010-01-18 14:00","2010","01","18","14:00","9.4","","5.4","","76","","12","","24","","32.2","","98.00","","","","","","Mostly Cloudy"
"2010-01-18 15:00","2010","01","18","15:00","9.1","","4.4","","72","","14","","17","","32.2","","97.98","","","","","","Mostly Cloudy"
"2010-01-18 16:00","2010","01","18","16:00","8.2","","5.0","","80","","11","","22","","32.2","","97.82","","","","","","Mostly Cloudy"
"2010-01-18 17:00","2010","01","18","17:00","7.0","","4.6","","85","","","","0","","32.2","","97.77","","","","","","Mostly Cloudy"
"2010-01-18 18:00","2010","01","18","18:00","6.1","","4.0","","86","","","","0","","25.0","","97.70","","","","","","Mostly Cloudy"
"2010-01-18 19:00","2010","01","18","19:00","4.0","","2.6","","91","","","","0","","25.0","","97.65","","","","","","Mostly Cloudy"
"2010-01-18 20:00","2010","01","18","20:00","2.6","","1.6","","93","","30","","6","","25.0","","97.64","","","","","","Mostly Cloudy"
"2010-01-18 21:00","2010","01","18","21:00","2.4","","1.3","","92","","","","0","","25.0","","97.63","","","","","","Mostly Cloudy"
"2010-01-18 22:00","2010","01","18","22:00"
"2010-01-18 23:00","2010","01","18","23:00"
"2010-01-19 00:00","2010","01","19","00:00"
"2010-01-19 01:00","2010","01","19","01:00"
"2010-01-19 02:00","2010","01","19","02:00"
"2010-01-19 03:00","2010","01","19","03:00"
"2010-01-19 04:00","2010","01","19","04:00"
"2010-01-19 05:00","2010","01","19","05:00"
"2010-01-19 06:00","2010","01","19","06:00","3.9","","3.1","","95","","27","","6","","19.3","","97.23","","","","","","Rain"
"2010-01-19 07:00","2010","01","19","07:00","3.8","","3.0","","95","","2","","4","","19.3","","97.21","","","","","","Rain"
"2010-01-19 08:00","2010","01","19","08:00","4.0","","3.2","","95","","14","","7","","4.8","","97.25","","","","","","Rain,Fog"
"2010-01-19 09:00","2010","01","19","09:00","4.7","","3.9","","95","","10","","9","","1.2","","97.28","","","","","","Rain,Fog"
"2010-01-19 10:00","2010","01","19","10:00","5.3","","4.6","","95","","9","","7","","24.1","","97.31","","","","","","Mostly Cloudy"
"2010-01-19 11:00","2010","01","19","11:00","5.5","","4.6","","94","","7","","11","","8.0","","97.29","","","","","","Rain,Fog"
"2010-01-19 12:00","2010","01","19","12:00","5.7","","4.7","","93","","7","","7","","8.0","","97.25","","","","","","Rain,Fog"
"2010-01-19 13:00","2010","01","19","13:00","6.0","","5.2","","95","","6","","7","","8.0","","97.24","","","","","","Rain,Fog"
"2010-01-19 14:00","2010","01","19","14:00","6.6","","5.7","","94","","2","","6","","19.3","","97.22","","","","","","Rain"
"2010-01-19 15:00","2010","01","19","15:00","7.1","","6.1","","93","","6","","4","","24.1","","97.16","","","","","","Rain"
"2010-01-19 16:00","2010","01","19","16:00","7.6","","5.9","","89","","12","","7","","19.3","","97.16","","","","","","Rain"
"2010-01-19 17:00","2010","01","19","17:00","6.9","","5.9","","93","","7","","6","","19.3","","97.19","","","","","","Rain"
"2010-01-19 18:00","2010","01","19","18:00","6.8","","5.4","","91","","10","","15","","19.3","","97.18","","","","","","Cloudy"
"2010-01-19 19:00","2010","01","19","19:00","7.0","","5.4","","90","","","","0","","19.3","","97.23","","","","","","Rain"
"2010-01-19 20:00","2010","01","19","20:00","7.0","","5.7","","91","","11","","4","","16.1","","97.19","","","","","","Rain"
"2010-01-19 21:00","2010","01","19","21:00","6.9","","5.5","","91","","13","","6","","16.1","","97.20","","","","","","Rain"
"2010-01-19 22:00","2010","01","19","22:00"
"2010-01-19 23:00","2010","01","19","23:00"
"2010-01-20 00:00","2010","01","20","00:00"
"2010-01-20 01:00","2010","01","20","01:00"
"2010-01-20 02:00","2010","01","20","02:00"
"2010-01-20 03:00","2010","01","20","03:00"
"2010-01-20 04:00","2010","01","20","04:00"
"2010-01-20 05:00","2010","01","20","05:00"
"2010-01-20 06:00","2010","01","20","06:00","7.0","","4.6","","85","","26","","7","","25.0","","97.41","","","","","","Cloudy"
"2010-01-20 07:00","2010","01","20","07:00","6.9","","4.5","","85","","14","","6","","19.3","","97.45","","","","","","Rain"
"2010-01-20 08:00","2010","01","20","08:00","6.7","","4.9","","88","","","","0","","19.3","","97.46","","","","","","Rain"
"2010-01-20 09:00","2010","01","20","09:00","6.0","","5.4","","96","","","","0","","24.1","","97.45","","","","","","Rain"
"2010-01-20 10:00","2010","01","20","10:00","6.5","","5.4","","93","","7","","6","","24.1","","97.47","","","","","","Rain"
"2010-01-20 11:00","2010","01","20","11:00","6.3","","5.1","","92","","11","","15","","4.0","","97.51","","","","","","Rain,Fog"
"2010-01-20 12:00","2010","01","20","12:00","6.4","","5.1","","91","","13","","13","","16.1","","97.48","","","","","","Rain"
"2010-01-20 13:00","2010","01","20","13:00","7.5","","6.2","","91","","10","","11","","12.9","","97.47","","","","","","Rain"
"2010-01-20 14:00","2010","01","20","14:00","7.7","","6.4","","91","","11","","17","","16.1","","97.43","","","","","","Mostly Cloudy"
"2010-01-20 15:00","2010","01","20","15:00","7.6","","6.1","","90","","10","","11","","16.1","","97.43","","","","","","Mostly Cloudy"
"2010-01-20 16:00","2010","01","20","16:00","7.2","","5.9","","91","","","","0","","16.1","","97.40","","","","","","Mostly Cloudy"
"2010-01-20 17:00","2010","01","20","17:00","6.0","","5.1","","94","","28","","6","","19.3","","97.36","","","","","","Mostly Cloudy"
"2010-01-20 18:00","2010","01","20","18:00","4.3","","3.3","","93","","30","","4","","19.3","","97.34","","","","","","Mostly Cloudy"
"2010-01-20 19:00","2010","01","20","19:00","4.4","","3.6","","95","","30","","6","","19.3","","97.32","","","","","","Mostly Cloudy"
"2010-01-20 20:00","2010","01","20","20:00","4.6","","3.6","","93","","30","","6","","19.3","","97.30","","","","","","Mostly Cloudy"
"2010-01-20 21:00","2010","01","20","21:00","4.9","","3.8","","93","","32","","7","","19.3","","97.27","","","","","","Mostly Cloudy"
"2010-01-20 22:00","2010","01","20","22:00"
"2010-01-20 23:00","2010","01","20","23:00"
"2010-01-21 00:00","2010","01","21","00:00"
"2010-01-21 01:00","2010","01","21","01:00"
"2010-01-21 02:00","2010","01","21","02:00"
"2010-01-21 03:00","2010","01","21","03:00"
"2010-01-21 04:00","2010","01","21","04:00"
"2010-01-21 05:00","2010","01","21","05:00"
"2010-01-21 06:00","2010","01","21","06:00","4.8","","3.5","","91","","18","","4","","25.0","","97.11","","","","","","Mostly Cloudy"
"2010-01-21 07:00","2010","01","21","07:00","4.7","","3.4","","91","","16","","4","","25.0","","97.16","","","","","","Rain Showers"
"2010-01-21 08:00","2010","01","21","08:00","4.4","","3.3","","93","","","","0","","32.2","","97.20","","","","","","Cloudy"
"2010-01-21 09:00","2010","01","21","09:00","4.1","","3.0","","93","","","","0","","32.2","","97.24","","","","","","Mostly Cloudy"
"2010-01-21 10:00","2010","01","21","10:00","4.5","","3.5","","93","","","","0","","32.2","","97.31","","","","","","Rain Showers"
"2010-01-21 11:00","2010","01","21","11:00","5.4","","4.1","","91","","27","","4","","32.2","","97.36","","","","","","Mostly Cloudy"
"2010-01-21 12:00","2010","01","21","12:00","6.1","","4.4","","89","","29","","4","","32.2","","97.34","","","","","","Cloudy"
"2010-01-21 13:00","2010","01","21","13:00","6.9","","4.1","","82","","","","0","","32.2","","97.33","","","","","","Cloudy"
"2010-01-21 14:00","2010","01","21","14:00","7.1","","3.9","","80","","","","0","","32.2","","97.32","","","","","","Cloudy"
"2010-01-21 15:00","2010","01","21","15:00","7.5","","4.6","","82","","","","0","","24.1","","97.37","","","","","","Mostly Cloudy"
"2010-01-21 16:00","2010","01","21","16:00","7.7","","5.8","","88","","","","0","","24.1","","97.40","","","","","","Rain Showers"
"2010-01-21 17:00","2010","01","21","17:00","6.8","","5.1","","89","","","","0","","24.1","","97.44","","","","","","Rain Showers"
"2010-01-21 18:00","2010","01","21","18:00","6.0","","4.9","","93","","29","","4","","25.0","","97.45","","","","","","Cloudy"
"2010-01-21 19:00","2010","01","21","19:00","5.4","","4.4","","93","","31","","4","","25.0","","97.45","","","","","","Cloudy"
"2010-01-21 20:00","2010","01","21","20:00","5.1","","4.0","","93","","31","","4","","25.0","","97.46","","","","","","Cloudy"
"2010-01-21 21:00","2010","01","21","21:00","5.1","","4.0","","93","","31","","9","","25.0","","97.49","","","","","","Rain Showers"
"2010-01-21 22:00","2010","01","21","22:00"
"2010-01-21 23:00","2010","01","21","23:00"
"2010-01-22 00:00","2010","01","22","00:00"
"2010-01-22 01:00","2010","01","22","01:00"
"2010-01-22 02:00","2010","01","22","02:00"
"2010-01-22 03:00","2010","01","22","03:00"
"2010-01-22 04:00","2010","01","22","04:00"
"2010-01-22 05:00","2010","01","22","05:00"
"2010-01-22 06:00","2010","01","22","06:00","1.1","","-0.1","","92","","29","","4","","19.3","","97.61","","","","","","Mostly Cloudy"
"2010-01-22 07:00","2010","01","22","07:00","0.6","","-0.6","","92","","27","","4","","19.3","","97.61","","","","","","Mostly Cloudy"
"2010-01-22 08:00","2010","01","22","08:00","0.9","","-0.2","","92","","27","","4","","48.3","","97.63","","","","","","Mostly Cloudy"
"2010-01-22 09:00","2010","01","22","09:00","2.6","","1.5","","92","","30","","9","","48.3","","97.68","","","","","","Mostly Cloudy"
"2010-01-22 10:00","2010","01","22","10:00","3.3","","1.9","","91","","32","","6","","48.3","","97.72","","","","","","Mostly Cloudy"
"2010-01-22 11:00","2010","01","22","11:00","5.5","","4.2","","91","","31","","11","","48.3","","97.78","","","","","","Mostly Cloudy"
"2010-01-22 12:00","2010","01","22","12:00","8.1","","4.3","","77","","33","","6","","48.3","","97.83","","","","","","Mostly Cloudy"
"2010-01-22 13:00","2010","01","22","13:00","8.8","","4.5","","74","","33","","6","","48.3","","97.84","","","","","","Mostly Cloudy"
"2010-01-22 14:00","2010","01","22","14:00","9.1","","4.4","","72","","34","","6","","48.3","","97.87","","","","","","Mostly Cloudy"
"2010-01-22 15:00","2010","01","22","15:00","8.9","","4.7","","75","","36","","4","","48.3","","97.96","","","","","","Mostly Cloudy"
"2010-01-22 16:00","2010","01","22","16:00","7.6","","5.3","","85","","","","0","","48.3","","98.04","","","","","","Mostly Cloudy"
"2010-01-22 17:00","2010","01","22","17:00","4.6","","3.4","","92","","","","0","","48.3","","98.10","","","","","","Mostly Cloudy"
"2010-01-22 18:00","2010","01","22","18:00","3.3","","2.3","","93","","","","0","","8.0","","98.17","","","","","","Fog"
"2010-01-22 19:00","2010","01","22","19:00","2.4","","1.5","","94","","30","","4","","8.0","","98.26","","","","","","Fog"
"2010-01-22 20:00","2010","01","22","20:00","1.2","","0.2","","93","","","","0","","25.0","","98.35","","","","","","Mostly Cloudy"
"2010-01-22 21:00","2010","01","22","21:00","0.7","","-0.5","","92","","","","0","","25.0","","98.44","","","","","","Mostly Cloudy"
"2010-01-22 22:00","2010","01","22","22:00"
"2010-01-22 23:00","2010","01","22","23:00"
"2010-01-23 00:00","2010","01","23","00:00"
"2010-01-23 01:00","2010","01","23","01:00"
"2010-01-23 02:00","2010","01","23","02:00"
"2010-01-23 03:00","2010","01","23","03:00"
"2010-01-23 04:00","2010","01","23","04:00"
"2010-01-23 05:00","2010","01","23","05:00"
"2010-01-23 06:00","2010","01","23","06:00","-1.0","","-2.2","","92","","","","0","","19.3","","99.30","","","","","","Cloudy"
"2010-01-23 07:00","2010","01","23","07:00","-0.3","","-1.5","","92","","31","","6","","0.4","","99.40","","","","-2","","Freezing Fog"
"2010-01-23 08:00","2010","01","23","08:00","-0.3","","-1.3","","93","","30","","4","","2.4","","99.51","","","","-2","","Fog"
"2010-01-23 09:00","2010","01","23","09:00","0.2","","-0.8","","93","","26","","7","","2.4","","99.61","","","","","","Fog"
"2010-01-23 10:00","2010","01","23","10:00","1.0","","0.0","","93","","28","","6","","8.0","","99.70","","","","","","Fog"
"2010-01-23 11:00","2010","01","23","11:00","2.0","","1.1","","94","","30","","4","","9.7","","99.78","","","","","","Fog"
"2010-01-23 12:00","2010","01","23","12:00","3.0","","2.3","","95","","31","","4","","1.6","","99.85","","","","","","Fog"
"2010-01-23 13:00","2010","01","23","13:00","3.8","","3.1","","95","","","","0","","1.0","","99.90","","","","","","Fog"
"2010-01-23 14:00","2010","01","23","14:00","4.2","","3.5","","95","","","","0","","2.4","","99.95","","","","","","Drizzle,Fog"
"2010-01-23 15:00","2010","01","23","15:00","4.5","","3.8","","95","","33","","4","","4.0","","99.97","","","","","","Drizzle,Fog"
"2010-01-23 16:00","2010","01","23","16:00","4.8","","3.9","","94","","","","0","","6.4","","100.00","","","","","","Drizzle,Fog"
"2010-01-23 17:00","2010","01","23","17:00","4.8","","3.8","","93","","","","0","","9.7","","100.04","","","","","","Fog"
"2010-01-23 18:00","2010","01","23","18:00","4.4","","3.6","","95","","30","","4","","8.0","","100.08","","","","","","Fog"
"2010-01-23 19:00","2010","01","23","19:00","4.3","","3.4","","94","","","","0","","8.0","","100.12","","","","","","Fog"
"2010-01-23 20:00","2010","01","23","20:00","4.4","","3.5","","94","","","","0","","6.4","","100.15","","","","","","Rain,Fog"
"2010-01-23 21:00","2010","01","23","21:00","5.0","","4.1","","94","","11","","6","","4.8","","100.17","","","","","","Fog"
"2010-01-23 22:00","2010","01","23","22:00"
"2010-01-23 23:00","2010","01","23","23:00"
"2010-01-24 00:00","2010","01","24","00:00"
"2010-01-24 01:00","2010","01","24","01:00"
"2010-01-24 02:00","2010","01","24","02:00"
"2010-01-24 03:00","2010","01","24","03:00"
"2010-01-24 04:00","2010","01","24","04:00"
"2010-01-24 05:00","2010","01","24","05:00"
"2010-01-24 06:00","2010","01","24","06:00","6.0","","3.8","","86","","13","","7","","25.0","","100.00","","","","","","Cloudy"
"2010-01-24 07:00","2010","01","24","07:00","6.0","","3.6","","85","","13","","22","","25.0","","99.94","","","","","","Rain"
"2010-01-24 08:00","2010","01","24","08:00","5.9","","3.5","","85","","12","","15","","19.3","","99.88","","","","","","Rain"
"2010-01-24 09:00","2010","01","24","09:00","5.9","","3.4","","84","","10","","9","","16.1","","99.85","","","","","","Rain"
"2010-01-24 10:00","2010","01","24","10:00","5.8","","3.7","","86","","11","","11","","12.9","","99.81","","","","","","Rain"
"2010-01-24 11:00","2010","01","24","11:00","5.9","","3.6","","85","","12","","20","","24.1","","99.74","","","","","","Cloudy"
"2010-01-24 12:00","2010","01","24","12:00","6.2","","3.5","","83","","13","","20","","12.9","","99.67","","","","","","Rain"
"2010-01-24 13:00","2010","01","24","13:00","5.7","","3.5","","86","","13","","15","","12.9","","99.60","","","","","","Rain"
"2010-01-24 14:00","2010","01","24","14:00","5.0","","3.0","","87","","13","","26","","16.1","","99.55","","","","","","Rain"
"2010-01-24 15:00","2010","01","24","15:00","5.3","","3.0","","85","","13","","35","","12.9","","99.51","","","","","","Rain"
"2010-01-24 16:00","2010","01","24","16:00","4.8","","3.1","","89","","13","","22","","9.7","","99.49","","","","","","Rain,Fog"
"2010-01-24 17:00","2010","01","24","17:00","4.7","","3.1","","89","","12","","33","","9.7","","99.40","","","","","","Rain,Fog"
"2010-01-24 18:00","2010","01","24","18:00","4.8","","2.9","","87","","14","","35","","9.7","","99.34","","","","","","Rain,Fog"
"2010-01-24 19:00","2010","01","24","19:00","4.6","","3.2","","91","","12","","26","","8.0","","99.30","","","","","","Rain,Fog"
"2010-01-24 20:00","2010","01","24","20:00","4.8","","3.2","","89","","14","","33","","9.7","","99.26","","","","","","Rain,Fog"
"2010-01-24 21:00","2010","01","24","21:00","5.1","","3.6","","90","","14","","30","","8.0","","99.24","","","","","","Rain,Fog"
"2010-01-24 22:00","2010","01","24","22:00"
"2010-01-24 23:00","2010","01","24","23:00"
"2010-01-25 00:00","2010","01","25","00:00"
"2010-01-25 01:00","2010","01","25","01:00"
"2010-01-25 02:00","2010","01","25","02:00"
"2010-01-25 03:00","2010","01","25","03:00"
"2010-01-25 04:00","2010","01","25","04:00"
"2010-01-25 05:00","2010","01","25","05:00"
"2010-01-25 06:00","2010","01","25","06:00","6.2","","5.0","","92","","13","","33","","6.4","","99.13","","","","","","Rain,Fog"
"2010-01-25 07:00","2010","01","25","07:00","6.4","","5.0","","91","","13","","28","","6.4","","99.12","","","","","","Rain,Fog"
"2010-01-25 08:00","2010","01","25","08:00","6.3","","5.1","","92","","13","","33","","4.8","","99.11","","","","","","Moderate Rain,Fog"
"2010-01-25 09:00","2010","01","25","09:00","6.4","","5.1","","91","","14","","26","","6.4","","99.16","","","","","","Moderate Rain,Fog"
"2010-01-25 10:00","2010","01","25","10:00","6.1","","4.7","","91","","15","","24","","9.7","","99.24","","","","","","Rain,Fog"
"2010-01-25 11:00","2010","01","25","11:00","5.9","","4.6","","91","","15","","22","","9.7","","99.33","","","","","","Rain,Fog"
"2010-01-25 12:00","2010","01","25","12:00","6.0","","4.7","","91","","14","","20","","16.1","","99.36","","","","","","Rain"
"2010-01-25 13:00","2010","01","25","13:00","6.2","","4.6","","89","","13","","19","","19.3","","99.40","","","","","","Rain"
"2010-01-25 14:00","2010","01","25","14:00","6.8","","5.4","","91","","14","","19","","19.3","","99.42","","","","","","Cloudy"
"2010-01-25 15:00","2010","01","25","15:00","7.1","","5.9","","92","","14","","20","","16.1","","99.48","","","","","","Cloudy"
"2010-01-25 16:00","2010","01","25","16:00","7.3","","5.9","","91","","14","","22","","16.1","","99.54","","","","","","Rain"
"2010-01-25 17:00","2010","01","25","17:00","7.2","","5.7","","90","","15","","19","","24.1","","99.61","","","","","","Mostly Cloudy"
"2010-01-25 18:00","2010","01","25","18:00","7.0","","5.3","","89","","12","","15","","19.3","","99.67","","","","","","Mostly Cloudy"
"2010-01-25 19:00","2010","01","25","19:00","6.9","","5.6","","91","","11","","15","","19.3","","99.67","","","","","","Mostly Cloudy"
"2010-01-25 20:00","2010","01","25","20:00","7.0","","5.5","","90","","13","","15","","19.3","","99.72","","","","","","Mostly Cloudy"
"2010-01-25 21:00","2010","01","25","21:00","6.9","","5.5","","91","","13","","15","","19.3","","99.76","","","","","","Mostly Cloudy"
"2010-01-25 22:00","2010","01","25","22:00"
"2010-01-25 23:00","2010","01","25","23:00"
"2010-01-26 00:00","2010","01","26","00:00"
"2010-01-26 01:00","2010","01","26","01:00"
"2010-01-26 02:00","2010","01","26","02:00"
"2010-01-26 03:00","2010","01","26","03:00"
"2010-01-26 04:00","2010","01","26","04:00"
"2010-01-26 05:00","2010","01","26","05:00"
"2010-01-26 06:00","2010","01","26","06:00","3.8","","3.0","","95","","28","","7","","12.9","","100.02","","","","","","Cloudy"
"2010-01-26 07:00","2010","01","26","07:00","4.1","","3.0","","93","","32","","6","","8.0","","100.08","","","","","","Rain Showers,Fog"
"2010-01-26 08:00","2010","01","26","08:00","4.3","","3.0","","91","","29","","4","","12.9","","100.12","","","","","","Rain Showers"
"2010-01-26 09:00","2010","01","26","09:00","4.6","","3.3","","91","","","","0","","19.3","","100.18","","","","","","Mostly Cloudy"
"2010-01-26 10:00","2010","01","26","10:00","5.7","","4.1","","89","","","","0","","24.1","","100.25","","","","","","Mostly Cloudy"
"2010-01-26 11:00","2010","01","26","11:00","6.4","","5.0","","91","","1","","4","","16.1","","100.31","","","","","","Cloudy"
"2010-01-26 12:00","2010","01","26","12:00","6.8","","4.8","","87","","","","0","","16.1","","100.33","","","","","","Cloudy"
"2010-01-26 13:00","2010","01","26","13:00","6.9","","4.9","","87","","35","","6","","19.3","","100.34","","","","","","Mostly Cloudy"
"2010-01-26 14:00","2010","01","26","14:00","8.4","","4.8","","78","","35","","7","","19.3","","100.34","","","","","","Mostly Cloudy"
"2010-01-26 15:00","2010","01","26","15:00","7.9","","3.9","","76","","","","0","","24.1","","100.40","","","","","","Mostly Cloudy"
"2010-01-26 16:00","2010","01","26","16:00","8.0","","4.1","","76","","33","","4","","24.1","","100.41","","","","","","Mostly Cloudy"
"2010-01-26 17:00","2010","01","26","17:00","7.2","","5.2","","87","","14","","4","","19.3","","100.44","","","","","","Mostly Cloudy"
"2010-01-26 18:00","2010","01","26","18:00","6.3","","4.9","","91","","","","0","","19.3","","100.47","","","","","","Mostly Cloudy"
"2010-01-26 19:00","2010","01","26","19:00","5.3","","4.1","","92","","","","0","","19.3","","100.50","","","","","","Mostly Cloudy"
"2010-01-26 20:00","2010","01","26","20:00","4.9","","3.9","","93","","","","0","","2.4","","100.53","","","","","","Fog"
"2010-01-26 21:00","2010","01","26","21:00","4.5","","3.6","","94","","30","","4","","2.4","","100.64","","","","","","Fog"
"2010-01-26 22:00","2010","01","26","22:00"
"2010-01-26 23:00","2010","01","26","23:00"
"2010-01-27 00:00","2010","01","27","00:00"
"2010-01-27 01:00","2010","01","27","01:00"
"2010-01-27 02:00","2010","01","27","02:00"
"2010-01-27 03:00","2010","01","27","03:00"
"2010-01-27 04:00","2010","01","27","04:00"
"2010-01-27 05:00","2010","01","27","05:00"
"2010-01-27 06:00","2010","01","27","06:00","4.7","","3.6","","93","","","","0","","4.8","","100.82","","","","","","Fog"
"2010-01-27 07:00","2010","01","27","07:00","4.4","","3.4","","93","","24","","4","","4.8","","100.86","","","","","","Rain Showers,Fog"
"2010-01-27 08:00","2010","01","27","08:00","4.4","","3.3","","93","","","","0","","24.1","","100.92","","","","","","Mostly Cloudy"
"2010-01-27 09:00","2010","01","27","09:00","4.9","","3.9","","93","","","","0","","19.3","","100.91","","","","","","Mostly Cloudy"
"2010-01-27 10:00","2010","01","27","10:00","5.5","","4.5","","93","","11","","11","","6.4","","100.83","","","","","","Fog"
"2010-01-27 11:00","2010","01","27","11:00","5.8","","4.4","","91","","13","","6","","16.1","","100.90","","","","","","Cloudy"
"2010-01-27 12:00","2010","01","27","12:00","5.9","","4.6","","91","","10","","13","","9.7","","100.83","","","","","","Fog"
"2010-01-27 13:00","2010","01","27","13:00","6.3","","4.8","","90","","11","","11","","19.3","","100.84","","","","","","Cloudy"
"2010-01-27 14:00","2010","01","27","14:00","6.3","","4.6","","89","","11","","15","","16.1","","100.81","","","","","","Cloudy"
"2010-01-27 15:00","2010","01","27","15:00","6.4","","4.7","","89","","11","","11","","12.9","","100.80","","","","","","Cloudy"
"2010-01-27 16:00","2010","01","27","16:00","6.2","","4.5","","89","","11","","11","","12.9","","100.78","","","","","","Cloudy"
"2010-01-27 17:00","2010","01","27","17:00","6.0","","4.6","","91","","9","","13","","12.9","","100.67","","","","","","Cloudy"
"2010-01-27 18:00","2010","01","27","18:00","5.9","","4.3","","89","","","","0","","12.9","","100.71","","","","","","Cloudy"
"2010-01-27 19:00","2010","01","27","19:00","5.7","","4.0","","89","","","","0","","12.9","","100.79","","","","","","Cloudy"
"2010-01-27 20:00","2010","01","27","20:00","5.6","","4.2","","91","","9","","11","","12.9","","100.76","","","","","","Cloudy"
"2010-01-27 21:00","2010","01","27","21:00","5.9","","4.4","","90","","13","","7","","12.9","","100.79","","","","","","Rain"
"2010-01-27 22:00","2010","01","27","22:00"
"2010-01-27 23:00","2010","01","27","23:00"
"2010-01-28 00:00","2010","01","28","00:00"
"2010-01-28 01:00","2010","01","28","01:00"
"2010-01-28 02:00","2010","01","28","02:00"
"2010-01-28 03:00","2010","01","28","03:00"
"2010-01-28 04:00","2010","01","28","04:00"
"2010-01-28 05:00","2010","01","28","05:00"
"2010-01-28 06:00","2010","01","28","06:00","5.3","","4.3","","93","","11","","7","","9.7","","100.57","","","","","","Rain,Fog"
"2010-01-28 07:00","2010","01","28","07:00","5.1","","4.1","","93","","11","","13","","9.7","","100.53","","","","","","Rain,Fog"
"2010-01-28 08:00","2010","01","28","08:00","5.1","","4.0","","93","","14","","13","","6.4","","100.54","","","","","","Rain,Fog"
"2010-01-28 09:00","2010","01","28","09:00","4.8","","3.7","","93","","11","","13","","8.0","","100.55","","","","","","Rain,Fog"
"2010-01-28 10:00","2010","01","28","10:00","4.8","","3.6","","92","","14","","11","","9.7","","100.56","","","","","","Rain,Fog"
"2010-01-28 11:00","2010","01","28","11:00","5.1","","4.0","","93","","12","","13","","9.7","","100.55","","","","","","Rain,Fog"
"2010-01-28 12:00","2010","01","28","12:00","5.3","","4.2","","93","","12","","9","","6.4","","100.53","","","","","","Rain,Fog"
"2010-01-28 13:00","2010","01","28","13:00","5.7","","4.6","","93","","12","","9","","8.0","","100.50","","","","","","Rain,Fog"
"2010-01-28 14:00","2010","01","28","14:00","5.8","","4.7","","93","","12","","9","","8.0","","100.45","","","","","","Rain,Fog"
"2010-01-28 15:00","2010","01","28","15:00","5.9","","4.9","","93","","8","","7","","8.0","","100.38","","","","","","Rain,Fog"
"2010-01-28 16:00","2010","01","28","16:00","5.8","","4.7","","93","","8","","4","","12.9","","100.33","","","","","","Cloudy"
"2010-01-28 17:00","2010","01","28","17:00","5.4","","4.2","","92","","11","","7","","16.1","","100.26","","","","","","Mostly Cloudy"
"2010-01-28 18:00","2010","01","28","18:00","5.5","","4.4","","93","","14","","7","","19.3","","100.25","","","","","","Mostly Cloudy"
"2010-01-28 19:00","2010","01","28","19:00","5.0","","4.0","","93","","","","0","","19.3","","100.26","","","","","","Mostly Cloudy"
"2010-01-28 20:00","2010","01","28","20:00","5.7","","4.6","","93","","7","","6","","12.9","","100.24","","","","","","Cloudy"
"2010-01-28 21:00","2010","01","28","21:00","5.6","","4.5","","93","","9","","6","","12.9","","100.23","","","","","","Cloudy"
"2010-01-28 22:00","2010","01","28","22:00"
"2010-01-28 23:00","2010","01","28","23:00"
"2010-01-29 00:00","2010","01","29","00:00"
"2010-01-29 01:00","2010","01","29","01:00"
"2010-01-29 02:00","2010","01","29","02:00"
"2010-01-29 03:00","2010","01","29","03:00"
"2010-01-29 04:00","2010","01","29","04:00"
"2010-01-29 05:00","2010","01","29","05:00"
"2010-01-29 06:00","2010","01","29","06:00","5.6","","4.4","","92","","","","0","","25.0","","100.17","","","","","","Cloudy"
"2010-01-29 07:00","2010","01","29","07:00","5.9","","4.5","","91","","14","","4","","25.0","","100.16","","","","","","Cloudy"
"2010-01-29 08:00","2010","01","29","08:00","5.6","","4.4","","92","","5","","4","","24.1","","100.17","","","","","","Mostly Cloudy"
"2010-01-29 09:00","2010","01","29","09:00","6.3","","5.1","","92","","7","","7","","32.2","","100.22","","","","","","Mostly Cloudy"
"2010-01-29 10:00","2010","01","29","10:00","7.0","","5.5","","90","","","","0","","32.2","","100.25","","","","","","Mostly Cloudy"
"2010-01-29 11:00","2010","01","29","11:00","7.4","","5.8","","90","","","","0","","32.2","","100.28","","","","","","Cloudy"
"2010-01-29 12:00","2010","01","29","12:00","7.7","","5.4","","85","","","","0","","19.3","","100.26","","","","","","Cloudy"
"2010-01-29 13:00","2010","01","29","13:00","7.7","","5.5","","86","","7","","6","","16.1","","100.27","","","","","","Cloudy"
"2010-01-29 14:00","2010","01","29","14:00","8.0","","5.6","","85","","","","0","","16.1","","100.20","","","","","","Cloudy"
"2010-01-29 15:00","2010","01","29","15:00","8.0","","5.4","","84","","","","0","","12.9","","100.20","","","","","","Cloudy"
"2010-01-29 16:00","2010","01","29","16:00","7.1","","5.3","","88","","7","","6","","24.1","","100.20","","","","","","Rain Showers"
"2010-01-29 17:00","2010","01","29","17:00","6.7","","5.4","","91","","","","0","","24.1","","100.21","","","","","","Rain"
"2010-01-29 18:00","2010","01","29","18:00","6.6","","5.4","","92","","","","0","","12.9","","100.26","","","","","","Rain"
"2010-01-29 19:00","2010","01","29","19:00","6.2","","5.1","","93","","9","","7","","12.9","","100.26","","","","","","Rain"
"2010-01-29 20:00","2010","01","29","20:00","6.5","","5.3","","92","","6","","6","","12.9","","100.25","","","","","","Rain"
"2010-01-29 21:00","2010","01","29","21:00","6.2","","5.2","","93","","9","","9","","12.9","","100.23","","","","","","Rain"
"2010-01-29 22:00","2010","01","29","22:00"
"2010-01-29 23:00","2010","01","29","23:00"
"2010-01-30 00:00","2010","01","30","00:00"
"2010-01-30 01:00","2010","01","30","01:00"
"2010-01-30 02:00","2010","01","30","02:00"
"2010-01-30 03:00","2010","01","30","03:00"
"2010-01-30 04:00","2010","01","30","04:00"
"2010-01-30 05:00","2010","01","30","05:00"
"2010-01-30 06:00","2010","01","30","06:00","6.3","","5.3","","93","","","","0","","2.4","","100.14","","","","","","Drizzle,Fog"
"2010-01-30 07:00","2010","01","30","07:00","6.3","","5.3","","93","","11","","6","","1.2","","100.13","","","","","","Drizzle,Fog"
"2010-01-30 08:00","2010","01","30","08:00","6.6","","5.6","","93","","","","0","","1.2","","100.16","","","","","","Drizzle,Fog"
"2010-01-30 09:00","2010","01","30","09:00","6.6","","5.7","","94","","","","0","","0.8","","100.17","","","","","","Drizzle,Fog"
"2010-01-30 10:00","2010","01","30","10:00","6.3","","5.5","","95","","","","0","","0.6","","100.20","","","","","","Drizzle,Fog"
"2010-01-30 11:00","2010","01","30","11:00","6.4","","5.6","","95","","","","0","","0.8","","100.21","","","","","","Drizzle,Fog"
"2010-01-30 12:00","2010","01","30","12:00","6.9","","6.1","","95","","3","","4","","0.8","","100.20","","","","","","Drizzle,Fog"
"2010-01-30 13:00","2010","01","30","13:00","7.0","","6.2","","95","","10","","6","","0.6","","100.16","","","","","","Drizzle,Fog"
"2010-01-30 14:00","2010","01","30","14:00","7.0","","6.2","","95","","9","","6","","0.4","","100.15","","","","","","Drizzle,Fog"
"2010-01-30 15:00","2010","01","30","15:00","7.0","","6.3","","95","","9","","6","","0.4","","100.14","","","","","","Drizzle,Fog"
"2010-01-30 16:00","2010","01","30","16:00","7.1","","6.5","","96","","13","","6","","0.6","","100.13","","","","","","Drizzle,Fog"
"2010-01-30 17:00","2010","01","30","17:00","7.0","","6.2","","95","","8","","6","","0.4","","100.14","","","","","","Drizzle,Fog"
"2010-01-30 18:00","2010","01","30","18:00","7.0","","6.4","","96","","9","","4","","0.6","","100.14","","","","","","Drizzle,Fog"
"2010-01-30 19:00","2010","01","30","19:00","7.0","","6.3","","95","","","","0","","0.4","","100.13","","","","","","Drizzle,Fog"
"2010-01-30 20:00","2010","01","30","20:00","7.0","","6.1","","94","","11","","4","","0.8","","100.14","","","","","","Fog"
"2010-01-30 21:00","2010","01","30","21:00","6.9","","6.0","","94","","","","0","","1.6","","100.16","","","","","","Fog"
"2010-01-30 22:00","2010","01","30","22:00"
"2010-01-30 23:00","2010","01","30","23:00"
"2010-01-31 00:00","2010","01","31","00:00"
"2010-01-31 01:00","2010","01","31","01:00"
"2010-01-31 02:00","2010","01","31","02:00"
"2010-01-31 03:00","2010","01","31","03:00"
"2010-01-31 04:00","2010","01","31","04:00"
"2010-01-31 05:00","2010","01","31","05:00"
"2010-01-31 06:00","2010","01","31","06:00","6.2","","5.4","","95","","33","","4","","6.4","","100.15","","","","","","Drizzle,Fog"
"2010-01-31 07:00","2010","01","31","07:00","6.2","","5.3","","94","","","","0","","6.4","","100.17","","","","","","Drizzle,Fog"
"2010-01-31 08:00","2010","01","31","08:00","6.0","","5.0","","93","","","","0","","16.1","","100.19","","","","","","Cloudy"
"2010-01-31 09:00","2010","01","31","09:00","5.9","","4.9","","93","","","","0","","19.3","","100.20","","","","","","Mostly Cloudy"
"2010-01-31 10:00","2010","01","31","10:00","6.4","","5.2","","92","","27","","4","","6.4","","100.21","","","","","","Fog"
"2010-01-31 11:00","2010","01","31","11:00","7.0","","5.8","","92","","","","0","","8.0","","100.22","","","","","","Fog"
"2010-01-31 12:00","2010","01","31","12:00","7.8","","6.0","","88","","","","0","","11.3","","100.21","","","","","","Cloudy"
"2010-01-31 13:00","2010","01","31","13:00","7.7","","6.2","","90","","4","","4","","11.3","","100.15","","","","","","Cloudy"
"2010-01-31 14:00","2010","01","31","14:00","7.8","","6.4","","91","","9","","7","","11.3","","100.13","","","","","","Cloudy"
"2010-01-31 15:00","2010","01","31","15:00","7.6","","6.4","","92","","9","","7","","11.3","","100.11","","","","","","Cloudy"
"2010-01-31 16:00","2010","01","31","16:00","7.4","","5.9","","90","","9","","6","","11.3","","100.13","","","","","","Mostly Cloudy"
"2010-01-31 17:00","2010","01","31","17:00","7.1","","5.9","","92","","9","","4","","11.3","","100.12","","","","","","Mostly Cloudy"
"2010-01-31 18:00","2010","01","31","18:00","6.9","","5.9","","93","","9","","4","","4.0","","100.14","","","","","","Fog"
"2010-01-31 19:00","2010","01","31","19:00","6.8","","5.8","","93","","6","","6","","4.0","","100.14","","","","","","Fog"
"2010-01-31 20:00","2010","01","31","20:00","6.9","","6.0","","94","","9","","7","","1.2","","100.13","","","","","","Fog"
"2010-01-31 21:00","2010","01","31","21:00","6.8","","5.7","","93","","14","","6","","3.2","","100.13","","","","","","Fog"
"2010-01-31 22:00","2010","01","31","22:00"
"2010-01-31 23:00","2010","01","31","23:00"
