"Station Name","CAMPBELL RIVER A"
"Province","BRITISH COLUMBIA"
"Latitude","49.95"
"Longitude","-125.27"
"Elevation","108.80"
"Climate Identifier","1021261"
"WMO Identifier",""
"TC Identifier","YBL"
"All times are specified in Local Standard Time (LST). Add 1 hour to adjust for Daylight Saving Time where and when it is observed."

"Legend"
"E","Estimated"
"M","Missing"
"NA","Not Available"

"Date/Time","Year","Month","Day","Time","Temp (°C)","Temp Flag","Dew Point Temp (°C)","Dew Point Temp Flag","Rel Hum (%)","Rel Hum Flag","Wind Dir (10s deg)","Wind Dir Flag","Wind Spd (km/h)","Wind Spd Flag","Visibility (km)","Visibility Flag","Stn Press (kPa)","Stn Press Flag","Hmdx","Hmdx Flag","Wind Chill","Wind Chill Flag","Weather"
"1986-12-01 00:00","1986","12","01","00:00","","","","","","","","","","","","","","","","","","","NA"
"1986-12-01 01:00","1986","12","01","01:00","","","","","","","","","","","","","","","","","","","NA"
"1986-12-01 02:00","1986","12","01","02:00","","","","","","","","","","","","","","","","","","","NA"
"1986-12-01 03:00","1986","12","01","03:00","","","","","","","","","","","","","","","","","","","NA"
"1986-12-01 04:00","1986","12","01","04:00","","","","","","","","","","","","","","","","","","","NA"
"1986-12-01 05:00","1986","12","01","05:00","","","","","","","","","","","","","","","","","","","NA"
"1986-12-01 06:00","1986","12","01","06:00","1.6","","0.6","","93","","29","","19","","24.1","","100.91","","","","","","Clear"
"1986-12-01 07:00","1986","12","01","07:00","3.0","","-0.2","","79","","28","","9","","24.1","","101.04","","","","","","Clear"
"1986-12-01 08:00","1986","12","01","08:00","2.4","","-0.2","","83","","29","","22","","24.1","","101.15","","","","","","Mainly Clear"
"1986-12-01 09:00","1986","12","01","09:00","3.3","","-0.3","","77","","28","","22","","24.1","","101.25","","","","","","Mainly Clear"
"1986-12-01 10:00","1986","12","01","10:00","4.9","","0.0","","71","","29","","22","","24.1","","101.38","","","","","","Mainly Clear"
"1986-12-01 11:00","1986","12","01","11:00","6.1","","0.0","","65","","30","","19","","24.1","","101.45","","","","","","Mainly Clear"
"1986-12-01 12:00","1986","12","01","12:00","6.3","","-1.7","","56","","31","","22","","24.1","","101.51","","","","","","Mainly Clear"
"1986-12-01 13:00","1986","12","01","13:00","6.7","","-1.9","","54","","31","","26","","24.1","","101.48","","","","","","Mainly Clear"
"1986-12-01 14:00","1986","12","01","14:00","6.6","","-2.4","","53","","32","","28","","24.1","","101.51","","","","","","Mainly Clear"
"1986-12-01 15:00","1986","12","01","15:00","6.1","","-1.9","","56","","30","","28","","24.1","","101.55","","","","","","Clear"
"1986-12-01 16:00","1986","12","01","16:00","3.8","","2.3","","90","","31","","9","","24.1","","101.58","","","","","","Mainly Clear"
"1986-12-01 17:00","1986","12","01","17:00","1.2","","-1.2","","84","","30","","9","","24.1","","101.58","","","","","","Mainly Clear"
"1986-12-01 18:00","1986","12","01","18:00","-0.1","","-1.7","","89","","31","","9","","24.1","","101.65","","","","-3","","Clear"
"1986-12-01 19:00","1986","12","01","19:00","-0.9","","-1.8","","94","","","","0","","24.1","","101.68","","","","","","Clear"
"1986-12-01 20:00","1986","12","01","20:00","-1.3","","-2.2","","93","","30","","9","","24.1","","101.75","","","","-5","","Clear"
"1986-12-01 21:00","1986","12","01","21:00","-1.5","","-2.5","","93","","30","","9","","24.1","","101.78","","","","-5","","Clear"
"1986-12-01 22:00","1986","12","01","22:00","","","","","","","","","","","","","","","","","","","NA"
"1986-12-01 23:00","1986","12","01","23:00","","","","","","","","","","","","","","","","","","","NA"
"1986-12-02 00:00","1986","12","02","00:00","","","","","","","","","","","","","","","","","","","NA"
"1986-12-02 01:00","1986","12","02","01:00","","","","","","","","","","","","","","","","","","","NA"
"1986-12-02 02:00","1986","12","02","02:00","","","","","","","","","","","","","","","","","","","NA"
"1986-12-02 03:00","1986","12","02","03:00","","","","","","","","","","","","","","","","","","","NA"
"1986-12-02 04:00","1986","12","02","04:00","","","","","","","","","","","","","","","","","","","NA"
"1986-12-02 05:00","1986","12","02","05:00","","","","","","","","","","","","","","","","","","","NA"
"1986-12-02 06:00","1986","12","02","06:00","-2.2","","-3.1","","94","","29","","9","","24.1","","101.72","","","","-6","","Clear"
"1986-12-02 07:00","1986","12","02","07:00","-1.8","","-3.2","","90","","31","","9","","24.1","","101.68","","","","-5","","Clear"
"1986-12-02 08:00","1986","12","02","08:00","-2.3","","-3.3","","93","","30","","6","","24.1","","101.65","","","","-5","","Mainly Clear"
"1986-12-02 09:00","1986","12","02","09:00","-1.7","","-2.7","","93","","30","","4","","24.1","","101.65","","","","-3","","Mainly Clear"
"1986-12-02 10:00","1986","12","02","10:00","0.3","","-1.5","","88","","29","","6","","24.1","","101.61","","","","","","Mainly Clear"
"1986-12-02 11:00","1986","12","02","11:00","2.6","","-1.4","","75","","32","","9","","24.1","","101.58","","","","","","Mainly Clear"
"1986-12-02 12:00","1986","12","02","12:00","3.6","","-1.6","","69","","28","","7","","24.1","","101.51","","","","","","Mainly Clear"
"1986-12-02 13:00","1986","12","02","13:00","4.2","","-2.3","","63","","3","","6","","24.1","","101.48","","","","","","Mainly Clear"
"1986-12-02 14:00","1986","12","02","14:00","4.3","","-2.4","","62","","33","","7","","24.1","","101.38","","","","","","Mostly Cloudy"
"1986-12-02 15:00","1986","12","02","15:00","3.4","","-0.1","","78","","","","0","","25.0","","101.38","","","","","","Mostly Cloudy"
"1986-12-02 16:00","1986","12","02","16:00","0.7","","-1.0","","88","","","","0","","25.0","","101.35","","","","","","Mostly Cloudy"
"1986-12-02 17:00","1986","12","02","17:00","-1.1","","-2.0","","94","","","","0","","25.0","","101.35","","","","","","Mostly Cloudy"
"1986-12-02 18:00","1986","12","02","18:00","-1.7","","-2.5","","94","","30","","6","","25.0","","101.28","","","","-4","","Mostly Cloudy"
"1986-12-02 19:00","1986","12","02","19:00","-2.2","","-2.5","","98","","32","","6","","24.1","","101.25","","","","-5","","Mostly Cloudy"
"1986-12-02 20:00","1986","12","02","20:00","-2.7","","-3.1","","97","","29","","9","","24.1","","101.25","","","","-6","","Mostly Cloudy"
"1986-12-02 21:00","1986","12","02","21:00","-3.3","","-3.5","","98","","33","","6","","24.1","","101.25","","","","-6","","Mostly Cloudy"
"1986-12-02 22:00","1986","12","02","22:00","","","","","","","32","","4","","","","","","","","","","NA"
"1986-12-02 23:00","1986","12","02","23:00","","","","","","","32","","4","","","","","","","","","","NA"
"1986-12-03 00:00","1986","12","03","00:00","","","","","","","32","","4","","","","","","","","","","NA"
"1986-12-03 01:00","1986","12","03","01:00","","","","","","","32","","2","","","","","","","","","","NA"
"1986-12-03 02:00","1986","12","03","02:00","","","","","","","32","","4","","","","","","","","","","NA"
"1986-12-03 03:00","1986","12","03","03:00","","","","","","","33","","4","","","","","","","","","","NA"
"1986-12-03 04:00","1986","12","03","04:00","","","","","","","33","","2","","","","","","","","","","NA"
"1986-12-03 05:00","1986","12","03","05:00","","","","","","","32","","4","","","","","","","","","","NA"
"1986-12-03 06:00","1986","12","03","06:00","-5.7","","-6.5","","94","","32","","4","","24.1","","101.01","","","","-8","","Clear"
"1986-12-03 07:00","1986","12","03","07:00","-5.8","","-6.5","","95","","30","","4","","24.1","","101.01","","","","-8","","Mainly Clear"
"1986-12-03 08:00","1986","12","03","08:00","-5.9","","-6.6","","95","","31","","6","","24.1","","101.04","","","","-9","","Mainly Clear"
"1986-12-03 09:00","1986","12","03","09:00","-5.3","","-6.1","","94","","31","","4","","24.1","","101.04","","","","-7","","Mainly Clear"
"1986-12-03 10:00","1986","12","03","10:00","-2.4","","-3.3","","94","","31","","4","","24.1","","101.04","","","","-4","","Mainly Clear"
"1986-12-03 11:00","1986","12","03","11:00","0.3","","-0.8","","93","","","","0","","24.1","","101.04","","","","","","Mainly Clear"
"1986-12-03 12:00","1986","12","03","12:00","2.5","","-1.9","","73","","","","0","","24.1","","100.98","","","","","","Mainly Clear"
"1986-12-03 13:00","1986","12","03","13:00","2.6","","-1.3","","75","","10","","7","","24.1","","100.91","","","","","","Mostly Cloudy"
"1986-12-03 14:00","1986","12","03","14:00","3.1","","-0.8","","76","","17","","11","","24.1","","100.88","","","","","","Mostly Cloudy"
"1986-12-03 15:00","1986","12","03","15:00","0.5","","-0.6","","92","","","","0","","24.1","","100.84","","","","","","Mostly Cloudy"
"1986-12-03 16:00","1986","12","03","16:00","0.4","","-0.9","","91","","","","0","","24.1","","100.84","","","","","","Mostly Cloudy"
"1986-12-03 17:00","1986","12","03","17:00","-1.6","","-1.8","","99","","","","0","","24.1","","100.84","","","","","","Mostly Cloudy"
"1986-12-03 18:00","1986","12","03","18:00","-2.2","","-2.6","","97","","","","0","","24.1","","100.84","","","","","","Mostly Cloudy"
"1986-12-03 19:00","1986","12","03","19:00","-2.0","","-2.8","","94","","","","0","","24.1","","100.78","","","","","","Mainly Clear"
"1986-12-03 20:00","1986","12","03","20:00","-3.2","","-3.4","","99","","","","0","","24.1","","100.78","","","","","","Mainly Clear"
"1986-12-03 21:00","1986","12","03","21:00","-3.4","","-3.6","","98","","","","0","","24.1","","100.78","","","","","","Mainly Clear"
"1986-12-03 22:00","1986","12","03","22:00","","","","","","","","","0","","","","","","","","","","NA"
"1986-12-03 23:00","1986","12","03","23:00","","","","","","","","","0","","","","","","","","","","NA"
"1986-12-04 00:00","1986","12","04","00:00","","","","","","","33","","4","","","","","","","","","","NA"
"1986-12-04 01:00","1986","12","04","01:00","","","","","","","32","","4","","","","","","","","","","NA"
"1986-12-04 02:00","1986","12","04","02:00","","","","","","","","","0","","","","","","","","","","NA"
"1986-12-04 03:00","1986","12","04","03:00","","","","","","","","","0","","","","","","","","","","NA"
"1986-12-04 04:00","1986","12","04","04:00","","","","","","","33","","2","","","","","","","","","","NA"
"1986-12-04 05:00","1986","12","04","05:00","","","","","","","34","","4","","","","","","","","","","NA"
"1986-12-04 06:00","1986","12","04","06:00","-1.5","","-2.0","","96","","","","0","","24.1","","100.47","","","","","","Mostly Cloudy"
"1986-12-04 07:00","1986","12","04","07:00","-1.7","","-2.2","","96","","","","0","","24.1","","100.44","","","","","","Mostly Cloudy"
"1986-12-04 08:00","1986","12","04","08:00","-1.7","","-2.2","","96","","29","","4","","24.1","","100.44","","","","-3","","Cloudy"
"1986-12-04 09:00","1986","12","04","09:00","-1.3","","-1.7","","97","","30","","4","","24.1","","100.44","","","","-3","","Cloudy"
"1986-12-04 10:00","1986","12","04","10:00","-1.3","","-1.7","","97","","30","","4","","24.1","","100.44","","","","-3","","Cloudy"
"1986-12-04 11:00","1986","12","04","11:00","0.3","","-0.4","","95","","","","0","","24.1","","100.41","","","","","","Cloudy"
"1986-12-04 12:00","1986","12","04","12:00","0.5","","0.1","","97","","","","0","","24.1","","100.34","","","","","","Cloudy"
"1986-12-04 13:00","1986","12","04","13:00","1.1","","0.6","","96","","","","0","","24.1","","100.31","","","","","","Cloudy"
"1986-12-04 14:00","1986","12","04","14:00","1.8","","0.8","","93","","31","","9","","24.1","","100.24","","","","","","Cloudy"
"1986-12-04 15:00","1986","12","04","15:00","2.0","","1.2","","95","","","","0","","24.1","","100.21","","","","","","Cloudy"
"1986-12-04 16:00","1986","12","04","16:00","1.2","","0.7","","96","","","","0","","24.1","","100.17","","","","","","Cloudy"
"1986-12-04 17:00","1986","12","04","17:00","0.9","","0.6","","98","","","","0","","24.1","","100.17","","","","","","Cloudy"
"1986-12-04 18:00","1986","12","04","18:00","0.4","","0.4","","100","","","","0","","24.1","","100.14","","","","","","Cloudy"
"1986-12-04 19:00","1986","12","04","19:00","0.4","","0.1","","98","","","","0","","24.1","","100.14","","","","","","Cloudy"
"1986-12-04 20:00","1986","12","04","20:00","0.2","","-0.2","","97","","31","","9","","24.1","","100.11","","","","","","Cloudy"
"1986-12-04 21:00","1986","12","04","21:00","0.2","","-0.2","","97","","30","","4","","24.1","","100.11","","","","","","Cloudy"
"1986-12-04 22:00","1986","12","04","22:00","","","","","","","33","","6","","","","","","","","","","NA"
"1986-12-04 23:00","1986","12","04","23:00","","","","","","","33","","7","","","","","","","","","","NA"
"1986-12-05 00:00","1986","12","05","00:00","","","","","","","","","0","","","","","","","","","","NA"
"1986-12-05 01:00","1986","12","05","01:00","","","","","","","","","0","","","","","","","","","","NA"
"1986-12-05 02:00","1986","12","05","02:00","","","","","","","32","","7","","","","","","","","","","NA"
"1986-12-05 03:00","1986","12","05","03:00","","","","","","","32","","9","","","","","","","","","","NA"
"1986-12-05 04:00","1986","12","05","04:00","","","","","","","32","","7","","","","","","","","","","NA"
"1986-12-05 05:00","1986","12","05","05:00","","","","","","","32","","11","","","","","","","","","","NA"
"1986-12-05 06:00","1986","12","05","06:00","1.0","","0.4","","96","","30","","9","","24.1","","100.11","","","","","","Mostly Cloudy"
"1986-12-05 07:00","1986","12","05","07:00","1.8","","0.6","","92","","31","","9","","24.1","","100.11","","","","","","Mostly Cloudy"
"1986-12-05 08:00","1986","12","05","08:00","1.6","","0.6","","93","","30","","7","","24.1","","100.17","","","","","","Mostly Cloudy"
"1986-12-05 09:00","1986","12","05","09:00","1.9","","0.7","","92","","32","","7","","24.1","","100.27","","","","","","Mostly Cloudy"
"1986-12-05 10:00","1986","12","05","10:00","1.7","","0.5","","92","","28","","9","","24.1","","100.37","","","","","","Mainly Clear"
"1986-12-05 11:00","1986","12","05","11:00","4.6","","1.7","","81","","30","","7","","24.1","","100.37","","","","","","Mainly Clear"
"1986-12-05 12:00","1986","12","05","12:00","6.7","","1.8","","71","","32","","11","","24.1","","100.37","","","","","","Clear"
"1986-12-05 13:00","1986","12","05","13:00","7.6","","1.8","","66","","32","","9","","24.1","","100.34","","","","","","Clear"
"1986-12-05 14:00","1986","12","05","14:00","7.7","","2.8","","71","","30","","11","","24.1","","100.41","","","","","","Mainly Clear"
"1986-12-05 15:00","1986","12","05","15:00","7.6","","2.2","","69","","29","","7","","24.1","","100.44","","","","","","Mainly Clear"
"1986-12-05 16:00","1986","12","05","16:00","4.8","","2.1","","83","","30","","6","","24.1","","100.61","","","","","","Mainly Clear"
"1986-12-05 17:00","1986","12","05","17:00","2.6","","0.2","","84","","","","0","","24.1","","100.64","","","","","","Mainly Clear"
"1986-12-05 18:00","1986","12","05","18:00","-0.3","","-0.6","","98","","32","","6","","24.1","","100.71","","","","-2","","Mainly Clear"
"1986-12-05 19:00","1986","12","05","19:00","-0.4","","-0.7","","98","","28","","7","","24.1","","100.71","","","","-3","","Mainly Clear"
"1986-12-05 20:00","1986","12","05","20:00","-0.6","","-0.9","","98","","29","","6","","24.1","","100.74","","","","-3","","Mainly Clear"
"1986-12-05 21:00","1986","12","05","21:00","-1.6","","-1.8","","99","","30","","6","","24.1","","100.81","","","","-4","","Mainly Clear"
"1986-12-05 22:00","1986","12","05","22:00","","","","","","","30","","7","","","","","","","","","","NA"
"1986-12-05 23:00","1986","12","05","23:00","","","","","","","30","","4","","","","","","","","","","NA"
"1986-12-06 00:00","1986","12","06","00:00","","","","","","","29","","6","","","","","","","","","","NA"
"1986-12-06 01:00","1986","12","06","01:00","","","","","","","29","","7","","","","","","","","","","NA"
"1986-12-06 02:00","1986","12","06","02:00","","","","","","","29","","4","","","","","","","","","","NA"
"1986-12-06 03:00","1986","12","06","03:00","","","","","","","30","","6","","","","","","","","","","NA"
"1986-12-06 04:00","1986","12","06","04:00","","","","","","","29","","7","","","","","","","","","","NA"
"1986-12-06 05:00","1986","12","06","05:00","","","","","","","29","","6","","","","","","","","","","NA"
"1986-12-06 06:00","1986","12","06","06:00","-1.7","","-2.0","","98","","","","0","","24.1","","101.35","","","","","","Clear"
"1986-12-06 07:00","1986","12","06","07:00","-3.0","","-3.2","","98","","30","","7","","24.1","","101.35","","","","-6","","Clear"
"1986-12-06 08:00","1986","12","06","08:00","-1.8","","-1.8","","100","","","","0","","24.1","","101.35","","","","","","Mostly Cloudy"
"1986-12-06 09:00","1986","12","06","09:00","-1.2","","-1.4","","99","","30","","7","","24.1","","101.45","","","","-4","","Mostly Cloudy"
"1986-12-06 10:00","1986","12","06","10:00","-0.4","","-0.6","","98","","27","","6","","24.1","","101.55","","","","-2","","Mostly Cloudy"
"1986-12-06 11:00","1986","12","06","11:00","1.8","","1.5","","98","","","","0","","24.1","","101.48","","","","","","Mostly Cloudy"
"1986-12-06 12:00","1986","12","06","12:00","2.8","","0.9","","87","","","","0","","24.1","","101.48","","","","","","Mostly Cloudy"
"1986-12-06 13:00","1986","12","06","13:00","2.8","","1.5","","91","","","","0","","24.1","","101.48","","","","","","Cloudy"
"1986-12-06 14:00","1986","12","06","14:00","2.5","","0.8","","88","","","","0","","24.1","","101.48","","","","","","Cloudy"
"1986-12-06 15:00","1986","12","06","15:00","2.3","","0.6","","89","","","","0","","24.1","","101.48","","","","","","Cloudy"
"1986-12-06 16:00","1986","12","06","16:00","1.8","","0.6","","92","","","","0","","24.1","","101.55","","","","","","Cloudy"
"1986-12-06 17:00","1986","12","06","17:00","1.2","","0.3","","93","","26","","6","","24.1","","101.55","","","","","","Cloudy"
"1986-12-06 18:00","1986","12","06","18:00","1.1","","0.4","","95","","","","0","","24.1","","101.51","","","","","","Cloudy"
"1986-12-06 19:00","1986","12","06","19:00","0.9","","0.5","","97","","31","","4","","16.1","","101.55","","","","","","Cloudy"
"1986-12-06 20:00","1986","12","06","20:00","1.0","","0.5","","96","","","","0","","16.1","","101.55","","","","","","Cloudy"
"1986-12-06 21:00","1986","12","06","21:00","1.1","","0.6","","96","","","","0","","16.1","","101.55","","","","","","Cloudy"
"1986-12-06 22:00","1986","12","06","22:00","","","","","","","","","0","","","","","","","","","","NA"
"1986-12-06 23:00","1986","12","06","23:00","","","","","","","","","0","","","","","","","","","","NA"
"1986-12-07 00:00","1986","12","07","00:00","","","","","","","","","0","","","","","","","","","","NA"
"1986-12-07 01:00","1986","12","07","01:00","","","","","","","","","0","","","","","","","","","","NA"
"1986-12-07 02:00","1986","12","07","02:00","","","","","","","","","0","","","","","","","","","","NA"
"1986-12-07 03:00","1986","12","07","03:00","","","","","","","","","0","","","","","","","","","","NA"
"1986-12-07 04:00","1986","12","07","04:00","","","","","","","","","0","","","","","","","","","","NA"
"1986-12-07 05:00","1986","12","07","05:00","","","","","","","","","0","","","","","","","","","","NA"
"1986-12-07 06:00","1986","12","07","06:00","1.5","","1.3","","98","","","","0","","24.1","","101.48","","","","","","Rain"
"1986-12-07 07:00","1986","12","07","07:00","1.6","","1.3","","98","","","","0","","8.0","","101.51","","","","","","Rain,Fog"
"1986-12-07 08:00","1986","12","07","08:00","1.4","","1.2","","99","","","","0","","12.9","","101.51","","","","","","Rain"
"1986-12-07 09:00","1986","12","07","09:00","2.0","","1.8","","98","","","","0","","24.1","","101.55","","","","","","Rain"
"1986-12-07 10:00","1986","12","07","10:00","2.8","","1.8","","93","","","","0","","24.1","","101.48","","","","","","Cloudy"
"1986-12-07 11:00","1986","12","07","11:00","3.6","","3.4","","98","","","","0","","24.1","","101.51","","","","","","Cloudy"
"1986-12-07 12:00","1986","12","07","12:00","3.8","","3.7","","100","","","","0","","24.1","","101.51","","","","","","Cloudy"
"1986-12-07 13:00","1986","12","07","13:00","4.5","","3.8","","95","","","","0","","24.1","","101.51","","","","","","Cloudy"
"1986-12-07 14:00","1986","12","07","14:00","4.8","","3.9","","94","","","","0","","16.1","","101.58","","","","","","Mostly Cloudy"
"1986-12-07 15:00","1986","12","07","15:00","5.2","","3.9","","91","","","","0","","16.1","","101.58","","","","","","Mostly Cloudy"
"1986-12-07 16:00","1986","12","07","16:00","4.7","","3.5","","92","","28","","6","","19.3","","101.65","","","","","","Mostly Cloudy"
"1986-12-07 17:00","1986","12","07","17:00","2.7","","2.3","","97","","","","0","","24.1","","101.65","","","","","","Mostly Cloudy"
"1986-12-07 18:00","1986","12","07","18:00","1.1","","0.7","","97","","29","","6","","24.1","","101.65","","","","","","Mostly Cloudy"
"1986-12-07 19:00","1986","12","07","19:00","0.8","","0.5","","98","","30","","9","","24.1","","101.68","","","","","","Mostly Cloudy"
"1986-12-07 20:00","1986","12","07","20:00","-0.7","","-1.0","","98","","","","0","","24.1","","101.72","","","","","","Mainly Clear"
"1986-12-07 21:00","1986","12","07","21:00","-0.8","","-1.1","","98","","29","","6","","24.1","","101.75","","","","-3","","Mainly Clear"
"1986-12-07 22:00","1986","12","07","22:00","","","","","","","","","0","","","","","","","","","","NA"
"1986-12-07 23:00","1986","12","07","23:00","","","","","","","","","0","","","","","","","","","","NA"
"1986-12-08 00:00","1986","12","08","00:00","","","","","","","","","0","","","","","","","","","","NA"
"1986-12-08 01:00","1986","12","08","01:00","","","","","","","","","0","","","","","","","","","","NA"
"1986-12-08 02:00","1986","12","08","02:00","","","","","","","","","0","","","","","","","","","","NA"
"1986-12-08 03:00","1986","12","08","03:00","","","","","","","","","0","","","","","","","","","","NA"
"1986-12-08 04:00","1986","12","08","04:00","","","","","","","","","0","","","","","","","","","","NA"
"1986-12-08 05:00","1986","12","08","05:00","","","","","","","","","0","","","","","","","","","","NA"
"1986-12-08 06:00","1986","12","08","06:00","0.2","","-0.2","","97","","30","","4","","24.1","","102.02","","","","","","Mostly Cloudy"
"1986-12-08 07:00","1986","12","08","07:00","0.4","","-0.2","","96","","30","","4","","24.1","","102.02","","","","","","Mostly Cloudy"
"1986-12-08 08:00","1986","12","08","08:00","-0.6","","-0.8","","99","","","","0","","24.1","","102.02","","","","","","Mostly Cloudy"
"1986-12-08 09:00","1986","12","08","09:00","-0.6","","-1.0","","97","","30","","4","","24.1","","102.12","","","","-2","","Mostly Cloudy"
"1986-12-08 10:00","1986","12","08","10:00","0.8","","0.1","","95","","","","0","","24.1","","102.12","","","","","","Mostly Cloudy"
"1986-12-08 11:00","1986","12","08","11:00","1.8","","1.2","","96","","32","","4","","24.1","","102.12","","","","","","Mostly Cloudy"
"1986-12-08 12:00","1986","12","08","12:00","5.0","","1.2","","77","","","","0","","24.1","","102.12","","","","","","Mainly Clear"
"1986-12-08 13:00","1986","12","08","13:00","4.3","","1.5","","82","","3","","4","","24.1","","102.12","","","","","","Mostly Cloudy"
"1986-12-08 14:00","1986","12","08","14:00","5.2","","1.2","","75","","34","","7","","24.1","","102.08","","","","","","Mainly Clear"
"1986-12-08 15:00","1986","12","08","15:00","4.9","","0.5","","73","","","","0","","24.1","","102.05","","","","","","Mostly Cloudy"
"1986-12-08 16:00","1986","12","08","16:00","2.4","","0.7","","89","","","","0","","24.1","","102.08","","","","","","Mostly Cloudy"
"1986-12-08 17:00","1986","12","08","17:00","-0.2","","-0.5","","98","","30","","4","","24.1","","102.08","","","","-1","","Mainly Clear"
"1986-12-08 18:00","1986","12","08","18:00","-1.0","","-1.3","","98","","30","","7","","24.1","","102.08","","","","-4","","Mainly Clear"
"1986-12-08 19:00","1986","12","08","19:00","-1.4","","-1.7","","98","","","","0","","24.1","","102.08","","","","","","Mainly Clear"
"1986-12-08 20:00","1986","12","08","20:00","-1.9","","-2.2","","98","","31","","6","","24.1","","102.12","","","","-4","","Mainly Clear"
"1986-12-08 21:00","1986","12","08","21:00","-2.0","","-2.3","","98","","31","","4","","24.1","","102.12","","","","-3","","Clear"
"1986-12-08 22:00","1986","12","08","22:00","","","","","","","30","","4","","","","","","","","","","NA"
"1986-12-08 23:00","1986","12","08","23:00","","","","","","","29","","4","","","","","","","","","","NA"
"1986-12-09 00:00","1986","12","09","00:00","","","","","","","30","","4","","","","","","","","","","NA"
"1986-12-09 01:00","1986","12","09","01:00","","","","","","","","","0","","","","","","","","","","NA"
"1986-12-09 02:00","1986","12","09","02:00","","","","","","","31","","4","","","","","","","","","","NA"
"1986-12-09 03:00","1986","12","09","03:00","","","","","","","30","","4","","","","","","","","","","NA"
"1986-12-09 04:00","1986","12","09","04:00","","","","","","","","","0","","","","","","","","","","NA"
"1986-12-09 05:00","1986","12","09","05:00","","","","","","","30","","4","","","","","","","","","","NA"
"1986-12-09 06:00","1986","12","09","06:00","-3.8","","-4.5","","95","","","","0","","24.1","","102.05","","","","","","Mainly Clear"
"1986-12-09 07:00","1986","12","09","07:00","-3.8","","-4.5","","95","","30","","4","","24.1","","102.02","","","","-5","","Mainly Clear"
"1986-12-09 08:00","1986","12","09","08:00","-4.2","","-4.9","","95","","","","0","","24.1","","102.02","","","","","","Mainly Clear"
"1986-12-09 09:00","1986","12","09","09:00","-3.4","","-4.1","","95","","31","","6","","24.1","","101.98","","","","-6","","Mainly Clear"
"1986-12-09 10:00","1986","12","09","10:00","-1.3","","-1.9","","96","","30","","4","","24.1","","102.02","","","","-3","","Mainly Clear"
"1986-12-09 11:00","1986","12","09","11:00","1.9","","1.0","","94","","","","0","","24.1","","101.98","","","","","","Mainly Clear"
"1986-12-09 12:00","1986","12","09","12:00","4.5","","-0.6","","69","","","","0","","24.1","","101.92","","","","","","Mainly Clear"
"1986-12-09 13:00","1986","12","09","13:00","5.8","","-0.9","","62","","","","0","","24.1","","101.85","","","","","","Mainly Clear"
"1986-12-09 14:00","1986","12","09","14:00","6.0","","-0.6","","62","","","","0","","24.1","","101.78","","","","","","Mainly Clear"
"1986-12-09 15:00","1986","12","09","15:00","4.2","","0.2","","75","","","","0","","24.1","","101.78","","","","","","Clear"
"1986-12-09 16:00","1986","12","09","16:00","1.1","","-0.5","","89","","","","0","","24.1","","101.78","","","","","","Clear"
"1986-12-09 17:00","1986","12","09","17:00","-1.0","","-1.3","","98","","","","0","","24.1","","101.75","","","","","","Clear"
"1986-12-09 18:00","1986","12","09","18:00","-1.6","","-2.0","","97","","","","0","","24.1","","101.68","","","","","","Clear"
"1986-12-09 19:00","1986","12","09","19:00","-2.2","","-2.5","","98","","","","0","","24.1","","101.65","","","","","","Clear"
"1986-12-09 20:00","1986","12","09","20:00","-2.5","","-2.8","","98","","32","","6","","24.1","","101.65","","","","-5","","Clear"
"1986-12-09 21:00","1986","12","09","21:00","-2.9","","-3.3","","97","","30","","4","","24.1","","101.58","","","","-4","","Clear"
"1986-12-09 22:00","1986","12","09","22:00","","","","","","","","","0","","","","","","","","","","NA"
"1986-12-09 23:00","1986","12","09","23:00","","","","","","","","","0","","","","","","","","","","NA"
"1986-12-10 00:00","1986","12","10","00:00","","","","","","","","","0","","","","","","","","","","NA"
"1986-12-10 01:00","1986","12","10","01:00","","","","","","","","","0","","","","","","","","","","NA"
"1986-12-10 02:00","1986","12","10","02:00","","","","","","","","","0","","","","","","","","","","NA"
"1986-12-10 03:00","1986","12","10","03:00","","","","","","","","","0","","","","","","","","","","NA"
"1986-12-10 04:00","1986","12","10","04:00","","","","","","","","","0","","","","","","","","","","NA"
"1986-12-10 05:00","1986","12","10","05:00","","","","","","","","","0","","","","","","","","","","NA"
"1986-12-10 06:00","1986","12","10","06:00","-5.6","","-6.3","","95","","","","0","","24.1","","101.31","","","","","","Clear"
"1986-12-10 07:00","1986","12","10","07:00","-6.2","","-7.1","","93","","","","0","","24.1","","101.28","","","","","","Clear"
"1986-12-10 08:00","1986","12","10","08:00","-6.0","","-6.9","","93","","","","0","","24.1","","101.28","","","","","","Clear"
"1986-12-10 09:00","1986","12","10","09:00","-5.3","","-6.1","","94","","","","0","","24.1","","101.28","","","","","","Clear"
"1986-12-10 10:00","1986","12","10","10:00","-2.5","","-3.6","","92","","","","0","","24.1","","101.28","","","","","","Clear"
"1986-12-10 11:00","1986","12","10","11:00","1.0","","-1.3","","85","","","","0","","24.1","","101.25","","","","","","Clear"
"1986-12-10 12:00","1986","12","10","12:00","2.0","","-0.9","","81","","","","0","","24.1","","101.18","","","","","","Clear"
"1986-12-10 13:00","1986","12","10","13:00","1.5","","-0.4","","87","","15","","9","","24.1","","101.11","","","","","","Clear"
"1986-12-10 14:00","1986","12","10","14:00","1.5","","-0.6","","86","","13","","11","","24.1","","101.04","","","","","","Mainly Clear"
"1986-12-10 15:00","1986","12","10","15:00","0.0","","-0.1","","99","","16","","6","","0.2","","100.98","","","","-2","","Fog"
"1986-12-10 16:00","1986","12","10","16:00","0.1","","-0.2","","98","","","","0","","0.2","","100.98","","","","","","Fog"
"1986-12-10 17:00","1986","12","10","17:00","-0.5","","-0.6","","99","","","","0","","0.2","","100.94","","","","","","Fog"
"1986-12-10 18:00","1986","12","10","18:00","-0.4","","-0.4","","100","","","","0","","0.2","","100.94","","","","","","Fog"
"1986-12-10 19:00","1986","12","10","19:00","-0.7","","-0.8","","100","","22","","4","","0.6","","100.94","","","","-2","","Fog"
"1986-12-10 20:00","1986","12","10","20:00","-0.7","","-0.8","","100","","22","","6","","0.6","","100.94","","","","-3","","Fog"
"1986-12-10 21:00","1986","12","10","21:00","-0.9","","-0.9","","100","","22","","4","","0.6","","100.88","","","","-2","","Fog"
"1986-12-10 22:00","1986","12","10","22:00","","","","","","","","","0","","","","","","","","","","NA"
"1986-12-10 23:00","1986","12","10","23:00","","","","","","","","","0","","","","","","","","","","NA"
"1986-12-11 00:00","1986","12","11","00:00","","","","","","","","","0","","","","","","","","","","NA"
"1986-12-11 01:00","1986","12","11","01:00","","","","","","","","","0","","","","","","","","","","NA"
"1986-12-11 02:00","1986","12","11","02:00","","","","","","","","","0","","","","","","","","","","NA"
"1986-12-11 03:00","1986","12","11","03:00","","","","","","","","","0","","","","","","","","","","NA"
"1986-12-11 04:00","1986","12","11","04:00","","","","","","","","","0","","","","","","","","","","NA"
"1986-12-11 05:00","1986","12","11","05:00","","","","","","","","","0","","","","","","","","","","NA"
"1986-12-11 06:00","1986","12","11","06:00","-0.2","","-0.2","","100","","","","0","","0.4","","100.74","","","","","","Fog"
"1986-12-11 07:00","1986","12","11","07:00","-0.1","","-0.1","","100","","","","0","","0.2","","100.74","","","","","","Fog"
"1986-12-11 08:00","1986","12","11","08:00","0.0","","0.0","","100","","32","","6","","0.4","","100.74","","","","-2","","Fog"
"1986-12-11 09:00","1986","12","11","09:00","0.1","","0.1","","100","","","","0","","0.4","","100.81","","","","","","Fog"
"1986-12-11 10:00","1986","12","11","10:00","0.3","","0.2","","100","","","","0","","0.4","","100.84","","","","","","Fog"
"1986-12-11 11:00","1986","12","11","11:00","0.4","","0.4","","100","","","","0","","0.2","","100.84","","","","","","Fog"
"1986-12-11 12:00","1986","12","11","12:00","0.6","","0.6","","100","","32","","4","","0.2","","100.81","","","","","","Rain Showers,Fog"
"1986-12-11 13:00","1986","12","11","13:00","0.8","","0.8","","100","","","","0","","0.4","","100.78","","","","","","Rain Showers,Fog"
"1986-12-11 14:00","1986","12","11","14:00","0.9","","0.9","","100","","","","0","","1.2","","100.74","","","","","","Rain,Fog"
"1986-12-11 15:00","1986","12","11","15:00","0.7","","0.7","","100","","9","","7","","2.4","","100.74","","","","","","Rain,Fog"
"1986-12-11 16:00","1986","12","11","16:00","1.3","","1.3","","100","","11","","9","","2.4","","100.74","","","","","","Rain,Fog"
"1986-12-11 17:00","1986","12","11","17:00","0.9","","0.9","","100","","","","0","","2.4","","100.78","","","","","","Rain,Fog"
"1986-12-11 18:00","1986","12","11","18:00","0.9","","0.9","","100","","","","0","","1.6","","100.74","","","","","","Rain,Fog"
"1986-12-11 19:00","1986","12","11","19:00","1.3","","1.3","","100","","","","0","","1.6","","100.74","","","","","","Rain,Fog"
"1986-12-11 20:00","1986","12","11","20:00","1.2","","1.2","","100","","32","","6","","1.6","","100.74","","","","","","Rain,Fog"
"1986-12-11 21:00","1986","12","11","21:00","1.2","","1.2","","100","","28","","4","","1.6","","100.74","","","","","","Rain,Fog"
"1986-12-11 22:00","1986","12","11","22:00","","","","","","","","","0","","","","","","","","","","NA"
"1986-12-11 23:00","1986","12","11","23:00","","","","","","","32","","6","","","","","","","","","","NA"
"1986-12-12 00:00","1986","12","12","00:00","","","","","","","","","0","","","","","","","","","","NA"
"1986-12-12 01:00","1986","12","12","01:00","","","","","","","32","","6","","","","","","","","","","NA"
"1986-12-12 02:00","1986","12","12","02:00","","","","","","","","","0","","","","","","","","","","NA"
"1986-12-12 03:00","1986","12","12","03:00","","","","","","","","","0","","","","","","","","","","NA"
"1986-12-12 04:00","1986","12","12","04:00","","","","","","","","","0","","","","","","","","","","NA"
"1986-12-12 05:00","1986","12","12","05:00","","","","","","","","","0","","","","","","","","","","NA"
"1986-12-12 06:00","1986","12","12","06:00","1.3","","1.2","","100","","","","0","","4.8","","100.81","","","","","","Fog"
"1986-12-12 07:00","1986","12","12","07:00","1.3","","1.2","","100","","32","","4","","4.8","","100.84","","","","","","Fog"
"1986-12-12 08:00","1986","12","12","08:00","1.1","","1.1","","100","","","","0","","8.0","","100.84","","","","","","Fog"
"1986-12-12 09:00","1986","12","12","09:00","1.5","","1.2","","98","","25","","7","","6.4","","100.88","","","","","","Fog"
"1986-12-12 10:00","1986","12","12","10:00","1.7","","1.6","","99","","","","0","","6.4","","100.88","","","","","","Fog"
"1986-12-12 11:00","1986","12","12","11:00","2.1","","1.8","","98","","","","0","","6.4","","100.88","","","","","","Fog"
"1986-12-12 12:00","1986","12","12","12:00","2.7","","2.3","","97","","","","0","","6.4","","100.81","","","","","","Fog"
"1986-12-12 13:00","1986","12","12","13:00","2.9","","2.7","","99","","","","0","","6.4","","100.81","","","","","","Fog"
"1986-12-12 14:00","1986","12","12","14:00","2.7","","2.5","","98","","","","0","","6.4","","100.74","","","","","","Fog"
"1986-12-12 15:00","1986","12","12","15:00","2.4","","2.0","","97","","","","0","","6.4","","100.74","","","","","","Fog"
"1986-12-12 16:00","1986","12","12","16:00","2.2","","2.1","","99","","","","0","","6.4","","100.74","","","","","","Fog"
"1986-12-12 17:00","1986","12","12","17:00","2.2","","2.1","","99","","","","0","","9.7","","100.71","","","","","","Fog"
"1986-12-12 18:00","1986","12","12","18:00","2.3","","2.2","","100","","","","0","","8.0","","100.64","","","","","","Fog"
"1986-12-12 19:00","1986","12","12","19:00","1.8","","1.7","","100","","","","0","","8.0","","100.54","","","","","","Fog"
"1986-12-12 20:00","1986","12","12","20:00","1.9","","1.8","","99","","","","0","","8.0","","100.51","","","","","","Fog"
"1986-12-12 21:00","1986","12","12","21:00","2.2","","2.1","","99","","","","0","","9.7","","100.51","","","","","","Fog"
"1986-12-12 22:00","1986","12","12","22:00","","","","","","","","","0","","","","","","","","","","NA"
"1986-12-12 23:00","1986","12","12","23:00","","","","","","","","","0","","","","","","","","","","NA"
"1986-12-13 00:00","1986","12","13","00:00","","","","","","","","","0","","","","","","","","","","NA"
"1986-12-13 01:00","1986","12","13","01:00","","","","","","","15","","6","","","","","","","","","","NA"
"1986-12-13 02:00","1986","12","13","02:00","","","","","","","12","","11","","","","","","","","","","NA"
"1986-12-13 03:00","1986","12","13","03:00","","","","","","","13","","6","","","","","","","","","","NA"
"1986-12-13 04:00","1986","12","13","04:00","","","","","","","15","","9","","","","","","","","","","NA"
"1986-12-13 05:00","1986","12","13","05:00","","","","","","","13","","7","","","","","","","","","","NA"
"1986-12-13 06:00","1986","12","13","06:00","3.6","","3.5","","99","","13","","7","","16.1","","99.84","","","","","","Rain"
"1986-12-13 07:00","1986","12","13","07:00","3.7","","3.0","","95","","13","","15","","9.7","","99.80","","","","","","Rain,Fog"
"1986-12-13 08:00","1986","12","13","08:00","3.3","","2.9","","97","","10","","6","","8.0","","99.74","","","","","","Rain,Fog"
"1986-12-13 09:00","1986","12","13","09:00","3.4","","3.0","","97","","15","","13","","6.4","","99.70","","","","","","Rain,Fog"
"1986-12-13 10:00","1986","12","13","10:00","3.5","","3.1","","97","","13","","4","","4.8","","99.70","","","","","","Moderate Rain,Fog"
"1986-12-13 11:00","1986","12","13","11:00","3.1","","2.6","","97","","13","","7","","8.0","","99.64","","","","","","Rain,Fog"
"1986-12-13 12:00","1986","12","13","12:00","3.2","","2.8","","97","","11","","4","","6.4","","99.60","","","","","","Rain,Fog"
"1986-12-13 13:00","1986","12","13","13:00","2.7","","2.1","","96","","9","","9","","6.4","","99.57","","","","","","Rain,Fog"
"1986-12-13 14:00","1986","12","13","14:00","2.4","","2.2","","99","","","","0","","6.4","","99.57","","","","","","Rain,Fog"
"1986-12-13 15:00","1986","12","13","15:00","2.4","","2.1","","98","","10","","6","","4.8","","99.57","","","","","","Rain,Fog"
"1986-12-13 16:00","1986","12","13","16:00","2.6","","2.5","","99","","","","0","","4.8","","99.60","","","","","","Rain,Fog"
"1986-12-13 17:00","1986","12","13","17:00","2.5","","2.4","","99","","","","0","","4.8","","99.60","","","","","","Rain,Fog"
"1986-12-13 18:00","1986","12","13","18:00","2.6","","2.5","","99","","","","0","","4.8","","99.60","","","","","","Rain,Fog"
"1986-12-13 19:00","1986","12","13","19:00","3.0","","3.0","","100","","","","0","","4.8","","99.60","","","","","","Rain,Fog"
"1986-12-13 20:00","1986","12","13","20:00","3.0","","2.9","","99","","","","0","","4.8","","99.64","","","","","","Rain,Fog"
"1986-12-13 21:00","1986","12","13","21:00","3.1","","2.9","","98","","35","","6","","4.8","","99.64","","","","","","Rain,Fog"
"1986-12-13 22:00","1986","12","13","22:00","","","","","","","","","0","","","","","","","","","","NA"
"1986-12-13 23:00","1986","12","13","23:00","","","","","","","","","0","","","","","","","","","","NA"
"1986-12-14 00:00","1986","12","14","00:00","","","","","","","12","","6","","","","","","","","","","NA"
"1986-12-14 01:00","1986","12","14","01:00","","","","","","","11","","6","","","","","","","","","","NA"
"1986-12-14 02:00","1986","12","14","02:00","","","","","","","13","","15","","","","","","","","","","NA"
"1986-12-14 03:00","1986","12","14","03:00","","","","","","","14","","28","","","","","","","","","","NA"
"1986-12-14 04:00","1986","12","14","04:00","","","","","","","13","","15","","","","","","","","","","NA"
"1986-12-14 05:00","1986","12","14","05:00","","","","","","","14","","22","","","","","","","","","","NA"
"1986-12-14 06:00","1986","12","14","06:00","6.4","","5.9","","97","","13","","24","","8.0","","99.30","","","","","","Moderate Rain,Fog"
"1986-12-14 07:00","1986","12","14","07:00","6.0","","5.3","","95","","13","","30","","6.4","","99.33","","","","","","Moderate Rain,Fog"
"1986-12-14 08:00","1986","12","14","08:00","5.9","","5.4","","97","","10","","20","","3.2","","99.33","","","","","","Moderate Rain,Fog"
"1986-12-14 09:00","1986","12","14","09:00","5.7","","5.4","","98","","10","","15","","2.4","","99.33","","","","","","Moderate Rain,Fog"
"1986-12-14 10:00","1986","12","14","10:00","6.4","","5.9","","97","","12","","26","","6.4","","99.37","","","","","","Rain,Fog"
"1986-12-14 11:00","1986","12","14","11:00","4.0","","3.3","","95","","19","","13","","9.7","","99.47","","","","","","Moderate Rain"
"1986-12-14 12:00","1986","12","14","12:00","3.6","","3.5","","99","","","","0","","4.8","","99.50","","","","","","Moderate Rain,Fog"
"1986-12-14 13:00","1986","12","14","13:00","3.5","","3.5","","100","","3","","7","","4.8","","99.47","","","","","","Moderate Rain,Fog"
"1986-12-14 14:00","1986","12","14","14:00","4.6","","4.2","","97","","34","","7","","4.8","","99.47","","","","","","Rain,Fog"
"1986-12-14 15:00","1986","12","14","15:00","4.4","","4.2","","99","","30","","13","","4.8","","99.50","","","","","","Rain,Fog"
"1986-12-14 16:00","1986","12","14","16:00","4.2","","3.9","","98","","29","","7","","8.0","","99.60","","","","","","Rain,Fog"
"1986-12-14 17:00","1986","12","14","17:00","3.9","","3.7","","99","","29","","9","","12.9","","99.70","","","","","","Rain"
"1986-12-14 18:00","1986","12","14","18:00","3.8","","3.3","","97","","31","","9","","16.1","","99.80","","","","","","Cloudy"
"1986-12-14 19:00","1986","12","14","19:00","3.6","","3.3","","98","","29","","9","","16.1","","99.87","","","","","","Cloudy"
"1986-12-14 20:00","1986","12","14","20:00","3.6","","3.4","","98","","32","","6","","16.1","","99.94","","","","","","Rain"
"1986-12-14 21:00","1986","12","14","21:00","3.6","","3.4","","98","","29","","6","","16.1","","100.04","","","","","","Mostly Cloudy"
"1986-12-14 22:00","1986","12","14","22:00","","","","","","","29","","4","","","","","","","","","","NA"
"1986-12-14 23:00","1986","12","14","23:00","","","","","","","29","","4","","","","","","","","","","NA"
"1986-12-15 00:00","1986","12","15","00:00","","","","","","","","","0","","","","","","","","","","NA"
"1986-12-15 01:00","1986","12","15","01:00","","","","","","","29","","4","","","","","","","","","","NA"
"1986-12-15 02:00","1986","12","15","02:00","","","","","","","","","0","","","","","","","","","","NA"
"1986-12-15 03:00","1986","12","15","03:00","","","","","","","","","0","","","","","","","","","","NA"
"1986-12-15 04:00","1986","12","15","04:00","","","","","","","","","0","","","","","","","","","","NA"
"1986-12-15 05:00","1986","12","15","05:00","","","","","","","","","0","","","","","","","","","","NA"
"1986-12-15 06:00","1986","12","15","06:00","4.9","","3.9","","93","","","","0","","16.1","","100.51","","","","","","Cloudy"
"1986-12-15 07:00","1986","12","15","07:00","4.0","","3.8","","98","","","","0","","8.0","","100.54","","","","","","Fog"
"1986-12-15 08:00","1986","12","15","08:00","4.0","","3.9","","99","","","","0","","4.8","","100.58","","","","","","Drizzle,Fog"
"1986-12-15 09:00","1986","12","15","09:00","4.0","","3.8","","98","","24","","4","","3.2","","100.64","","","","","","Drizzle,Fog"
"1986-12-15 10:00","1986","12","15","10:00","4.2","","4.0","","98","","32","","6","","24.1","","100.74","","","","","","Mostly Cloudy"
"1986-12-15 11:00","1986","12","15","11:00","4.6","","4.5","","99","","30","","6","","16.1","","100.78","","","","","","Cloudy"
"1986-12-15 12:00","1986","12","15","12:00","4.5","","4.0","","97","","","","0","","24.1","","100.81","","","","","","Cloudy"
"1986-12-15 13:00","1986","12","15","13:00","5.7","","5.6","","99","","","","0","","24.1","","100.74","","","","","","Cloudy"
"1986-12-15 14:00","1986","12","15","14:00","6.1","","4.9","","92","","","","0","","16.1","","100.74","","","","","","Cloudy"
"1986-12-15 15:00","1986","12","15","15:00","6.2","","5.1","","93","","","","0","","16.1","","100.78","","","","","","Cloudy"
"1986-12-15 16:00","1986","12","15","16:00","5.6","","5.1","","97","","","","0","","19.3","","100.81","","","","","","Mostly Cloudy"
"1986-12-15 17:00","1986","12","15","17:00","5.2","","4.6","","96","","","","0","","19.3","","100.88","","","","","","Mostly Cloudy"
"1986-12-15 18:00","1986","12","15","18:00","4.6","","4.1","","97","","","","0","","19.3","","100.88","","","","","","Mostly Cloudy"
"1986-12-15 19:00","1986","12","15","19:00","4.1","","3.8","","98","","","","0","","16.1","","100.91","","","","","","Mostly Cloudy"
"1986-12-15 20:00","1986","12","15","20:00","2.7","","2.4","","98","","","","0","","0.6","","100.94","","","","","","Fog"
"1986-12-15 21:00","1986","12","15","21:00","1.7","","1.7","","100","","","","0","","1.6","","100.98","","","","","","Fog"
"1986-12-15 22:00","1986","12","15","22:00","","","","","","","","","0","","","","","","","","","","NA"
"1986-12-15 23:00","1986","12","15","23:00","","","","","","","","","0","","","","","","","","","","NA"
"1986-12-16 00:00","1986","12","16","00:00","","","","","","","","","0","","","","","","","","","","NA"
"1986-12-16 01:00","1986","12","16","01:00","","","","","","","","","0","","","","","","","","","","NA"
"1986-12-16 02:00","1986","12","16","02:00","","","","","","","","","0","","","","","","","","","","NA"
"1986-12-16 03:00","1986","12","16","03:00","","","","","","","","","0","","","","","","","","","","NA"
"1986-12-16 04:00","1986","12","16","04:00","","","","","","","","","0","","","","","","","","","","NA"
"1986-12-16 05:00","1986","12","16","05:00","","","","","","","","","0","","","","","","","","","","NA"
"1986-12-16 06:00","1986","12","16","06:00","3.0","","2.8","","98","","","","0","","8.0","","101.31","","","","","","Fog"
"1986-12-16 07:00","1986","12","16","07:00","2.8","","2.7","","100","","","","0","","8.0","","101.35","","","","","","Fog"
"1986-12-16 08:00","1986","12","16","08:00","2.9","","2.7","","99","","","","0","","8.0","","101.35","","","","","","Fog"
"1986-12-16 09:00","1986","12","16","09:00","3.0","","2.9","","99","","","","0","","4.8","","101.38","","","","","","Fog"
"1986-12-16 10:00","1986","12","16","10:00","3.3","","3.1","","99","","","","0","","6.4","","101.45","","","","","","Fog"
"1986-12-16 11:00","1986","12","16","11:00","4.1","","3.5","","96","","","","0","","6.4","","101.38","","","","","","Fog"
"1986-12-16 12:00","1986","12","16","12:00","5.1","","4.2","","94","","","","0","","8.0","","101.35","","","","","","Fog"
"1986-12-16 13:00","1986","12","16","13:00","4.9","","3.5","","91","","10","","7","","9.7","","101.28","","","","","","Fog"
"1986-12-16 14:00","1986","12","16","14:00","4.6","","3.1","","90","","10","","4","","12.9","","101.25","","","","","","Cloudy"
"1986-12-16 15:00","1986","12","16","15:00","4.6","","3.1","","90","","","","0","","12.9","","101.18","","","","","","Cloudy"
"1986-12-16 16:00","1986","12","16","16:00","4.4","","3.7","","95","","","","0","","16.1","","101.11","","","","","","Mostly Cloudy"
"1986-12-16 17:00","1986","12","16","17:00","3.7","","3.5","","98","","","","0","","16.1","","101.15","","","","","","Mostly Cloudy"
"1986-12-16 18:00","1986","12","16","18:00","3.2","","3.1","","99","","","","0","","16.1","","101.08","","","","","","Mostly Cloudy"
"1986-12-16 19:00","1986","12","16","19:00","3.0","","3.0","","100","","","","0","","16.1","","101.04","","","","","","Mostly Cloudy"
"1986-12-16 20:00","1986","12","16","20:00","2.5","","2.4","","99","","","","0","","16.1","","101.01","","","","","","Mostly Cloudy"
"1986-12-16 21:00","1986","12","16","21:00","2.4","","2.4","","100","","","","0","","16.1","","100.98","","","","","","Mostly Cloudy"
"1986-12-16 22:00","1986","12","16","22:00"
"1986-12-16 23:00","1986","12","16","23:00"
"1986-12-17 00:00","1986","12","17","00:00"
"1986-12-17 01:00","1986","12","17","01:00"
"1986-12-17 02:00","1986","12","17","02:00"
"1986-12-17 03:00","1986","12","17","03:00"
"1986-12-17 04:00","1986","12","17","04:00"
"1986-12-17 05:00","1986","12","17","05:00"
"1986-12-17 06:00","1986","12","17","06:00","2.4","","2.2","","99","","","","0","","4.8","","100.81","","","","","","Fog"
"1986-12-17 07:00","1986","12","17","07:00","2.0","","1.8","","98","","","","0","","4.8","","100.81","","","","","","Fog"
"1986-12-17 08:00","1986","12","17","08:00","2.4","","2.2","","99","","","","0","","24.1","","100.74","","","","","","Cloudy"
"1986-12-17 09:00","1986","12","17","09:00","2.4","","2.2","","99","","","","0","","24.1","","100.74","","","","","","Cloudy"
"1986-12-17 10:00","1986","12","17","10:00","2.8","","2.2","","96","","","","0","","24.1","","100.78","","","","","","Mostly Cloudy"
"1986-12-17 11:00","1986","12","17","11:00","3.4","","3.0","","97","","","","0","","24.1","","100.78","","","","","","Mostly Cloudy"
"1986-12-17 12:00","1986","12","17","12:00","4.0","","2.2","","88","","","","0","","24.1","","100.74","","","","","","Mostly Cloudy"
"1986-12-17 13:00","1986","12","17","13:00","5.8","","4.4","","91","","29","","4","","24.1","","100.61","","","","","","Mainly Clear"
"1986-12-17 14:00","1986","12","17","14:00","4.8","","1.8","","81","","21","","4","","24.1","","100.54","","","","","","Mainly Clear"
"1986-12-17 15:00","1986","12","17","15:00","4.2","","1.9","","85","","","","0","","24.1","","100.51","","","","","","Mainly Clear"
"1986-12-17 16:00","1986","12","17","16:00","3.0","","1.8","","92","","","","0","","24.1","","100.47","","","","","","Mainly Clear"
"1986-12-17 17:00","1986","12","17","17:00","0.5","","0.0","","96","","","","0","","24.1","","100.47","","","","","","Mainly Clear"
"1986-12-17 18:00","1986","12","17","18:00","-0.3","","-0.5","","98","","29","","4","","24.1","","100.47","","","","-2","","Mainly Clear"
"1986-12-17 19:00","1986","12","17","19:00","0.4","","0.2","","99","","30","","6","","9.7","","100.47","","","","","","Fog"
"1986-12-17 20:00","1986","12","17","20:00","1.1","","0.7","","97","","30","","6","","9.7","","100.47","","","","","","Fog"
"1986-12-17 21:00","1986","12","17","21:00","1.2","","0.8","","97","","","","0","","8.0","","100.51","","","","","","Fog"
"1986-12-17 22:00","1986","12","17","22:00","","","","","","","","","0","","","","","","","","","","NA"
"1986-12-17 23:00","1986","12","17","23:00","","","","","","","30","","6","","","","","","","","","","NA"
"1986-12-18 00:00","1986","12","18","00:00","","","","","","","","","0","","","","","","","","","","NA"
"1986-12-18 01:00","1986","12","18","01:00","","","","","","","","","0","","","","","","","","","","NA"
"1986-12-18 02:00","1986","12","18","02:00","","","","","","","","","0","","","","","","","","","","NA"
"1986-12-18 03:00","1986","12","18","03:00","","","","","","","","","0","","","","","","","","","","NA"
"1986-12-18 04:00","1986","12","18","04:00","","","","","","","","","0","","","","","","","","","","NA"
"1986-12-18 05:00","1986","12","18","05:00","","","","","","","","","0","","","","","","","","","","NA"
"1986-12-18 06:00","1986","12","18","06:00","0.7","","0.6","","99","","","","0","","4.8","","100.14","","","","","","Fog"
"1986-12-18 07:00","1986","12","18","07:00","0.8","","0.6","","99","","","","0","","4.8","","100.11","","","","","","Fog"
"1986-12-18 08:00","1986","12","18","08:00","1.0","","0.9","","99","","","","0","","3.2","","100.07","","","","","","Fog"
"1986-12-18 09:00","1986","12","18","09:00","1.4","","1.3","","99","","","","0","","3.2","","100.04","","","","","","Fog"
"1986-12-18 10:00","1986","12","18","10:00","1.8","","1.5","","98","","","","0","","3.2","","100.04","","","","","","Fog"
"1986-12-18 11:00","1986","12","18","11:00","2.2","","1.8","","97","","","","0","","3.2","","100.04","","","","","","Fog"
"1986-12-18 12:00","1986","12","18","12:00","2.7","","2.0","","95","","","","0","","2.4","","100.01","","","","","","Fog"
"1986-12-18 13:00","1986","12","18","13:00","3.1","","2.8","","98","","11","","4","","3.2","","99.97","","","","","","Rain,Fog"
"1986-12-18 14:00","1986","12","18","14:00","3.3","","3.1","","99","","10","","13","","4.0","","99.90","","","","","","Rain,Fog"
"1986-12-18 15:00","1986","12","18","15:00","3.5","","3.3","","98","","11","","6","","2.8","","99.90","","","","","","Rain,Fog"
"1986-12-18 16:00","1986","12","18","16:00","3.5","","3.3","","98","","6","","4","","3.2","","99.87","","","","","","Rain,Fog"
"1986-12-18 17:00","1986","12","18","17:00","3.2","","3.1","","99","","8","","9","","3.2","","99.90","","","","","","Rain,Fog"
"1986-12-18 18:00","1986","12","18","18:00","3.3","","3.1","","99","","13","","9","","8.0","","99.94","","","","","","Fog"
"1986-12-18 19:00","1986","12","18","19:00","3.3","","3.0","","98","","","","0","","4.8","","99.94","","","","","","Rain,Fog"
"1986-12-18 20:00","1986","12","18","20:00","2.9","","2.9","","100","","","","0","","6.4","","99.90","","","","","","Fog"
"1986-12-18 21:00","1986","12","18","21:00","2.3","","2.3","","100","","34","","4","","9.7","","99.90","","","","","","Fog"
"1986-12-18 22:00","1986","12","18","22:00","","","","","","","","","0","","","","","","","","","","NA"
"1986-12-18 23:00","1986","12","18","23:00","","","","","","","","","0","","","","","","","","","","NA"
"1986-12-19 00:00","1986","12","19","00:00","","","","","","","30","","4","","","","","","","","","","NA"
"1986-12-19 01:00","1986","12","19","01:00","","","","","","","12","","6","","","","","","","","","","NA"
"1986-12-19 02:00","1986","12","19","02:00","","","","","","","13","","9","","","","","","","","","","NA"
"1986-12-19 03:00","1986","12","19","03:00","","","","","","","12","","4","","","","","","","","","","NA"
"1986-12-19 04:00","1986","12","19","04:00","","","","","","","13","","9","","","","","","","","","","NA"
"1986-12-19 05:00","1986","12","19","05:00","","","","","","","12","","9","","","","","","","","","","NA"
"1986-12-19 06:00","1986","12","19","06:00","4.4","","4.4","","100","","12","","15","","3.2","","100.04","","","","","","Rain,Fog"
"1986-12-19 07:00","1986","12","19","07:00","4.5","","4.5","","100","","11","","11","","2.4","","100.04","","","","","","Rain,Fog"
"1986-12-19 08:00","1986","12","19","08:00","4.8","","4.6","","99","","12","","11","","2.4","","100.04","","","","","","Rain,Fog"
"1986-12-19 09:00","1986","12","19","09:00","5.0","","4.7","","98","","12","","11","","2.4","","100.11","","","","","","Rain,Fog"
"1986-12-19 10:00","1986","12","19","10:00","5.2","","4.8","","97","","12","","11","","4.8","","100.14","","","","","","Rain,Fog"
"1986-12-19 11:00","1986","12","19","11:00","5.5","","4.9","","96","","13","","13","","4.8","","100.17","","","","","","Rain,Fog"
"1986-12-19 12:00","1986","12","19","12:00","5.7","","5.2","","97","","13","","13","","4.8","","100.14","","","","","","Rain,Fog"
"1986-12-19 13:00","1986","12","19","13:00","6.0","","5.5","","97","","12","","13","","4.8","","100.11","","","","","","Rain,Fog"
"1986-12-19 14:00","1986","12","19","14:00","6.2","","5.8","","97","","11","","7","","4.8","","100.11","","","","","","Rain,Fog"
"1986-12-19 15:00","1986","12","19","15:00","6.2","","5.9","","98","","10","","6","","8.0","","100.14","","","","","","Rain,Fog"
"1986-12-19 16:00","1986","12","19","16:00","6.3","","5.7","","96","","13","","9","","16.1","","100.21","","","","","","Rain"
"1986-12-19 17:00","1986","12","19","17:00","5.8","","5.6","","99","","10","","6","","24.1","","100.24","","","","","","Rain"
"1986-12-19 18:00","1986","12","19","18:00","5.9","","5.6","","98","","10","","6","","24.1","","100.24","","","","","","Cloudy"
"1986-12-19 19:00","1986","12","19","19:00","6.3","","5.9","","97","","11","","6","","24.1","","100.24","","","","","","Cloudy"
"1986-12-19 20:00","1986","12","19","20:00","6.6","","6.1","","97","","11","","9","","24.1","","100.31","","","","","","Cloudy"
"1986-12-19 21:00","1986","12","19","21:00","6.6","","6.3","","98","","10","","6","","24.1","","100.37","","","","","","Cloudy"
"1986-12-19 22:00","1986","12","19","22:00","","","","","","","11","","6","","","","","","","","","","NA"
"1986-12-19 23:00","1986","12","19","23:00","","","","","","","11","","7","","","","","","","","","","NA"
"1986-12-20 00:00","1986","12","20","00:00","","","","","","","13","","9","","","","","","","","","","NA"
"1986-12-20 01:00","1986","12","20","01:00","","","","","","","13","","15","","","","","","","","","","NA"
"1986-12-20 02:00","1986","12","20","02:00","","","","","","","12","","13","","","","","","","","","","NA"
"1986-12-20 03:00","1986","12","20","03:00","","","","","","","13","","17","","","","","","","","","","NA"
"1986-12-20 04:00","1986","12","20","04:00","","","","","","","12","","19","","","","","","","","","","NA"
"1986-12-20 05:00","1986","12","20","05:00","","","","","","","13","","19","","","","","","","","","","NA"
"1986-12-20 06:00","1986","12","20","06:00","5.7","","4.2","","90","","12","","15","","19.3","","100.34","","","","","","Cloudy"
"1986-12-20 07:00","1986","12","20","07:00","5.8","","3.9","","88","","12","","13","","19.3","","100.34","","","","","","Cloudy"
"1986-12-20 08:00","1986","12","20","08:00","6.0","","3.6","","85","","12","","15","","19.3","","100.31","","","","","","Cloudy"
"1986-12-20 09:00","1986","12","20","09:00","5.9","","3.5","","85","","14","","13","","16.1","","100.34","","","","","","Rain"
"1986-12-20 10:00","1986","12","20","10:00","5.8","","3.9","","88","","14","","13","","16.1","","100.44","","","","","","Rain"
"1986-12-20 11:00","1986","12","20","11:00","6.2","","3.7","","84","","14","","13","","16.1","","100.41","","","","","","Cloudy"
"1986-12-20 12:00","1986","12","20","12:00","6.3","","3.8","","84","","12","","15","","16.1","","100.41","","","","","","Rain"
"1986-12-20 13:00","1986","12","20","13:00","6.2","","3.9","","85","","13","","9","","16.1","","100.41","","","","","","Rain"
"1986-12-20 14:00","1986","12","20","14:00","5.9","","4.6","","91","","13","","22","","16.1","","100.34","","","","","","Rain"
"1986-12-20 15:00","1986","12","20","15:00","5.8","","4.7","","93","","15","","24","","11.3","","100.34","","","","","","Rain"
"1986-12-20 16:00","1986","12","20","16:00","5.7","","4.7","","93","","13","","26","","11.3","","100.34","","","","","","Rain"
"1986-12-20 17:00","1986","12","20","17:00","5.9","","4.4","","90","","13","","15","","11.3","","100.41","","","","","","Rain"
"1986-12-20 18:00","1986","12","20","18:00","5.9","","4.4","","90","","13","","17","","11.3","","100.37","","","","","","Rain"
"1986-12-20 19:00","1986","12","20","19:00","5.8","","4.4","","91","","13","","15","","11.3","","100.44","","","","","","Rain"
"1986-12-20 20:00","1986","12","20","20:00","5.9","","4.6","","91","","14","","15","","11.3","","100.44","","","","","","Rain"
"1986-12-20 21:00","1986","12","20","21:00","5.7","","4.9","","94","","14","","22","","11.3","","100.41","","","","","","Rain"
"1986-12-20 22:00","1986","12","20","22:00","","","","","","","","","","","","","","","","","","","NA"
"1986-12-20 23:00","1986","12","20","23:00","","","","","","","","","","","","","","","","","","","NA"
"1986-12-21 00:00","1986","12","21","00:00","","","","","","","","","","","","","","","","","","","NA"
"1986-12-21 01:00","1986","12","21","01:00","","","","","","","","","","","","","","","","","","","NA"
"1986-12-21 02:00","1986","12","21","02:00","","","","","","","","","","","","","","","","","","","NA"
"1986-12-21 03:00","1986","12","21","03:00","","","","","","","","","","","","","","","","","","","NA"
"1986-12-21 04:00","1986","12","21","04:00","","","","","","","","","","","","","","","","","","","NA"
"1986-12-21 05:00","1986","12","21","05:00","","","","","","","","","","","","","","","","","","","NA"
"1986-12-21 06:00","1986","12","21","06:00","4.0","","3.5","","97","","","","0","","4.8","","100.21","","","","","","Moderate Rain,Fog"
"1986-12-21 07:00","1986","12","21","07:00","3.8","","3.6","","99","","","","0","","4.8","","100.17","","","","","","Rain,Fog"
"1986-12-21 08:00","1986","12","21","08:00","3.5","","3.4","","99","","","","0","","4.8","","100.21","","","","","","Moderate Rain,Fog"
"1986-12-21 09:00","1986","12","21","09:00","3.3","","3.1","","99","","","","0","","9.7","","100.21","","","","","","Rain,Fog"
"1986-12-21 10:00","1986","12","21","10:00","3.2","","2.9","","98","","","","0","","9.7","","100.21","","","","","","Rain,Fog"
"1986-12-21 11:00","1986","12","21","11:00","2.9","","2.7","","99","","","","0","","11.3","","100.17","","","","","","Moderate Rain"
"1986-12-21 12:00","1986","12","21","12:00","2.7","","2.5","","98","","32","","6","","11.3","","100.11","","","","","","Moderate Rain"
"1986-12-21 13:00","1986","12","21","13:00","3.1","","3.0","","99","","33","","6","","16.1","","99.94","","","","","","Rain"
"1986-12-21 14:00","1986","12","21","14:00","3.4","","3.1","","98","","33","","6","","8.0","","99.94","","","","","","Rain,Fog"
"1986-12-21 15:00","1986","12","21","15:00","3.0","","2.9","","99","","","","0","","3.2","","99.94","","","","","","Moderate Rain,Fog"
"1986-12-21 16:00","1986","12","21","16:00","2.8","","2.7","","100","","","","0","","3.2","","99.84","","","","","","Moderate Rain,Fog"
"1986-12-21 17:00","1986","12","21","17:00","2.6","","2.6","","100","","","","0","","3.2","","99.84","","","","","","Moderate Rain,Fog"
"1986-12-21 18:00","1986","12","21","18:00","2.9","","2.9","","100","","","","0","","3.2","","99.80","","","","","","Moderate Rain,Fog"
"1986-12-21 19:00","1986","12","21","19:00","3.0","","3.0","","100","","","","0","","3.2","","99.64","","","","","","Moderate Rain,Fog"
"1986-12-21 20:00","1986","12","21","20:00","2.9","","2.9","","100","","","","0","","3.2","","99.60","","","","","","Moderate Rain,Fog"
"1986-12-21 21:00","1986","12","21","21:00","2.8","","2.8","","100","","","","0","","3.2","","99.54","","","","","","Moderate Rain,Fog"
"1986-12-21 22:00","1986","12","21","22:00","","","","","","","","","","","","","","","","","","","NA"
"1986-12-21 23:00","1986","12","21","23:00","","","","","","","","","","","","","","","","","","","NA"
"1986-12-22 00:00","1986","12","22","00:00","","","","","","","","","","","","","","","","","","","NA"
"1986-12-22 01:00","1986","12","22","01:00","","","","","","","","","","","","","","","","","","","NA"
"1986-12-22 02:00","1986","12","22","02:00","","","","","","","","","","","","","","","","","","","NA"
"1986-12-22 03:00","1986","12","22","03:00","","","","","","","","","","","","","","","","","","","NA"
"1986-12-22 04:00","1986","12","22","04:00","","","","","","","","","","","","","","","","","","","NA"
"1986-12-22 05:00","1986","12","22","05:00","","","","","","","","","","","","","","","","","","","NA"
"1986-12-22 06:00","1986","12","22","06:00","9.0","","8.5","","97","","11","","22","","4.8","","98.50","","","","","","Moderate Rain,Fog"
"1986-12-22 07:00","1986","12","22","07:00","8.8","","8.2","","96","","14","","19","","4.8","","98.46","","","","","","Moderate Rain,Fog"
"1986-12-22 08:00","1986","12","22","08:00","8.7","","8.4","","98","","12","","22","","8.0","","98.46","","","","","","Rain,Fog"
"1986-12-22 09:00","1986","12","22","09:00","8.6","","8.1","","97","","11","","20","","8.0","","98.50","","","","","","Fog"
"1986-12-22 10:00","1986","12","22","10:00","8.7","","7.7","","93","","10","","19","","8.0","","98.63","","","","","","Fog"
"1986-12-22 11:00","1986","12","22","11:00","9.1","","7.5","","90","","7","","22","","19.3","","98.73","","","","","","Rain Showers"
"1986-12-22 12:00","1986","12","22","12:00","9.6","","7.2","","85","","13","","17","","16.1","","98.80","","","","","","Mostly Cloudy"
"1986-12-22 13:00","1986","12","22","13:00","9.4","","7.4","","87","","14","","17","","11.3","","98.80","","","","","","Rain Showers"
"1986-12-22 14:00","1986","12","22","14:00","8.6","","8.2","","97","","14","","15","","6.4","","98.83","","","","","","Rain Showers,Fog"
"1986-12-22 15:00","1986","12","22","15:00","8.6","","7.7","","94","","12","","15","","6.4","","98.80","","","","","","Rain Showers,Fog"
"1986-12-22 16:00","1986","12","22","16:00","8.0","","7.1","","94","","16","","13","","24.1","","98.93","","","","","","Mostly Cloudy"
"1986-12-22 17:00","1986","12","22","17:00","7.3","","7.1","","99","","11","","9","","24.1","","99.03","","","","","","Mostly Cloudy"
"1986-12-22 18:00","1986","12","22","18:00","6.8","","6.6","","99","","","","0","","24.1","","99.13","","","","","","Rain Showers"
"1986-12-22 19:00","1986","12","22","19:00","6.3","","6.1","","99","","31","","6","","24.1","","99.23","","","","","","Rain Showers"
"1986-12-22 20:00","1986","12","22","20:00","5.4","","5.2","","99","","31","","4","","24.1","","99.37","","","","","","Mostly Cloudy"
"1986-12-22 21:00","1986","12","22","21:00","5.6","","5.5","","99","","26","","9","","24.1","","99.50","","","","","","Mainly Clear"
"1986-12-22 22:00","1986","12","22","22:00","","","","","","","","","","","","","","","","","","","NA"
"1986-12-22 23:00","1986","12","22","23:00","","","","","","","","","","","","","","","","","","","NA"
"1986-12-23 00:00","1986","12","23","00:00","","","","","","","","","","","","","","","","","","","NA"
"1986-12-23 01:00","1986","12","23","01:00","","","","","","","","","","","","","","","","","","","NA"
"1986-12-23 02:00","1986","12","23","02:00","","","","","","","","","","","","","","","","","","","NA"
"1986-12-23 03:00","1986","12","23","03:00","","","","","","","","","","","","","","","","","","","NA"
"1986-12-23 04:00","1986","12","23","04:00","","","","","","","","","","","","","","","","","","","NA"
"1986-12-23 05:00","1986","12","23","05:00","","","","","","","","","","","","","","","","","","","NA"
"1986-12-23 06:00","1986","12","23","06:00","2.4","","2.3","","99","","30","","6","","24.1","","100.37","","","","","","Mostly Cloudy"
"1986-12-23 07:00","1986","12","23","07:00","2.5","","2.4","","99","","","","0","","24.1","","100.41","","","","","","Mostly Cloudy"
"1986-12-23 08:00","1986","12","23","08:00","3.2","","3.1","","99","","","","0","","24.1","","100.44","","","","","","Cloudy"
"1986-12-23 09:00","1986","12","23","09:00","3.2","","3.1","","99","","30","","6","","24.1","","100.51","","","","","","Cloudy"
"1986-12-23 10:00","1986","12","23","10:00","4.6","","4.3","","98","","","","0","","24.1","","100.51","","","","","","Mostly Cloudy"
"1986-12-23 11:00","1986","12","23","11:00","5.7","","4.8","","94","","14","","6","","24.1","","100.51","","","","","","Cloudy"
"1986-12-23 12:00","1986","12","23","12:00","7.0","","5.7","","92","","13","","15","","19.3","","100.44","","","","","","Rain"
"1986-12-23 13:00","1986","12","23","13:00","7.6","","6.1","","90","","12","","17","","24.1","","100.41","","","","","","Rain"
"1986-12-23 14:00","1986","12","23","14:00","7.4","","6.1","","92","","12","","19","","19.3","","100.34","","","","","","Rain"
"1986-12-23 15:00","1986","12","23","15:00","7.3","","5.7","","90","","12","","19","","24.1","","100.31","","","","","","Cloudy"
"1986-12-23 16:00","1986","12","23","16:00","7.2","","6.4","","94","","12","","22","","24.1","","100.27","","","","","","Rain"
"1986-12-23 17:00","1986","12","23","17:00","7.1","","4.8","","85","","12","","26","","24.1","","100.24","","","","","","Rain"
"1986-12-23 18:00","1986","12","23","18:00","7.0","","4.8","","86","","13","","22","","24.1","","100.21","","","","","","Rain"
"1986-12-23 19:00","1986","12","23","19:00","7.2","","5.0","","86","","12","","22","","24.1","","100.04","","","","","","Rain"
"1986-12-23 20:00","1986","12","23","20:00","7.1","","5.1","","87","","12","","28","","24.1","","100.01","","","","","","Rain"
"1986-12-23 21:00","1986","12","23","21:00","7.2","","5.2","","87","","12","","22","","8.0","","99.94","","","","","","Rain,Fog"
"1986-12-23 22:00","1986","12","23","22:00","","","","","","","12","","28","","","","","","","","","","NA"
"1986-12-23 23:00","1986","12","23","23:00","","","","","","","12","","33","","","","","","","","","","NA"
"1986-12-24 00:00","1986","12","24","00:00","","","","","","","12","","15","","","","","","","","","","NA"
"1986-12-24 01:00","1986","12","24","01:00","","","","","","","12","","19","","","","","","","","","","NA"
"1986-12-24 02:00","1986","12","24","02:00","","","","","","","","","0","","","","","","","","","","NA"
"1986-12-24 03:00","1986","12","24","03:00","","","","","","","","","0","","","","","","","","","","NA"
"1986-12-24 04:00","1986","12","24","04:00","","","","","","","","","0","","","","","","","","","","NA"
"1986-12-24 05:00","1986","12","24","05:00","","","","","","","","","0","","","","","","","","","","NA"
"1986-12-24 06:00","1986","12","24","06:00","0.5","","0.4","","99","","25","","7","","24.1","","100.24","","","","","","Mainly Clear"
"1986-12-24 07:00","1986","12","24","07:00","0.2","","0.1","","99","","","","0","","24.1","","100.34","","","","","","Mainly Clear"
"1986-12-24 08:00","1986","12","24","08:00","-0.2","","-0.2","","100","","","","0","","24.1","","100.37","","","","","","Mainly Clear"
"1986-12-24 09:00","1986","12","24","09:00","0.0","","-0.2","","98","","29","","6","","24.1","","100.47","","","","-2","","Mainly Clear"
"1986-12-24 10:00","1986","12","24","10:00","1.2","","0.9","","98","","","","0","","24.1","","100.54","","","","","","Mostly Cloudy"
"1986-12-24 11:00","1986","12","24","11:00","2.8","","2.5","","98","","","","0","","24.1","","100.58","","","","","","Mostly Cloudy"
"1986-12-24 12:00","1986","12","24","12:00","5.4","","5.2","","99","","","","0","","24.1","","100.61","","","","","","Mostly Cloudy"
"1986-12-24 13:00","1986","12","24","13:00","6.4","","5.2","","92","","10","","7","","24.1","","100.61","","","","","","Mostly Cloudy"
"1986-12-24 14:00","1986","12","24","14:00","6.1","","5.0","","93","","11","","7","","19.3","","100.61","","","","","","Cloudy"
"1986-12-24 15:00","1986","12","24","15:00","5.9","","5.4","","97","","10","","6","","19.3","","100.61","","","","","","Cloudy"
"1986-12-24 16:00","1986","12","24","16:00","5.8","","5.3","","97","","","","0","","16.1","","100.61","","","","","","Cloudy"
"1986-12-24 17:00","1986","12","24","17:00","5.5","","5.2","","98","","13","","6","","16.1","","100.61","","","","","","Cloudy"
"1986-12-24 18:00","1986","12","24","18:00","5.5","","5.0","","97","","14","","9","","16.1","","100.64","","","","","","Cloudy"
"1986-12-24 19:00","1986","12","24","19:00","5.6","","4.9","","95","","13","","9","","16.1","","100.61","","","","","","Cloudy"
"1986-12-24 20:00","1986","12","24","20:00","6.0","","5.2","","95","","13","","13","","16.1","","100.61","","","","","","Cloudy"
"1986-12-24 21:00","1986","12","24","21:00","6.1","","5.4","","95","","13","","15","","16.1","","100.58","","","","","","Cloudy"
"1986-12-24 22:00","1986","12","24","22:00"
"1986-12-24 23:00","1986","12","24","23:00"
"1986-12-25 00:00","1986","12","25","00:00"
"1986-12-25 01:00","1986","12","25","01:00"
"1986-12-25 02:00","1986","12","25","02:00"
"1986-12-25 03:00","1986","12","25","03:00"
"1986-12-25 04:00","1986","12","25","04:00"
"1986-12-25 05:00","1986","12","25","05:00"
"1986-12-25 06:00","1986","12","25","06:00","6.2","","6.0","","98","","13","","30","","8.0","","99.80","","","","","","Rain,Fog"
"1986-12-25 07:00","1986","12","25","07:00","5.9","","5.6","","98","","13","","37","","8.0","","99.74","","","","","","Rain,Fog"
"1986-12-25 08:00","1986","12","25","08:00","5.7","","5.5","","98","","13","","33","","6.4","","99.70","","","","","","Rain,Fog"
"1986-12-25 09:00","1986","12","25","09:00","5.6","","5.4","","98","","13","","22","","6.4","","99.70","","","","","","Rain,Fog"
"1986-12-25 10:00","1986","12","25","10:00","5.4","","4.6","","95","","13","","15","","12.9","","99.87","","","","","","Rain Showers"
"1986-12-25 11:00","1986","12","25","11:00","6.0","","4.4","","89","","12","","11","","24.1","","99.90","","","","","","Mostly Cloudy"
"1986-12-25 12:00","1986","12","25","12:00","6.2","","4.5","","89","","15","","13","","24.1","","99.80","","","","","","Mostly Cloudy"
"1986-12-25 13:00","1986","12","25","13:00","6.2","","5.4","","94","","13","","22","","24.1","","99.87","","","","","","Mostly Cloudy"
"1986-12-25 14:00","1986","12","25","14:00","6.4","","5.3","","93","","12","","22","","24.1","","99.90","","","","","","Mostly Cloudy"
"1986-12-25 15:00","1986","12","25","15:00","6.0","","5.3","","95","","13","","22","","24.1","","99.94","","","","","","Cloudy"
"1986-12-25 16:00","1986","12","25","16:00","6.2","","4.8","","90","","14","","31","","24.1","","99.94","","","","","","Cloudy"
"1986-12-25 17:00","1986","12","25","17:00","6.2","","5.0","","92","","14","","28","","12.9","","100.01","","","","","","Cloudy"
"1986-12-25 18:00","1986","12","25","18:00","6.1","","5.1","","93","","14","","30","","12.9","","100.01","","","","","","Cloudy"
"1986-12-25 19:00","1986","12","25","19:00","6.2","","5.0","","92","","14","","28","","12.9","","99.97","","","","","","Cloudy"
"1986-12-25 20:00","1986","12","25","20:00","6.1","","5.0","","93","","13","","22","","12.9","","100.01","","","","","","Cloudy"
"1986-12-25 21:00","1986","12","25","21:00","6.1","","5.0","","93","","12","","22","","12.9","","99.90","","","","","","Cloudy"
"1986-12-25 22:00","1986","12","25","22:00","","","","","","","14","","26","","","","","","","","","","NA"
"1986-12-25 23:00","1986","12","25","23:00","","","","","","","14","","28","","","","","","","","","","NA"
"1986-12-26 00:00","1986","12","26","00:00","","","","","","","14","","28","","","","","","","","","","NA"
"1986-12-26 01:00","1986","12","26","01:00","","","","","","","14","","26","","","","","","","","","","NA"
"1986-12-26 02:00","1986","12","26","02:00","","","","","","","14","","28","","","","","","","","","","NA"
"1986-12-26 03:00","1986","12","26","03:00","","","","","","","15","","26","","","","","","","","","","NA"
"1986-12-26 04:00","1986","12","26","04:00","","","","","","","14","","33","","","","","","","","","","NA"
"1986-12-26 05:00","1986","12","26","05:00","","","","","","","14","","46","","","","","","","","","","NA"
"1986-12-26 06:00","1986","12","26","06:00","6.6","","4.3","","85","","14","","37","","24.1","","99.64","","","","","","Cloudy"
"1986-12-26 07:00","1986","12","26","07:00","7.4","","4.4","","81","","13","","33","","24.1","","99.67","","","","","","Cloudy"
"1986-12-26 08:00","1986","12","26","08:00","7.0","","5.2","","88","","13","","28","","24.1","","99.60","","","","","","Rain Showers"
"1986-12-26 09:00","1986","12","26","09:00","5.9","","5.2","","95","","13","","26","","6.4","","99.64","","","","","","Rain Showers,Fog"
"1986-12-26 10:00","1986","12","26","10:00","5.6","","4.8","","94","","14","","24","","16.1","","99.77","","","","","","Rain Showers"
"1986-12-26 11:00","1986","12","26","11:00","5.8","","5.2","","96","","14","","24","","24.1","","99.87","","","","","","Mostly Cloudy"
"1986-12-26 12:00","1986","12","26","12:00","6.8","","4.7","","87","","","","0","","24.1","","99.94","","","","","","Mostly Cloudy"
"1986-12-26 13:00","1986","12","26","13:00","7.4","","6.1","","92","","9","","6","","24.1","","100.01","","","","","","Mostly Cloudy"
"1986-12-26 14:00","1986","12","26","14:00","7.7","","6.6","","93","","","","0","","24.1","","100.07","","","","","","Mostly Cloudy"
"1986-12-26 15:00","1986","12","26","15:00","7.8","","6.6","","92","","","","0","","24.1","","100.14","","","","","","Mostly Cloudy"
"1986-12-26 16:00","1986","12","26","16:00","6.5","","6.2","","98","","","","0","","19.3","","100.21","","","","","","Mostly Cloudy"
"1986-12-26 17:00","1986","12","26","17:00","5.0","","4.9","","99","","","","0","","19.3","","100.24","","","","","","Mostly Cloudy"
"1986-12-26 18:00","1986","12","26","18:00","5.5","","5.3","","98","","","","0","","19.3","","100.24","","","","","","Mostly Cloudy"
"1986-12-26 19:00","1986","12","26","19:00","5.8","","5.6","","99","","20","","7","","16.1","","100.27","","","","","","Rain Showers"
"1986-12-26 20:00","1986","12","26","20:00","5.9","","5.7","","99","","","","0","","16.1","","100.31","","","","","","Rain Showers"
"1986-12-26 21:00","1986","12","26","21:00","6.0","","5.9","","99","","13","","9","","8.0","","100.27","","","","","","Rain,Fog"
"1986-12-26 22:00","1986","12","26","22:00","","","","","","","12","","19","","","","","","","","","","NA"
"1986-12-26 23:00","1986","12","26","23:00","","","","","","","13","","19","","","","","","","","","","NA"
"1986-12-27 00:00","1986","12","27","00:00","","","","","","","13","","22","","","","","","","","","","NA"
"1986-12-27 01:00","1986","12","27","01:00","","","","","","","12","","19","","","","","","","","","","NA"
"1986-12-27 02:00","1986","12","27","02:00","","","","","","","13","","19","","","","","","","","","","NA"
"1986-12-27 03:00","1986","12","27","03:00","","","","","","","13","","22","","","","","","","","","","NA"
"1986-12-27 04:00","1986","12","27","04:00","","","","","","","12","","22","","","","","","","","","","NA"
"1986-12-27 05:00","1986","12","27","05:00","","","","","","","13","","28","","","","","","","","","","NA"
"1986-12-27 06:00","1986","12","27","06:00","6.7","","6.0","","95","","13","","28","","19.3","","100.11","","","","","","Mainly Clear"
"1986-12-27 07:00","1986","12","27","07:00","7.0","","6.1","","94","","14","","24","","19.3","","100.11","","","","","","Mostly Cloudy"
"1986-12-27 08:00","1986","12","27","08:00","6.9","","6.1","","95","","14","","22","","16.1","","100.11","","","","","","Mostly Cloudy"
"1986-12-27 09:00","1986","12","27","09:00","7.0","","6.1","","94","","13","","19","","19.3","","100.17","","","","","","Mostly Cloudy"
"1986-12-27 10:00","1986","12","27","10:00","7.1","","6.2","","94","","13","","22","","24.1","","100.21","","","","","","Mostly Cloudy"
"1986-12-27 11:00","1986","12","27","11:00","8.0","","6.2","","89","","14","","28","","24.1","","100.24","","","","","","Mostly Cloudy"
"1986-12-27 12:00","1986","12","27","12:00","8.4","","6.4","","87","","15","","22","","24.1","","100.27","","","","","","Mostly Cloudy"
"1986-12-27 13:00","1986","12","27","13:00","8.0","","6.1","","88","","13","","19","","24.1","","100.31","","","","","","Mostly Cloudy"
"1986-12-27 14:00","1986","12","27","14:00","7.8","","6.1","","89","","12","","15","","24.1","","100.31","","","","","","Cloudy"
"1986-12-27 15:00","1986","12","27","15:00","7.7","","6.4","","91","","13","","15","","24.1","","100.31","","","","","","Cloudy"
"1986-12-27 16:00","1986","12","27","16:00","7.6","","6.1","","90","","15","","15","","24.1","","100.31","","","","","","Mostly Cloudy"
"1986-12-27 17:00","1986","12","27","17:00","7.2","","6.1","","93","","13","","19","","24.1","","100.31","","","","","","Cloudy"
"1986-12-27 18:00","1986","12","27","18:00","7.3","","6.3","","93","","13","","9","","24.1","","100.34","","","","","","Cloudy"
"1986-12-27 19:00","1986","12","27","19:00","7.5","","6.5","","93","","12","","24","","16.1","","100.34","","","","","","Cloudy"
"1986-12-27 20:00","1986","12","27","20:00","7.6","","6.7","","94","","13","","33","","16.1","","100.34","","","","","","Rain"
"1986-12-27 21:00","1986","12","27","21:00","7.4","","7.0","","97","","12","","22","","4.8","","100.34","","","","","","Rain,Drizzle,Fog"
"1986-12-27 22:00","1986","12","27","22:00","","","","","","","11","","20","","","","","","","","","","NA"
"1986-12-27 23:00","1986","12","27","23:00","","","","","","","11","","26","","","","","","","","","","NA"
"1986-12-28 00:00","1986","12","28","00:00","","","","","","","12","","30","","","","","","","","","","NA"
"1986-12-28 01:00","1986","12","28","01:00","","","","","","","12","","28","","","","","","","","","","NA"
"1986-12-28 02:00","1986","12","28","02:00","","","","","","","12","","20","","","","","","","","","","NA"
"1986-12-28 03:00","1986","12","28","03:00","","","","","","","12","","28","","","","","","","","","","NA"
"1986-12-28 04:00","1986","12","28","04:00","","","","","","","12","","19","","","","","","","","","","NA"
"1986-12-28 05:00","1986","12","28","05:00","","","","","","","12","","31","","","","","","","","","","NA"
"1986-12-28 06:00","1986","12","28","06:00","7.9","","6.8","","93","","13","","33","","6.4","","99.84","","","","","","Rain,Fog"
"1986-12-28 07:00","1986","12","28","07:00","7.8","","6.8","","93","","13","","31","","6.4","","99.80","","","","","","Rain,Fog"
"1986-12-28 08:00","1986","12","28","08:00","7.6","","6.6","","93","","14","","24","","6.4","","99.80","","","","","","Moderate Rain,Fog"
"1986-12-28 09:00","1986","12","28","09:00","7.5","","6.4","","93","","14","","33","","9.7","","99.70","","","","","","Rain,Fog"
"1986-12-28 10:00","1986","12","28","10:00","7.4","","6.4","","93","","13","","37","","9.7","","99.74","","","","","","Rain,Fog"
"1986-12-28 11:00","1986","12","28","11:00","7.1","","6.4","","95","","13","","41","","6.4","","99.74","","","","","","Moderate Rain,Fog"
"1986-12-28 12:00","1986","12","28","12:00","7.2","","6.5","","95","","12","","22","","9.7","","99.84","","","","","","Rain,Fog"
"1986-12-28 13:00","1986","12","28","13:00","7.7","","7.1","","96","","13","","22","","9.7","","99.80","","","","","","Fog"
"1986-12-28 14:00","1986","12","28","14:00","8.3","","7.9","","97","","14","","11","","9.7","","99.80","","","","","","Fog"
"1986-12-28 15:00","1986","12","28","15:00","8.7","","7.5","","92","","13","","24","","9.7","","99.84","","","","","","Fog"
"1986-12-28 16:00","1986","12","28","16:00","8.6","","7.2","","91","","13","","20","","11.3","","99.90","","","","","","Mostly Cloudy"
"1986-12-28 17:00","1986","12","28","17:00","8.3","","7.3","","93","","14","","22","","11.3","","99.90","","","","","","Mostly Cloudy"
"1986-12-28 18:00","1986","12","28","18:00","7.8","","7.3","","97","","14","","28","","9.7","","99.94","","","","","","Rain Showers,Fog"
"1986-12-28 19:00","1986","12","28","19:00","7.6","","6.7","","94","","13","","19","","8.0","","99.90","","","","","","Rain Showers,Fog"
"1986-12-28 20:00","1986","12","28","20:00","8.1","","7.5","","96","","13","","13","","4.8","","99.94","","","","","","Rain Showers,Fog"
"1986-12-28 21:00","1986","12","28","21:00","7.9","","7.6","","98","","14","","15","","4.8","","99.90","","","","","","Fog"
"1986-12-28 22:00","1986","12","28","22:00","","","","","","","13","","19","","","","","","","","","","NA"
"1986-12-28 23:00","1986","12","28","23:00","","","","","","","13","","22","","","","","","","","","","NA"
"1986-12-29 00:00","1986","12","29","00:00","","","","","","","13","","22","","","","","","","","","","NA"
"1986-12-29 01:00","1986","12","29","01:00","","","","","","","13","","19","","","","","","","","","","NA"
"1986-12-29 02:00","1986","12","29","02:00","","","","","","","13","","22","","","","","","","","","","NA"
"1986-12-29 03:00","1986","12","29","03:00","","","","","","","12","","19","","","","","","","","","","NA"
"1986-12-29 04:00","1986","12","29","04:00","","","","","","","13","","19","","","","","","","","","","NA"
"1986-12-29 05:00","1986","12","29","05:00","","","","","","","12","","15","","","","","","","","","","NA"
"1986-12-29 06:00","1986","12","29","06:00","7.7","","7.5","","98","","13","","9","","3.2","","99.37","","","","","","Rain,Fog"
"1986-12-29 07:00","1986","12","29","07:00","7.4","","7.4","","100","","","","0","","3.2","","99.33","","","","","","Rain,Fog"
"1986-12-29 08:00","1986","12","29","08:00","6.9","","6.8","","99","","","","0","","8.0","","99.37","","","","","","Rain,Fog"
"1986-12-29 09:00","1986","12","29","09:00","6.8","","6.4","","97","","","","0","","12.9","","99.40","","","","","","Rain"
"1986-12-29 10:00","1986","12","29","10:00","6.6","","6.1","","97","","32","","6","","24.1","","99.54","","","","","","Cloudy"
"1986-12-29 11:00","1986","12","29","11:00","6.7","","5.7","","93","","28","","9","","16.1","","99.60","","","","","","Rain Showers"
"1986-12-29 12:00","1986","12","29","12:00","7.1","","6.1","","93","","32","","6","","24.1","","99.77","","","","","","Rain Showers"
"1986-12-29 13:00","1986","12","29","13:00","7.5","","6.2","","92","","32","","9","","24.1","","99.87","","","","","","Mostly Cloudy"
"1986-12-29 14:00","1986","12","29","14:00","7.6","","6.1","","90","","30","","4","","24.1","","100.01","","","","","","Mostly Cloudy"
"1986-12-29 15:00","1986","12","29","15:00","7.4","","6.8","","96","","","","0","","24.1","","100.17","","","","","","Mostly Cloudy"
"1986-12-29 16:00","1986","12","29","16:00","7.8","","6.5","","92","","31","","7","","24.1","","100.37","","","","","","Mostly Cloudy"
"1986-12-29 17:00","1986","12","29","17:00","6.5","","5.9","","96","","26","","6","","24.1","","100.54","","","","","","Mainly Clear"
"1986-12-29 18:00","1986","12","29","18:00","6.3","","5.1","","92","","30","","9","","24.1","","100.74","","","","","","Mostly Cloudy"
"1986-12-29 19:00","1986","12","29","19:00","5.2","","4.1","","93","","29","","15","","24.1","","100.84","","","","","","Mainly Clear"
"1986-12-29 20:00","1986","12","29","20:00","3.6","","3.1","","97","","30","","6","","24.1","","100.98","","","","","","Clear"
"1986-12-29 21:00","1986","12","29","21:00","2.5","","2.3","","98","","","","0","","24.1","","101.08","","","","","","Mainly Clear"
"1986-12-29 22:00","1986","12","29","22:00","","","","","","","","","0","","","","","","","","","","NA"
"1986-12-29 23:00","1986","12","29","23:00","","","","","","","","","0","","","","","","","","","","NA"
"1986-12-30 00:00","1986","12","30","00:00","","","","","","","","","0","","","","","","","","","","NA"
"1986-12-30 01:00","1986","12","30","01:00","","","","","","","","","0","","","","","","","","","","NA"
"1986-12-30 02:00","1986","12","30","02:00","","","","","","","","","0","","","","","","","","","","NA"
"1986-12-30 03:00","1986","12","30","03:00","","","","","","","","","0","","","","","","","","","","NA"
"1986-12-30 04:00","1986","12","30","04:00","","","","","","","","","0","","","","","","","","","","NA"
"1986-12-30 05:00","1986","12","30","05:00","","","","","","","","","0","","","","","","","","","","NA"
"1986-12-30 06:00","1986","12","30","06:00","-1.3","","-1.3","","100","","31","","6","","24.1","","101.55","","","","-4","","Mainly Clear"
"1986-12-30 07:00","1986","12","30","07:00","-1.3","","-1.5","","98","","","","0","","24.1","","101.58","","","","","","Mainly Clear"
"1986-12-30 08:00","1986","12","30","08:00","-1.5","","-1.9","","97","","","","0","","24.1","","101.58","","","","","","Mainly Clear"
"1986-12-30 09:00","1986","12","30","09:00","-1.5","","-1.9","","97","","","","0","","24.1","","101.55","","","","","","Mainly Clear"
"1986-12-30 10:00","1986","12","30","10:00","-0.3","","-0.4","","99","","","","0","","2.4","","101.55","","","","","","Fog"
"1986-12-30 11:00","1986","12","30","11:00","0.5","","0.5","","100","","","","0","","0.2","","101.51","","","","","","Drizzle,Fog"
"1986-12-30 12:00","1986","12","30","12:00","1.2","","1.2","","100","","","","0","","0.2","","101.45","","","","","","Fog"
"1986-12-30 13:00","1986","12","30","13:00","1.7","","1.7","","100","","","","0","","0.2","","101.35","","","","","","Fog"
"1986-12-30 14:00","1986","12","30","14:00","2.0","","1.9","","99","","","","0","","0.2","","101.28","","","","","","Fog"
"1986-12-30 15:00","1986","12","30","15:00","2.5","","2.4","","99","","","","0","","0.2","","101.25","","","","","","Fog"
"1986-12-30 16:00","1986","12","30","16:00","2.6","","2.6","","100","","","","0","","0.2","","101.15","","","","","","Fog"
"1986-12-30 17:00","1986","12","30","17:00","2.3","","2.3","","100","","","","0","","0.2","","101.08","","","","","","Fog"
"1986-12-30 18:00","1986","12","30","18:00","1.6","","1.6","","100","","","","0","","0.2","","101.01","","","","","","Fog"
"1986-12-30 19:00","1986","12","30","19:00","1.6","","1.6","","100","","","","0","","0.2","","100.81","","","","","","Fog"
"1986-12-30 20:00","1986","12","30","20:00","1.8","","1.8","","100","","","","0","","0.2","","100.71","","","","","","Fog"
"1986-12-30 21:00","1986","12","30","21:00","1.0","","1.0","","100","","","","0","","0.2","","100.61","","","","","","Fog"
"1986-12-30 22:00","1986","12","30","22:00","","","","","","","5","","6","","","","","","","","","","NA"
"1986-12-30 23:00","1986","12","30","23:00","","","","","","","5","","6","","","","","","","","","","NA"
"1986-12-31 00:00","1986","12","31","00:00","","","","","","","7","","6","","","","","","","","","","NA"
"1986-12-31 01:00","1986","12","31","01:00","","","","","","","7","","7","","","","","","","","","","NA"
"1986-12-31 02:00","1986","12","31","02:00","","","","","","","6","","6","","","","","","","","","","NA"
"1986-12-31 03:00","1986","12","31","03:00","","","","","","","8","","7","","","","","","","","","","NA"
"1986-12-31 04:00","1986","12","31","04:00","","","","","","","10","","4","","","","","","","","","","NA"
"1986-12-31 05:00","1986","12","31","05:00","","","","","","","9","","4","","","","","","","","","","NA"
"1986-12-31 06:00","1986","12","31","06:00","3.2","","3.0","","98","","12","","6","","24.1","","100.04","","","","","","Cloudy"
"1986-12-31 07:00","1986","12","31","07:00","3.2","","2.8","","97","","12","","9","","24.1","","99.97","","","","","","Cloudy"
"1986-12-31 08:00","1986","12","31","08:00","3.2","","2.1","","92","","11","","11","","19.3","","99.94","","","","","","Cloudy"
"1986-12-31 09:00","1986","12","31","09:00","3.3","","2.2","","93","","10","","13","","19.3","","99.90","","","","","","Cloudy"
"1986-12-31 10:00","1986","12","31","10:00","3.6","","3.0","","96","","11","","9","","19.3","","99.87","","","","","","Rain Showers"
"1986-12-31 11:00","1986","12","31","11:00","4.4","","3.4","","93","","10","","9","","19.3","","99.84","","","","","","Cloudy"
"1986-12-31 12:00","1986","12","31","12:00","4.8","","2.3","","84","","13","","20","","24.1","","99.74","","","","","","Cloudy"
"1986-12-31 13:00","1986","12","31","13:00","4.3","","1.7","","83","","13","","17","","19.3","","99.64","","","","","","Rain"
"1986-12-31 14:00","1986","12","31","14:00","4.4","","1.8","","83","","12","","19","","24.1","","99.60","","","","","","Cloudy"
"1986-12-31 15:00","1986","12","31","15:00","4.2","","1.9","","85","","14","","24","","19.3","","99.50","","","","","","Rain"
"1986-12-31 16:00","1986","12","31","16:00","4.0","","2.0","","87","","14","","15","","24.1","","99.44","","","","","","Rain Showers"
"1986-12-31 17:00","1986","12","31","17:00","3.7","","2.1","","89","","16","","15","","16.1","","99.33","","","","","","Rain Showers"
"1986-12-31 18:00","1986","12","31","18:00","3.6","","3.0","","96","","16","","11","","16.1","","99.20","","","","","","Rain Showers"
"1986-12-31 19:00","1986","12","31","19:00","3.8","","3.0","","95","","14","","15","","16.1","","99.10","","","","","","Rain"
"1986-12-31 20:00","1986","12","31","20:00","5.1","","4.6","","97","","16","","28","","12.9","","99.00","","","","","","Rain"
"1986-12-31 21:00","1986","12","31","21:00","5.8","","5.3","","97","","12","","33","","8.0","","98.83","","","","","","Rain,Fog"
"1986-12-31 22:00","1986","12","31","22:00","","","","","","","13","","31","","","","","","","","","","NA"
"1986-12-31 23:00","1986","12","31","23:00","","","","","","","13","","31","","","","","","","","","","NA"
