"Station Name","CAMPBELL RIVER A"
"Province","BRITISH COLUMBIA"
"Latitude","49.95"
"Longitude","-125.27"
"Elevation","108.80"
"Climate Identifier","1021261"
"WMO Identifier",""
"TC Identifier","YBL"
"All times are specified in Local Standard Time (LST). Add 1 hour to adjust for Daylight Saving Time where and when it is observed."

"Legend"
"E","Estimated"
"M","Missing"
"NA","Not Available"

"Date/Time","Year","Month","Day","Time","Temp (°C)","Temp Flag","Dew Point Temp (°C)","Dew Point Temp Flag","Rel Hum (%)","Rel Hum Flag","Wind Dir (10s deg)","Wind Dir Flag","Wind Spd (km/h)","Wind Spd Flag","Visibility (km)","Visibility Flag","Stn Press (kPa)","Stn Press Flag","Hmdx","Hmdx Flag","Wind Chill","Wind Chill Flag","Weather"
"2008-12-01 00:00","2008","12","01","00:00"
"2008-12-01 01:00","2008","12","01","01:00"
"2008-12-01 02:00","2008","12","01","02:00"
"2008-12-01 03:00","2008","12","01","03:00"
"2008-12-01 04:00","2008","12","01","04:00"
"2008-12-01 05:00","2008","12","01","05:00"
"2008-12-01 06:00","2008","12","01","06:00","8.0","","7.4","","96","","24","","4","","0.8","","100.06","","","","","","Fog"
"2008-12-01 07:00","2008","12","01","07:00","7.9","","7.3","","96","","33","","6","","0.6","","99.99","","","","","","Fog"
"2008-12-01 08:00","2008","12","01","08:00","7.8","","7.4","","97","","28","","4","","0.6","","99.93","","","","","","Fog"
"2008-12-01 09:00","2008","12","01","09:00","8.0","","7.5","","97","","27","","4","","0.4","","99.90","","","","","","Fog"
"2008-12-01 10:00","2008","12","01","10:00","8.1","","7.7","","97","","","","0","","0.6","","99.89","","","","","","Fog"
"2008-12-01 11:00","2008","12","01","11:00","8.6","","8.0","","96","","","","0","","1.2","","99.86","","","","","","Fog"
"2008-12-01 12:00","2008","12","01","12:00","8.9","","8.3","","96","","12","","6","","1.2","","99.79","","","","","","Fog"
"2008-12-01 13:00","2008","12","01","13:00","8.5","","8.0","","97","","9","","11","","0.8","","99.70","","","","","","Fog"
"2008-12-01 14:00","2008","12","01","14:00","8.5","","7.9","","96","","11","","6","","0.4","","99.69","","","","","","Fog"
"2008-12-01 15:00","2008","12","01","15:00","8.4","","8.1","","98","","11","","11","","0.4","","99.67","","","","","","Fog"
"2008-12-01 16:00","2008","12","01","16:00","8.4","","8.1","","98","","11","","9","","0.8","","99.71","","","","","","Rain,Fog"
"2008-12-01 17:00","2008","12","01","17:00","8.4","","8.2","","99","","","","0","","0.4","","99.69","","","","","","Rain,Fog"
"2008-12-01 18:00","2008","12","01","18:00","8.4","","8.1","","98","","","","0","","0.6","","99.64","","","","","","Rain,Fog"
"2008-12-01 19:00","2008","12","01","19:00","8.4","","8.0","","97","","","","0","","0.6","","99.66","","","","","","Rain,Fog"
"2008-12-01 20:00","2008","12","01","20:00","8.4","","7.9","","97","","31","","9","","1.2","","99.71","","","","","","Fog"
"2008-12-01 21:00","2008","12","01","21:00","8.4","","7.8","","96","","29","","7","","3.2","","99.77","","","","","","Fog"
"2008-12-01 22:00","2008","12","01","22:00"
"2008-12-01 23:00","2008","12","01","23:00"
"2008-12-02 00:00","2008","12","02","00:00"
"2008-12-02 01:00","2008","12","02","01:00"
"2008-12-02 02:00","2008","12","02","02:00"
"2008-12-02 03:00","2008","12","02","03:00"
"2008-12-02 04:00","2008","12","02","04:00"
"2008-12-02 05:00","2008","12","02","05:00"
"2008-12-02 06:00","2008","12","02","06:00","4.9","","3.6","","91","","31","","4","","19.3","","100.35","","","","","","Mainly Clear"
"2008-12-02 07:00","2008","12","02","07:00","4.7","","2.9","","88","","30","","17","","19.3","","100.50","","","","","","Mainly Clear"
"2008-12-02 08:00","2008","12","02","08:00","3.3","","1.8","","90","","27","","6","","16.1","","100.59","","","","","","Mainly Clear"
"2008-12-02 09:00","2008","12","02","09:00","4.3","","1.8","","84","","28","","9","","24.1","","100.67","","","","","","Mainly Clear"
"2008-12-02 10:00","2008","12","02","10:00","5.8","","2.5","","79","","30","","15","","32.2","","100.77","","","","","","Mainly Clear"
"2008-12-02 11:00","2008","12","02","11:00","6.6","","3.3","","79","","29","","15","","32.2","","100.85","","","","","","Mainly Clear"
"2008-12-02 12:00","2008","12","02","12:00","7.3","","3.6","","77","","29","","15","","32.2","","100.91","","","","","","Mostly Cloudy"
"2008-12-02 13:00","2008","12","02","13:00","7.7","","3.5","","75","","31","","17","","32.2","","100.98","","","","","","Mostly Cloudy"
"2008-12-02 14:00","2008","12","02","14:00","7.7","","3.4","","74","","31","","15","","32.2","","101.00","","","","","","Mostly Cloudy"
"2008-12-02 15:00","2008","12","02","15:00","7.8","","3.8","","76","","30","","11","","32.2","","101.06","","","","","","Mostly Cloudy"
"2008-12-02 16:00","2008","12","02","16:00","6.2","","3.4","","82","","29","","9","","32.2","","101.12","","","","","","Mainly Clear"
"2008-12-02 17:00","2008","12","02","17:00","4.7","","2.9","","88","","28","","7","","32.2","","101.19","","","","","","Mostly Cloudy"
"2008-12-02 18:00","2008","12","02","18:00","3.5","","2.2","","91","","28","","6","","25.0","","101.27","","","","","","Mostly Cloudy"
"2008-12-02 19:00","2008","12","02","19:00","2.6","","1.3","","91","","28","","6","","25.0","","101.31","","","","","","Mostly Cloudy"
"2008-12-02 20:00","2008","12","02","20:00","2.0","","1.0","","93","","27","","6","","25.0","","101.35","","","","","","Mostly Cloudy"
"2008-12-02 21:00","2008","12","02","21:00","2.0","","1.1","","94","","23","","6","","25.0","","101.38","","","","","","Mostly Cloudy"
"2008-12-02 22:00","2008","12","02","22:00"
"2008-12-02 23:00","2008","12","02","23:00"
"2008-12-03 00:00","2008","12","03","00:00"
"2008-12-03 01:00","2008","12","03","01:00"
"2008-12-03 02:00","2008","12","03","02:00"
"2008-12-03 03:00","2008","12","03","03:00"
"2008-12-03 04:00","2008","12","03","04:00"
"2008-12-03 05:00","2008","12","03","05:00"
"2008-12-03 06:00","2008","12","03","06:00","3.6","","2.7","","94","","","","0","","16.1","","101.65","","","","","","Cloudy"
"2008-12-03 07:00","2008","12","03","07:00","4.1","","2.9","","92","","","","0","","16.1","","101.64","","","","","","Cloudy"
"2008-12-03 08:00","2008","12","03","08:00","3.2","","2.1","","92","","","","0","","24.1","","101.65","","","","","","Mostly Cloudy"
"2008-12-03 09:00","2008","12","03","09:00","2.1","","1.3","","94","","27","","4","","24.1","","101.64","","","","","","Mostly Cloudy"
"2008-12-03 10:00","2008","12","03","10:00","4.0","","3.2","","95","","","","0","","24.1","","101.66","","","","","","Mostly Cloudy"
"2008-12-03 11:00","2008","12","03","11:00","5.0","","3.2","","88","","","","0","","24.1","","101.70","","","","","","Mostly Cloudy"
"2008-12-03 12:00","2008","12","03","12:00","6.6","","4.7","","88","","","","0","","24.1","","101.65","","","","","","Mostly Cloudy"
"2008-12-03 13:00","2008","12","03","13:00","7.8","","3.0","","72","","","","0","","24.1","","101.66","","","","","","Mostly Cloudy"
"2008-12-03 14:00","2008","12","03","14:00","9.0","","2.6","","64","","29","","4","","24.1","","101.63","","","","","","Mainly Clear"
"2008-12-03 15:00","2008","12","03","15:00","8.0","","3.7","","74","","27","","4","","24.1","","101.64","","","","","","Mainly Clear"
"2008-12-03 16:00","2008","12","03","16:00","6.0","","3.0","","81","","28","","6","","32.2","","101.71","","","","","","Mainly Clear"
"2008-12-03 17:00","2008","12","03","17:00","3.3","","2.4","","94","","","","0","","32.2","","101.69","","","","","","Mainly Clear"
"2008-12-03 18:00","2008","12","03","18:00","2.1","","1.4","","95","","28","","4","","25.0","","101.68","","","","","","Mainly Clear"
"2008-12-03 19:00","2008","12","03","19:00","0.8","","-0.4","","92","","","","0","","25.0","","101.73","","","","","","Mainly Clear"
"2008-12-03 20:00","2008","12","03","20:00","0.1","","-0.8","","94","","26","","4","","25.0","","101.79","","","","","","Mainly Clear"
"2008-12-03 21:00","2008","12","03","21:00","0.2","","-0.7","","94","","29","","6","","25.0","","101.81","","","","","","Mainly Clear"
"2008-12-03 22:00","2008","12","03","22:00"
"2008-12-03 23:00","2008","12","03","23:00"
"2008-12-04 00:00","2008","12","04","00:00"
"2008-12-04 01:00","2008","12","04","01:00"
"2008-12-04 02:00","2008","12","04","02:00"
"2008-12-04 03:00","2008","12","04","03:00"
"2008-12-04 04:00","2008","12","04","04:00"
"2008-12-04 05:00","2008","12","04","05:00"
"2008-12-04 06:00","2008","12","04","06:00","-1.8","","-2.8","","93","","28","","4","","25.0","","101.89","","","","-3","","Clear"
"2008-12-04 07:00","2008","12","04","07:00","-2.5","","-3.6","","92","","28","","4","","25.0","","101.86","","","","-4","","Mainly Clear"
"2008-12-04 08:00","2008","12","04","08:00","-2.9","","-4.0","","92","","","","0","","32.2","","101.87","","","","","","Mainly Clear"
"2008-12-04 09:00","2008","12","04","09:00","-1.7","","-2.7","","93","","","","0","","24.1","","101.93","","","","","","Mostly Cloudy"
"2008-12-04 10:00","2008","12","04","10:00","-0.4","","-1.3","","94","","30","","4","","32.2","","101.92","","","","-2","","Mostly Cloudy"
"2008-12-04 11:00","2008","12","04","11:00","0.8","","0.1","","95","","","","0","","24.1","","101.92","","","","","","Mostly Cloudy"
"2008-12-04 12:00","2008","12","04","12:00","2.5","","1.8","","95","","","","0","","19.3","","101.86","","","","","","Cloudy"
"2008-12-04 13:00","2008","12","04","13:00","4.4","","2.7","","89","","17","","6","","12.9","","101.78","","","","","","Cloudy"
"2008-12-04 14:00","2008","12","04","14:00","4.3","","3.0","","91","","11","","4","","12.9","","101.75","","","","","","Cloudy"
"2008-12-04 15:00","2008","12","04","15:00","4.2","","2.9","","91","","9","","4","","12.9","","101.71","","","","","","Cloudy"
"2008-12-04 16:00","2008","12","04","16:00","3.9","","2.8","","93","","9","","6","","16.1","","101.71","","","","","","Cloudy"
"2008-12-04 17:00","2008","12","04","17:00","3.8","","2.7","","93","","","","0","","16.1","","101.66","","","","","","Cloudy"
"2008-12-04 18:00","2008","12","04","18:00","3.1","","2.4","","95","","","","0","","19.3","","101.64","","","","","","Cloudy"
"2008-12-04 19:00","2008","12","04","19:00","3.0","","2.2","","94","","","","0","","25.0","","101.56","","","","","","Cloudy"
"2008-12-04 20:00","2008","12","04","20:00","2.7","","2.0","","95","","28","","4","","25.0","","101.57","","","","","","Cloudy"
"2008-12-04 21:00","2008","12","04","21:00","2.8","","2.2","","96","","29","","4","","25.0","","101.56","","","","","","Cloudy"
"2008-12-04 22:00","2008","12","04","22:00"
"2008-12-04 23:00","2008","12","04","23:00"
"2008-12-05 00:00","2008","12","05","00:00"
"2008-12-05 01:00","2008","12","05","01:00"
"2008-12-05 02:00","2008","12","05","02:00"
"2008-12-05 03:00","2008","12","05","03:00"
"2008-12-05 04:00","2008","12","05","04:00"
"2008-12-05 05:00","2008","12","05","05:00"
"2008-12-05 06:00","2008","12","05","06:00","3.3","","2.5","","94","","30","","6","","19.3","","101.19","","","","","","Cloudy"
"2008-12-05 07:00","2008","12","05","07:00","3.4","","2.8","","96","","","","0","","12.9","","101.23","","","","","","Rain Showers"
"2008-12-05 08:00","2008","12","05","08:00","3.5","","2.9","","96","","","","0","","9.7","","101.18","","","","","","Rain,Fog"
"2008-12-05 09:00","2008","12","05","09:00","3.7","","3.1","","96","","","","0","","24.1","","101.20","","","","","","Cloudy"
"2008-12-05 10:00","2008","12","05","10:00","3.9","","3.2","","95","","29","","4","","24.1","","101.24","","","","","","Cloudy"
"2008-12-05 11:00","2008","12","05","11:00","4.3","","3.6","","95","","","","0","","8.0","","101.25","","","","","","Fog"
"2008-12-05 12:00","2008","12","05","12:00","4.6","","3.9","","95","","","","0","","8.0","","101.27","","","","","","Fog"
"2008-12-05 13:00","2008","12","05","13:00","5.1","","3.4","","89","","","","0","","8.0","","101.19","","","","","","Fog"
"2008-12-05 14:00","2008","12","05","14:00","5.3","","4.1","","92","","","","0","","8.0","","101.14","","","","","","Fog"
"2008-12-05 15:00","2008","12","05","15:00","5.2","","4.1","","93","","","","0","","8.0","","101.13","","","","","","Fog"
"2008-12-05 16:00","2008","12","05","16:00","5.3","","4.2","","93","","","","0","","8.0","","101.12","","","","","","Fog"
"2008-12-05 17:00","2008","12","05","17:00","4.9","","4.2","","95","","","","0","","16.1","","101.11","","","","","","Cloudy"
"2008-12-05 18:00","2008","12","05","18:00","4.9","","4.1","","95","","","","0","","16.1","","101.06","","","","","","Cloudy"
"2008-12-05 19:00","2008","12","05","19:00","4.8","","3.6","","92","","","","0","","12.9","","101.04","","","","","","Cloudy"
"2008-12-05 20:00","2008","12","05","20:00","4.7","","3.6","","93","","","","0","","19.3","","101.02","","","","","","Cloudy"
"2008-12-05 21:00","2008","12","05","21:00","4.7","","3.7","","93","","","","0","","19.3","","100.99","","","","","","Cloudy"
"2008-12-05 22:00","2008","12","05","22:00"
"2008-12-05 23:00","2008","12","05","23:00"
"2008-12-06 00:00","2008","12","06","00:00"
"2008-12-06 01:00","2008","12","06","01:00"
"2008-12-06 02:00","2008","12","06","02:00"
"2008-12-06 03:00","2008","12","06","03:00"
"2008-12-06 04:00","2008","12","06","04:00"
"2008-12-06 05:00","2008","12","06","05:00"
"2008-12-06 06:00","2008","12","06","06:00","5.4","","4.6","","95","","","","0","","8.0","","100.71","","","","","","Rain,Fog"
"2008-12-06 07:00","2008","12","06","07:00","5.0","","4.4","","96","","","","0","","8.0","","100.72","","","","","","Rain,Fog"
"2008-12-06 08:00","2008","12","06","08:00","5.1","","4.4","","95","","","","0","","6.4","","100.74","","","","","","Rain,Fog"
"2008-12-06 09:00","2008","12","06","09:00","5.2","","4.5","","95","","28","","4","","3.2","","100.80","","","","","","Rain,Fog"
"2008-12-06 10:00","2008","12","06","10:00","5.6","","4.9","","95","","27","","4","","2.4","","100.83","","","","","","Rain,Fog"
"2008-12-06 11:00","2008","12","06","11:00","5.7","","5.1","","96","","30","","7","","1.6","","100.88","","","","","","Rain,Fog"
"2008-12-06 12:00","2008","12","06","12:00","6.4","","5.6","","95","","","","0","","2.4","","100.86","","","","","","Rain,Fog"
"2008-12-06 13:00","2008","12","06","13:00","6.8","","6.1","","95","","9","","13","","2.4","","100.79","","","","","","Rain,Fog"
"2008-12-06 14:00","2008","12","06","14:00","6.8","","6.2","","96","","9","","7","","2.4","","100.76","","","","","","Rain,Fog"
"2008-12-06 15:00","2008","12","06","15:00","6.6","","6.0","","96","","10","","6","","2.4","","100.72","","","","","","Rain,Fog"
"2008-12-06 16:00","2008","12","06","16:00","6.5","","5.8","","95","","12","","7","","2.4","","100.69","","","","","","Rain,Fog"
"2008-12-06 17:00","2008","12","06","17:00","6.4","","5.7","","95","","11","","9","","2.4","","100.62","","","","","","Rain,Fog"
"2008-12-06 18:00","2008","12","06","18:00","6.5","","5.7","","95","","13","","9","","2.0","","100.54","","","","","","Rain,Fog"
"2008-12-06 19:00","2008","12","06","19:00","6.6","","5.8","","95","","12","","7","","2.0","","100.49","","","","","","Rain,Fog"
"2008-12-06 20:00","2008","12","06","20:00","6.6","","5.9","","95","","13","","7","","2.0","","100.45","","","","","","Rain,Fog"
"2008-12-06 21:00","2008","12","06","21:00","6.6","","5.9","","95","","10","","6","","2.0","","100.46","","","","","","Rain,Fog"
"2008-12-06 22:00","2008","12","06","22:00"
"2008-12-06 23:00","2008","12","06","23:00"
"2008-12-07 00:00","2008","12","07","00:00"
"2008-12-07 01:00","2008","12","07","01:00"
"2008-12-07 02:00","2008","12","07","02:00"
"2008-12-07 03:00","2008","12","07","03:00"
"2008-12-07 04:00","2008","12","07","04:00"
"2008-12-07 05:00","2008","12","07","05:00"
"2008-12-07 06:00","2008","12","07","06:00","6.2","","5.8","","97","","30","","7","","1.6","","100.32","","","","","","Drizzle,Fog"
"2008-12-07 07:00","2008","12","07","07:00","6.0","","5.4","","96","","31","","6","","2.4","","100.38","","","","","","Drizzle,Fog"
"2008-12-07 08:00","2008","12","07","08:00","5.6","","4.8","","95","","26","","4","","16.1","","100.36","","","","","","Rain Showers"
"2008-12-07 09:00","2008","12","07","09:00","4.8","","4.1","","95","","33","","6","","24.1","","100.40","","","","","","Rain Showers"
"2008-12-07 10:00","2008","12","07","10:00","5.5","","4.5","","93","","29","","4","","24.1","","100.42","","","","","","Mostly Cloudy"
"2008-12-07 11:00","2008","12","07","11:00","7.4","","5.7","","89","","6","","6","","32.2","","100.45","","","","","","Mostly Cloudy"
"2008-12-07 12:00","2008","12","07","12:00","8.7","","5.8","","82","","30","","4","","32.2","","100.42","","","","","","Mainly Clear"
"2008-12-07 13:00","2008","12","07","13:00","8.6","","5.5","","81","","33","","11","","32.2","","100.38","","","","","","Mainly Clear"
"2008-12-07 14:00","2008","12","07","14:00","8.5","","4.6","","76","","34","","15","","32.2","","100.36","","","","","","Mainly Clear"
"2008-12-07 15:00","2008","12","07","15:00","8.2","","4.7","","79","","35","","9","","32.2","","100.37","","","","","","Mainly Clear"
"2008-12-07 16:00","2008","12","07","16:00","6.4","","3.6","","82","","29","","6","","32.2","","100.40","","","","","","Mainly Clear"
"2008-12-07 17:00","2008","12","07","17:00","5.5","","3.5","","87","","31","","9","","32.2","","100.43","","","","","","Mainly Clear"
"2008-12-07 18:00","2008","12","07","18:00","3.4","","1.8","","89","","28","","7","","24.1","","100.44","","","","","","Mainly Clear"
"2008-12-07 19:00","2008","12","07","19:00","1.9","","0.7","","92","","25","","6","","24.1","","100.45","","","","","","Mainly Clear"
"2008-12-07 20:00","2008","12","07","20:00","2.9","","1.3","","89","","29","","9","","24.1","","100.50","","","","","","Mainly Clear"
"2008-12-07 21:00","2008","12","07","21:00","2.4","","0.7","","89","","28","","15","","24.1","","100.53","","","","","","Mainly Clear"
"2008-12-07 22:00","2008","12","07","22:00"
"2008-12-07 23:00","2008","12","07","23:00"
"2008-12-08 00:00","2008","12","08","00:00"
"2008-12-08 01:00","2008","12","08","01:00"
"2008-12-08 02:00","2008","12","08","02:00"
"2008-12-08 03:00","2008","12","08","03:00"
"2008-12-08 04:00","2008","12","08","04:00"
"2008-12-08 05:00","2008","12","08","05:00"
"2008-12-08 06:00","2008","12","08","06:00","0.5","","-0.6","","92","","25","","6","","24.1","","100.89","","","","","","Mostly Cloudy"
"2008-12-08 07:00","2008","12","08","07:00","1.1","","-0.1","","92","","","","0","","24.1","","100.93","","","","","","Mostly Cloudy"
"2008-12-08 08:00","2008","12","08","08:00","0.8","","-0.2","","93","","31","","6","","24.1","","100.95","","","","","","Mostly Cloudy"
"2008-12-08 09:00","2008","12","08","09:00","1.2","","0.2","","93","","32","","7","","32.2","","101.01","","","","","","Mostly Cloudy"
"2008-12-08 10:00","2008","12","08","10:00","2.0","","0.9","","92","","","","0","","32.2","","101.04","","","","","","Mostly Cloudy"
"2008-12-08 11:00","2008","12","08","11:00","3.6","","2.1","","90","","27","","6","","32.2","","101.06","","","","","","Mostly Cloudy"
"2008-12-08 12:00","2008","12","08","12:00","5.0","","2.3","","83","","33","","4","","32.2","","101.07","","","","","","Cloudy"
"2008-12-08 13:00","2008","12","08","13:00","6.1","","3.3","","82","","11","","6","","32.2","","101.06","","","","","","Cloudy"
"2008-12-08 14:00","2008","12","08","14:00","5.9","","3.9","","87","","8","","4","","24.1","","101.08","","","","","","Mostly Cloudy"
"2008-12-08 15:00","2008","12","08","15:00","5.9","","3.4","","84","","13","","4","","32.2","","101.10","","","","","","Cloudy"
"2008-12-08 16:00","2008","12","08","16:00","5.1","","3.4","","89","","","","0","","19.3","","101.13","","","","","","Mostly Cloudy"
"2008-12-08 17:00","2008","12","08","17:00","3.9","","2.7","","92","","","","0","","19.3","","101.14","","","","","","Mostly Cloudy"
"2008-12-08 18:00","2008","12","08","18:00","3.4","","2.6","","94","","","","0","","25.0","","101.15","","","","","","Cloudy"
"2008-12-08 19:00","2008","12","08","19:00","3.3","","2.6","","95","","","","0","","25.0","","101.16","","","","","","Cloudy"
"2008-12-08 20:00","2008","12","08","20:00","3.3","","2.7","","96","","","","0","","16.1","","101.18","","","","","","Rain"
"2008-12-08 21:00","2008","12","08","21:00","3.4","","2.7","","95","","","","0","","12.9","","101.17","","","","","","Rain"
"2008-12-08 22:00","2008","12","08","22:00"
"2008-12-08 23:00","2008","12","08","23:00"
"2008-12-09 00:00","2008","12","09","00:00"
"2008-12-09 01:00","2008","12","09","01:00"
"2008-12-09 02:00","2008","12","09","02:00"
"2008-12-09 03:00","2008","12","09","03:00"
"2008-12-09 04:00","2008","12","09","04:00"
"2008-12-09 05:00","2008","12","09","05:00"
"2008-12-09 06:00","2008","12","09","06:00","5.2","","4.4","","95","","14","","17","","8.0","","101.02","","","","","","Rain,Fog"
"2008-12-09 07:00","2008","12","09","07:00","5.2","","4.3","","94","","13","","15","","6.4","","100.98","","","","","","Rain,Fog"
"2008-12-09 08:00","2008","12","09","08:00","5.5","","4.6","","94","","12","","30","","8.0","","100.90","","","","","","Rain,Fog"
"2008-12-09 09:00","2008","12","09","09:00","5.6","","4.6","","93","","12","","26","","8.0","","100.92","","","","","","Rain,Fog"
"2008-12-09 10:00","2008","12","09","10:00","5.9","","5.0","","94","","13","","17","","6.4","","100.91","","","","","","Rain,Fog"
"2008-12-09 11:00","2008","12","09","11:00","6.0","","5.0","","93","","12","","33","","6.4","","100.87","","","","","","Rain,Fog"
"2008-12-09 12:00","2008","12","09","12:00","6.2","","5.1","","93","","13","","32","","6.4","","100.80","","","","","","Rain,Fog"
"2008-12-09 13:00","2008","12","09","13:00","6.2","","5.1","","93","","13","","37","","6.4","","100.73","","","","","","Moderate Rain,Fog"
"2008-12-09 14:00","2008","12","09","14:00","6.2","","5.2","","93","","13","","28","","8.0","","100.76","","","","","","Rain,Fog"
"2008-12-09 15:00","2008","12","09","15:00","6.2","","5.3","","94","","12","","20","","8.0","","100.79","","","","","","Rain,Fog"
"2008-12-09 16:00","2008","12","09","16:00","6.4","","5.4","","93","","12","","32","","8.0","","100.85","","","","","","Rain,Fog"
"2008-12-09 17:00","2008","12","09","17:00","6.6","","5.6","","93","","12","","28","","6.4","","100.97","","","","","","Rain,Fog"
"2008-12-09 18:00","2008","12","09","18:00","6.5","","5.5","","93","","12","","28","","6.4","","101.02","","","","","","Rain,Fog"
"2008-12-09 19:00","2008","12","09","19:00","6.4","","5.4","","93","","11","","28","","6.4","","101.10","","","","","","Rain,Fog"
"2008-12-09 20:00","2008","12","09","20:00","6.2","","5.6","","96","","11","","19","","3.2","","101.22","","","","","","Rain,Fog"
"2008-12-09 21:00","2008","12","09","21:00","6.3","","5.5","","95","","11","","19","","3.2","","101.29","","","","","","Rain,Fog"
"2008-12-09 22:00","2008","12","09","22:00"
"2008-12-09 23:00","2008","12","09","23:00"
"2008-12-10 00:00","2008","12","10","00:00"
"2008-12-10 01:00","2008","12","10","01:00"
"2008-12-10 02:00","2008","12","10","02:00"
"2008-12-10 03:00","2008","12","10","03:00"
"2008-12-10 04:00","2008","12","10","04:00"
"2008-12-10 05:00","2008","12","10","05:00"
"2008-12-10 06:00","2008","12","10","06:00","5.9","","5.2","","95","","","","0","","4.8","","101.84","","","","","","Drizzle,Fog"
"2008-12-10 07:00","2008","12","10","07:00","5.7","","4.9","","95","","27","","6","","12.9","","101.89","","","","","","Cloudy"
"2008-12-10 08:00","2008","12","10","08:00","5.2","","3.9","","91","","25","","6","","32.2","","101.91","","","","","","Mostly Cloudy"
"2008-12-10 09:00","2008","12","10","09:00","4.2","","3.3","","94","","28","","4","","32.2","","102.01","","","","","","Mostly Cloudy"
"2008-12-10 10:00","2008","12","10","10:00","5.7","","4.3","","91","","30","","4","","32.2","","102.09","","","","","","Mostly Cloudy"
"2008-12-10 11:00","2008","12","10","11:00","6.6","","4.6","","87","","32","","7","","32.2","","102.13","","","","","","Mostly Cloudy"
"2008-12-10 12:00","2008","12","10","12:00","7.7","","5.2","","84","","","","0","","19.3","","102.17","","","","","","Mostly Cloudy"
"2008-12-10 13:00","2008","12","10","13:00","7.8","","4.9","","82","","28","","6","","19.3","","102.19","","","","","","Mostly Cloudy"
"2008-12-10 14:00","2008","12","10","14:00","9.2","","5.5","","78","","","","0","","32.2","","102.16","","","","","","Mostly Cloudy"
"2008-12-10 15:00","2008","12","10","15:00","8.9","","5.6","","80","","","","0","","32.2","","102.14","","","","","","Mostly Cloudy"
"2008-12-10 16:00","2008","12","10","16:00","7.9","","5.2","","83","","","","0","","32.2","","102.15","","","","","","Mostly Cloudy"
"2008-12-10 17:00","2008","12","10","17:00","4.5","","3.7","","95","","","","0","","32.2","","102.15","","","","","","Mostly Cloudy"
"2008-12-10 18:00","2008","12","10","18:00","3.4","","2.6","","94","","29","","4","","25.0","","102.18","","","","","","Mostly Cloudy"
"2008-12-10 19:00","2008","12","10","19:00","2.9","","2.2","","95","","","","0","","24.1","","102.26","","","","","","Mostly Cloudy"
"2008-12-10 20:00","2008","12","10","20:00","2.2","","1.4","","94","","","","0","","24.1","","102.24","","","","","","Mostly Cloudy"
"2008-12-10 21:00","2008","12","10","21:00","1.4","","0.6","","94","","","","0","","24.1","","102.25","","","","","","Mainly Clear"
"2008-12-10 22:00","2008","12","10","22:00"
"2008-12-10 23:00","2008","12","10","23:00"
"2008-12-11 00:00","2008","12","11","00:00"
"2008-12-11 01:00","2008","12","11","01:00"
"2008-12-11 02:00","2008","12","11","02:00"
"2008-12-11 03:00","2008","12","11","03:00"
"2008-12-11 04:00","2008","12","11","04:00"
"2008-12-11 05:00","2008","12","11","05:00"
"2008-12-11 06:00","2008","12","11","06:00","3.2","","2.1","","92","","31","","7","","24.1","","102.26","","","","","","Mostly Cloudy"
"2008-12-11 07:00","2008","12","11","07:00","2.4","","1.5","","94","","28","","9","","24.1","","102.25","","","","","","Mostly Cloudy"
"2008-12-11 08:00","2008","12","11","08:00","2.8","","1.7","","92","","31","","4","","32.2","","102.23","","","","","","Mostly Cloudy"
"2008-12-11 09:00","2008","12","11","09:00","2.9","","1.8","","92","","31","","4","","32.2","","102.23","","","","","","Mostly Cloudy"
"2008-12-11 10:00","2008","12","11","10:00","3.9","","2.5","","91","","30","","6","","32.2","","102.20","","","","","","Mostly Cloudy"
"2008-12-11 11:00","2008","12","11","11:00","5.6","","2.5","","80","","22","","6","","32.2","","102.17","","","","","","Mostly Cloudy"
"2008-12-11 12:00","2008","12","11","12:00","5.9","","2.5","","79","","33","","6","","19.3","","102.09","","","","","","Mostly Cloudy"
"2008-12-11 13:00","2008","12","11","13:00","5.9","","2.4","","78","","32","","7","","19.3","","102.04","","","","","","Mostly Cloudy"
"2008-12-11 14:00","2008","12","11","14:00","5.9","","2.3","","78","","30","","4","","24.1","","101.90","","","","","","Mostly Cloudy"
"2008-12-11 15:00","2008","12","11","15:00","5.9","","2.4","","78","","","","0","","24.1","","101.83","","","","","","Mostly Cloudy"
"2008-12-11 16:00","2008","12","11","16:00","5.2","","3.2","","87","","26","","4","","19.3","","101.79","","","","","","Mostly Cloudy"
"2008-12-11 17:00","2008","12","11","17:00","4.8","","2.3","","84","","25","","6","","19.3","","101.72","","","","","","Mostly Cloudy"
"2008-12-11 18:00","2008","12","11","18:00","4.5","","2.1","","84","","23","","6","","19.3","","101.64","","","","","","Cloudy"
"2008-12-11 19:00","2008","12","11","19:00","3.9","","1.9","","87","","25","","6","","19.3","","101.54","","","","","","Mostly Cloudy"
"2008-12-11 20:00","2008","12","11","20:00","3.8","","1.8","","87","","23","","7","","24.1","","101.43","","","","","","Mostly Cloudy"
"2008-12-11 21:00","2008","12","11","21:00","3.7","","1.6","","86","","24","","9","","24.1","","101.35","","","","","","Mostly Cloudy"
"2008-12-11 22:00","2008","12","11","22:00"
"2008-12-11 23:00","2008","12","11","23:00"
"2008-12-12 00:00","2008","12","12","00:00"
"2008-12-12 01:00","2008","12","12","01:00"
"2008-12-12 02:00","2008","12","12","02:00"
"2008-12-12 03:00","2008","12","12","03:00"
"2008-12-12 04:00","2008","12","12","04:00"
"2008-12-12 05:00","2008","12","12","05:00"
"2008-12-12 06:00","2008","12","12","06:00","3.0","","2.0","","93","","16","","7","","4.8","","99.70","","","","","","Rain,Fog"
"2008-12-12 07:00","2008","12","12","07:00","1.9","","1.0","","94","","12","","13","","4.8","","99.45","","","","","","Rain,Fog"
"2008-12-12 08:00","2008","12","12","08:00","1.6","","0.6","","93","","8","","4","","4.8","","99.16","","","","","","Rain,Snow"
"2008-12-12 09:00","2008","12","12","09:00","0.8","","-0.2","","93","","5","","4","","2.4","","98.98","","","","","","Snow"
"2008-12-12 10:00","2008","12","12","10:00","0.7","","-0.2","","94","","9","","6","","3.2","","98.77","","","","","","Snow"
"2008-12-12 11:00","2008","12","12","11:00","0.3","","-0.5","","94","","1","","6","","1.6","","98.59","","","","","","Snow"
"2008-12-12 12:00","2008","12","12","12:00","0.4","","-0.5","","94","","32","","9","","1.6","","98.38","","","","","","Snow"
"2008-12-12 13:00","2008","12","12","13:00","0.5","","-0.3","","94","","29","","7","","4.8","","98.22","","","","","","Snow"
"2008-12-12 14:00","2008","12","12","14:00","1.1","","0.0","","92","","28","","9","","9.7","","98.11","","","","","","Rain,Snow"
"2008-12-12 15:00","2008","12","12","15:00","1.9","","0.4","","90","","29","","20","","16.1","","98.02","","","","","","Rain"
"2008-12-12 16:00","2008","12","12","16:00","2.5","","0.0","","84","","30","","22","","24.1","","97.95","","","","","","Rain"
"2008-12-12 17:00","2008","12","12","17:00","2.6","","-0.2","","82","","3","","26","","25.0","","97.91","","","","","","Cloudy"
"2008-12-12 18:00","2008","12","12","18:00","3.0","","-0.7","","77","","31","","28","","25.0","","97.85","","","","","","Cloudy"
"2008-12-12 19:00","2008","12","12","19:00","3.2","","-0.9","","74","","30","","24","","25.0","","97.84","","","","","","Cloudy"
"2008-12-12 20:00","2008","12","12","20:00","3.2","","-0.9","","74","","31","","26","","25.0","","97.89","","","","","","Cloudy"
"2008-12-12 21:00","2008","12","12","21:00","2.8","","-0.6","","78","","30","","32","","25.0","","97.96","","","","","","Cloudy"
"2008-12-12 22:00","2008","12","12","22:00"
"2008-12-12 23:00","2008","12","12","23:00"
"2008-12-13 00:00","2008","12","13","00:00"
"2008-12-13 01:00","2008","12","13","01:00"
"2008-12-13 02:00","2008","12","13","02:00"
"2008-12-13 03:00","2008","12","13","03:00"
"2008-12-13 04:00","2008","12","13","04:00"
"2008-12-13 05:00","2008","12","13","05:00"
"2008-12-13 06:00","2008","12","13","06:00","0.0","","-6.1","","63","","30","","19","","32.2","","98.77","","","","-5","","Mostly Cloudy"
"2008-12-13 07:00","2008","12","13","07:00","-0.8","","-6.3","","66","","30","","15","","32.2","","98.86","","","","-5","","Mostly Cloudy"
"2008-12-13 08:00","2008","12","13","08:00","-1.0","","-7.3","","62","","30","","17","","48.3","","98.91","","","","-6","","Mostly Cloudy"
"2008-12-13 09:00","2008","12","13","09:00","-1.3","","-7.7","","62","","30","","17","","48.3","","98.97","","","","-6","","Mostly Cloudy"
"2008-12-13 10:00","2008","12","13","10:00","-1.1","","-9.8","","52","","29","","22","","48.3","","99.02","","","","-7","","Mostly Cloudy"
"2008-12-13 11:00","2008","12","13","11:00","-1.3","","-9.1","","55","","30","","15","","48.3","","99.02","","","","-6","","Mostly Cloudy"
"2008-12-13 12:00","2008","12","13","12:00","-1.2","","-11.7","","45","","32","","26","","48.3","","99.01","","","","-8","","Mostly Cloudy"
"2008-12-13 13:00","2008","12","13","13:00","-1.4","","-11.8","","45","","32","","15","","48.3","","99.01","","","","-6","","Mostly Cloudy"
"2008-12-13 14:00","2008","12","13","14:00","-1.6","","-13.5","","40","","33","","15","","48.3","","99.02","","","","-6","","Mostly Cloudy"
"2008-12-13 15:00","2008","12","13","15:00","-1.8","","-14.1","","38","","32","","17","","48.3","","99.02","","","","-7","","Mostly Cloudy"
"2008-12-13 16:00","2008","12","13","16:00","-2.5","","-12.0","","48","","34","","15","","16.1","","99.07","","","","-7","","Snow"
"2008-12-13 17:00","2008","12","13","17:00","-3.7","","-8.9","","67","","32","","17","","4.8","","99.11","","","","-9","","Snow"
"2008-12-13 18:00","2008","12","13","18:00","-5.0","","-7.3","","84","","32","","19","","1.6","","99.13","","","","-11","","Snow"
"2008-12-13 19:00","2008","12","13","19:00","-5.7","","-8.2","","82","","33","","20","","1.6","","99.16","","","","-12","","Snow"
"2008-12-13 20:00","2008","12","13","20:00","-5.8","","-8.1","","84","","30","","15","","2.0","","99.14","","","","-12","","Snow"
"2008-12-13 21:00","2008","12","13","21:00","-5.7","","-8.4","","81","","28","","15","","2.4","","99.16","","","","-11","","Snow"
"2008-12-13 22:00","2008","12","13","22:00"
"2008-12-13 23:00","2008","12","13","23:00"
"2008-12-14 00:00","2008","12","14","00:00"
"2008-12-14 01:00","2008","12","14","01:00"
"2008-12-14 02:00","2008","12","14","02:00"
"2008-12-14 03:00","2008","12","14","03:00"
"2008-12-14 04:00","2008","12","14","04:00"
"2008-12-14 05:00","2008","12","14","05:00"
"2008-12-14 06:00","2008","12","14","06:00","-5.2","","-9.8","","70","","27","","11","","12.9","","99.62","","","","-10","","Cloudy"
"2008-12-14 07:00","2008","12","14","07:00","-5.0","","-8.4","","77","","27","","7","","6.4","","99.71","","","","-8","","Snow"
"2008-12-14 08:00","2008","12","14","08:00","-5.0","","-8.5","","76","","26","","9","","9.7","","99.76","","","","-9","","Snow"
"2008-12-14 09:00","2008","12","14","09:00","-4.7","","-9.0","","72","","27","","11","","12.9","","99.84","","","","-9","","Cloudy"
"2008-12-14 10:00","2008","12","14","10:00","-4.0","","-9.8","","64","","27","","11","","12.9","","99.95","","","","-8","","Cloudy"
"2008-12-14 11:00","2008","12","14","11:00","-3.3","","-11.8","","52","","28","","11","","19.3","","100.03","","","","-8","","Mostly Cloudy"
"2008-12-14 12:00","2008","12","14","12:00","-2.9","","-11.9","","50","","29","","17","","19.3","","100.06","","","","-8","","Mostly Cloudy"
"2008-12-14 13:00","2008","12","14","13:00","-2.9","","-8.6","","65","","26","","15","","24.1","","100.03","","","","-8","","Mostly Cloudy"
"2008-12-14 14:00","2008","12","14","14:00","-2.4","","-13.6","","42","","30","","17","","24.1","","100.07","","","","-8","","Mostly Cloudy"
"2008-12-14 15:00","2008","12","14","15:00","-2.3","","-10.1","","55","","28","","9","","32.2","","100.11","","","","-6","","Mostly Cloudy"
"2008-12-14 16:00","2008","12","14","16:00","-2.4","","-14.2","","40","","30","","15","","32.2","","100.18","","","","-7","","Mostly Cloudy"
"2008-12-14 17:00","2008","12","14","17:00","-3.1","","-13.4","","45","","29","","15","","32.2","","100.24","","","","-8","","Mostly Cloudy"
"2008-12-14 18:00","2008","12","14","18:00","-3.3","","-13.6","","45","","28","","11","","24.1","","100.31","","","","-8","","Mostly Cloudy"
"2008-12-14 19:00","2008","12","14","19:00","-5.6","","-14.4","","50","","27","","11","","24.1","","100.37","","","","-10","","Mainly Clear"
"2008-12-14 20:00","2008","12","14","20:00","-5.5","","-14.0","","51","","27","","11","","24.1","","100.44","","","","-10","","Mainly Clear"
"2008-12-14 21:00","2008","12","14","21:00","-4.9","","-14.9","","45","","27","","11","","24.1","","100.51","","","","-9","","Mainly Clear"
"2008-12-14 22:00","2008","12","14","22:00"
"2008-12-14 23:00","2008","12","14","23:00"
"2008-12-15 00:00","2008","12","15","00:00"
"2008-12-15 01:00","2008","12","15","01:00"
"2008-12-15 02:00","2008","12","15","02:00"
"2008-12-15 03:00","2008","12","15","03:00"
"2008-12-15 04:00","2008","12","15","04:00"
"2008-12-15 05:00","2008","12","15","05:00"
"2008-12-15 06:00","2008","12","15","06:00","-8.5","","-14.4","","62","","27","","13","","25.0","","100.83","","","","-14","","Clear"
"2008-12-15 07:00","2008","12","15","07:00","-8.1","","-14.3","","61","","28","","13","","25.0","","100.86","","","","-14","","Clear"
"2008-12-15 08:00","2008","12","15","08:00","-7.9","","-14.6","","59","","27","","15","","32.2","","100.92","","","","-14","","Clear"
"2008-12-15 09:00","2008","12","15","09:00","-7.5","","-14.4","","58","","28","","11","","48.3","","100.95","","","","-13","","Clear"
"2008-12-15 10:00","2008","12","15","10:00","-4.9","","-14.1","","48","","27","","11","","48.3","","101.02","","","","-9","","Clear"
"2008-12-15 11:00","2008","12","15","11:00","-3.4","","-14.4","","42","","28","","15","","48.3","","101.06","","","","-9","","Clear"
"2008-12-15 12:00","2008","12","15","12:00","-2.6","","-14.2","","40","","28","","15","","48.3","","101.03","","","","-8","","Clear"
"2008-12-15 13:00","2008","12","15","13:00","-1.6","","-13.6","","39","","29","","11","","48.3","","101.02","","","","-5","","Clear"
"2008-12-15 14:00","2008","12","15","14:00","-1.4","","-12.5","","43","","28","","11","","48.3","","101.01","","","","-5","","Clear"
"2008-12-15 15:00","2008","12","15","15:00","-1.4","","-13.2","","40","","28","","15","","48.3","","101.01","","","","-6","","Clear"
"2008-12-15 16:00","2008","12","15","16:00","-2.3","","-12.7","","45","","28","","9","","48.3","","101.04","","","","-6","","Clear"
"2008-12-15 17:00","2008","12","15","17:00","-4.7","","-13.0","","52","","30","","7","","48.3","","101.06","","","","-8","","Clear"
"2008-12-15 18:00","2008","12","15","18:00","-5.0","","-13.8","","50","","27","","4","","32.2","","101.09","","","","-7","","Clear"
"2008-12-15 19:00","2008","12","15","19:00","-5.8","","-13.8","","53","","29","","11","","32.2","","101.14","","","","-11","","Clear"
"2008-12-15 20:00","2008","12","15","20:00","-6.3","","-13.4","","57","","28","","11","","32.2","","101.19","","","","-11","","Clear"
"2008-12-15 21:00","2008","12","15","21:00","-6.0","","-13.2","","57","","32","","9","","32.2","","101.20","","","","-10","","Clear"
"2008-12-15 22:00","2008","12","15","22:00"
"2008-12-15 23:00","2008","12","15","23:00"
"2008-12-16 00:00","2008","12","16","00:00"
"2008-12-16 01:00","2008","12","16","01:00"
"2008-12-16 02:00","2008","12","16","02:00"
"2008-12-16 03:00","2008","12","16","03:00"
"2008-12-16 04:00","2008","12","16","04:00"
"2008-12-16 05:00","2008","12","16","05:00"
"2008-12-16 06:00","2008","12","16","06:00","-8.4","","-11.1","","81","","27","","7","","25.0","","101.14","","","","-12","","Clear"
"2008-12-16 07:00","2008","12","16","07:00","-8.7","","-10.8","","85","","26","","9","","32.2","","101.13","","","","-13","","Mainly Clear"
"2008-12-16 08:00","2008","12","16","08:00","-9.1","","-11.0","","86","","28","","7","","32.2","","101.10","","","","-13","","Mainly Clear"
"2008-12-16 09:00","2008","12","16","09:00","-9.2","","-11.1","","86","","27","","4","","48.3","","101.10","","","","-11","","Mainly Clear"
"2008-12-16 10:00","2008","12","16","10:00","-5.8","","-8.5","","81","","31","","6","","48.3","","101.08","","","","-9","","Mainly Clear"
"2008-12-16 11:00","2008","12","16","11:00","-3.8","","-7.9","","73","","33","","6","","48.3","","101.09","","","","-6","","Mostly Cloudy"
"2008-12-16 12:00","2008","12","16","12:00","-2.0","","-7.5","","66","","","","0","","48.3","","101.01","","","","","","Mostly Cloudy"
"2008-12-16 13:00","2008","12","16","13:00","0.0","","-8.6","","52","","","","0","","48.3","","100.94","","","","","","Mostly Cloudy"
"2008-12-16 14:00","2008","12","16","14:00","-0.3","","-9.0","","52","","","","0","","48.3","","100.89","","","","","","Cloudy"
"2008-12-16 15:00","2008","12","16","15:00","-0.7","","-8.7","","55","","","","0","","48.3","","100.87","","","","","","Cloudy"
"2008-12-16 16:00","2008","12","16","16:00","-1.3","","-7.3","","64","","","","0","","48.3","","100.75","","","","","","Mostly Cloudy"
"2008-12-16 17:00","2008","12","16","17:00","-2.7","","-8.2","","66","","23","","4","","48.3","","100.71","","","","-4","","Mostly Cloudy"
"2008-12-16 18:00","2008","12","16","18:00","-2.3","","-8.1","","64","","22","","4","","32.2","","100.61","","","","-4","","Cloudy"
"2008-12-16 19:00","2008","12","16","19:00","-3.0","","-8.1","","68","","22","","4","","32.2","","100.54","","","","-5","","Cloudy"
"2008-12-16 20:00","2008","12","16","20:00","-2.9","","-7.7","","69","","","","0","","32.2","","100.41","","","","","","Cloudy"
"2008-12-16 21:00","2008","12","16","21:00","-2.9","","-6.6","","76","","","","0","","32.2","","100.28","","","","","","Cloudy"
"2008-12-16 22:00","2008","12","16","22:00"
"2008-12-16 23:00","2008","12","16","23:00"
"2008-12-17 00:00","2008","12","17","00:00"
"2008-12-17 01:00","2008","12","17","01:00"
"2008-12-17 02:00","2008","12","17","02:00"
"2008-12-17 03:00","2008","12","17","03:00"
"2008-12-17 04:00","2008","12","17","04:00"
"2008-12-17 05:00","2008","12","17","05:00"
"2008-12-17 06:00","2008","12","17","06:00","-2.4","","-3.4","","93","","26","","4","","1.2","","99.61","","","","-4","","Snow Showers"
"2008-12-17 07:00","2008","12","17","07:00","-2.4","","-3.4","","93","","27","","4","","1.6","","99.53","","","","-4","","Snow Showers"
"2008-12-17 08:00","2008","12","17","08:00","-2.4","","-3.3","","94","","29","","4","","1.6","","99.47","","","","-4","","Snow Showers"
"2008-12-17 09:00","2008","12","17","09:00","-2.2","","-3.1","","94","","29","","6","","0.8","","99.42","","","","-5","","Moderate Snow"
"2008-12-17 10:00","2008","12","17","10:00","-1.5","","-2.4","","94","","31","","7","","0.6","","99.37","","","","-4","","Moderate Snow"
"2008-12-17 11:00","2008","12","17","11:00","-1.8","","-2.8","","93","","32","","15","","0.8","","99.32","","","","-7","","Moderate Snow"
"2008-12-17 12:00","2008","12","17","12:00","-2.4","","-3.6","","91","","31","","19","","0.8","","99.25","","","","-8","","Moderate Snow"
"2008-12-17 13:00","2008","12","17","13:00","-2.0","","-4.4","","84","","30","","11","","4.8","","99.19","","","","-6","","Snow"
"2008-12-17 14:00","2008","12","17","14:00","-1.5","","-4.9","","78","","30","","11","","8.0","","99.13","","","","-5","","Snow Showers"
"2008-12-17 15:00","2008","12","17","15:00","-1.5","","-5.2","","76","","30","","11","","16.1","","99.11","","","","-5","","Snow Showers"
"2008-12-17 16:00","2008","12","17","16:00","-1.8","","-5.2","","78","","29","","9","","16.1","","99.11","","","","-5","","Mostly Cloudy"
"2008-12-17 17:00","2008","12","17","17:00","-2.2","","-6.6","","72","","29","","13","","16.1","","99.11","","","","-7","","Cloudy"
"2008-12-17 18:00","2008","12","17","18:00","-3.0","","-7.1","","73","","29","","11","","16.1","","99.12","","","","-7","","Cloudy"
"2008-12-17 19:00","2008","12","17","19:00","-3.4","","-8.4","","68","","29","","13","","16.1","","99.12","","","","-8","","Cloudy"
"2008-12-17 20:00","2008","12","17","20:00","-4.5","","-9.0","","71","","29","","11","","16.1","","99.12","","","","-9","","Cloudy"
"2008-12-17 21:00","2008","12","17","21:00","-5.0","","-9.2","","72","","27","","9","","16.1","","99.12","","","","-9","","Cloudy"
"2008-12-17 22:00","2008","12","17","22:00"
"2008-12-17 23:00","2008","12","17","23:00"
"2008-12-18 00:00","2008","12","18","00:00"
"2008-12-18 01:00","2008","12","18","01:00"
"2008-12-18 02:00","2008","12","18","02:00"
"2008-12-18 03:00","2008","12","18","03:00"
"2008-12-18 04:00","2008","12","18","04:00"
"2008-12-18 05:00","2008","12","18","05:00"
"2008-12-18 06:00","2008","12","18","06:00","-9.0","","-13.0","","73","","31","","11","","24.1","","99.23","","","","-14","","Mainly Clear"
"2008-12-18 07:00","2008","12","18","07:00","-9.4","","-13.1","","74","","27","","11","","24.1","","99.27","","","","-15","","Mainly Clear"
"2008-12-18 08:00","2008","12","18","08:00","-9.1","","-13.6","","70","","27","","15","","48.3","","99.31","","","","-16","","Mainly Clear"
"2008-12-18 09:00","2008","12","18","09:00","-9.5","","-14.1","","69","","27","","17","","48.3","","99.37","","","","-17","","Mainly Clear"
"2008-12-18 10:00","2008","12","18","10:00","-8.5","","-13.7","","66","","27","","15","","48.3","","99.43","","","","-15","","Mainly Clear"
"2008-12-18 11:00","2008","12","18","11:00","-6.0","","-12.7","","59","","28","","11","","48.3","","99.48","","","","-11","","Mainly Clear"
"2008-12-18 12:00","2008","12","18","12:00","-5.0","","-12.3","","57","","27","","13","","48.3","","99.49","","","","-10","","Mainly Clear"
"2008-12-18 13:00","2008","12","18","13:00","-4.7","","-12.6","","54","","28","","17","","48.3","","99.49","","","","-11","","Mainly Clear"
"2008-12-18 14:00","2008","12","18","14:00","-4.3","","-12.7","","52","","28","","11","","48.3","","99.50","","","","-9","","Clear"
"2008-12-18 15:00","2008","12","18","15:00","-4.7","","-12.4","","55","","28","","13","","48.3","","99.57","","","","-10","","Mainly Clear"
"2008-12-18 16:00","2008","12","18","16:00","-6.0","","-13.0","","58","","28","","11","","48.3","","99.65","","","","-11","","Mainly Clear"
"2008-12-18 17:00","2008","12","18","17:00","-8.5","","-13.7","","66","","28","","9","","48.3","","99.74","","","","-13","","Mainly Clear"
"2008-12-18 18:00","2008","12","18","18:00","-9.6","","-14.4","","68","","27","","13","","48.3","","99.83","","","","-16","","Clear"
"2008-12-18 19:00","2008","12","18","19:00","-10.1","","-15.1","","67","","28","","13","","25.0","","99.94","","","","-16","","Clear"
"2008-12-18 20:00","2008","12","18","20:00","-10.6","","-15.5","","67","","27","","15","","25.0","","100.01","","","","-17","","Clear"
"2008-12-18 21:00","2008","12","18","21:00","-10.6","","-15.8","","66","","28","","13","","25.0","","100.10","","","","-17","","Clear"
"2008-12-18 22:00","2008","12","18","22:00"
"2008-12-18 23:00","2008","12","18","23:00"
"2008-12-19 00:00","2008","12","19","00:00"
"2008-12-19 01:00","2008","12","19","01:00"
"2008-12-19 02:00","2008","12","19","02:00"
"2008-12-19 03:00","2008","12","19","03:00"
"2008-12-19 04:00","2008","12","19","04:00"
"2008-12-19 05:00","2008","12","19","05:00"
"2008-12-19 06:00","2008","12","19","06:00","-12.1","","-16.0","","73","","28","","7","","24.1","","100.86","","","","-16","","Clear"
"2008-12-19 07:00","2008","12","19","07:00","-14.5","","-17.4","","79","","27","","9","","24.1","","100.92","","","","-20","","Clear"
"2008-12-19 08:00","2008","12","19","08:00","-12.7","","-16.2","","75","","29","","6","","48.3","","100.98","","","","-17","","Clear"
"2008-12-19 09:00","2008","12","19","09:00","-13.1","","-16.6","","75","","27","","11","","48.3","","101.03","","","","-19","","Clear"
"2008-12-19 10:00","2008","12","19","10:00","-10.0","","-15.0","","67","","27","","9","","48.3","","101.09","","","","-15","","Clear"
"2008-12-19 11:00","2008","12","19","11:00","-8.1","","-14.7","","59","","30","","9","","48.3","","101.14","","","","-13","","Clear"
"2008-12-19 12:00","2008","12","19","12:00","-6.3","","-15.1","","50","","28","","13","","48.3","","101.17","","","","-12","","Clear"
"2008-12-19 13:00","2008","12","19","13:00","-5.8","","-15.1","","48","","30","","9","","48.3","","101.21","","","","-10","","Clear"
"2008-12-19 14:00","2008","12","19","14:00","-4.6","","-14.6","","45","","27","","6","","48.3","","101.22","","","","-7","","Mainly Clear"
"2008-12-19 15:00","2008","12","19","15:00","-4.7","","-15.0","","44","","","","0","","48.3","","101.25","","","","","","Mainly Clear"
"2008-12-19 16:00","2008","12","19","16:00","-7.0","","-15.0","","53","","26","","4","","48.3","","101.31","","","","-9","","Mainly Clear"
"2008-12-19 17:00","2008","12","19","17:00","-8.0","","-13.1","","67","","26","","4","","48.3","","101.39","","","","-10","","Mainly Clear"
"2008-12-19 18:00","2008","12","19","18:00","-9.7","","-13.0","","77","","29","","6","","25.0","","101.43","","","","-13","","Mostly Cloudy"
"2008-12-19 19:00","2008","12","19","19:00","-10.3","","-13.3","","79","","31","","6","","25.0","","101.49","","","","-14","","Mostly Cloudy"
"2008-12-19 20:00","2008","12","19","20:00","-9.7","","-13.5","","74","","30","","4","","25.0","","101.49","","","","-12","","Mostly Cloudy"
"2008-12-19 21:00","2008","12","19","21:00","-9.4","","-13.1","","74","","","","0","","25.0","","101.56","","","","","","Mostly Cloudy"
"2008-12-19 22:00","2008","12","19","22:00"
"2008-12-19 23:00","2008","12","19","23:00"
"2008-12-20 00:00","2008","12","20","00:00"
"2008-12-20 01:00","2008","12","20","01:00"
"2008-12-20 02:00","2008","12","20","02:00"
"2008-12-20 03:00","2008","12","20","03:00"
"2008-12-20 04:00","2008","12","20","04:00"
"2008-12-20 05:00","2008","12","20","05:00"
"2008-12-20 06:00","2008","12","20","06:00","-8.7","","-10.8","","85","","26","","9","","8.0","","101.64","","","","-13","","Snow"
"2008-12-20 07:00","2008","12","20","07:00","-8.4","","-10.5","","85","","32","","4","","8.0","","101.64","","","","-11","","Snow"
"2008-12-20 08:00","2008","12","20","08:00","-8.2","","-10.2","","85","","","","0","","24.1","","101.62","","","","","","Snow"
"2008-12-20 09:00","2008","12","20","09:00","-7.2","","-11.0","","74","","","","0","","24.1","","101.62","","","","","","Snow"
"2008-12-20 10:00","2008","12","20","10:00","-6.4","","-12.7","","61","","15","","20","","24.1","","101.60","","","","-13","","Snow"
"2008-12-20 11:00","2008","12","20","11:00","-6.3","","-12.0","","64","","14","","24","","24.1","","101.59","","","","-14","","Snow"
"2008-12-20 12:00","2008","12","20","12:00","-6.3","","-12.4","","62","","14","","24","","24.1","","101.45","","","","-14","","Snow"
"2008-12-20 13:00","2008","12","20","13:00","-6.1","","-12.2","","62","","15","","24","","24.1","","101.35","","","","-14","","Snow"
"2008-12-20 14:00","2008","12","20","14:00","-6.2","","-12.8","","59","","15","","22","","24.1","","101.25","","","","-13","","Snow"
"2008-12-20 15:00","2008","12","20","15:00","-6.1","","-13.6","","55","","14","","19","","24.1","","101.14","","","","-13","","Cloudy"
"2008-12-20 16:00","2008","12","20","16:00","-6.1","","-13.7","","55","","15","","17","","24.1","","101.05","","","","-12","","Cloudy"
"2008-12-20 17:00","2008","12","20","17:00","-5.9","","-13.2","","56","","14","","17","","12.9","","100.91","","","","-12","","Snow"
"2008-12-20 18:00","2008","12","20","18:00","-6.1","","-11.9","","63","","14","","15","","9.7","","100.73","","","","-12","","Snow"
"2008-12-20 19:00","2008","12","20","19:00","-7.2","","-9.2","","86","","14","","13","","2.4","","100.60","","","","-13","","Snow"
"2008-12-20 20:00","2008","12","20","20:00","-6.7","","-8.8","","85","","14","","15","","2.0","","100.40","","","","-13","","Snow"
"2008-12-20 21:00","2008","12","20","21:00","-6.3","","-7.9","","88","","12","","11","","1.2","","100.23","","","","-11","","Snow"
"2008-12-20 22:00","2008","12","20","22:00"
"2008-12-20 23:00","2008","12","20","23:00"
"2008-12-21 00:00","2008","12","21","00:00"
"2008-12-21 01:00","2008","12","21","01:00"
"2008-12-21 02:00","2008","12","21","02:00"
"2008-12-21 03:00","2008","12","21","03:00"
"2008-12-21 04:00","2008","12","21","04:00"
"2008-12-21 05:00","2008","12","21","05:00"
"2008-12-21 06:00","2008","12","21","06:00","-2.9","","-3.9","","93","","10","","9","","2.4","","99.44","","","","-6","","Snow"
"2008-12-21 07:00","2008","12","21","07:00","-2.5","","-4.4","","87","","12","","11","","3.2","","99.38","","","","-7","","Snow"
"2008-12-21 08:00","2008","12","21","08:00","-2.4","","-4.3","","87","","13","","9","","3.2","","99.40","","","","-6","","Snow"
"2008-12-21 09:00","2008","12","21","09:00","-2.6","","-3.5","","94","","14","","11","","0.8","","99.42","","","","-7","","Moderate Snow"
"2008-12-21 10:00","2008","12","21","10:00","-2.1","","-3.2","","92","","13","","11","","1.2","","99.42","","","","-6","","Snow"
"2008-12-21 11:00","2008","12","21","11:00","-2.2","","-3.2","","93","","15","","15","","1.2","","99.42","","","","-7","","Snow"
"2008-12-21 12:00","2008","12","21","12:00","-1.7","","-2.7","","93","","14","","9","","2.0","","99.35","","","","-5","","Snow"
"2008-12-21 13:00","2008","12","21","13:00","-1.4","","-2.3","","94","","7","","6","","1.6","","99.31","","","","-4","","Snow"
"2008-12-21 14:00","2008","12","21","14:00","-1.2","","-2.1","","94","","3","","7","","1.6","","99.27","","","","-4","","Snow"
"2008-12-21 15:00","2008","12","21","15:00","-1.9","","-2.7","","94","","36","","7","","1.6","","99.21","","","","-5","","Snow"
"2008-12-21 16:00","2008","12","21","16:00","-2.2","","-3.2","","93","","33","","6","","11.3","","99.20","","","","-5","","Snow"
"2008-12-21 17:00","2008","12","21","17:00","-2.4","","-3.6","","91","","27","","4","","6.4","","99.16","","","","-4","","Snow"
"2008-12-21 18:00","2008","12","21","18:00","-2.6","","-3.8","","91","","32","","6","","12.9","","99.13","","","","-5","","Cloudy"
"2008-12-21 19:00","2008","12","21","19:00","-2.8","","-3.9","","92","","33","","6","","19.3","","99.06","","","","-5","","Cloudy"
"2008-12-21 20:00","2008","12","21","20:00","-3.7","","-4.8","","92","","31","","4","","24.1","","99.05","","","","-5","","Cloudy"
"2008-12-21 21:00","2008","12","21","21:00","-3.9","","-5.1","","91","","29","","6","","24.1","","99.07","","","","-7","","Cloudy"
"2008-12-21 22:00","2008","12","21","22:00"
"2008-12-21 23:00","2008","12","21","23:00"
"2008-12-22 00:00","2008","12","22","00:00"
"2008-12-22 01:00","2008","12","22","01:00"
"2008-12-22 02:00","2008","12","22","02:00"
"2008-12-22 03:00","2008","12","22","03:00"
"2008-12-22 04:00","2008","12","22","04:00"
"2008-12-22 05:00","2008","12","22","05:00"
"2008-12-22 06:00","2008","12","22","06:00","-5.1","","-7.1","","86","","29","","9","","25.0","","99.34","","","","-9","","Mostly Cloudy"
"2008-12-22 07:00","2008","12","22","07:00","-6.1","","-8.3","","84","","29","","7","","25.0","","99.38","","","","-9","","Mostly Cloudy"
"2008-12-22 08:00","2008","12","22","08:00","-6.3","","-8.5","","84","","30","","7","","48.3","","99.43","","","","-10","","Mainly Clear"
"2008-12-22 09:00","2008","12","22","09:00","-7.0","","-9.1","","85","","30","","7","","48.3","","99.50","","","","-11","","Mainly Clear"
"2008-12-22 10:00","2008","12","22","10:00","-6.5","","-9.0","","82","","31","","11","","48.3","","99.54","","","","-11","","Mainly Clear"
"2008-12-22 11:00","2008","12","22","11:00","-4.6","","-7.8","","78","","29","","9","","48.3","","99.57","","","","-8","","Mainly Clear"
"2008-12-22 12:00","2008","12","22","12:00","-3.2","","-6.7","","77","","30","","9","","48.3","","99.58","","","","-7","","Mainly Clear"
"2008-12-22 13:00","2008","12","22","13:00","-2.3","","-6.3","","74","","31","","11","","48.3","","99.57","","","","-6","","Mainly Clear"
"2008-12-22 14:00","2008","12","22","14:00","-2.1","","-6.2","","73","","29","","9","","48.3","","99.57","","","","-6","","Mainly Clear"
"2008-12-22 15:00","2008","12","22","15:00","-2.6","","-6.5","","75","","28","","7","","48.3","","99.58","","","","-5","","Mainly Clear"
"2008-12-22 16:00","2008","12","22","16:00","-4.2","","-7.0","","81","","29","","7","","48.3","","99.62","","","","-7","","Clear"
"2008-12-22 17:00","2008","12","22","17:00","-5.0","","-6.6","","89","","","","0","","48.3","","99.65","","","","","","Clear"
"2008-12-22 18:00","2008","12","22","18:00","-6.7","","-7.8","","92","","27","","6","","48.3","","99.70","","","","-10","","Clear"
"2008-12-22 19:00","2008","12","22","19:00","-8.0","","-9.5","","89","","27","","7","","25.0","","99.71","","","","-12","","Clear"
"2008-12-22 20:00","2008","12","22","20:00","-8.8","","-10.4","","88","","31","","6","","25.0","","99.75","","","","-12","","Clear"
"2008-12-22 21:00","2008","12","22","21:00","-10.1","","-11.6","","89","","27","","4","","25.0","","99.79","","","","-12","","Clear"
"2008-12-22 22:00","2008","12","22","22:00"
"2008-12-22 23:00","2008","12","22","23:00"
"2008-12-23 00:00","2008","12","23","00:00"
"2008-12-23 01:00","2008","12","23","01:00"
"2008-12-23 02:00","2008","12","23","02:00"
"2008-12-23 03:00","2008","12","23","03:00"
"2008-12-23 04:00","2008","12","23","04:00"
"2008-12-23 05:00","2008","12","23","05:00"
"2008-12-23 06:00","2008","12","23","06:00","-7.2","","-8.3","","92","","27","","4","","25.0","","99.92","","","","-9","","Cloudy"
"2008-12-23 07:00","2008","12","23","07:00","-6.1","","-7.3","","91","","31","","6","","25.0","","99.92","","","","-9","","Cloudy"
"2008-12-23 08:00","2008","12","23","08:00","-6.0","","-7.2","","91","","31","","4","","32.2","","99.91","","","","-8","","Cloudy"
"2008-12-23 09:00","2008","12","23","09:00","-5.4","","-6.8","","90","","27","","4","","24.1","","99.93","","","","-7","","Cloudy"
"2008-12-23 10:00","2008","12","23","10:00","-4.7","","-6.0","","91","","29","","4","","6.4","","99.95","","","","-6","","Snow Showers"
"2008-12-23 11:00","2008","12","23","11:00","-3.7","","-4.8","","92","","32","","4","","19.3","","100.01","","","","-5","","Snow Showers"
"2008-12-23 12:00","2008","12","23","12:00","-3.2","","-4.2","","93","","35","","4","","19.3","","99.98","","","","-5","","Snow Showers"
"2008-12-23 13:00","2008","12","23","13:00","-1.7","","-2.7","","93","","","","0","","19.3","","99.94","","","","","","Snow Showers"
"2008-12-23 14:00","2008","12","23","14:00","-1.8","","-2.7","","94","","31","","4","","19.3","","99.88","","","","-3","","Snow Showers"
"2008-12-23 15:00","2008","12","23","15:00","-1.4","","-2.7","","91","","13","","6","","16.1","","99.90","","","","-4","","Snow Showers"
"2008-12-23 16:00","2008","12","23","16:00","-1.1","","-2.9","","88","","14","","4","","19.3","","99.89","","","","-2","","Snow Showers"
"2008-12-23 17:00","2008","12","23","17:00","-1.4","","-3.0","","89","","11","","9","","19.3","","99.86","","","","-5","","Snow Showers"
"2008-12-23 18:00","2008","12","23","18:00","-1.5","","-3.1","","89","","12","","9","","19.3","","99.84","","","","-5","","Cloudy"
"2008-12-23 19:00","2008","12","23","19:00","-1.5","","-3.0","","89","","14","","7","","16.1","","99.82","","","","-4","","Snow Showers"
"2008-12-23 20:00","2008","12","23","20:00","-1.7","","-2.7","","93","","12","","9","","3.2","","99.72","","","","-5","","Snow Showers"
"2008-12-23 21:00","2008","12","23","21:00","-1.8","","-2.8","","93","","11","","6","","3.2","","99.68","","","","-4","","Snow"
"2008-12-23 22:00","2008","12","23","22:00"
"2008-12-23 23:00","2008","12","23","23:00"
"2008-12-24 00:00","2008","12","24","00:00"
"2008-12-24 01:00","2008","12","24","01:00"
"2008-12-24 02:00","2008","12","24","02:00"
"2008-12-24 03:00","2008","12","24","03:00"
"2008-12-24 04:00","2008","12","24","04:00"
"2008-12-24 05:00","2008","12","24","05:00"
"2008-12-24 06:00","2008","12","24","06:00","-1.2","","-2.2","","93","","14","","22","","3.2","","98.56","","","","-7","","Snow"
"2008-12-24 07:00","2008","12","24","07:00","-1.0","","-2.2","","92","","14","","19","","4.0","","98.45","","","","-6","","Snow"
"2008-12-24 08:00","2008","12","24","08:00","-0.7","","-1.8","","92","","14","","20","","11.3","","98.29","","","","-6","","Cloudy"
"2008-12-24 09:00","2008","12","24","09:00","-0.4","","-1.6","","92","","14","","17","","11.3","","98.18","","","","-5","","Snow Showers"
"2008-12-24 10:00","2008","12","24","10:00","-0.1","","-1.2","","92","","14","","26","","4.8","","98.06","","","","-6","","Snow Showers"
"2008-12-24 11:00","2008","12","24","11:00","0.0","","-0.8","","94","","14","","11","","1.2","","97.98","","","","-4","","Snow Showers"
"2008-12-24 12:00","2008","12","24","12:00","0.2","","-0.5","","95","","15","","6","","1.6","","97.86","","","","","","Snow Showers"
"2008-12-24 13:00","2008","12","24","13:00","0.4","","-0.3","","95","","11","","11","","1.6","","97.73","","","","","","Snow Showers"
"2008-12-24 14:00","2008","12","24","14:00","0.5","","-0.1","","96","","8","","7","","3.2","","97.65","","","","","","Fog"
"2008-12-24 15:00","2008","12","24","15:00","0.9","","0.3","","96","","3","","6","","16.1","","97.63","","","","","","Mostly Cloudy"
"2008-12-24 16:00","2008","12","24","16:00","0.2","","-0.4","","96","","31","","11","","2.0","","97.60","","","","","","Fog"
"2008-12-24 17:00","2008","12","24","17:00","0.2","","-0.3","","96","","31","","7","","12.9","","97.62","","","","","","Cloudy"
"2008-12-24 18:00","2008","12","24","18:00","0.1","","-0.7","","94","","32","","11","","16.1","","97.63","","","","","","Mostly Cloudy"
"2008-12-24 19:00","2008","12","24","19:00","0.4","","-0.4","","94","","29","","6","","16.1","","97.67","","","","","","Mostly Cloudy"
"2008-12-24 20:00","2008","12","24","20:00","0.1","","-0.5","","96","","1","","4","","12.9","","97.72","","","","","","Mostly Cloudy"
"2008-12-24 21:00","2008","12","24","21:00","0.2","","-0.6","","94","","27","","4","","12.9","","97.78","","","","","","Cloudy"
"2008-12-24 22:00","2008","12","24","22:00"
"2008-12-24 23:00","2008","12","24","23:00"
"2008-12-25 00:00","2008","12","25","00:00"
"2008-12-25 01:00","2008","12","25","01:00"
"2008-12-25 02:00","2008","12","25","02:00"
"2008-12-25 03:00","2008","12","25","03:00"
"2008-12-25 04:00","2008","12","25","04:00"
"2008-12-25 05:00","2008","12","25","05:00"
"2008-12-25 06:00","2008","12","25","06:00","-2.0","","-3.9","","87","","28","","13","","25.0","","98.52","","","","-6","","Mainly Clear"
"2008-12-25 07:00","2008","12","25","07:00","-3.1","","-4.7","","89","","28","","11","","25.0","","98.60","","","","-7","","Mainly Clear"
"2008-12-25 08:00","2008","12","25","08:00","-2.0","","-4.0","","86","","31","","13","","32.2","","98.68","","","","-6","","Mainly Clear"
"2008-12-25 09:00","2008","12","25","09:00","-3.7","","-5.4","","88","","29","","15","","32.2","","98.78","","","","-9","","Mainly Clear"
"2008-12-25 10:00","2008","12","25","10:00","-2.0","","-3.9","","87","","30","","11","","32.2","","98.87","","","","-6","","Mainly Clear"
"2008-12-25 11:00","2008","12","25","11:00","0.1","","-3.1","","79","","30","","15","","32.2","","98.94","","","","","","Mainly Clear"
"2008-12-25 12:00","2008","12","25","12:00","0.4","","-2.7","","80","","31","","15","","32.2","","98.99","","","","","","Mainly Clear"
"2008-12-25 13:00","2008","12","25","13:00","1.4","","-1.7","","80","","32","","19","","32.2","","99.04","","","","","","Mainly Clear"
"2008-12-25 14:00","2008","12","25","14:00","1.5","","-1.6","","80","","31","","24","","32.2","","99.10","","","","","","Mainly Clear"
"2008-12-25 15:00","2008","12","25","15:00","1.5","","-2.0","","78","","32","","11","","32.2","","99.19","","","","","","Mainly Clear"
"2008-12-25 16:00","2008","12","25","16:00","-0.7","","-3.1","","84","","30","","13","","32.2","","99.28","","","","-5","","Mainly Clear"
"2008-12-25 17:00","2008","12","25","17:00","-1.6","","-2.9","","91","","30","","13","","32.2","","99.37","","","","-6","","Mainly Clear"
"2008-12-25 18:00","2008","12","25","18:00","-1.9","","-3.5","","89","","32","","4","","25.0","","99.49","","","","-3","","Mainly Clear"
"2008-12-25 19:00","2008","12","25","19:00","-2.1","","-3.9","","87","","31","","4","","25.0","","99.55","","","","-4","","Clear"
"2008-12-25 20:00","2008","12","25","20:00","-4.7","","-6.0","","91","","29","","6","","25.0","","99.65","","","","-7","","Clear"
"2008-12-25 21:00","2008","12","25","21:00","-5.2","","-6.6","","90","","27","","6","","25.0","","99.76","","","","-8","","Mainly Clear"
"2008-12-25 22:00","2008","12","25","22:00"
"2008-12-25 23:00","2008","12","25","23:00"
"2008-12-26 00:00","2008","12","26","00:00"
"2008-12-26 01:00","2008","12","26","01:00"
"2008-12-26 02:00","2008","12","26","02:00"
"2008-12-26 03:00","2008","12","26","03:00"
"2008-12-26 04:00","2008","12","26","04:00"
"2008-12-26 05:00","2008","12","26","05:00"
"2008-12-26 06:00","2008","12","26","06:00","-4.3","","-5.4","","92","","31","","4","","25.0","","100.21","","","","-6","","Cloudy"
"2008-12-26 07:00","2008","12","26","07:00","-4.0","","-5.1","","92","","","","0","","24.1","","100.22","","","","","","Snow"
"2008-12-26 08:00","2008","12","26","08:00","-3.4","","-4.4","","93","","","","0","","3.2","","100.20","","","","","","Snow"
"2008-12-26 09:00","2008","12","26","09:00","-2.6","","-3.5","","94","","14","","4","","1.2","","100.17","","","","-4","","Snow"
"2008-12-26 10:00","2008","12","26","10:00","-1.4","","-2.1","","95","","13","","15","","0.8","","100.11","","","","-6","","Moderate Snow"
"2008-12-26 11:00","2008","12","26","11:00","-0.7","","-1.5","","94","","13","","19","","1.2","","99.99","","","","-6","","Snow"
"2008-12-26 12:00","2008","12","26","12:00","-0.6","","-1.3","","95","","14","","19","","1.2","","99.95","","","","-6","","Snow"
"2008-12-26 13:00","2008","12","26","13:00","-0.3","","-0.9","","96","","13","","17","","1.2","","99.84","","","","-5","","Snow"
"2008-12-26 14:00","2008","12","26","14:00","0.2","","-0.3","","96","","14","","20","","1.2","","99.68","","","","","","Snow"
"2008-12-26 15:00","2008","12","26","15:00","0.5","","-0.2","","95","","14","","26","","2.0","","99.62","","","","","","Snow"
"2008-12-26 16:00","2008","12","26","16:00","0.7","","-0.1","","94","","13","","26","","2.4","","99.56","","","","","","Snow"
"2008-12-26 17:00","2008","12","26","17:00","0.9","","0.1","","94","","13","","30","","2.0","","99.48","","","","","","Snow"
"2008-12-26 18:00","2008","12","26","18:00","1.1","","0.5","","96","","14","","32","","3.2","","99.35","","","","","","Rain,Snow"
"2008-12-26 19:00","2008","12","26","19:00","0.9","","0.2","","95","","14","","22","","2.4","","99.25","","","","","","Rain,Snow"
"2008-12-26 20:00","2008","12","26","20:00","1.1","","0.4","","95","","14","","26","","3.2","","99.16","","","","","","Rain,Snow"
"2008-12-26 21:00","2008","12","26","21:00","1.2","","0.5","","95","","14","","19","","3.2","","99.10","","","","","","Rain,Fog"
"2008-12-26 22:00","2008","12","26","22:00"
"2008-12-26 23:00","2008","12","26","23:00"
"2008-12-27 00:00","2008","12","27","00:00"
"2008-12-27 01:00","2008","12","27","01:00"
"2008-12-27 02:00","2008","12","27","02:00"
"2008-12-27 03:00","2008","12","27","03:00"
"2008-12-27 04:00","2008","12","27","04:00"
"2008-12-27 05:00","2008","12","27","05:00"
"2008-12-27 06:00","2008","12","27","06:00","0.4","","0.0","","97","","29","","4","","3.2","","99.09","","","","","","Drizzle,Fog"
"2008-12-27 07:00","2008","12","27","07:00","0.5","","0.1","","97","","31","","6","","3.2","","99.12","","","","","","Drizzle,Fog"
"2008-12-27 08:00","2008","12","27","08:00","0.5","","0.1","","97","","29","","6","","2.4","","99.14","","","","","","Drizzle,Fog"
"2008-12-27 09:00","2008","12","27","09:00","0.7","","0.3","","97","","31","","6","","12.9","","99.22","","","","","","Cloudy"
"2008-12-27 10:00","2008","12","27","10:00","1.1","","0.5","","96","","31","","11","","19.3","","99.28","","","","","","Cloudy"
"2008-12-27 11:00","2008","12","27","11:00","1.7","","0.9","","94","","28","","4","","24.1","","99.37","","","","","","Mostly Cloudy"
"2008-12-27 12:00","2008","12","27","12:00","2.4","","1.1","","91","","","","0","","24.1","","99.36","","","","","","Cloudy"
"2008-12-27 13:00","2008","12","27","13:00","2.5","","1.3","","92","","31","","6","","19.3","","99.40","","","","","","Cloudy"
"2008-12-27 14:00","2008","12","27","14:00","2.7","","1.3","","90","","31","","6","","19.3","","99.40","","","","","","Cloudy"
"2008-12-27 15:00","2008","12","27","15:00","2.5","","1.4","","92","","27","","6","","19.3","","99.44","","","","","","Cloudy"
"2008-12-27 16:00","2008","12","27","16:00","2.1","","1.1","","93","","","","0","","24.1","","99.50","","","","","","Cloudy"
"2008-12-27 17:00","2008","12","27","17:00","1.5","","0.7","","94","","","","0","","24.1","","99.49","","","","","","Cloudy"
"2008-12-27 18:00","2008","12","27","18:00","0.9","","0.2","","95","","","","0","","16.1","","99.49","","","","","","Rain Showers"
"2008-12-27 19:00","2008","12","27","19:00","0.8","","0.1","","95","","","","0","","4.8","","99.50","","","","","","Snow Showers"
"2008-12-27 20:00","2008","12","27","20:00","0.4","","-0.3","","95","","","","0","","8.0","","99.52","","","","","","Snow Showers"
"2008-12-27 21:00","2008","12","27","21:00","0.1","","-0.6","","95","","","","0","","12.9","","99.54","","","","","","Cloudy"
"2008-12-27 22:00","2008","12","27","22:00"
"2008-12-27 23:00","2008","12","27","23:00"
"2008-12-28 00:00","2008","12","28","00:00"
"2008-12-28 01:00","2008","12","28","01:00"
"2008-12-28 02:00","2008","12","28","02:00"
"2008-12-28 03:00","2008","12","28","03:00"
"2008-12-28 04:00","2008","12","28","04:00"
"2008-12-28 05:00","2008","12","28","05:00"
"2008-12-28 06:00","2008","12","28","06:00","-1.7","","-2.5","","94","","24","","6","","25.0","","99.49","","","","-4","","Mostly Cloudy"
"2008-12-28 07:00","2008","12","28","07:00","-1.8","","-2.6","","94","","","","0","","25.0","","99.55","","","","","","Mostly Cloudy"
"2008-12-28 08:00","2008","12","28","08:00","-2.6","","-3.6","","93","","29","","4","","32.2","","99.55","","","","-4","","Mainly Clear"
"2008-12-28 09:00","2008","12","28","09:00","-2.3","","-3.1","","94","","","","0","","32.2","","99.63","","","","","","Mostly Cloudy"
"2008-12-28 10:00","2008","12","28","10:00","-0.9","","-1.8","","94","","30","","6","","48.3","","99.74","","","","-3","","Mostly Cloudy"
"2008-12-28 11:00","2008","12","28","11:00","0.1","","-0.7","","94","","36","","6","","40.2","","99.81","","","","","","Mainly Clear"
"2008-12-28 12:00","2008","12","28","12:00","3.4","","0.9","","84","","","","0","","32.2","","99.82","","","","","","Mostly Cloudy"
"2008-12-28 13:00","2008","12","28","13:00","3.2","","1.3","","87","","27","","6","","24.1","","99.85","","","","","","Mostly Cloudy"
"2008-12-28 14:00","2008","12","28","14:00","3.7","","1.0","","82","","","","0","","24.1","","99.82","","","","","","Mostly Cloudy"
"2008-12-28 15:00","2008","12","28","15:00","1.9","","-0.1","","87","","","","0","","24.1","","99.77","","","","","","Mostly Cloudy"
"2008-12-28 16:00","2008","12","28","16:00","1.4","","0.3","","92","","22","","4","","19.3","","99.79","","","","","","Cloudy"
"2008-12-28 17:00","2008","12","28","17:00","2.3","","0.2","","86","","16","","7","","19.3","","99.71","","","","","","Rain Showers"
"2008-12-28 18:00","2008","12","28","18:00","2.2","","0.2","","87","","14","","15","","24.1","","99.67","","","","","","Cloudy"
"2008-12-28 19:00","2008","12","28","19:00","1.8","","0.3","","90","","14","","7","","8.0","","99.72","","","","","","Rain Showers,Snow Showers"
"2008-12-28 20:00","2008","12","28","20:00","1.6","","0.6","","93","","15","","6","","16.1","","99.71","","","","","","Rain Showers"
"2008-12-28 21:00","2008","12","28","21:00","1.5","","0.5","","93","","14","","11","","12.9","","99.70","","","","","","Rain Showers"
"2008-12-28 22:00","2008","12","28","22:00"
"2008-12-28 23:00","2008","12","28","23:00"
"2008-12-29 00:00","2008","12","29","00:00"
"2008-12-29 01:00","2008","12","29","01:00"
"2008-12-29 02:00","2008","12","29","02:00"
"2008-12-29 03:00","2008","12","29","03:00"
"2008-12-29 04:00","2008","12","29","04:00"
"2008-12-29 05:00","2008","12","29","05:00"
"2008-12-29 06:00","2008","12","29","06:00","-1.0","","-1.7","","95","","25","","4","","11.3","","99.13","","","","-2","","Mostly Cloudy"
"2008-12-29 07:00","2008","12","29","07:00","-0.6","","-1.3","","95","","27","","4","","11.3","","98.99","","","","-2","","Cloudy"
"2008-12-29 08:00","2008","12","29","08:00","0.1","","-0.6","","95","","31","","4","","8.0","","98.92","","","","","","Snow Showers"
"2008-12-29 09:00","2008","12","29","09:00","0.4","","-0.3","","95","","29","","6","","8.0","","98.88","","","","","","Snow Showers"
"2008-12-29 10:00","2008","12","29","10:00","0.4","","-0.3","","95","","29","","9","","2.0","","98.88","","","","","","Snow"
"2008-12-29 11:00","2008","12","29","11:00","0.4","","-0.3","","95","","29","","6","","8.0","","98.95","","","","","","Snow"
"2008-12-29 12:00","2008","12","29","12:00","1.1","","0.3","","94","","30","","17","","24.1","","99.02","","","","","","Cloudy"
"2008-12-29 13:00","2008","12","29","13:00","1.8","","0.0","","88","","30","","19","","32.2","","99.12","","","","","","Mostly Cloudy"
"2008-12-29 14:00","2008","12","29","14:00","2.2","","-0.3","","84","","29","","17","","48.3","","99.30","","","","","","Mostly Cloudy"
"2008-12-29 15:00","2008","12","29","15:00","2.5","","-0.6","","80","","31","","17","","48.3","","99.54","","","","","","Mostly Cloudy"
"2008-12-29 16:00","2008","12","29","16:00","1.7","","-1.1","","82","","30","","11","","48.3","","99.69","","","","","","Mainly Clear"
"2008-12-29 17:00","2008","12","29","17:00","-0.4","","-2.4","","86","","28","","9","","48.3","","99.87","","","","-4","","Mainly Clear"
"2008-12-29 18:00","2008","12","29","18:00","-1.5","","-3.3","","88","","26","","6","","25.0","","100.01","","","","-4","","Mainly Clear"
"2008-12-29 19:00","2008","12","29","19:00","-1.9","","-3.1","","91","","25","","7","","25.0","","100.18","","","","-5","","Mainly Clear"
"2008-12-29 20:00","2008","12","29","20:00","-2.6","","-3.9","","91","","","","0","","25.0","","100.32","","","","","","Mainly Clear"
"2008-12-29 21:00","2008","12","29","21:00","-2.8","","-3.7","","94","","31","","6","","25.0","","100.45","","","","-5","","Mainly Clear"
"2008-12-29 22:00","2008","12","29","22:00"
"2008-12-29 23:00","2008","12","29","23:00"
"2008-12-30 00:00","2008","12","30","00:00"
"2008-12-30 01:00","2008","12","30","01:00"
"2008-12-30 02:00","2008","12","30","02:00"
"2008-12-30 03:00","2008","12","30","03:00"
"2008-12-30 04:00","2008","12","30","04:00"
"2008-12-30 05:00","2008","12","30","05:00"
"2008-12-30 06:00","2008","12","30","06:00","-3.3","","-4.5","","91","","31","","4","","25.0","","100.91","","","","-5","","Mostly Cloudy"
"2008-12-30 07:00","2008","12","30","07:00","-2.7","","-3.7","","93","","30","","4","","25.0","","100.90","","","","-4","","Mostly Cloudy"
"2008-12-30 08:00","2008","12","30","08:00","-2.2","","-3.3","","92","","","","0","","24.1","","100.90","","","","","","Snow"
"2008-12-30 09:00","2008","12","30","09:00","0.5","","-0.9","","90","","15","","11","","16.1","","100.90","","","","","","Cloudy"
"2008-12-30 10:00","2008","12","30","10:00","1.3","","0.2","","92","","14","","13","","6.4","","100.86","","","","","","Rain,Fog"
"2008-12-30 11:00","2008","12","30","11:00","1.8","","0.5","","91","","14","","20","","11.3","","100.78","","","","","","Rain"
"2008-12-30 12:00","2008","12","30","12:00","2.7","","1.0","","89","","14","","13","","19.3","","100.65","","","","","","Cloudy"
"2008-12-30 13:00","2008","12","30","13:00","2.6","","0.9","","89","","14","","22","","16.1","","100.52","","","","","","Rain"
"2008-12-30 14:00","2008","12","30","14:00","2.6","","1.4","","92","","14","","24","","16.1","","100.36","","","","","","Rain"
"2008-12-30 15:00","2008","12","30","15:00","2.9","","1.7","","92","","14","","37","","4.8","","100.23","","","","","","Rain,Fog"
"2008-12-30 16:00","2008","12","30","16:00","3.4","","1.9","","90","","13","","33","","6.4","","100.08","","","","","","Rain,Fog"
"2008-12-30 17:00","2008","12","30","17:00","3.6","","1.4","","86","","13","","46","","8.0","","99.91","","","","","","Rain,Fog"
"2008-12-30 18:00","2008","12","30","18:00","3.2","","1.3","","87","","13","","54","","8.0","","99.71","","","","","","Rain,Fog"
"2008-12-30 19:00","2008","12","30","19:00","3.1","","1.2","","87","","13","","48","","6.4","","99.52","","","","","","Rain,Fog"
"2008-12-30 20:00","2008","12","30","20:00","2.5","","1.2","","91","","13","","50","","4.8","","99.32","","","","","","Rain,Fog"
"2008-12-30 21:00","2008","12","30","21:00","2.3","","1.1","","92","","14","","44","","4.8","","99.06","","","","","","Rain,Fog"
"2008-12-30 22:00","2008","12","30","22:00"
"2008-12-30 23:00","2008","12","30","23:00"
"2008-12-31 00:00","2008","12","31","00:00"
"2008-12-31 01:00","2008","12","31","01:00"
"2008-12-31 02:00","2008","12","31","02:00"
"2008-12-31 03:00","2008","12","31","03:00"
"2008-12-31 04:00","2008","12","31","04:00"
"2008-12-31 05:00","2008","12","31","05:00"
"2008-12-31 06:00","2008","12","31","06:00","0.1","","-3.7","","76","","32","","11","","25.0","","99.61","","","","","","Mainly Clear"
"2008-12-31 07:00","2008","12","31","07:00","0.3","","-4.3","","71","","28","","11","","25.0","","99.72","","","","","","Mainly Clear"
"2008-12-31 08:00","2008","12","31","08:00","-0.7","","-4.3","","77","","23","","4","","32.2","","99.78","","","","-2","","Mainly Clear"
"2008-12-31 09:00","2008","12","31","09:00","-2.3","","-4.2","","87","","13","","4","","48.3","","99.89","","","","-4","","Mainly Clear"
"2008-12-31 10:00","2008","12","31","10:00","-1.5","","-3.9","","84","","","","0","","48.3","","100.00","","","","","","Mainly Clear"
"2008-12-31 11:00","2008","12","31","11:00","1.7","","-2.1","","76","","","","0","","24.1","","100.06","","","","","","Mainly Clear"
"2008-12-31 12:00","2008","12","31","12:00","3.7","","-0.9","","72","","30","","4","","32.2","","100.13","","","","","","Mostly Cloudy"
"2008-12-31 13:00","2008","12","31","13:00","3.6","","-2.5","","64","","1","","6","","32.2","","100.15","","","","","","Mostly Cloudy"
"2008-12-31 14:00","2008","12","31","14:00","2.4","","-1.4","","76","","","","0","","32.2","","100.17","","","","","","Mostly Cloudy"
"2008-12-31 15:00","2008","12","31","15:00","1.9","","-1.3","","79","","17","","7","","32.2","","100.15","","","","","","Cloudy"
"2008-12-31 16:00","2008","12","31","16:00","1.4","","-1.2","","83","","","","0","","32.2","","100.18","","","","","","Cloudy"
"2008-12-31 17:00","2008","12","31","17:00","0.0","","-1.8","","88","","27","","4","","24.1","","100.15","","","","-1","","Cloudy"
"2008-12-31 18:00","2008","12","31","18:00","-0.2","","-1.0","","94","","26","","4","","24.1","","100.13","","","","-1","","Cloudy"
"2008-12-31 19:00","2008","12","31","19:00","0.0","","-0.9","","94","","27","","4","","24.1","","100.11","","","","-1","","Cloudy"
"2008-12-31 20:00","2008","12","31","20:00","-0.7","","-1.1","","97","","","","0","","24.1","","100.11","","","","","","Cloudy"
"2008-12-31 21:00","2008","12","31","21:00","-0.7","","-1.2","","96","","30","","6","","24.1","","100.06","","","","-3","","Cloudy"
"2008-12-31 22:00","2008","12","31","22:00"
"2008-12-31 23:00","2008","12","31","23:00"
