"Station Name","CAMPBELL RIVER A"
"Province","BRITISH COLUMBIA"
"Latitude","49.95"
"Longitude","-125.27"
"Elevation","108.80"
"Climate Identifier","1021261"
"WMO Identifier",""
"TC Identifier","YBL"
"All times are specified in Local Standard Time (LST). Add 1 hour to adjust for Daylight Saving Time where and when it is observed."

"Legend"
"E","Estimated"
"M","Missing"
"NA","Not Available"

"Date/Time","Year","Month","Day","Time","Temp (°C)","Temp Flag","Dew Point Temp (°C)","Dew Point Temp Flag","Rel Hum (%)","Rel Hum Flag","Wind Dir (10s deg)","Wind Dir Flag","Wind Spd (km/h)","Wind Spd Flag","Visibility (km)","Visibility Flag","Stn Press (kPa)","Stn Press Flag","Hmdx","Hmdx Flag","Wind Chill","Wind Chill Flag","Weather"
"1996-05-01 00:00","1996","05","01","00:00"
"1996-05-01 01:00","1996","05","01","01:00"
"1996-05-01 02:00","1996","05","01","02:00"
"1996-05-01 03:00","1996","05","01","03:00"
"1996-05-01 04:00","1996","05","01","04:00"
"1996-05-01 05:00","1996","05","01","05:00","2.3","","0.6","","89","","27","","6","","24.1","","100.70","","","","","","Mainly Clear"
"1996-05-01 06:00","1996","05","01","06:00","2.4","","0.9","","90","","30","","6","","24.1","","100.70","","","","","","Mainly Clear"
"1996-05-01 07:00","1996","05","01","07:00","4.6","","1.8","","82","","32","","7","","24.1","","100.73","","","","","","Mainly Clear"
"1996-05-01 08:00","1996","05","01","08:00","7.2","","1.9","","69","","33","","9","","24.1","","100.73","","","","","","Mainly Clear"
"1996-05-01 09:00","1996","05","01","09:00","7.2","","1.9","","69","","33","","9","","24.1","","100.73","","","","","","Mainly Clear"
"1996-05-01 10:00","1996","05","01","10:00","9.6","","0.5","","53","","30","","11","","24.1","","100.76","","","","","","Mostly Cloudy"
"1996-05-01 11:00","1996","05","01","11:00","9.2","","1.4","","58","","9","","6","","24.1","","100.76","","","","","","Mostly Cloudy"
"1996-05-01 12:00","1996","05","01","12:00","9.1","","1.1","","57","","6","","4","","24.1","","100.76","","","","","","Mostly Cloudy"
"1996-05-01 13:00","1996","05","01","13:00","9.9","","1.6","","56","","9","","9","","24.1","","100.73","","","","","","Cloudy"
"1996-05-01 14:00","1996","05","01","14:00","6.5","","3.8","","83","","26","","13","","16.1","","100.76","","","","","","Rain Showers"
"1996-05-01 15:00","1996","05","01","15:00","6.0","","4.7","","91","","","","0","","16.1","","100.73","","","","","","Mostly Cloudy"
"1996-05-01 16:00","1996","05","01","16:00","8.6","","6.0","","84","","13","","7","","24.1","","100.66","","","","","","Mostly Cloudy"
"1996-05-01 17:00","1996","05","01","17:00","8.0","","4.0","","76","","","","0","","32.2","","100.63","","","","","","Mostly Cloudy"
"1996-05-01 18:00","1996","05","01","18:00","8.2","","5.7","","84","","36","","6","","32.2","","100.63","","","","","","Mostly Cloudy"
"1996-05-01 19:00","1996","05","01","19:00","6.3","","4.8","","90","","24","","7","","32.2","","100.63","","","","","","Cloudy"
"1996-05-01 20:00","1996","05","01","20:00","5.1","","3.2","","88","","25","","7","","32.2","","100.63","","","","","","Mainly Clear"
"1996-05-01 21:00","1996","05","01","21:00"
"1996-05-01 22:00","1996","05","01","22:00"
"1996-05-01 23:00","1996","05","01","23:00"
"1996-05-02 00:00","1996","05","02","00:00"
"1996-05-02 01:00","1996","05","02","01:00"
"1996-05-02 02:00","1996","05","02","02:00"
"1996-05-02 03:00","1996","05","02","03:00"
"1996-05-02 04:00","1996","05","02","04:00"
"1996-05-02 05:00","1996","05","02","05:00","-0.6","","-1.1","","96","","29","","4","","24.1","","100.46","","","","-2","","Mainly Clear"
"1996-05-02 06:00","1996","05","02","06:00","1.0","","0.0","","93","","27","","4","","24.1","","100.46","","","","","","Mainly Clear"
"1996-05-02 07:00","1996","05","02","07:00","4.6","","1.9","","83","","29","","4","","24.1","","100.46","","","","","","Mainly Clear"
"1996-05-02 08:00","1996","05","02","08:00","7.3","","0.7","","63","","29","","11","","24.1","","100.46","","","","","","Mainly Clear"
"1996-05-02 09:00","1996","05","02","09:00","8.4","","1.0","","60","","28","","13","","24.1","","100.43","","","","","","Mainly Clear"
"1996-05-02 10:00","1996","05","02","10:00","8.4","","0.6","","58","","31","","15","","24.1","","100.43","","","","","","Mostly Cloudy"
"1996-05-02 11:00","1996","05","02","11:00","9.4","","2.3","","61","","2","","6","","24.1","","100.43","","","","","","Mainly Clear"
"1996-05-02 12:00","1996","05","02","12:00","10.9","","1.4","","52","","31","","11","","24.1","","100.43","","","","","","Mostly Cloudy"
"1996-05-02 13:00","1996","05","02","13:00","11.1","","1.1","","50","","27","","4","","32.2","","100.40","","","","","","Mainly Clear"
"1996-05-02 14:00","1996","05","02","14:00","12.7","","2.7","","51","","32","","11","","32.2","","100.33","","","","","","Mainly Clear"
"1996-05-02 15:00","1996","05","02","15:00","12.0","","0.3","","45","","30","","4","","32.2","","100.33","","","","","","Mainly Clear"
"1996-05-02 16:00","1996","05","02","16:00","11.3","","1.2","","50","","12","","7","","32.2","","100.33","","","","","","Mainly Clear"
"1996-05-02 17:00","1996","05","02","17:00","11.2","","1.5","","51","","11","","4","","32.2","","100.29","","","","","","Mainly Clear"
"1996-05-02 18:00","1996","05","02","18:00","11.6","","2.1","","52","","25","","6","","32.2","","100.29","","","","","","Mainly Clear"
"1996-05-02 19:00","1996","05","02","19:00","8.4","","4.9","","79","","","","0","","32.2","","100.29","","","","","","Mostly Cloudy"
"1996-05-02 20:00","1996","05","02","20:00","7.1","","3.9","","80","","","","0","","32.2","","100.29","","","","","","Mostly Cloudy"
"1996-05-02 21:00","1996","05","02","21:00"
"1996-05-02 22:00","1996","05","02","22:00"
"1996-05-02 23:00","1996","05","02","23:00"
"1996-05-03 00:00","1996","05","03","00:00"
"1996-05-03 01:00","1996","05","03","01:00"
"1996-05-03 02:00","1996","05","03","02:00"
"1996-05-03 03:00","1996","05","03","03:00"
"1996-05-03 04:00","1996","05","03","04:00"
"1996-05-03 05:00","1996","05","03","05:00","4.3","","3.6","","95","","","","0","","25.0","","100.43","","","","","","Cloudy"
"1996-05-03 06:00","1996","05","03","06:00","4.7","","3.8","","94","","","","0","","25.0","","100.46","","","","","","Mostly Cloudy"
"1996-05-03 07:00","1996","05","03","07:00","5.4","","3.6","","88","","","","0","","25.0","","100.50","","","","","","Cloudy"
"1996-05-03 08:00","1996","05","03","08:00","6.1","","3.3","","82","","","","0","","25.0","","100.53","","","","","","Cloudy"
"1996-05-03 09:00","1996","05","03","09:00","6.4","","4.2","","86","","4","","6","","25.0","","100.60","","","","","","Cloudy"
"1996-05-03 10:00","1996","05","03","10:00","6.7","","4.4","","85","","3","","4","","24.1","","100.63","","","","","","Cloudy"
"1996-05-03 11:00","1996","05","03","11:00","6.8","","4.5","","85","","","","0","","25.0","","100.73","","","","","","Cloudy"
"1996-05-03 12:00","1996","05","03","12:00","7.4","","4.9","","84","","","","0","","24.1","","100.73","","","","","","Cloudy"
"1996-05-03 13:00","1996","05","03","13:00","7.5","","5.4","","87","","6","","9","","16.1","","100.76","","","","","","Rain Showers"
"1996-05-03 14:00","1996","05","03","14:00","8.0","","6.1","","88","","9","","7","","16.1","","100.76","","","","","","Rain Showers"
"1996-05-03 15:00","1996","05","03","15:00","8.2","","5.7","","84","","12","","4","","16.1","","100.80","","","","","","Rain Showers"
"1996-05-03 16:00","1996","05","03","16:00","7.9","","6.0","","88","","14","","6","","24.1","","100.83","","","","","","Rain Showers"
"1996-05-03 17:00","1996","05","03","17:00","8.4","","6.2","","86","","10","","7","","24.1","","100.83","","","","","","Mostly Cloudy"
"1996-05-03 18:00","1996","05","03","18:00","9.0","","4.8","","75","","15","","4","","24.1","","100.83","","","","","","Mainly Clear"
"1996-05-03 19:00","1996","05","03","19:00","7.7","","4.4","","80","","","","0","","32.2","","100.83","","","","","","Mainly Clear"
"1996-05-03 20:00","1996","05","03","20:00","5.3","","4.0","","91","","","","0","","24.1","","100.90","","","","","","Mainly Clear"
"1996-05-03 21:00","1996","05","03","21:00"
"1996-05-03 22:00","1996","05","03","22:00"
"1996-05-03 23:00","1996","05","03","23:00"
"1996-05-04 00:00","1996","05","04","00:00"
"1996-05-04 01:00","1996","05","04","01:00"
"1996-05-04 02:00","1996","05","04","02:00"
"1996-05-04 03:00","1996","05","04","03:00"
"1996-05-04 04:00","1996","05","04","04:00"
"1996-05-04 05:00","1996","05","04","05:00","-0.7","","-0.9","","99","","","","0","","32.2","","101.17","","","","","","Mainly Clear"
"1996-05-04 06:00","1996","05","04","06:00","-0.2","","-0.5","","98","","","","0","","32.2","","101.23","","","","","","Mainly Clear"
"1996-05-04 07:00","1996","05","04","07:00","2.5","","1.9","","96","","","","0","","32.2","","101.23","","","","","","Mainly Clear"
"1996-05-04 08:00","1996","05","04","08:00","6.5","","4.0","","84","","","","0","","32.2","","101.27","","","","","","Mainly Clear"
"1996-05-04 09:00","1996","05","04","09:00","8.2","","5.3","","82","","12","","4","","32.2","","101.30","","","","","","Mainly Clear"
"1996-05-04 10:00","1996","05","04","10:00","9.5","","5.8","","78","","","","0","","32.2","","101.33","","","","","","Mainly Clear"
"1996-05-04 11:00","1996","05","04","11:00","10.1","","4.9","","70","","8","","6","","32.2","","101.33","","","","","","Mainly Clear"
"1996-05-04 12:00","1996","05","04","12:00","11.6","","5.4","","66","","15","","4","","32.2","","101.30","","","","","","Mainly Clear"
"1996-05-04 13:00","1996","05","04","13:00","11.5","","5.0","","64","","3","","9","","32.2","","101.27","","","","","","Mainly Clear"
"1996-05-04 14:00","1996","05","04","14:00","11.9","","4.6","","61","","8","","13","","32.2","","101.23","","","","","","Mainly Clear"
"1996-05-04 15:00","1996","05","04","15:00","12.3","","3.3","","54","","6","","7","","32.2","","101.23","","","","","","Clear"
"1996-05-04 16:00","1996","05","04","16:00","12.9","","1.9","","47","","8","","7","","32.2","","101.13","","","","","","Mainly Clear"
"1996-05-04 17:00","1996","05","04","17:00","12.6","","1.2","","46","","5","","9","","32.2","","101.13","","","","","","Mainly Clear"
"1996-05-04 18:00","1996","05","04","18:00","12.8","","1.9","","47","","","","0","","32.2","","101.07","","","","","","Mainly Clear"
"1996-05-04 19:00","1996","05","04","19:00","10.2","","2.9","","60","","","","0","","32.2","","101.07","","","","","","Mainly Clear"
"1996-05-04 20:00","1996","05","04","20:00","8.8","","5.5","","80","","","","0","","24.1","","101.13","","","","","","Mainly Clear"
"1996-05-04 21:00","1996","05","04","21:00"
"1996-05-04 22:00","1996","05","04","22:00"
"1996-05-04 23:00","1996","05","04","23:00"
"1996-05-05 00:00","1996","05","05","00:00"
"1996-05-05 01:00","1996","05","05","01:00"
"1996-05-05 02:00","1996","05","05","02:00"
"1996-05-05 03:00","1996","05","05","03:00"
"1996-05-05 04:00","1996","05","05","04:00"
"1996-05-05 05:00","1996","05","05","05:00","3.6","","2.8","","94","","29","","6","","24.1","","101.07","","","","","","Mainly Clear"
"1996-05-05 06:00","1996","05","05","06:00","4.6","","3.6","","93","","30","","6","","24.1","","101.03","","","","","","Mainly Clear"
"1996-05-05 07:00","1996","05","05","07:00","7.7","","4.9","","82","","27","","7","","24.1","","101.07","","","","","","Mainly Clear"
"1996-05-05 08:00","1996","05","05","08:00","9.5","","4.4","","70","","28","","19","","24.1","","101.07","","","","","","Mainly Clear"
"1996-05-05 09:00","1996","05","05","09:00","11.1","","4.6","","64","","27","","7","","24.1","","101.07","","","","","","Mainly Clear"
"1996-05-05 10:00","1996","05","05","10:00","12.8","","4.6","","57","","27","","4","","24.1","","101.07","","","","","","Mainly Clear"
"1996-05-05 11:00","1996","05","05","11:00","13.5","","5.1","","57","","34","","6","","24.1","","101.07","","","","","","Mainly Clear"
"1996-05-05 12:00","1996","05","05","12:00","14.0","","4.5","","53","","9","","7","","24.1","","101.03","","","","","","Mainly Clear"
"1996-05-05 13:00","1996","05","05","13:00","15.1","","4.9","","50","","6","","11","","24.1","","100.96","","","","","","Mainly Clear"
"1996-05-05 14:00","1996","05","05","14:00","15.3","","3.9","","46","","6","","6","","24.1","","100.96","","","","","","Mainly Clear"
"1996-05-05 15:00","1996","05","05","15:00","15.7","","3.6","","44","","9","","6","","24.1","","100.93","","","","","","Mainly Clear"
"1996-05-05 16:00","1996","05","05","16:00","14.7","","2.3","","43","","3","","11","","24.1","","100.90","","","","","","Mostly Cloudy"
"1996-05-05 17:00","1996","05","05","17:00","14.9","","1.9","","41","","","","0","","24.1","","100.86","","","","","","Mostly Cloudy"
"1996-05-05 18:00","1996","05","05","18:00","14.2","","2.4","","45","","","","0","","24.1","","100.83","","","","","","Mostly Cloudy"
"1996-05-05 19:00","1996","05","05","19:00","12.9","","2.8","","50","","32","","6","","24.1","","100.83","","","","","","Mostly Cloudy"
"1996-05-05 20:00","1996","05","05","20:00","12.3","","5.4","","63","","19","","7","","24.1","","100.86","","","","","","Mostly Cloudy"
"1996-05-05 21:00","1996","05","05","21:00"
"1996-05-05 22:00","1996","05","05","22:00"
"1996-05-05 23:00","1996","05","05","23:00"
"1996-05-06 00:00","1996","05","06","00:00"
"1996-05-06 01:00","1996","05","06","01:00"
"1996-05-06 02:00","1996","05","06","02:00"
"1996-05-06 03:00","1996","05","06","03:00"
"1996-05-06 04:00","1996","05","06","04:00"
"1996-05-06 05:00","1996","05","06","05:00","5.1","","2.7","","84","","27","","9","","24.1","","100.73","","","","","","Mostly Cloudy"
"1996-05-06 06:00","1996","05","06","06:00","5.9","","2.3","","78","","27","","6","","24.1","","100.73","","","","","","Mostly Cloudy"
"1996-05-06 07:00","1996","05","06","07:00","7.1","","3.0","","75","","25","","4","","24.1","","100.73","","","","","","Mostly Cloudy"
"1996-05-06 08:00","1996","05","06","08:00","8.8","","2.3","","64","","28","","4","","24.1","","100.73","","","","","","Mostly Cloudy"
"1996-05-06 09:00","1996","05","06","09:00","11.0","","2.8","","57","","17","","4","","24.1","","100.70","","","","","","Mostly Cloudy"
"1996-05-06 10:00","1996","05","06","10:00","9.9","","2.9","","62","","3","","6","","24.1","","100.66","","","","","","Mostly Cloudy"
"1996-05-06 11:00","1996","05","06","11:00","10.1","","2.4","","59","","","","0","","24.1","","100.63","","","","","","Mostly Cloudy"
"1996-05-06 12:00","1996","05","06","12:00","11.2","","3.2","","58","","8","","7","","24.1","","100.60","","","","","","Mostly Cloudy"
"1996-05-06 13:00","1996","05","06","13:00","10.8","","2.5","","56","","9","","6","","24.1","","100.53","","","","","","Cloudy"
"1996-05-06 14:00","1996","05","06","14:00","9.9","","6.7","","80","","9","","7","","24.1","","100.50","","","","","","Rain Showers"
"1996-05-06 15:00","1996","05","06","15:00","10.5","","4.4","","66","","9","","6","","24.1","","100.50","","","","","","Mostly Cloudy"
"1996-05-06 16:00","1996","05","06","16:00","10.6","","4.0","","64","","9","","9","","24.1","","100.40","","","","","","Cloudy"
"1996-05-06 17:00","1996","05","06","17:00","9.5","","2.8","","63","","","","0","","24.1","","100.33","","","","","","Cloudy"
"1996-05-06 18:00","1996","05","06","18:00","6.3","","5.1","","92","","27","","6","","4.8","","100.33","","","","","","Rain Showers,Fog"
"1996-05-06 19:00","1996","05","06","19:00","5.6","","4.7","","94","","31","","7","","24.1","","100.36","","","","","","Rain Showers"
"1996-05-06 20:00","1996","05","06","20:00","5.5","","4.7","","95","","","","0","","24.1","","100.33","","","","","","Rain Showers"
"1996-05-06 21:00","1996","05","06","21:00"
"1996-05-06 22:00","1996","05","06","22:00"
"1996-05-06 23:00","1996","05","06","23:00"
"1996-05-07 00:00","1996","05","07","00:00"
"1996-05-07 01:00","1996","05","07","01:00"
"1996-05-07 02:00","1996","05","07","02:00"
"1996-05-07 03:00","1996","05","07","03:00"
"1996-05-07 04:00","1996","05","07","04:00"
"1996-05-07 05:00","1996","05","07","05:00","2.2","","2.1","","99","","27","","4","","24.1","","100.06","","","","","","Mostly Cloudy"
"1996-05-07 06:00","1996","05","07","06:00","3.4","","2.8","","96","","28","","6","","24.1","","100.06","","","","","","Mostly Cloudy"
"1996-05-07 07:00","1996","05","07","07:00","4.4","","3.4","","93","","31","","6","","24.1","","100.09","","","","","","Mostly Cloudy"
"1996-05-07 08:00","1996","05","07","08:00","5.5","","3.0","","84","","30","","9","","24.1","","100.13","","","","","","Mostly Cloudy"
"1996-05-07 09:00","1996","05","07","09:00","6.9","","2.5","","74","","26","","13","","24.1","","100.13","","","","","","Mostly Cloudy"
"1996-05-07 10:00","1996","05","07","10:00","8.0","","2.1","","66","","28","","15","","24.1","","100.13","","","","","","Mostly Cloudy"
"1996-05-07 11:00","1996","05","07","11:00","7.1","","2.8","","74","","29","","9","","24.1","","100.19","","","","","","Rain Showers"
"1996-05-07 12:00","1996","05","07","12:00","9.5","","3.4","","66","","25","","9","","24.1","","100.19","","","","","","Mostly Cloudy"
"1996-05-07 13:00","1996","05","07","13:00","10.1","","0.4","","51","","28","","6","","24.1","","100.23","","","","","","Mostly Cloudy"
"1996-05-07 14:00","1996","05","07","14:00","10.6","","1.6","","54","","33","","7","","24.1","","100.23","","","","","","Mostly Cloudy"
"1996-05-07 15:00","1996","05","07","15:00","11.7","","1.2","","48","","34","","4","","24.1","","100.23","","","","","","Mostly Cloudy"
"1996-05-07 16:00","1996","05","07","16:00","10.6","","1.0","","51","","31","","7","","24.1","","100.29","","","","","","Mostly Cloudy"
"1996-05-07 17:00","1996","05","07","17:00","10.5","","1.2","","52","","","","0","","24.1","","100.33","","","","","","Mostly Cloudy"
"1996-05-07 18:00","1996","05","07","18:00","9.5","","0.9","","55","","23","","9","","24.1","","100.36","","","","","","Cloudy"
"1996-05-07 19:00","1996","05","07","19:00","7.7","","4.4","","80","","23","","7","","24.1","","100.40","","","","","","Mostly Cloudy"
"1996-05-07 20:00","1996","05","07","20:00","6.6","","4.5","","86","","21","","6","","24.1","","100.40","","","","","","Mostly Cloudy"
"1996-05-07 21:00","1996","05","07","21:00"
"1996-05-07 22:00","1996","05","07","22:00"
"1996-05-07 23:00","1996","05","07","23:00"
"1996-05-08 00:00","1996","05","08","00:00"
"1996-05-08 01:00","1996","05","08","01:00"
"1996-05-08 02:00","1996","05","08","02:00"
"1996-05-08 03:00","1996","05","08","03:00"
"1996-05-08 04:00","1996","05","08","04:00"
"1996-05-08 05:00","1996","05","08","05:00","4.0","","1.9","","86","","29","","6","","24.1","","100.56","","","","","","Mostly Cloudy"
"1996-05-08 06:00","1996","05","08","06:00","4.4","","2.4","","87","","27","","7","","24.1","","100.56","","","","","","Mostly Cloudy"
"1996-05-08 07:00","1996","05","08","07:00","5.6","","1.8","","77","","27","","7","","24.1","","100.63","","","","","","Mostly Cloudy"
"1996-05-08 08:00","1996","05","08","08:00","7.1","","1.8","","69","","28","","13","","24.1","","100.63","","","","","","Mostly Cloudy"
"1996-05-08 09:00","1996","05","08","09:00","8.1","","0.1","","57","","","","0","","24.1","","100.63","","","","","","Mostly Cloudy"
"1996-05-08 10:00","1996","05","08","10:00","9.8","","0.4","","52","","26","","9","","24.1","","100.70","","","","","","Mostly Cloudy"
"1996-05-08 11:00","1996","05","08","11:00","11.3","","0.6","","48","","3","","9","","24.1","","100.70","","","","","","Mainly Clear"
"1996-05-08 12:00","1996","05","08","12:00","11.6","","1.6","","50","","9","","9","","24.1","","100.73","","","","","","Mainly Clear"
"1996-05-08 13:00","1996","05","08","13:00","10.8","","-0.2","","46","","9","","7","","24.1","","100.76","","","","","","Mostly Cloudy"
"1996-05-08 14:00","1996","05","08","14:00","10.6","","0.2","","49","","8","","4","","25.0","","100.76","","","","","","Mainly Clear"
"1996-05-08 15:00","1996","05","08","15:00","10.1","","1.3","","54","","9","","11","","25.0","","100.80","","","","","","Mainly Clear"
"1996-05-08 16:00","1996","05","08","16:00","10.2","","2.3","","58","","10","","11","","25.0","","100.80","","","","","","Mostly Cloudy"
"1996-05-08 17:00","1996","05","08","17:00","10.2","","3.5","","63","","8","","9","","25.0","","100.80","","","","","","Mostly Cloudy"
"1996-05-08 18:00","1996","05","08","18:00","9.5","","3.9","","68","","8","","11","","25.0","","100.83","","","","","","Mainly Clear"
"1996-05-08 19:00","1996","05","08","19:00","9.1","","3.8","","69","","9","","6","","32.2","","100.86","","","","","","Mainly Clear"
"1996-05-08 20:00","1996","05","08","20:00","6.8","","3.7","","81","","","","0","","25.0","","100.86","","","","","","Mainly Clear"
"1996-05-08 21:00","1996","05","08","21:00"
"1996-05-08 22:00","1996","05","08","22:00"
"1996-05-08 23:00","1996","05","08","23:00"
"1996-05-09 00:00","1996","05","09","00:00"
"1996-05-09 01:00","1996","05","09","01:00"
"1996-05-09 02:00","1996","05","09","02:00"
"1996-05-09 03:00","1996","05","09","03:00"
"1996-05-09 04:00","1996","05","09","04:00"
"1996-05-09 05:00","1996","05","09","05:00","3.0","","2.7","","98","","","","0","","32.2","","101.03","","","","","","Mostly Cloudy"
"1996-05-09 06:00","1996","05","09","06:00","4.5","","3.8","","95","","","","0","","32.2","","101.03","","","","","","Mostly Cloudy"
"1996-05-09 07:00","1996","05","09","07:00","6.1","","4.0","","86","","","","0","","32.2","","101.07","","","","","","Mostly Cloudy"
"1996-05-09 08:00","1996","05","09","08:00","7.8","","4.9","","82","","","","0","","24.1","","101.07","","","","","","Mostly Cloudy"
"1996-05-09 09:00","1996","05","09","09:00","8.7","","4.8","","76","","9","","9","","24.1","","101.03","","","","","","Mostly Cloudy"
"1996-05-09 10:00","1996","05","09","10:00","9.3","","5.1","","75","","","","0","","16.1","","101.03","","","","","","Mostly Cloudy"
"1996-05-09 11:00","1996","05","09","11:00","8.4","","3.3","","70","","18","","11","","16.1","","101.03","","","","","","Mostly Cloudy"
"1996-05-09 12:00","1996","05","09","12:00","8.5","","3.2","","69","","23","","6","","24.1","","101.03","","","","","","Mostly Cloudy"
"1996-05-09 13:00","1996","05","09","13:00","8.6","","6.8","","88","","5","","4","","24.1","","101.03","","","","","","Mostly Cloudy"
"1996-05-09 14:00","1996","05","09","14:00","10.4","","4.2","","65","","17","","4","","24.1","","101.03","","","","","","Mostly Cloudy"
"1996-05-09 15:00","1996","05","09","15:00","10.0","","3.1","","62","","6","","7","","24.1","","101.00","","","","","","Mostly Cloudy"
"1996-05-09 16:00","1996","05","09","16:00","9.8","","4.5","","70","","7","","6","","24.1","","101.00","","","","","","Mostly Cloudy"
"1996-05-09 17:00","1996","05","09","17:00","9.2","","4.6","","73","","8","","6","","24.1","","101.00","","","","","","Rain Showers"
"1996-05-09 18:00","1996","05","09","18:00"
"1996-05-09 19:00","1996","05","09","19:00","7.3","","5.2","","87","","24","","6","","24.1","","100.96","","","","","","Cloudy"
"1996-05-09 20:00","1996","05","09","20:00","6.6","","4.6","","87","","26","","4","","24.1","","100.96","","","","","","Cloudy"
"1996-05-09 21:00","1996","05","09","21:00"
"1996-05-09 22:00","1996","05","09","22:00"
"1996-05-09 23:00","1996","05","09","23:00"
"1996-05-10 00:00","1996","05","10","00:00"
"1996-05-10 01:00","1996","05","10","01:00"
"1996-05-10 02:00","1996","05","10","02:00"
"1996-05-10 03:00","1996","05","10","03:00"
"1996-05-10 04:00","1996","05","10","04:00"
"1996-05-10 05:00","1996","05","10","05:00","4.3","","3.9","","97","","27","","4","","32.2","","101.07","","","","","","Mostly Cloudy"
"1996-05-10 06:00","1996","05","10","06:00","4.6","","4.2","","97","","27","","4","","32.2","","101.07","","","","","","Mostly Cloudy"
"1996-05-10 07:00","1996","05","10","07:00","5.5","","4.5","","93","","28","","6","","32.2","","101.13","","","","","","Mostly Cloudy"
"1996-05-10 08:00","1996","05","10","08:00","6.8","","4.8","","87","","32","","6","","24.1","","101.17","","","","","","Mostly Cloudy"
"1996-05-10 09:00","1996","05","10","09:00","7.7","","4.5","","80","","32","","6","","24.1","","101.17","","","","","","Mostly Cloudy"
"1996-05-10 10:00","1996","05","10","10:00","9.9","","4.3","","68","","7","","7","","32.2","","101.17","","","","","","Mostly Cloudy"
"1996-05-10 11:00","1996","05","10","11:00","9.2","","4.6","","73","","5","","9","","24.1","","101.23","","","","","","Mostly Cloudy"
"1996-05-10 12:00","1996","05","10","12:00","8.2","","5.1","","81","","8","","17","","16.1","","101.27","","","","","","Rain Showers"
"1996-05-10 13:00","1996","05","10","13:00","9.5","","6.5","","82","","6","","6","","24.1","","101.27","","","","","","Rain Showers"
"1996-05-10 14:00","1996","05","10","14:00","10.2","","5.8","","74","","10","","9","","24.1","","101.30","","","","","","Mostly Cloudy"
"1996-05-10 15:00","1996","05","10","15:00","11.2","","4.1","","62","","11","","11","","24.1","","101.30","","","","","","Mostly Cloudy"
"1996-05-10 16:00","1996","05","10","16:00","10.2","","4.1","","66","","15","","13","","24.1","","101.30","","","","","","Rain Showers"
"1996-05-10 17:00","1996","05","10","17:00","9.3","","5.3","","76","","","","0","","24.1","","101.30","","","","","","Mostly Cloudy"
"1996-05-10 18:00","1996","05","10","18:00","8.8","","6.8","","87","","","","0","","24.1","","101.30","","","","","","Rain Showers"
"1996-05-10 19:00","1996","05","10","19:00","8.5","","7.4","","93","","","","0","","24.1","","101.30","","","","","","Mostly Cloudy"
"1996-05-10 20:00","1996","05","10","20:00","7.6","","6.9","","95","","30","","4","","24.1","","101.27","","","","","","Mostly Cloudy"
"1996-05-10 21:00","1996","05","10","21:00"
"1996-05-10 22:00","1996","05","10","22:00"
"1996-05-10 23:00","1996","05","10","23:00"
"1996-05-11 00:00","1996","05","11","00:00"
"1996-05-11 01:00","1996","05","11","01:00"
"1996-05-11 02:00","1996","05","11","02:00"
"1996-05-11 03:00","1996","05","11","03:00"
"1996-05-11 04:00","1996","05","11","04:00"
"1996-05-11 05:00","1996","05","11","05:00","4.4","","4.3","","99","","","","0","","19.3","","101.10","","","","","","Cloudy"
"1996-05-11 06:00","1996","05","11","06:00","5.1","","5.0","","99","","","","0","","24.1","","101.07","","","","","","Cloudy"
"1996-05-11 07:00","1996","05","11","07:00","6.2","","5.9","","98","","","","0","","24.1","","101.07","","","","","","Rain"
"1996-05-11 08:00","1996","05","11","08:00","8.0","","7.3","","95","","4","","4","","9.7","","101.13","","","","","","Rain,Fog"
"1996-05-11 09:00","1996","05","11","09:00","8.0","","7.5","","97","","9","","7","","6.4","","101.10","","","","","","Rain,Fog"
"1996-05-11 10:00","1996","05","11","10:00","8.3","","7.7","","96","","8","","7","","8.0","","101.10","","","","","","Rain,Fog"
"1996-05-11 11:00","1996","05","11","11:00","8.6","","7.8","","95","","7","","7","","19.3","","101.07","","","","","","Rain"
"1996-05-11 12:00","1996","05","11","12:00","9.1","","6.9","","86","","7","","7","","19.3","","101.03","","","","","","Rain"
"1996-05-11 13:00","1996","05","11","13:00","8.6","","7.0","","90","","9","","9","","19.3","","100.96","","","","","","Rain"
"1996-05-11 14:00","1996","05","11","14:00","8.9","","7.0","","88","","12","","13","","19.3","","100.96","","","","","","Rain"
"1996-05-11 15:00","1996","05","11","15:00","9.0","","7.7","","92","","12","","9","","16.1","","100.93","","","","","","Rain"
"1996-05-11 16:00","1996","05","11","16:00"
"1996-05-11 17:00","1996","05","11","17:00","8.6","","7.6","","93","","3","","6","","24.1","","100.83","","","","","","Cloudy"
"1996-05-11 18:00","1996","05","11","18:00","8.8","","8.2","","96","","","","0","","24.1","","100.83","","","","","","Cloudy"
"1996-05-11 19:00","1996","05","11","19:00","8.9","","8.2","","95","","","","0","","24.1","","100.76","","","","","","Cloudy"
"1996-05-11 20:00","1996","05","11","20:00","8.6","","8.3","","98","","","","0","","24.1","","100.76","","","","","","Cloudy"
"1996-05-11 21:00","1996","05","11","21:00"
"1996-05-11 22:00","1996","05","11","22:00"
"1996-05-11 23:00","1996","05","11","23:00"
"1996-05-12 00:00","1996","05","12","00:00"
"1996-05-12 01:00","1996","05","12","01:00"
"1996-05-12 02:00","1996","05","12","02:00"
"1996-05-12 03:00","1996","05","12","03:00"
"1996-05-12 04:00","1996","05","12","04:00"
"1996-05-12 05:00","1996","05","12","05:00","8.5","","8.4","","99","","","","0","","2.4","","100.60","","","","","","Fog"
"1996-05-12 06:00","1996","05","12","06:00","8.8","","8.6","","99","","7","","4","","2.8","","100.63","","","","","","Fog"
"1996-05-12 07:00","1996","05","12","07:00","9.1","","8.8","","98","","4","","4","","4.0","","100.60","","","","","","Fog"
"1996-05-12 08:00","1996","05","12","08:00","9.5","","9.0","","97","","","","0","","4.0","","100.63","","","","","","Fog"
"1996-05-12 09:00","1996","05","12","09:00","10.0","","9.5","","97","","4","","6","","4.0","","100.60","","","","","","Fog"
"1996-05-12 10:00","1996","05","12","10:00","10.8","","9.6","","92","","10","","11","","8.0","","100.60","","","","","","Fog"
"1996-05-12 11:00","1996","05","12","11:00","11.5","","9.8","","89","","9","","9","","19.3","","100.60","","","","","","Cloudy"
"1996-05-12 12:00","1996","05","12","12:00","11.6","","9.8","","89","","4","","9","","24.1","","100.53","","","","","","Cloudy"
"1996-05-12 13:00","1996","05","12","13:00"
"1996-05-12 14:00","1996","05","12","14:00","12.1","","10.3","","89","","5","","6","","24.1","","100.50","","","","","","Cloudy"
"1996-05-12 15:00","1996","05","12","15:00","12.5","","10.4","","87","","6","","7","","24.1","","100.43","","","","","","Cloudy"
"1996-05-12 16:00","1996","05","12","16:00","12.1","","10.3","","89","","7","","7","","32.2","","100.33","","","","","","Cloudy"
"1996-05-12 17:00","1996","05","12","17:00","12.4","","10.3","","87","","5","","4","","32.2","","100.29","","","","","","Cloudy"
"1996-05-12 18:00","1996","05","12","18:00","12.2","","10.2","","88","","","","0","","24.1","","100.23","","","","","","Cloudy"
"1996-05-12 19:00","1996","05","12","19:00","11.9","","10.5","","91","","","","0","","24.1","","100.19","","","","","","Cloudy"
"1996-05-12 20:00","1996","05","12","20:00","11.2","","10.2","","94","","","","0","","16.1","","100.13","","","","","","Cloudy"
"1996-05-12 21:00","1996","05","12","21:00"
"1996-05-12 22:00","1996","05","12","22:00"
"1996-05-12 23:00","1996","05","12","23:00"
"1996-05-13 00:00","1996","05","13","00:00"
"1996-05-13 01:00","1996","05","13","01:00"
"1996-05-13 02:00","1996","05","13","02:00"
"1996-05-13 03:00","1996","05","13","03:00"
"1996-05-13 04:00","1996","05","13","04:00"
"1996-05-13 05:00","1996","05","13","05:00","10.4","","10.3","","99","","","","0","","1.6","","99.89","","","","","","Fog"
"1996-05-13 06:00","1996","05","13","06:00","10.4","","10.4","","100","","","","0","","0.8","","99.86","","","","","","Drizzle,Fog"
"1996-05-13 07:00","1996","05","13","07:00","10.6","","10.6","","100","","","","0","","1.6","","99.86","","","","","","Drizzle,Fog"
"1996-05-13 08:00","1996","05","13","08:00","10.9","","10.8","","99","","","","0","","1.2","","99.86","","","","","","Drizzle,Fog"
"1996-05-13 09:00","1996","05","13","09:00","11.3","","11.1","","99","","","","0","","1.6","","99.86","","","","","","Drizzle,Fog"
"1996-05-13 10:00","1996","05","13","10:00","12.0","","11.2","","95","","","","0","","2.4","","99.83","","","","","","Fog"
"1996-05-13 11:00","1996","05","13","11:00","12.6","","11.7","","94","","9","","4","","4.0","","99.83","","","","","","Fog"
"1996-05-13 12:00","1996","05","13","12:00","13.1","","11.2","","88","","","","0","","8.0","","99.83","","","","","","Fog"
"1996-05-13 13:00","1996","05","13","13:00","13.1","","12.2","","94","","","","0","","8.0","","99.76","","","","","","Fog"
"1996-05-13 14:00","1996","05","13","14:00","12.9","","11.9","","94","","","","0","","8.0","","99.72","","","","","","Fog"
"1996-05-13 15:00","1996","05","13","15:00","13.3","","11.9","","91","","","","0","","8.0","","99.72","","","","","","Fog"
"1996-05-13 16:00","1996","05","13","16:00","14.5","","12.4","","87","","","","0","","12.9","","99.62","","","","","","Mostly Cloudy"
"1996-05-13 17:00","1996","05","13","17:00","13.8","","12.0","","89","","","","0","","16.1","","99.62","","","","","","Mostly Cloudy"
"1996-05-13 18:00","1996","05","13","18:00","13.5","","11.6","","88","","32","","7","","24.1","","99.59","","","","","","Mostly Cloudy"
"1996-05-13 19:00","1996","05","13","19:00","11.2","","10.4","","95","","32","","6","","16.1","","99.62","","","","","","Rain Showers"
"1996-05-13 20:00","1996","05","13","20:00","10.8","","9.8","","94","","27","","6","","24.1","","99.66","","","","","","Mostly Cloudy"
"1996-05-13 21:00","1996","05","13","21:00"
"1996-05-13 22:00","1996","05","13","22:00"
"1996-05-13 23:00","1996","05","13","23:00"
"1996-05-14 00:00","1996","05","14","00:00"
"1996-05-14 01:00","1996","05","14","01:00"
"1996-05-14 02:00","1996","05","14","02:00"
"1996-05-14 03:00","1996","05","14","03:00"
"1996-05-14 04:00","1996","05","14","04:00"
"1996-05-14 05:00","1996","05","14","05:00","7.2","","6.4","","95","","27","","6","","24.1","","99.46","","","","","","Mostly Cloudy"
"1996-05-14 06:00","1996","05","14","06:00","7.8","","5.6","","86","","27","","7","","24.1","","99.42","","","","","","Mainly Clear"
"1996-05-14 07:00","1996","05","14","07:00","8.4","","5.9","","84","","","","0","","24.1","","99.42","","","","","","Mostly Cloudy"
"1996-05-14 08:00","1996","05","14","08:00","9.3","","5.7","","78","","27","","11","","24.1","","99.39","","","","","","Mostly Cloudy"
"1996-05-14 09:00","1996","05","14","09:00","10.9","","6.1","","72","","33","","7","","24.1","","99.39","","","","","","Mostly Cloudy"
"1996-05-14 10:00","1996","05","14","10:00","12.5","","6.6","","67","","6","","6","","24.1","","99.39","","","","","","Mostly Cloudy"
"1996-05-14 11:00","1996","05","14","11:00","13.5","","6.6","","63","","5","","7","","24.1","","99.39","","","","","","Mostly Cloudy"
"1996-05-14 12:00","1996","05","14","12:00","12.3","","7.9","","74","","3","","4","","24.1","","99.42","","","","","","Mostly Cloudy"
"1996-05-14 13:00","1996","05","14","13:00","11.2","","7.5","","78","","26","","9","","24.1","","99.46","","","","","","Mostly Cloudy"
"1996-05-14 14:00","1996","05","14","14:00","10.2","","8.5","","89","","30","","6","","24.1","","99.49","","","","","","Rain Showers"
"1996-05-14 15:00","1996","05","14","15:00","10.8","","7.9","","82","","","","0","","32.2","","99.49","","","","","","Mostly Cloudy"
"1996-05-14 16:00","1996","05","14","16:00","10.9","","7.6","","80","","32","","6","","32.2","","99.49","","","","","","Mostly Cloudy"
"1996-05-14 17:00","1996","05","14","17:00","11.8","","7.3","","74","","34","","6","","32.2","","99.49","","","","","","Mostly Cloudy"
"1996-05-14 18:00","1996","05","14","18:00","12.0","","7.5","","74","","30","","4","","32.2","","99.49","","","","","","Mainly Clear"
"1996-05-14 19:00","1996","05","14","19:00","10.6","","6.4","","75","","32","","6","","32.2","","99.49","","","","","","Mainly Clear"
"1996-05-14 20:00","1996","05","14","20:00","9.6","","7.7","","88","","","","0","","32.2","","99.46","","","","","","Mainly Clear"
"1996-05-14 21:00","1996","05","14","21:00"
"1996-05-14 22:00","1996","05","14","22:00"
"1996-05-14 23:00","1996","05","14","23:00"
"1996-05-15 00:00","1996","05","15","00:00"
"1996-05-15 01:00","1996","05","15","01:00"
"1996-05-15 02:00","1996","05","15","02:00"
"1996-05-15 03:00","1996","05","15","03:00"
"1996-05-15 04:00","1996","05","15","04:00"
"1996-05-15 05:00","1996","05","15","05:00","3.7","","3.4","","98","","","","0","","32.2","","99.42","","","","","","Mostly Cloudy"
"1996-05-15 06:00","1996","05","15","06:00","3.9","","3.6","","98","","","","0","","32.2","","99.46","","","","","","Mostly Cloudy"
"1996-05-15 07:00","1996","05","15","07:00","6.4","","4.8","","89","","","","0","","32.2","","99.49","","","","","","Mainly Clear"
"1996-05-15 08:00","1996","05","15","08:00","9.3","","4.3","","71","","","","0","","32.2","","99.49","","","","","","Mainly Clear"
"1996-05-15 09:00","1996","05","15","09:00","11.7","","5.6","","66","","10","","7","","32.2","","99.46","","","","","","Mainly Clear"
"1996-05-15 10:00","1996","05","15","10:00","12.0","","5.2","","63","","10","","7","","32.2","","99.46","","","","","","Mainly Clear"
"1996-05-15 11:00","1996","05","15","11:00","12.3","","3.9","","56","","2","","6","","32.2","","99.49","","","","","","Mainly Clear"
"1996-05-15 12:00","1996","05","15","12:00","12.0","","3.7","","57","","9","","6","","32.2","","99.49","","","","","","Mainly Clear"
"1996-05-15 13:00","1996","05","15","13:00","13.8","","3.9","","51","","9","","9","","32.2","","99.46","","","","","","Mostly Cloudy"
"1996-05-15 14:00","1996","05","15","14:00","14.4","","3.1","","47","","10","","13","","32.2","","99.42","","","","","","Mostly Cloudy"
"1996-05-15 15:00","1996","05","15","15:00","12.8","","3.3","","52","","6","","11","","32.2","","99.39","","","","","","Mostly Cloudy"
"1996-05-15 16:00","1996","05","15","16:00","13.4","","2.9","","49","","9","","13","","32.2","","99.36","","","","","","Mostly Cloudy"
"1996-05-15 17:00","1996","05","15","17:00","13.0","","4.4","","56","","8","","7","","32.2","","99.36","","","","","","Mostly Cloudy"
"1996-05-15 18:00","1996","05","15","18:00","13.9","","2.7","","47","","11","","9","","32.2","","99.32","","","","","","Mostly Cloudy"
"1996-05-15 19:00","1996","05","15","19:00","12.7","","4.3","","57","","10","","9","","32.2","","99.32","","","","","","Mostly Cloudy"
"1996-05-15 20:00","1996","05","15","20:00","12.1","","4.2","","58","","24","","4","","32.2","","99.36","","","","","","Mostly Cloudy"
"1996-05-15 21:00","1996","05","15","21:00"
"1996-05-15 22:00","1996","05","15","22:00"
"1996-05-15 23:00","1996","05","15","23:00"
"1996-05-16 00:00","1996","05","16","00:00"
"1996-05-16 01:00","1996","05","16","01:00"
"1996-05-16 02:00","1996","05","16","02:00"
"1996-05-16 03:00","1996","05","16","03:00"
"1996-05-16 04:00","1996","05","16","04:00"
"1996-05-16 05:00","1996","05","16","05:00","3.9","","3.5","","97","","","","0","","32.2","","99.39","","","","","","Mainly Clear"
"1996-05-16 06:00","1996","05","16","06:00","4.6","","4.1","","97","","","","0","","32.2","","99.39","","","","","","Mostly Cloudy"
"1996-05-16 07:00","1996","05","16","07:00","6.2","","4.7","","90","","","","0","","32.2","","99.42","","","","","","Mainly Clear"
"1996-05-16 08:00","1996","05","16","08:00","9.1","","6.2","","82","","6","","4","","32.2","","99.42","","","","","","Mainly Clear"
"1996-05-16 09:00","1996","05","16","09:00","11.9","","4.8","","62","","7","","9","","32.2","","99.42","","","","","","Mainly Clear"
"1996-05-16 10:00","1996","05","16","10:00","11.5","","5.0","","64","","7","","9","","32.2","","99.39","","","","","","Mostly Cloudy"
"1996-05-16 11:00","1996","05","16","11:00","12.6","","4.7","","59","","11","","15","","32.2","","99.39","","","","","","Mostly Cloudy"
"1996-05-16 12:00","1996","05","16","12:00","12.5","","5.0","","60","","9","","11","","32.2","","99.39","","","","","","Mostly Cloudy"
"1996-05-16 13:00","1996","05","16","13:00","14.0","","5.9","","58","","12","","15","","32.2","","99.36","","","","","","Mostly Cloudy"
"1996-05-16 14:00","1996","05","16","14:00","13.8","","5.0","","55","","19","","7","","32.2","","99.32","","","","","","Mostly Cloudy"
"1996-05-16 15:00","1996","05","16","15:00","12.8","","5.2","","60","","9","","13","","32.2","","99.32","","","","","","Mostly Cloudy"
"1996-05-16 16:00","1996","05","16","16:00","13.8","","7.1","","64","","","","0","","32.2","","99.32","","","","","","Mostly Cloudy"
"1996-05-16 17:00","1996","05","16","17:00","13.6","","5.8","","59","","6","","9","","32.2","","99.26","","","","","","Mostly Cloudy"
"1996-05-16 18:00","1996","05","16","18:00","13.1","","6.5","","64","","6","","9","","32.2","","99.22","","","","","","Mostly Cloudy"
"1996-05-16 19:00","1996","05","16","19:00","11.9","","8.0","","77","","","","0","","32.2","","99.19","","","","","","Mostly Cloudy"
"1996-05-16 20:00","1996","05","16","20:00","10.1","","7.9","","86","","","","0","","32.2","","99.19","","","","","","Mostly Cloudy"
"1996-05-16 21:00","1996","05","16","21:00"
"1996-05-16 22:00","1996","05","16","22:00"
"1996-05-16 23:00","1996","05","16","23:00"
"1996-05-17 00:00","1996","05","17","00:00"
"1996-05-17 01:00","1996","05","17","01:00"
"1996-05-17 02:00","1996","05","17","02:00"
"1996-05-17 03:00","1996","05","17","03:00"
"1996-05-17 04:00","1996","05","17","04:00"
"1996-05-17 05:00","1996","05","17","05:00","7.2","","6.5","","95","","","","0","","19.3","","98.69","","","","","","Rain Showers"
"1996-05-17 06:00","1996","05","17","06:00","7.5","","7.1","","97","","","","0","","16.1","","98.69","","","","","","Rain"
"1996-05-17 07:00","1996","05","17","07:00","8.0","","7.3","","95","","","","0","","12.9","","98.62","","","","","","Rain"
"1996-05-17 08:00","1996","05","17","08:00","8.5","","7.6","","94","","","","0","","9.7","","98.58","","","","","","Rain,Fog"
"1996-05-17 09:00","1996","05","17","09:00","8.9","","8.0","","94","","8","","4","","8.0","","98.58","","","","","","Rain,Fog"
"1996-05-17 10:00","1996","05","17","10:00","10.2","","8.9","","92","","5","","4","","9.7","","98.55","","","","","","Rain,Fog"
"1996-05-17 11:00","1996","05","17","11:00","9.1","","8.4","","95","","9","","7","","12.9","","98.55","","","","","","Cloudy"
"1996-05-17 12:00","1996","05","17","12:00","9.6","","8.9","","95","","12","","6","","9.7","","98.55","","","","","","Fog"
"1996-05-17 13:00","1996","05","17","13:00","9.9","","9.2","","95","","9","","9","","8.0","","98.48","","","","","","Rain Showers,Fog"
"1996-05-17 14:00","1996","05","17","14:00","9.9","","9.2","","95","","9","","7","","8.0","","98.45","","","","","","Rain Showers,Fog"
"1996-05-17 15:00","1996","05","17","15:00","10.1","","9.7","","97","","9","","13","","3.2","","98.42","","","","","","Moderate Rain Showers,Fog"
"1996-05-17 16:00","1996","05","17","16:00","10.8","","10.1","","95","","9","","9","","4.8","","98.35","","","","","","Rain Showers,Fog"
"1996-05-17 17:00","1996","05","17","17:00","9.8","","9.6","","99","","9","","4","","4.8","","98.32","","","","","","Rain Showers,Fog"
"1996-05-17 18:00","1996","05","17","18:00","9.6","","9.3","","98","","9","","4","","1.6","","98.28","","","","","","Rain Showers,Fog"
"1996-05-17 19:00","1996","05","17","19:00","10.0","","9.8","","99","","7","","4","","1.6","","98.25","","","","","","Fog"
"1996-05-17 20:00","1996","05","17","20:00","9.7","","8.7","","93","","11","","15","","24.1","","98.32","","","","","","Mostly Cloudy"
"1996-05-17 21:00","1996","05","17","21:00"
"1996-05-17 22:00","1996","05","17","22:00"
"1996-05-17 23:00","1996","05","17","23:00"
"1996-05-18 00:00","1996","05","18","00:00"
"1996-05-18 01:00","1996","05","18","01:00"
"1996-05-18 02:00","1996","05","18","02:00"
"1996-05-18 03:00","1996","05","18","03:00"
"1996-05-18 04:00","1996","05","18","04:00"
"1996-05-18 05:00","1996","05","18","05:00","8.4","","6.8","","90","","8","","9","","32.2","","98.62","","","","","","Mostly Cloudy"
"1996-05-18 06:00","1996","05","18","06:00","8.9","","7.8","","93","","9","","9","","32.2","","98.69","","","","","","Mostly Cloudy"
"1996-05-18 07:00","1996","05","18","07:00","9.7","","7.9","","89","","8","","13","","32.2","","98.75","","","","","","Mostly Cloudy"
"1996-05-18 08:00","1996","05","18","08:00","10.2","","7.9","","86","","8","","11","E","32.2","","98.85","","","","","","Mostly Cloudy"
"1996-05-18 09:00","1996","05","18","09:00","11.2","","8.9","","86","","9","","11","","32.2","","98.89","","","","","","Mostly Cloudy"
"1996-05-18 10:00","1996","05","18","10:00","11.7","","8.4","","80","","8","","11","","32.2","","98.95","","","","","","Mostly Cloudy"
"1996-05-18 11:00","1996","05","18","11:00","11.3","","8.3","","82","","9","","13","","32.2","","98.99","","","","","","Rain Showers"
"1996-05-18 12:00","1996","05","18","12:00","12.7","","9.1","","79","","8","","15","","32.2","","99.05","","","","","","Mostly Cloudy"
"1996-05-18 13:00","1996","05","18","13:00","12.5","","8.0","","74","","8","","13","","32.2","","99.15","","","","","","Mostly Cloudy"
"1996-05-18 14:00","1996","05","18","14:00","13.3","","10.0","","80","","9","","19","","32.2","","99.19","","","","","","Mostly Cloudy"
"1996-05-18 15:00","1996","05","18","15:00","12.4","","8.4","","77","","7","","11","","32.2","","99.22","","","","","","Mostly Cloudy"
"1996-05-18 16:00","1996","05","18","16:00","12.6","","7.9","","73","","9","","15","","32.2","","99.29","","","","","","Mostly Cloudy"
"1996-05-18 17:00","1996","05","18","17:00","12.7","","7.9","","73","","12","","13","","32.2","","99.29","","","","","","Mostly Cloudy"
"1996-05-18 18:00","1996","05","18","18:00","12.1","","8.5","","79","","8","","9","","32.2","","99.32","","","","","","Mostly Cloudy"
"1996-05-18 19:00","1996","05","18","19:00","11.3","","8.6","","83","","7","","4","","32.2","","99.36","","","","","","Mostly Cloudy"
"1996-05-18 20:00","1996","05","18","20:00","10.8","","8.4","","85","","8","","6","","32.2","","99.39","","","","","","Mostly Cloudy"
"1996-05-18 21:00","1996","05","18","21:00"
"1996-05-18 22:00","1996","05","18","22:00"
"1996-05-18 23:00","1996","05","18","23:00"
"1996-05-19 00:00","1996","05","19","00:00"
"1996-05-19 01:00","1996","05","19","01:00"
"1996-05-19 02:00","1996","05","19","02:00"
"1996-05-19 03:00","1996","05","19","03:00"
"1996-05-19 04:00","1996","05","19","04:00"
"1996-05-19 05:00","1996","05","19","05:00","5.1","","5.0","","99","","","","0","","32.2","","99.86","","","","","","Mostly Cloudy"
"1996-05-19 06:00","1996","05","19","06:00","6.7","","6.6","","99","","","","0","","32.2","","99.89","","","","","","Mostly Cloudy"
"1996-05-19 07:00","1996","05","19","07:00","9.0","","8.4","","96","","","","0","","32.2","","99.93","","","","","","Cloudy"
"1996-05-19 08:00","1996","05","19","08:00","10.8","","9.1","","89","","11","","6","","32.2","","99.96","","","","","","Cloudy"
"1996-05-19 09:00","1996","05","19","09:00","11.4","","9.1","","86","","9","","9","","32.2","","100.03","","","","","","Mostly Cloudy"
"1996-05-19 10:00","1996","05","19","10:00","12.6","","8.8","","78","","10","","11","","32.2","","99.99","","","","","","Mostly Cloudy"
"1996-05-19 11:00","1996","05","19","11:00","12.5","","9.2","","80","","8","","13","","32.2","","99.99","","","","","","Thunderstorms,Rain Showers"
"1996-05-19 12:00","1996","05","19","12:00","11.1","","9.0","","87","","7","","7","","24.1","","100.06","","","","","","Thunderstorms,Heavy Rain Showers"
"1996-05-19 13:00","1996","05","19","13:00","10.4","","9.3","","93","","8","","9","","24.1","","100.13","","","","","","Rain"
"1996-05-19 14:00","1996","05","19","14:00","13.8","","10.8","","82","","8","","17","","24.1","","100.13","","","","","","Mostly Cloudy"
"1996-05-19 15:00","1996","05","19","15:00","13.4","","9.7","","78","","9","","11","","24.1","","100.13","","","","","","Mostly Cloudy"
"1996-05-19 16:00","1996","05","19","16:00","13.6","","8.3","","70","","33","","9","","24.1","","100.19","","","","","","Mostly Cloudy"
"1996-05-19 17:00","1996","05","19","17:00","14.7","","7.5","","62","","6","","9","","24.1","","100.16","","","","","","Mostly Cloudy"
"1996-05-19 18:00","1996","05","19","18:00","12.0","","9.7","","86","","","","0","","24.1","","100.19","","","","","","Mostly Cloudy"
"1996-05-19 19:00","1996","05","19","19:00","11.3","","9.5","","89","","","","0","","24.1","","100.19","","","","","","Mostly Cloudy"
"1996-05-19 20:00","1996","05","19","20:00","11.1","","6.4","","73","","14","","7","","24.1","","100.23","","","","","","Mostly Cloudy"
"1996-05-19 21:00","1996","05","19","21:00"
"1996-05-19 22:00","1996","05","19","22:00"
"1996-05-19 23:00","1996","05","19","23:00"
"1996-05-20 00:00","1996","05","20","00:00"
"1996-05-20 01:00","1996","05","20","01:00"
"1996-05-20 02:00","1996","05","20","02:00"
"1996-05-20 03:00","1996","05","20","03:00"
"1996-05-20 04:00","1996","05","20","04:00"
"1996-05-20 05:00","1996","05","20","05:00","4.4","","4.3","","99","","","","0","","24.1","","100.29","","","","","","Mostly Cloudy"
"1996-05-20 06:00","1996","05","20","06:00","6.0","","5.2","","95","","8","","6","","24.1","","100.29","","","","","","Mostly Cloudy"
"1996-05-20 07:00","1996","05","20","07:00","9.6","","5.7","","77","","11","","11","","24.1","","100.26","","","","","","Mostly Cloudy"
"1996-05-20 08:00","1996","05","20","08:00","9.8","","5.8","","76","","12","","17","","24.1","","100.23","","","","","","Cloudy"
"1996-05-20 09:00","1996","05","20","09:00","9.4","","6.9","","84","","10","","15","","24.1","","100.23","","","","","","Rain Showers"
"1996-05-20 10:00","1996","05","20","10:00","9.9","","7.4","","84","","9","","22","","24.1","","100.19","","","","","","Rain Showers"
"1996-05-20 11:00","1996","05","20","11:00","9.4","","7.8","","90","","10","","22","","16.1","","100.23","","","","","","Rain Showers"
"1996-05-20 12:00","1996","05","20","12:00","9.0","","7.8","","92","","10","","19","","16.1","","100.29","","","","","","Moderate Rain Showers"
"1996-05-20 13:00","1996","05","20","13:00","9.5","","8.8","","95","","12","","13","","19.3","","100.29","","","","","","Rain Showers"
"1996-05-20 14:00","1996","05","20","14:00","13.0","","9.6","","80","","10","","19","","25.0","","100.29","","","","","","Mostly Cloudy"
"1996-05-20 15:00","1996","05","20","15:00","12.3","","9.3","","82","","11","","17","","25.0","","100.29","","","","","","Mostly Cloudy"
"1996-05-20 16:00","1996","05","20","16:00","12.1","","8.2","","77","","10","","24","","25.0","","100.23","","","","","","Mostly Cloudy"
"1996-05-20 17:00","1996","05","20","17:00","12.1","","7.2","","72","","11","","17","","25.0","","100.19","","","","","","Mostly Cloudy"
"1996-05-20 18:00","1996","05","20","18:00","11.1","","7.2","","77","","7","","11","","32.2","","100.19","","","","","","Mostly Cloudy"
"1996-05-20 19:00","1996","05","20","19:00","10.2","","6.7","","79","","10","","11","","32.2","","100.16","","","","","","Mostly Cloudy"
"1996-05-20 20:00","1996","05","20","20:00","9.1","","7.1","","87","","5","","4","","32.2","","100.19","","","","","","Mostly Cloudy"
"1996-05-20 21:00","1996","05","20","21:00"
"1996-05-20 22:00","1996","05","20","22:00"
"1996-05-20 23:00","1996","05","20","23:00"
"1996-05-21 00:00","1996","05","21","00:00"
"1996-05-21 01:00","1996","05","21","01:00"
"1996-05-21 02:00","1996","05","21","02:00"
"1996-05-21 03:00","1996","05","21","03:00"
"1996-05-21 04:00","1996","05","21","04:00"
"1996-05-21 05:00","1996","05","21","05:00","6.6","","6.1","","97","","","","0","","16.1","","99.93","","","","","","Cloudy"
"1996-05-21 06:00","1996","05","21","06:00","7.2","","6.4","","95","","28","","4","","16.1","","99.89","","","","","","Mostly Cloudy"
"1996-05-21 07:00","1996","05","21","07:00","7.8","","6.9","","94","","25","","4","","16.1","","99.86","","","","","","Rain Showers"
"1996-05-21 08:00","1996","05","21","08:00","8.6","","7.1","","90","","27","","2","","16.1","","99.79","","","","","","Cloudy"
"1996-05-21 09:00","1996","05","21","09:00","10.6","","7.5","","81","","21","","4","","24.1","","99.72","","","","","","Mostly Cloudy"
"1996-05-21 10:00","1996","05","21","10:00","12.3","","7.7","","73","","","","0","","24.1","","99.69","","","","","","Mostly Cloudy"
"1996-05-21 11:00","1996","05","21","11:00","13.7","","7.3","","65","","","","0","","24.1","","99.62","","","","","","Mostly Cloudy"
"1996-05-21 12:00","1996","05","21","12:00","14.6","","6.8","","59","","","","0","","24.1","","99.56","","","","","","Cloudy"
"1996-05-21 13:00","1996","05","21","13:00","14.8","","6.5","","58","","3","","6","","24.1","","99.49","","","","","","Mostly Cloudy"
"1996-05-21 14:00","1996","05","21","14:00","15.7","","4.3","","47","","7","","7","","24.1","","99.49","","","","","","Cloudy"
"1996-05-21 15:00","1996","05","21","15:00","13.6","","5.2","","57","","24","","6","","24.1","","99.46","","","","","","Cloudy"
"1996-05-21 16:00","1996","05","21","16:00","13.1","","5.6","","60","","27","","7","","24.1","","99.42","","","","","","Cloudy"
"1996-05-21 17:00","1996","05","21","17:00","12.9","","6.9","","67","","3","","4","","24.1","","99.46","","","","","","Rain"
"1996-05-21 18:00","1996","05","21","18:00","12.6","","7.1","","69","","31","","4","","24.1","","99.42","","","","","","Cloudy"
"1996-05-21 19:00","1996","05","21","19:00","12.3","","7.5","","72","","30","","6","","24.1","","99.39","","","","","","Cloudy"
"1996-05-21 20:00","1996","05","21","20:00","11.1","","6.8","","75","","27","","13","","24.1","","99.46","","","","","","Cloudy"
"1996-05-21 21:00","1996","05","21","21:00"
"1996-05-21 22:00","1996","05","21","22:00"
"1996-05-21 23:00","1996","05","21","23:00"
"1996-05-22 00:00","1996","05","22","00:00"
"1996-05-22 01:00","1996","05","22","01:00"
"1996-05-22 02:00","1996","05","22","02:00"
"1996-05-22 03:00","1996","05","22","03:00"
"1996-05-22 04:00","1996","05","22","04:00"
"1996-05-22 05:00","1996","05","22","05:00","8.3","","7.6","","95","","","","0","","24.1","","99.69","","","","","","Rain"
"1996-05-22 06:00","1996","05","22","06:00","8.6","","7.8","","95","","","","0","","24.1","","99.72","","","","","","Rain"
"1996-05-22 07:00","1996","05","22","07:00","9.3","","7.0","","86","","","","0","","16.1","","99.79","","","","","","Rain"
"1996-05-22 08:00","1996","05","22","08:00","9.7","","8.3","","91","","","","0","","16.1","","99.83","","","","","","Rain"
"1996-05-22 09:00","1996","05","22","09:00","10.0","","7.9","","87","","","","0","","16.1","","99.89","","","","","","Rain"
"1996-05-22 10:00","1996","05","22","10:00","10.4","","7.7","","83","","","","0","","16.1","","99.99","","","","","","Rain"
"1996-05-22 11:00","1996","05","22","11:00","11.5","","8.3","","81","","","","0","","16.1","","100.03","","","","","","Rain"
"1996-05-22 12:00","1996","05","22","12:00","12.6","","9.2","","80","","","","0","","24.1","","100.03","","","","","","Mostly Cloudy"
"1996-05-22 13:00","1996","05","22","13:00","13.5","","9.1","","75","","12","","7","","24.1","","100.09","","","","","","Cloudy"
"1996-05-22 14:00","1996","05","22","14:00","13.4","","9.2","","76","","36","","4","","19.3","","100.13","","","","","","Rain Showers"
"1996-05-22 15:00","1996","05","22","15:00","12.4","","9.0","","80","","","","0","","19.3","","100.19","","","","","","Mostly Cloudy"
"1996-05-22 16:00","1996","05","22","16:00","12.4","","10.4","","88","","6","","6","","19.3","","100.19","","","","","","Rain Showers"
"1996-05-22 17:00","1996","05","22","17:00","13.4","","9.6","","78","","","","0","","24.1","","100.23","","","","","","Mostly Cloudy"
"1996-05-22 18:00","1996","05","22","18:00","12.6","","10.1","","85","","34","","4","","19.3","","100.33","","","","","","Mostly Cloudy"
"1996-05-22 19:00","1996","05","22","19:00","12.8","","8.5","","75","","30","","13","","24.1","","100.36","","","","","","Mostly Cloudy"
"1996-05-22 20:00","1996","05","22","20:00","11.3","","8.2","","81","","26","","6","","24.1","","100.43","","","","","","Mostly Cloudy"
"1996-05-22 21:00","1996","05","22","21:00"
"1996-05-22 22:00","1996","05","22","22:00"
"1996-05-22 23:00","1996","05","22","23:00"
"1996-05-23 00:00","1996","05","23","00:00"
"1996-05-23 01:00","1996","05","23","01:00"
"1996-05-23 02:00","1996","05","23","02:00"
"1996-05-23 03:00","1996","05","23","03:00"
"1996-05-23 04:00","1996","05","23","04:00"
"1996-05-23 05:00","1996","05","23","05:00","9.1","","6.7","","85","","25","","7","","24.1","","100.86","","","","","","Cloudy"
"1996-05-23 06:00","1996","05","23","06:00","9.2","","6.5","","83","","27","","9","","24.1","","100.93","","","","","","Mostly Cloudy"
"1996-05-23 07:00","1996","05","23","07:00","9.9","","6.8","","81","","25","","7","","24.1","","101.07","","","","","","Mostly Cloudy"
"1996-05-23 08:00","1996","05","23","08:00","10.8","","7.7","","81","","28","","6","","24.1","","101.07","","","","","","Mostly Cloudy"
"1996-05-23 09:00","1996","05","23","09:00","11.5","","7.6","","77","","28","","4","","24.1","","101.17","","","","","","Mostly Cloudy"
"1996-05-23 10:00","1996","05","23","10:00","12.3","","7.9","","74","","32","","6","","24.1","","101.27","","","","","","Cloudy"
"1996-05-23 11:00","1996","05","23","11:00","13.0","","8.2","","73","","3","","7","","24.1","","101.33","","","","","","Cloudy"
"1996-05-23 12:00","1996","05","23","12:00","13.3","","8.6","","73","","30","","6","","24.1","","101.33","","","","","","Mostly Cloudy"
"1996-05-23 13:00","1996","05","23","13:00","13.6","","7.9","","68","","9","","4","","24.1","","101.20","","","","","","Mostly Cloudy"
"1996-05-23 14:00","1996","05","23","14:00","14.4","","8.6","","68","","12","","6","","24.1","","101.43","","","","","","Mostly Cloudy"
"1996-05-23 15:00","1996","05","23","15:00","14.7","","8.7","","67","","9","","6","","24.1","","101.43","","","","","","Mostly Cloudy"
"1996-05-23 16:00","1996","05","23","16:00","15.1","","9.1","","67","","9","","9","","24.1","","101.43","","","","","","Mostly Cloudy"
"1996-05-23 17:00","1996","05","23","17:00","14.2","","8.6","","69","","10","","7","","24.1","","101.47","","","","","","Mostly Cloudy"
"1996-05-23 18:00","1996","05","23","18:00","14.6","","8.6","","67","","","","0","","24.1","","101.43","","","","","","Mostly Cloudy"
"1996-05-23 19:00","1996","05","23","19:00","13.9","","9.4","","74","","","","0","","24.1","","101.47","","","","","","Mostly Cloudy"
"1996-05-23 20:00","1996","05","23","20:00","11.9","","9.7","","86","","30","","2","","24.1","","101.47","","","","","","Mostly Cloudy"
"1996-05-23 21:00","1996","05","23","21:00"
"1996-05-23 22:00","1996","05","23","22:00"
"1996-05-23 23:00","1996","05","23","23:00"
"1996-05-24 00:00","1996","05","24","00:00"
"1996-05-24 01:00","1996","05","24","01:00"
"1996-05-24 02:00","1996","05","24","02:00"
"1996-05-24 03:00","1996","05","24","03:00"
"1996-05-24 04:00","1996","05","24","04:00"
"1996-05-24 05:00","1996","05","24","05:00","4.8","","4.6","","99","","","","0","","24.1","","101.47","","","","","","Mainly Clear"
"1996-05-24 06:00","1996","05","24","06:00","6.6","","6.4","","99","","","","0","","24.1","","101.47","","","","","","Mostly Cloudy"
"1996-05-24 07:00","1996","05","24","07:00","11.3","","9.8","","90","","29","","4","","24.1","","101.47","","","","","","Mostly Cloudy"
"1996-05-24 08:00","1996","05","24","08:00","13.7","","9.7","","77","","","","0","","24.1","","101.43","","","","","","Mostly Cloudy"
"1996-05-24 09:00","1996","05","24","09:00","14.6","","9.9","","73","","8","","6","","24.1","","101.37","","","","","","Mostly Cloudy"
"1996-05-24 10:00","1996","05","24","10:00","15.7","","9.5","","67","","9","","7","","24.1","","101.30","","","","","","Mostly Cloudy"
"1996-05-24 11:00","1996","05","24","11:00","17.3","","9.8","","61","","12","","6","","24.1","","101.27","","","","","","Mostly Cloudy"
"1996-05-24 12:00","1996","05","24","12:00","17.3","","9.8","","61","","12","","6","","24.1","","101.27","","","","","","Mostly Cloudy"
"1996-05-24 13:00","1996","05","24","13:00","18.1","","8.9","","55","","6","","4","","24.1","","101.13","","","","","","Mostly Cloudy"
"1996-05-24 14:00","1996","05","24","14:00","18.1","","9.4","","57","","9","","4","","24.1","","101.10","","","","","","Mostly Cloudy"
"1996-05-24 15:00","1996","05","24","15:00","19.2","","9.6","","54","","9","","9","","24.1","","101.03","","","","","","Mostly Cloudy"
"1996-05-24 16:00","1996","05","24","16:00","19.9","","9.6","","51","","9","","9","","24.1","","100.93","","","","","","Mostly Cloudy"
"1996-05-24 17:00","1996","05","24","17:00","18.6","","8.5","","52","","6","","6","","24.1","","100.86","","","","","","Mostly Cloudy"
"1996-05-24 18:00","1996","05","24","18:00","19.2","","9.3","","53","","","","0","","24.1","","100.83","","","","","","Mostly Cloudy"
"1996-05-24 19:00","1996","05","24","19:00","18.2","","10.6","","61","","","","0","","24.1","","100.76","","","","","","Mostly Cloudy"
"1996-05-24 20:00","1996","05","24","20:00","17.1","","9.8","","62","","","","0","","24.1","","100.76","","","","","","Mostly Cloudy"
"1996-05-24 21:00","1996","05","24","21:00"
"1996-05-24 22:00","1996","05","24","22:00"
"1996-05-24 23:00","1996","05","24","23:00"
"1996-05-25 00:00","1996","05","25","00:00"
"1996-05-25 01:00","1996","05","25","01:00"
"1996-05-25 02:00","1996","05","25","02:00"
"1996-05-25 03:00","1996","05","25","03:00"
"1996-05-25 04:00","1996","05","25","04:00"
"1996-05-25 05:00","1996","05","25","05:00","12.3","","10.9","","91","","30","","6","","24.1","","100.63","","","","","","Mostly Cloudy"
"1996-05-25 06:00","1996","05","25","06:00","12.3","","11.3","","94","","","","0","","24.1","","100.66","","","","","","Rain Showers"
"1996-05-25 07:00","1996","05","25","07:00","12.8","","11.0","","89","","27","","6","","24.1","","100.70","","","","","","Mostly Cloudy"
"1996-05-25 08:00","1996","05","25","08:00","13.2","","10.6","","84","","29","","7","","24.1","","100.73","","","","","","Mostly Cloudy"
"1996-05-25 09:00","1996","05","25","09:00","14.0","","10.4","","79","","30","","7","","24.1","","100.73","","","","","","Mostly Cloudy"
"1996-05-25 10:00","1996","05","25","10:00","15.5","","10.8","","74","","30","","9","","24.1","","100.73","","","","","","Mostly Cloudy"
"1996-05-25 11:00","1996","05","25","11:00","15.5","","10.7","","73","","1","","7","","24.1","","100.73","","","","","","Mostly Cloudy"
"1996-05-25 12:00","1996","05","25","12:00","16.0","","9.5","","65","","30","","9","","24.1","","100.76","","","","","","Mostly Cloudy"
"1996-05-25 13:00","1996","05","25","13:00","16.0","","8.8","","62","","34","","9","","24.1","","100.73","","","","","","Mostly Cloudy"
"1996-05-25 14:00","1996","05","25","14:00","16.1","","7.9","","58","","33","","9","","24.1","","100.76","","","","","","Mostly Cloudy"
"1996-05-25 15:00","1996","05","25","15:00","17.1","","7.2","","52","","33","","15","","24.1","","100.76","","","","","","Mainly Clear"
"1996-05-25 16:00","1996","05","25","16:00","17.1","","7.0","","51","","34","","9","","24.1","","100.73","","","","","","Mainly Clear"
"1996-05-25 17:00","1996","05","25","17:00","15.6","","5.5","","51","","35","","9","","24.1","","100.70","","","","","","Mainly Clear"
"1996-05-25 18:00","1996","05","25","18:00","15.4","","5.4","","51","","33","","9","","24.1","","100.70","","","","","","Mainly Clear"
"1996-05-25 19:00","1996","05","25","19:00","14.8","","3.8","","48","","30","","24","","24.1","","100.73","","","","","","Clear"
"1996-05-25 20:00","1996","05","25","20:00","12.4","","3.8","","56","","29","","15","","24.1","","100.70","","","","","","Clear"
"1996-05-25 21:00","1996","05","25","21:00"
"1996-05-25 22:00","1996","05","25","22:00"
"1996-05-25 23:00","1996","05","25","23:00"
"1996-05-26 00:00","1996","05","26","00:00"
"1996-05-26 01:00","1996","05","26","01:00"
"1996-05-26 02:00","1996","05","26","02:00"
"1996-05-26 03:00","1996","05","26","03:00"
"1996-05-26 04:00","1996","05","26","04:00"
"1996-05-26 05:00","1996","05","26","05:00","7.7","","2.4","","69","","27","","19","","24.1","","100.83","","","","","","Mainly Clear"
"1996-05-26 06:00","1996","05","26","06:00","8.4","","2.4","","66","","28","","19","","24.1","","100.83","","","","","","Mainly Clear"
"1996-05-26 07:00","1996","05","26","07:00","10.2","","2.3","","58","","27","","19","","24.1","","100.83","","","","","","Mainly Clear"
"1996-05-26 08:00","1996","05","26","08:00","11.5","","2.2","","53","","29","","19","","24.1","","100.83","","","","","","Clear"
"1996-05-26 09:00","1996","05","26","09:00","12.9","","2.1","","48","","27","","19","","24.1","","100.83","","","","","","Clear"
"1996-05-26 10:00","1996","05","26","10:00","14.1","","2.1","","44","","29","","19","","24.1","","100.76","","","","","","Clear"
"1996-05-26 11:00","1996","05","26","11:00","15.7","","2.0","","40","","27","","19","","24.1","","100.73","","","","","","Clear"
"1996-05-26 12:00","1996","05","26","12:00","16.3","","2.7","","40","","27","","11","","24.1","","100.73","","","","","","Mainly Clear"
"1996-05-26 13:00","1996","05","26","13:00","17.3","","2.6","","37","","31","","17","","24.1","","100.70","","","","","","Mainly Clear"
"1996-05-26 14:00","1996","05","26","14:00","17.9","","2.0","","34","","30","","17","","32.2","","100.66","","","","","","Clear"
"1996-05-26 15:00","1996","05","26","15:00","17.8","","1.2","","33","","32","","22","","32.2","","100.66","","","","","","Clear"
"1996-05-26 16:00","1996","05","26","16:00","17.5","","1.9","","35","","31","","24","","32.2","","100.63","","","","","","Mainly Clear"
"1996-05-26 17:00","1996","05","26","17:00","17.2","","2.6","","38","","31","","19","","32.2","","100.63","","","","","","Mainly Clear"
"1996-05-26 18:00","1996","05","26","18:00","16.3","","3.6","","43","","30","","28","","32.2","","100.63","","","","","","Mainly Clear"
"1996-05-26 19:00","1996","05","26","19:00","14.4","","3.1","","47","","29","","19","","32.2","","100.66","","","","","","Mainly Clear"
"1996-05-26 20:00","1996","05","26","20:00","12.7","","2.5","","50","","29","","19","","32.2","","100.66","","","","","","Mainly Clear"
"1996-05-26 21:00","1996","05","26","21:00"
"1996-05-26 22:00","1996","05","26","22:00"
"1996-05-26 23:00","1996","05","26","23:00"
"1996-05-27 00:00","1996","05","27","00:00"
"1996-05-27 01:00","1996","05","27","01:00"
"1996-05-27 02:00","1996","05","27","02:00"
"1996-05-27 03:00","1996","05","27","03:00"
"1996-05-27 04:00","1996","05","27","04:00"
"1996-05-27 05:00","1996","05","27","05:00","8.4","","3.6","","72","","30","","15","","32.2","","100.70","","","","","","Mainly Clear"
"1996-05-27 06:00","1996","05","27","06:00","9.5","","3.6","","67","","29","","22","","32.2","","100.73","","","","","","Mainly Clear"
"1996-05-27 07:00","1996","05","27","07:00","10.3","","3.8","","64","","29","","20","","32.2","","100.73","","","","","","Mainly Clear"
"1996-05-27 08:00","1996","05","27","08:00","12.2","","4.6","","60","","28","","19","","32.2","","100.73","","","","","","Mainly Clear"
"1996-05-27 09:00","1996","05","27","09:00","12.9","","4.7","","57","","32","","15","","32.2","","100.73","","","","","","Mostly Cloudy"
"1996-05-27 10:00","1996","05","27","10:00","13.6","","5.7","","59","","30","","7","","32.2","","100.70","","","","","","Mostly Cloudy"
"1996-05-27 11:00","1996","05","27","11:00","13.5","","5.2","","57","","3","","7","","32.2","","100.66","","","","","","Mostly Cloudy"
"1996-05-27 12:00","1996","05","27","12:00","14.7","","5.2","","53","","3","","7","","32.2","","100.63","","","","","","Mostly Cloudy"
"1996-05-27 13:00","1996","05","27","13:00","16.1","","4.9","","47","","4","","17","","32.2","","100.60","","","","","","Mostly Cloudy"
"1996-05-27 14:00","1996","05","27","14:00","16.0","","4.7","","47","","35","","11","","32.2","","100.56","","","","","","Mainly Clear"
"1996-05-27 15:00","1996","05","27","15:00","16.5","","5.4","","48","","4","","9","","32.2","","100.50","","","","","","Mainly Clear"
"1996-05-27 16:00","1996","05","27","16:00","15.8","","4.9","","48","","35","","13","","32.2","","100.46","","","","","","Mainly Clear"
"1996-05-27 17:00","1996","05","27","17:00","15.4","","4.5","","48","","31","","15","","32.2","","100.43","","","","","","Mainly Clear"
"1996-05-27 18:00","1996","05","27","18:00","14.3","","4.2","","51","","34","","7","","32.2","","100.43","","","","","","Mainly Clear"
"1996-05-27 19:00","1996","05","27","19:00","13.9","","4.4","","53","","30","","13","","32.2","","100.46","","","","","","Mainly Clear"
"1996-05-27 20:00","1996","05","27","20:00","11.7","","4.6","","62","","27","","7","","32.2","","100.50","","","","","","Mainly Clear"
"1996-05-27 21:00","1996","05","27","21:00"
"1996-05-27 22:00","1996","05","27","22:00"
"1996-05-27 23:00","1996","05","27","23:00"
"1996-05-28 00:00","1996","05","28","00:00"
"1996-05-28 01:00","1996","05","28","01:00"
"1996-05-28 02:00","1996","05","28","02:00"
"1996-05-28 03:00","1996","05","28","03:00"
"1996-05-28 04:00","1996","05","28","04:00"
"1996-05-28 05:00","1996","05","28","05:00","6.7","","5.0","","89","","27","","6","","32.2","","100.50","","","","","","Mainly Clear"
"1996-05-28 06:00","1996","05","28","06:00","8.6","","5.5","","81","","27","","7","","32.2","","100.50","","","","","","Mainly Clear"
"1996-05-28 07:00","1996","05","28","07:00","10.1","","5.7","","74","","28","","11","","32.2","","100.56","","","","","","Mainly Clear"
"1996-05-28 08:00","1996","05","28","08:00","12.1","","6.2","","67","","29","","11","","32.2","","100.53","","","","","","Mainly Clear"
"1996-05-28 09:00","1996","05","28","09:00","13.0","","6.6","","65","","33","","6","","32.2","","100.53","","","","","","Mainly Clear"
"1996-05-28 10:00","1996","05","28","10:00","14.6","","6.7","","59","","","","0","","32.2","","100.50","","","","","","Mainly Clear"
"1996-05-28 11:00","1996","05","28","11:00","15.1","","7.4","","60","","7","","6","","32.2","","100.50","","","","","","Mainly Clear"
"1996-05-28 12:00","1996","05","28","12:00","15.9","","7.5","","57","","11","","7","","32.2","","100.43","","","","","","Mainly Clear"
"1996-05-28 13:00","1996","05","28","13:00","16.4","","7.4","","55","","10","","9","","24.1","","100.40","","","","","","Mainly Clear"
"1996-05-28 14:00","1996","05","28","14:00","17.0","","7.0","","52","","9","","7","","32.2","","100.33","","","","","","Mainly Clear"
"1996-05-28 15:00","1996","05","28","15:00","17.5","","7.2","","51","","11","","7","","32.2","","100.26","","","","","","Mainly Clear"
"1996-05-28 16:00","1996","05","28","16:00","18.1","","7.2","","49","","5","","7","","32.2","","100.23","","","","","","Mainly Clear"
"1996-05-28 17:00","1996","05","28","17:00","17.2","","7.2","","52","","8","","6","","32.2","","100.19","","","","","","Thunderstorms"
"1996-05-28 18:00","1996","05","28","18:00","14.4","","7.9","","65","","10","","7","","32.2","","100.23","","","","","","Mainly Clear"
"1996-05-28 19:00","1996","05","28","19:00","14.9","","8.2","","64","","28","","7","","32.2","","100.23","","","","","","Mainly Clear"
"1996-05-28 20:00","1996","05","28","20:00","13.8","","5.9","","59","","23","","7","","32.2","","100.26","","","","","","Mainly Clear"
"1996-05-28 21:00","1996","05","28","21:00"
"1996-05-28 22:00","1996","05","28","22:00"
"1996-05-28 23:00","1996","05","28","23:00"
"1996-05-29 00:00","1996","05","29","00:00"
"1996-05-29 01:00","1996","05","29","01:00"
"1996-05-29 02:00","1996","05","29","02:00"
"1996-05-29 03:00","1996","05","29","03:00"
"1996-05-29 04:00","1996","05","29","04:00"
"1996-05-29 05:00","1996","05","29","05:00","6.5","","5.0","","90","","27","","7","","24.1","","100.19","","","","","","Mainly Clear"
"1996-05-29 06:00","1996","05","29","06:00","8.7","","6.0","","83","","28","","11","","24.1","","100.19","","","","","","Mainly Clear"
"1996-05-29 07:00","1996","05","29","07:00","10.3","","6.5","","77","","30","","13","","24.1","","100.19","","","","","","Mainly Clear"
"1996-05-29 08:00","1996","05","29","08:00","11.5","","6.3","","70","","27","","9","","24.1","","100.19","","","","","","Mainly Clear"
"1996-05-29 09:00","1996","05","29","09:00","13.4","","6.9","","65","","28","","9","","24.1","","100.16","","","","","","Mainly Clear"
"1996-05-29 10:00","1996","05","29","10:00","14.6","","7.2","","61","","27","","9","","24.1","","100.13","","","","","","Mainly Clear"
"1996-05-29 11:00","1996","05","29","11:00","15.1","","7.9","","62","","6","","4","","24.1","","100.19","","","","","","Mainly Clear"
"1996-05-29 12:00","1996","05","29","12:00","16.1","","8.2","","59","","7","","11","","24.1","","100.09","","","","","","Mainly Clear"
"1996-05-29 13:00","1996","05","29","13:00","16.6","","8.4","","58","","9","","7","","32.2","","100.03","","","","","","Mainly Clear"
"1996-05-29 14:00","1996","05","29","14:00","18.2","","8.4","","53","","12","","11","","24.1","","100.03","","","","","","Mainly Clear"
"1996-05-29 15:00","1996","05","29","15:00","17.7","","8.8","","56","","9","","11","","24.1","","99.99","","","","","","Mainly Clear"
"1996-05-29 16:00","1996","05","29","16:00","17.7","","8.3","","54","","8","","13","","24.1","","99.99","","","","","","Mainly Clear"
"1996-05-29 17:00","1996","05","29","17:00","16.6","","7.1","","53","","9","","9","","24.1","","99.99","","","","","","Mainly Clear"
"1996-05-29 18:00","1996","05","29","18:00","16.9","","7.0","","52","","9","","9","","24.1","","100.03","","","","","","Mainly Clear"
"1996-05-29 19:00","1996","05","29","19:00","14.8","","6.4","","57","","30","","6","","24.1","","100.09","","","","","","Mainly Clear"
"1996-05-29 20:00","1996","05","29","20:00","14.4","","6.5","","59","","27","","6","","24.1","","100.13","","","","","","Mainly Clear"
"1996-05-29 21:00","1996","05","29","21:00"
"1996-05-29 22:00","1996","05","29","22:00"
"1996-05-29 23:00","1996","05","29","23:00"
"1996-05-30 00:00","1996","05","30","00:00"
"1996-05-30 01:00","1996","05","30","01:00"
"1996-05-30 02:00","1996","05","30","02:00"
"1996-05-30 03:00","1996","05","30","03:00"
"1996-05-30 04:00","1996","05","30","04:00"
"1996-05-30 05:00","1996","05","30","05:00","8.9","","7.0","","88","","27","","9","","24.1","","100.43","","","","","","Mostly Cloudy"
"1996-05-30 06:00","1996","05","30","06:00","9.3","","7.0","","86","","27","","9","","24.1","","100.43","","","","","","Mostly Cloudy"
"1996-05-30 07:00","1996","05","30","07:00","10.0","","7.2","","83","","27","","7","","24.1","","100.46","","","","","","Mostly Cloudy"
"1996-05-30 08:00","1996","05","30","08:00","11.8","","7.9","","77","","27","","7","","24.1","","100.43","","","","","","Mostly Cloudy"
"1996-05-30 09:00","1996","05","30","09:00","13.8","","7.6","","66","","12","","4","","24.1","","100.40","","","","","","Mainly Clear"
"1996-05-30 10:00","1996","05","30","10:00","14.6","","7.8","","64","","4","","7","","24.1","","100.36","","","","","","Mainly Clear"
"1996-05-30 11:00","1996","05","30","11:00","15.9","","8.2","","60","","10","","9","","24.1","","100.36","","","","","","Mostly Cloudy"
"1996-05-30 12:00","1996","05","30","12:00","16.4","","8.4","","59","","9","","7","","24.1","","100.40","","","","","","Mainly Clear"
"1996-05-30 13:00","1996","05","30","13:00","15.6","","7.8","","60","","9","","7","","24.1","","100.36","","","","","","Mainly Clear"
"1996-05-30 14:00","1996","05","30","14:00","16.5","","7.2","","54","","9","","9","","24.1","","100.40","","","","","","Mostly Cloudy"
"1996-05-30 15:00","1996","05","30","15:00","16.9","","7.1","","52","","8","","11","","24.1","","100.40","","","","","","Mostly Cloudy"
"1996-05-30 16:00","1996","05","30","16:00","17.1","","7.0","","51","","9","","6","","24.1","","100.36","","","","","","Mostly Cloudy"
"1996-05-30 17:00","1996","05","30","17:00","16.9","","7.0","","52","","9","","7","","24.1","","100.33","","","","","","Mostly Cloudy"
"1996-05-30 18:00","1996","05","30","18:00","16.6","","6.9","","53","","9","","6","","24.1","","100.33","","","","","","Mostly Cloudy"
"1996-05-30 19:00","1996","05","30","19:00","16.0","","7.5","","57","","9","","6","","24.1","","100.36","","","","","","Mostly Cloudy"
"1996-05-30 20:00","1996","05","30","20:00","14.2","","2.9","","46","","9","","7","","24.1","","100.36","","","","","","Mostly Cloudy"
"1996-05-30 21:00","1996","05","30","21:00"
"1996-05-30 22:00","1996","05","30","22:00"
"1996-05-30 23:00","1996","05","30","23:00"
"1996-05-31 00:00","1996","05","31","00:00"
"1996-05-31 01:00","1996","05","31","01:00"
"1996-05-31 02:00","1996","05","31","02:00"
"1996-05-31 03:00","1996","05","31","03:00"
"1996-05-31 04:00","1996","05","31","04:00"
"1996-05-31 05:00","1996","05","31","05:00","8.8","","6.8","","87","","28","","4","","24.1","","100.46","","","","","","Mostly Cloudy"
"1996-05-31 06:00","1996","05","31","06:00","9.0","","7.3","","89","","27","","4","","24.1","","100.46","","","","","","Mainly Clear"
"1996-05-31 07:00","1996","05","31","07:00","11.1","","7.2","","77","","29","","7","","24.1","","100.50","","","","","","Mainly Clear"
"1996-05-31 08:00","1996","05","31","08:00","13.1","","7.9","","71","","","","0","","24.1","","100.50","","","","","","Mainly Clear"
"1996-05-31 09:00","1996","05","31","09:00","13.8","","8.7","","71","","10","","6","","24.1","","100.53","","","","","","Mostly Cloudy"
"1996-05-31 10:00","1996","05","31","10:00","13.9","","9.2","","73","","9","","9","","24.1","","100.53","","","","","","Mostly Cloudy"
"1996-05-31 11:00","1996","05","31","11:00","13.9","","9.2","","73","","9","","9","","24.1","","100.53","","","","","","Mostly Cloudy"
"1996-05-31 12:00","1996","05","31","12:00","15.3","","8.8","","65","","8","","9","","24.1","","100.53","","","","","","Mostly Cloudy"
"1996-05-31 13:00","1996","05","31","13:00","16.4","","7.9","","57","","9","","11","","24.1","","100.56","","","","","","Mostly Cloudy"
"1996-05-31 14:00","1996","05","31","14:00","16.6","","7.0","","53","","6","","9","","32.2","","100.60","","","","","","Mostly Cloudy"
"1996-05-31 15:00","1996","05","31","15:00","18.5","","8.0","","50","","9","","11","","32.2","","100.60","","","","","","Mostly Cloudy"
"1996-05-31 16:00","1996","05","31","16:00","16.6","","6.4","","51","","8","","13","","32.2","","100.60","","","","","","Mostly Cloudy"
"1996-05-31 17:00","1996","05","31","17:00","16.1","","7.3","","56","","9","","11","","32.2","","100.60","","","","","","Mostly Cloudy"
"1996-05-31 18:00","1996","05","31","18:00","16.8","","7.7","","55","","9","","9","","32.2","","100.60","","","","","","Mostly Cloudy"
"1996-05-31 19:00","1996","05","31","19:00","16.2","","6.3","","52","","14","","7","","32.2","","100.66","","","","","","Mostly Cloudy"
"1996-05-31 20:00","1996","05","31","20:00","14.0","","7.6","","65","","","","0","","32.2","","100.70","","","","","","Mostly Cloudy"
"1996-05-31 21:00","1996","05","31","21:00"
"1996-05-31 22:00","1996","05","31","22:00"
"1996-05-31 23:00","1996","05","31","23:00"
